{
  "type": "Feature",
  "properties": {
    "name": "Maldon",
    "level": 1,
    "center": [0.74, 51.72]
  },
  "geometry": {
    "type": "Polygon",
    "coordinates": [
      [
        [0.593463477072487, 51.755444901637546],
        [0.594530296927967, 51.75506428544413],
        [0.594884621568724, 51.75500460294627],
        [0.594790378844055, 51.75479356259074],
        [0.594768604812257, 51.75473417377592],
        [0.59505841120764, 51.754493847598674],
        [0.595059844667478, 51.754490638727304],
        [0.595038851786146, 51.75444954080349],
        [0.594853565919943, 51.75424169011556],
        [0.594978389212819, 51.75394998209792],
        [0.594990022943747, 51.753936270352185],
        [0.597508741105908, 51.75201034910359],
        [0.597913247440945, 51.751690756713366],
        [0.598820768275314, 51.75128534043546],
        [0.598849034820102, 51.751269851334975],
        [0.598718636020089, 51.751186223402684],
        [0.598718343380746, 51.75118603647995],
        [0.598823605931404, 51.75095296865176],
        [0.598702254976954, 51.75041610667774],
        [0.598702221644422, 51.75041604294987],
        [0.599085465908236, 51.75052200936366],
        [0.599086200948794, 51.75052240752208],
        [0.599100560458544, 51.750603260787855],
        [0.599103979427504, 51.750710123758594],
        [0.599347016875324, 51.750795725743146],
        [0.599348000668535, 51.75079606314047],
        [0.599931179091247, 51.751489569099064],
        [0.599964790217075, 51.75152297345024],
        [0.599799302119044, 51.75179989445056],
        [0.599797553620374, 51.751812080232725],
        [0.599913594678713, 51.751971955545955],
        [0.599890491973988, 51.75202698595377],
        [0.599442778256269, 51.75206728334324],
        [0.599404629521557, 51.75209802083179],
        [0.599541965237581, 51.75237139986667],
        [0.599544266915195, 51.752463948622896],
        [0.600004994108667, 51.75263211049513],
        [0.600077233143424, 51.75269245369645],
        [0.600089506861628, 51.75292193612383],
        [0.600110268446715, 51.75297340799548],
        [0.600279213241864, 51.75299483805591],
        [0.600350812918172, 51.75302491500744],
        [0.60046046821714, 51.75326701377541],
        [0.600463011983231, 51.75327565106807],
        [0.600743504226187, 51.75339718483565],
        [0.600798627883344, 51.75339511734158],
        [0.601108385001302, 51.753220456974084],
        [0.601144656389799, 51.7532229048362],
        [0.601708951947396, 51.75373472438949],
        [0.601762177131669, 51.75377216962726],
        [0.602567490347507, 51.75369671990404],
        [0.602619175613775, 51.75371356078323],
        [0.603544151327653, 51.75415845088135],
        [0.603592576917279, 51.754182841540654],
        [0.604261465485909, 51.75477436785773],
        [0.604381224504663, 51.75484085682268],
        [0.604815726791438, 51.75540560067411],
        [0.604903488854738, 51.75548073693862],
        [0.604871768159711, 51.755700797053755],
        [0.604895411401728, 51.755796814176804],
        [0.605170294547742, 51.75626338782754],
        [0.605189434437046, 51.7563419886166],
        [0.604556940848078, 51.7569245212411],
        [0.604556832339443, 51.75692469862358],
        [0.604784554581236, 51.75728571150203],
        [0.604782950763899, 51.7572895597167],
        [0.604544558199138, 51.75725479327706],
        [0.604271552008399, 51.75746853346774],
        [0.604658587297817, 51.75766258665136],
        [0.604815666920293, 51.757905306219214],
        [0.605224434063406, 51.75798797715416],
        [0.605400032676532, 51.757876610625864],
        [0.605320481961293, 51.75814122703177],
        [0.605306874998887, 51.75816238786376],
        [0.605455576070025, 51.758294771347224],
        [0.605582797160603, 51.75837674950993],
        [0.606428031533025, 51.758757990546606],
        [0.606749374281784, 51.75894247982651],
        [0.608453465393061, 51.75924739393603],
        [0.608630470241724, 51.75930107765649],
        [0.60935062466223, 51.75976614442626],
        [0.609396496699638, 51.75979936592883],
        [0.610716347734434, 51.7602985417442],
        [0.610755764079105, 51.76031243766694],
        [0.61437153118672, 51.760821592732036],
        [0.614378907393794, 51.760823141540314],
        [0.613954881941715, 51.760090524810735],
        [0.613905497591326, 51.75987859326211],
        [0.613972342420042, 51.75896537320332],
        [0.613988407480942, 51.758757621639205],
        [0.613988750486288, 51.758757650845325],
        [0.614677330493242, 51.75882969818282],
        [0.614983930503161, 51.75815550188934],
        [0.615012449837636, 51.758092777803455],
        [0.618690614470284, 51.758548625488],
        [0.618691705433246, 51.75854875773111],
        [0.618123313246301, 51.76041923348145],
        [0.618120237584075, 51.7607265346341],
        [0.618136820940791, 51.76093061232923],
        [0.618137520031829, 51.760939106176146],
        [0.61854693679532, 51.76098488838398],
        [0.618818094426031, 51.76101521251946],
        [0.618684764834776, 51.762097656332884],
        [0.618606135543651, 51.76256499582188],
        [0.618856855178798, 51.76259102339595],
        [0.619300622449417, 51.76263615711847],
        [0.619462781654058, 51.76252237074008],
        [0.619462986950882, 51.762522071464424],
        [0.619126915254627, 51.76121757410045],
        [0.619125485820125, 51.76114593891928],
        [0.619629601015776, 51.7608424235917],
        [0.619629659237232, 51.76084240387493],
        [0.622955440057801, 51.7612806681146],
        [0.623096999586379, 51.76130999836547],
        [0.624608267344578, 51.761910118562085],
        [0.624991889037165, 51.76196481665553],
        [0.627884578936333, 51.76155344045723],
        [0.627958069797598, 51.76153680390726],
        [0.628651753408521, 51.7619705365685],
        [0.62873631478481, 51.76199169565764],
        [0.629883413546428, 51.761989214618154],
        [0.629884794393053, 51.76198973627106],
        [0.630268841753753, 51.76166932937191],
        [0.63029545412938, 51.76163668508376],
        [0.630508637417153, 51.76110465886392],
        [0.63054116169839, 51.76107977456578],
        [0.633327773446896, 51.76015035640519],
        [0.633358539177394, 51.76015089170192],
        [0.633575007417165, 51.760276729749634],
        [0.6335751043712, 51.76027686571673],
        [0.633777671105289, 51.76130534747609],
        [0.633800581508802, 51.76145881429232],
        [0.634391798788578, 51.76144633341658],
        [0.634983030455811, 51.76143384923601],
        [0.63518919283459, 51.76004295945724],
        [0.635919454246606, 51.759812985758394],
        [0.635412686725727, 51.75859769468092],
        [0.635337661792685, 51.75833016006966],
        [0.63753782653207, 51.757648482796824],
        [0.637537867777398, 51.757648426614665],
        [0.637945039499545, 51.75795223816983],
        [0.638301667575481, 51.75864755025424],
        [0.638551697415049, 51.75965453305931],
        [0.638551508877845, 51.75965511748341],
        [0.639149734712977, 51.75942906471027],
        [0.639476691953211, 51.75931983672519],
        [0.63948099773431, 51.75990063009859],
        [0.639485585121608, 51.760046992825544],
        [0.641524001264407, 51.760149848489185],
        [0.641524179653569, 51.76014985368791],
        [0.64550774486688, 51.760883028010134],
        [0.645662922178495, 51.760896783045666],
        [0.646782354168674, 51.761421020858926],
        [0.646646691337639, 51.761687980921806],
        [0.647051958989008, 51.76179260549999],
        [0.647053209614299, 51.76179292728076],
        [0.64721072248995, 51.76155906105351],
        [0.647486672203413, 51.761513592984905],
        [0.647503209101706, 51.76151087196326],
        [0.648313557774075, 51.76199588387901],
        [0.64831423144911, 51.76199623706976],
        [0.647601056693141, 51.762811886939126],
        [0.64749636071407, 51.762896034609334],
        [0.647083565619449, 51.76389180734582],
        [0.647046397602815, 51.76392243704487],
        [0.645107861098202, 51.76437472299389],
        [0.645107139023141, 51.764375319439935],
        [0.644178221802151, 51.76603850728252],
        [0.644163712087974, 51.76608916301594],
        [0.643513139483199, 51.76686006560522],
        [0.643495605934491, 51.766872441459775],
        [0.641870347746603, 51.767052725366014],
        [0.641870022708083, 51.76705275109286],
        [0.641076323335875, 51.767507744118284],
        [0.640838885100612, 51.767639295194265],
        [0.640058241450377, 51.76784342856177],
        [0.640058094824502, 51.7678434594843],
        [0.63923618730556, 51.76680249654457],
        [0.639213304512606, 51.76677941614578],
        [0.638756728387801, 51.766785756546696],
        [0.637559523096488, 51.76680235884828],
        [0.637172727306377, 51.76730034302589],
        [0.636419781961716, 51.76830919864095],
        [0.637696189701422, 51.76845333876552],
        [0.637726749281419, 51.76845889670725],
        [0.6382840768006, 51.76873451773289],
        [0.638418571369518, 51.76882615170251],
        [0.638191591214267, 51.769144191582406],
        [0.638181052262742, 51.76921216308481],
        [0.638399551087265, 51.769874586112834],
        [0.638406696426614, 51.769912101181625],
        [0.638301093835694, 51.770351659258836],
        [0.638300984013068, 51.77035206693669],
        [0.637089490427561, 51.770302391811384],
        [0.636833607301716, 51.77034228255334],
        [0.632711231940487, 51.77161374620858],
        [0.632681655156676, 51.77162280781186],
        [0.632551444376838, 51.7726545390253],
        [0.632551428640971, 51.77265477882106],
        [0.633163242130665, 51.77536739816666],
        [0.633340448881868, 51.77612349202313],
        [0.633958137298473, 51.777613292697865],
        [0.63395818713455, 51.77761338367414],
        [0.636339141805011, 51.777307655008904],
        [0.637072821304379, 51.777213438027196],
        [0.639167588354334, 51.77865416994599],
        [0.640592309710397, 51.77965160258699],
        [0.643124679685653, 51.78094571918653],
        [0.644064745377402, 51.78143321301133],
        [0.644652131516818, 51.78160036971343],
        [0.644653594650539, 51.78160025390149],
        [0.645676490535747, 51.783037123478756],
        [0.645761556028512, 51.78309703993176],
        [0.648391810262335, 51.78413907537472],
        [0.648441367672498, 51.78416508008135],
        [0.648934492758389, 51.78416703371441],
        [0.649006917935333, 51.78418113995647],
        [0.649828633886955, 51.78476433546022],
        [0.649897458494386, 51.78479426114322],
        [0.650433372164059, 51.784706575974276],
        [0.650491220224215, 51.78470400959736],
        [0.651141781402795, 51.78485599679837],
        [0.651171697026228, 51.78488707578684],
        [0.651202380533227, 51.78500849969247],
        [0.651290263260987, 51.78534826718451],
        [0.652107653886838, 51.78623786641353],
        [0.652177349849935, 51.786333977215726],
        [0.652232353586525, 51.78713529479013],
        [0.652245465061273, 51.787201868045706],
        [0.652496619291174, 51.78752700901314],
        [0.652659850383451, 51.78791564340277],
        [0.653106206011743, 51.788185771434065],
        [0.65327684641219, 51.7885297196796],
        [0.653407477780222, 51.78863975076084],
        [0.653695940795141, 51.78867119842036],
        [0.654139991961002, 51.78899770830445],
        [0.654476319766981, 51.78888296115443],
        [0.654476752256655, 51.788882739570354],
        [0.654869190992054, 51.78910300373195],
        [0.654896725105408, 51.78911973215594],
        [0.655018072639443, 51.789318638949446],
        [0.655015397447051, 51.78936563950445],
        [0.654824992021599, 51.78968864930983],
        [0.654846165249349, 51.78972526631019],
        [0.655063292669532, 51.789841630021],
        [0.655499969867967, 51.79011604756262],
        [0.655890340522397, 51.79079809412288],
        [0.655896307798127, 51.790814480863425],
        [0.655915872715291, 51.791039585187285],
        [0.655891118496485, 51.79109649668965],
        [0.655445090584564, 51.79143147259594],
        [0.655444905342866, 51.79143160571251],
        [0.655677236571064, 51.791935311243996],
        [0.655690537055837, 51.79217209644163],
        [0.655951850356274, 51.7924378762592],
        [0.655952750332475, 51.79243878606472],
        [0.655554361888848, 51.79298641567333],
        [0.655533320894482, 51.793029189631795],
        [0.655590320830591, 51.793274380632994],
        [0.655583647960051, 51.79331499727847],
        [0.655327340428046, 51.79352603711642],
        [0.655310189252138, 51.793551354316],
        [0.655347694940579, 51.7938492304589],
        [0.655347631047911, 51.793849406880014],
        [0.654852175073504, 51.79408970995011],
        [0.654810956017396, 51.794126271995545],
        [0.654602617383794, 51.79460946771808],
        [0.654422424540294, 51.794842168676595],
        [0.653500816291717, 51.795588509879735],
        [0.653500464707481, 51.795589604519314],
        [0.65389050833801, 51.795848798739385],
        [0.653914783074932, 51.79587621936318],
        [0.653819318713623, 51.79619068202899],
        [0.653819389926378, 51.79619088302645],
        [0.654287196225713, 51.79629007606383],
        [0.654307081184004, 51.796320128317014],
        [0.654080293029236, 51.796841948947026],
        [0.654090119387558, 51.7968858489863],
        [0.654616610376809, 51.79708305673183],
        [0.654628451501955, 51.79711497592388],
        [0.654404107357864, 51.79741366413533],
        [0.654403979557107, 51.79741401697644],
        [0.654679869172201, 51.79761453552443],
        [0.654679904291408, 51.7976151333382],
        [0.654295264642284, 51.797831859327516],
        [0.654287934708232, 51.79787699405267],
        [0.654676119041967, 51.79844495253599],
        [0.654952680939378, 51.798729849708806],
        [0.654577303292362, 51.79897567136634],
        [0.654587244041344, 51.79906777044728],
        [0.655348497075401, 51.799371814955634],
        [0.655397436854178, 51.799417787447815],
        [0.65557391993452, 51.79998841684838],
        [0.655610840781107, 51.800071737603645],
        [0.656154512259171, 51.800344712055654],
        [0.656490593622213, 51.80064865897723],
        [0.656435681062556, 51.800756516217284],
        [0.656393882412377, 51.80083858568389],
        [0.656394253575215, 51.80083883515625],
        [0.656647950370155, 51.801011725080095],
        [0.656627081469393, 51.80131980611393],
        [0.656689622650759, 51.801519901441715],
        [0.657368501249459, 51.80180834272918],
        [0.657369349828863, 51.80180862745167],
        [0.657274736886892, 51.80192235564725],
        [0.657274515230578, 51.801922627728274],
        [0.659398105753624, 51.80313685638757],
        [0.659539445965457, 51.80323447285994],
        [0.659833445973578, 51.80362514713375],
        [0.659833539316149, 51.803625218696055],
        [0.659146781275073, 51.80455738757664],
        [0.659142904839198, 51.80464544262417],
        [0.659692374833062, 51.80560968638013],
        [0.659755840519326, 51.805677347820584],
        [0.661023632396202, 51.80623519573638],
        [0.661135185266078, 51.80626625674448],
        [0.662303095652334, 51.80625093572006],
        [0.662370133716577, 51.80625136053975],
        [0.663710462292335, 51.805855348348715],
        [0.66379701221975, 51.80583146882772],
        [0.664654850786391, 51.8053322565564],
        [0.664689121222357, 51.805322933415596],
        [0.665448415808614, 51.805406467778504],
        [0.665559636856267, 51.80540142221756],
        [0.666368727129022, 51.80522245099979],
        [0.666667276114568, 51.80522677533299],
        [0.667427848311129, 51.8059764985759],
        [0.667607154491326, 51.80604943779686],
        [0.668428488407421, 51.80593959456701],
        [0.668454736704774, 51.80596949078967],
        [0.668602949450698, 51.80634483232674],
        [0.668610561412827, 51.80636630145279],
        [0.668417411171326, 51.80665749288973],
        [0.668419326729812, 51.80668991231665],
        [0.668913526482214, 51.80744444849714],
        [0.669077316946735, 51.80777429160798],
        [0.669083121823155, 51.80828046154239],
        [0.66908831210251, 51.808313230229636],
        [0.669881974512332, 51.80931413469106],
        [0.670057894927858, 51.809452348946735],
        [0.672416277467751, 51.81003208869383],
        [0.672521415005297, 51.810061884923655],
        [0.673360205380085, 51.81042950147959],
        [0.673362066683401, 51.81043032482432],
        [0.674237467029616, 51.81047573428384],
        [0.674510255693655, 51.810479253024106],
        [0.676699083979092, 51.810039250556706],
        [0.676775153294278, 51.81003127441227],
        [0.676854085007433, 51.81003649446553],
        [0.676919564818805, 51.81004912120069],
        [0.676837625632946, 51.81022068746062],
        [0.676823510779992, 51.8102502392933],
        [0.677918027501033, 51.810388176552756],
        [0.6779606233112, 51.81040322117134],
        [0.678102668955473, 51.81068820022166],
        [0.678177059395754, 51.81071727373123],
        [0.678648543683401, 51.810626575222805],
        [0.678690460263561, 51.81064543851517],
        [0.678811908599773, 51.81087190037214],
        [0.678811445447711, 51.81087436060932],
        [0.678343916613894, 51.810918075698964],
        [0.678314520604398, 51.81094222006794],
        [0.678379151444649, 51.81123474612504],
        [0.678248930447012, 51.81156384316753],
        [0.677699069281364, 51.81233266752857],
        [0.677632779213659, 51.81236705483281],
        [0.677808083287131, 51.81292883655028],
        [0.677810691826334, 51.81293549072743],
        [0.678941168932319, 51.813769875382675],
        [0.679002777190871, 51.81379953443169],
        [0.679924145695802, 51.81393832421011],
        [0.679961113989902, 51.81396387536413],
        [0.680146131180294, 51.81426875004593],
        [0.680153592603764, 51.8143190931165],
        [0.679870160983064, 51.81452911788268],
        [0.679808311413389, 51.814598032236326],
        [0.679802338330556, 51.81509557353894],
        [0.679821815389585, 51.815115555830296],
        [0.680851690460947, 51.81566832037147],
        [0.680935021703134, 51.8157034138734],
        [0.681722189598224, 51.815710959999905],
        [0.681738406612015, 51.81571656689433],
        [0.682330662847642, 51.81614972524456],
        [0.682332897826761, 51.816151829230634],
        [0.682563311376842, 51.816610583746034],
        [0.682583649727105, 51.816647776593406],
        [0.682212786806339, 51.81722590096459],
        [0.682089485723116, 51.817410405007486],
        [0.681648552889887, 51.81739463231376],
        [0.681604967687513, 51.817440586444015],
        [0.681690240175013, 51.817705306380596],
        [0.68170771728074, 51.81771860194614],
        [0.682195656841453, 51.817840682632465],
        [0.682259565877698, 51.8178861643424],
        [0.682050044070038, 51.818015583838466],
        [0.682052348229969, 51.81819160430614],
        [0.682532466688176, 51.818395235677],
        [0.682541036237946, 51.81841765822252],
        [0.682209864618708, 51.818768437159974],
        [0.68190509789607, 51.818918521772446],
        [0.681868299076975, 51.819042176798774],
        [0.681852172265609, 51.81909636397979],
        [0.682333076756256, 51.81961979041959],
        [0.682339003963171, 51.81964200619883],
        [0.681993198663886, 51.820034514141426],
        [0.682019815249176, 51.8200703021296],
        [0.682598772256347, 51.82036539245663],
        [0.682707857273905, 51.820415322598116],
        [0.683378951921153, 51.82050817872932],
        [0.683380030250632, 51.820508319883054],
        [0.684105750294095, 51.82093735462907],
        [0.684167773970217, 51.82095828029656],
        [0.685143284353399, 51.82099327549137],
        [0.685495783653978, 51.820991467442596],
        [0.686671537092803, 51.82127873284606],
        [0.686813920850844, 51.82130028866014],
        [0.687603294183352, 51.82191325890834],
        [0.687653352938514, 51.8219473217396],
        [0.688885602277687, 51.82251338483494],
        [0.688922844061509, 51.82253533532475],
        [0.689495147208398, 51.82302713627909],
        [0.689495490701204, 51.823027413910154],
        [0.689839713467463, 51.82297400746673],
        [0.689857564806064, 51.82298428184572],
        [0.689813005410198, 51.823393238071404],
        [0.689820158786637, 51.82343719632125],
        [0.690071149481927, 51.82364557035629],
        [0.690072997885373, 51.82364641215661],
        [0.690116200211579, 51.823916104339666],
        [0.690101853052284, 51.82406928917014],
        [0.689919902261174, 51.82444387953781],
        [0.689904328045961, 51.82445336233714],
        [0.689104641183807, 51.82461536862198],
        [0.689075844114153, 51.82464586555086],
        [0.689207485873111, 51.82535066511479],
        [0.689229340583332, 51.82562306560565],
        [0.690548385378195, 51.82564137272543],
        [0.690592808832576, 51.82565510022946],
        [0.691555363266721, 51.82644796664398],
        [0.691670997902977, 51.82653103997943],
        [0.692504079705421, 51.82673344878872],
        [0.692514321234851, 51.82673895167071],
        [0.692527750811072, 51.827114404644256],
        [0.6925420934938, 51.82732584552378],
        [0.693086306976447, 51.82786556505144],
        [0.693116100573865, 51.827884636671534],
        [0.696129476550067, 51.82847715452276],
        [0.696949879431848, 51.82866195743348],
        [0.697269340948802, 51.82912582691963],
        [0.697269792839372, 51.82912692167846],
        [0.697535292489803, 51.829104069299945],
        [0.697665994196616, 51.82909281880901],
        [0.698450412112597, 51.82862574969268],
        [0.698772274000664, 51.82841764370976],
        [0.699095454242057, 51.828042558677645],
        [0.699203807725054, 51.827912954004084],
        [0.700911173005825, 51.825205810973635],
        [0.7009368882005, 51.82517733427041],
        [0.70231719242814, 51.82415036906648],
        [0.70262398661454, 51.82394931230797],
        [0.704789593571702, 51.82268552876165],
        [0.70489606346259, 51.82260059071906],
        [0.705744544819053, 51.82157121048761],
        [0.705757868904157, 51.82155871980431],
        [0.709020204007028, 51.81885955915795],
        [0.708943194210142, 51.81904536960338],
        [0.710538967639848, 51.817184220056674],
        [0.721616879905997, 51.810009013752754],
        [0.71502762660663, 51.810507377119464],
        [0.713302294832381, 51.808450869962215],
        [0.717329354912984, 51.80694946844911],
        [0.719008560119293, 51.80515332652925],
        [0.71814319923501, 51.797354504637745],
        [0.721540781537419, 51.79649794110403],
        [0.721568362914832, 51.79650642032794],
        [0.722615375406353, 51.79727112848425],
        [0.72682915821524, 51.79748513197086],
        [0.733610942162772, 51.79932140841941],
        [0.733826971249557, 51.798408948507216],
        [0.737620812778545, 51.79854186672721],
        [0.742834598113109, 51.80020098009581],
        [0.746467099497208, 51.79944344111701],
        [0.754202429974416, 51.80096036404511],
        [0.760299576169155, 51.802987553809885],
        [0.763372652395198, 51.8032308758732],
        [0.763400320130077, 51.803239773080385],
        [0.76860494752054, 51.80584949061794],
        [0.77037070234738, 51.805910495137475],
        [0.779070023297289, 51.81155055745101],
        [0.790604443475861, 51.80684669437061],
        [0.794765702153379, 51.80425121088259],
        [0.797901413324292, 51.80398233615799],
        [0.801118642033139, 51.801472947053426],
        [0.808926610200475, 51.800412400386264],
        [0.80899582350848, 51.7998225685801],
        [0.811826480460242, 51.799110033254685],
        [0.80808327760972, 51.79330967231676],
        [0.816647729584767, 51.79103167408417],
        [0.815906866053705, 51.78925296265419],
        [0.805702277592613, 51.791939273402924],
        [0.80390103360193, 51.789696111190295],
        [0.816310648885934, 51.78753136464281],
        [0.816129966048417, 51.78635394070581],
        [0.819600848832708, 51.78613309894374],
        [0.825639608839651, 51.7835192905955],
        [0.834464011816181, 51.78267808526057],
        [0.83684453227453, 51.77952952792432],
        [0.844246884276432, 51.778823533431385],
        [0.842907954381025, 51.780445606110725],
        [0.846720280044359, 51.78240608646062],
        [0.847942804045797, 51.78227265625389],
        [0.85163011626721, 51.784267859508844],
        [0.854566537133164, 51.78377157762342],
        [0.859209285466552, 51.78477479795674],
        [0.86982122746351, 51.78171724413189],
        [0.879237646366585, 51.779989408223194],
        [0.893254997364864, 51.76939849972108],
        [0.902370281733215, 51.765748804603575],
        [0.901569681732843, 51.765885702558876],
        [0.902391036561391, 51.765740494517786],
        [0.902430066924824, 51.76572486703749],
        [0.904105075109508, 51.765715175185065],
        [0.904122893770184, 51.76571498009987],
        [0.899229357017458, 51.76150975716338],
        [0.898566108949785, 51.76115371546822],
        [0.897178127312402, 51.76054143283967],
        [0.896817935207219, 51.76037767699278],
        [0.8933145464386, 51.75928360576233],
        [0.893109545942943, 51.75920372141676],
        [0.887071648391458, 51.75598585086224],
        [0.885807654430051, 51.755381844695336],
        [0.879568273884185, 51.75305149603415],
        [0.878249509828818, 51.75245199484551],
        [0.868704199984866, 51.747274699921434],
        [0.868419986512219, 51.74713332614886],
        [0.873812399178199, 51.74229590009229],
        [0.879213218573801, 51.73740852144083],
        [0.881676545368919, 51.73847415211142],
        [0.882966572136512, 51.73910935218819],
        [0.885861118144614, 51.74075194470814],
        [0.885932127396763, 51.74077630077253],
        [0.886442667146201, 51.740831209366746],
        [0.886690349246436, 51.740796314687536],
        [0.888017913175094, 51.7403944615705],
        [0.888127599284186, 51.74037537132092],
        [0.889029076358967, 51.741310554471674],
        [0.88907009543093, 51.74135332908774],
        [0.890308003357012, 51.74219233856176],
        [0.890411850942852, 51.74225879239363],
        [0.894352744679099, 51.744047106698886],
        [0.894611537676324, 51.744171850096194],
        [0.896960746699523, 51.74552183470821],
        [0.897095582859212, 51.745604169957105],
        [0.897418450788219, 51.74602200439056],
        [0.897444309770267, 51.746044004314584],
        [0.898280968992756, 51.74649622498853],
        [0.898281015199079, 51.74649625147798],
        [0.899248237728324, 51.74633390489589],
        [0.899248617571894, 51.74633381263271],
        [0.900164482029589, 51.746478455173836],
        [0.900409913615229, 51.74650905065673],
        [0.902877828214298, 51.74768504327081],
        [0.903025536702412, 51.747742942326795],
        [0.905714048705239, 51.74785297732568],
        [0.906029116228444, 51.7478940968925],
        [0.90650200514058, 51.74832929511006],
        [0.906502222573727, 51.74832944629731],
        [0.906419450601846, 51.7479728267342],
        [0.906471106224794, 51.74795145283452],
        [0.906849231518392, 51.74814522857473],
        [0.906905292769692, 51.74815502204047],
        [0.907682698743676, 51.747953961516615],
        [0.907706440402598, 51.74795306992625],
        [0.91062771572989, 51.74840082196741],
        [0.911557585420026, 51.74862328499986],
        [0.91179414790343, 51.74861096537919],
        [0.91180954563692, 51.74858416069451],
        [0.911113494739445, 51.74822856111193],
        [0.911154658051905, 51.74821617607551],
        [0.917191965252288, 51.74851003005233],
        [0.917244913650501, 51.74851269395053],
        [0.921462380416613, 51.748788794562465],
        [0.921616978246945, 51.74880428153059],
        [0.924871528034879, 51.74930538154167],
        [0.925044699298277, 51.74930837353666],
        [0.933272679556462, 51.74874590040807],
        [0.933625468371153, 51.74872159235402],
        [0.937617349291352, 51.7478837866234],
        [0.939192872514429, 51.747545902145795],
        [0.941127515070031, 51.74688195764056],
        [0.941824819239258, 51.746700923956226],
        [0.947849388518354, 51.745349360620935],
        [0.948699480581754, 51.745151373946946],
        [0.950909556349595, 51.74481286627841],
        [0.951136819218406, 51.74478466751487],
        [0.95589064339486, 51.74482334354076],
        [0.955949624569255, 51.744824585763666],
        [0.957128620162069, 51.74458004085562],
        [0.957150288521705, 51.74457402478995],
        [0.958225221197734, 51.743882248260256],
        [0.958285502031065, 51.74384868915985],
        [0.96112701594341, 51.742533813901126],
        [0.961427086579353, 51.74238698730035],
        [0.964286536381177, 51.73992683245597],
        [0.964332410661646, 51.739892482376895],
        [0.967685016313934, 51.7379415687009],
        [0.968831210840887, 51.73716764523014],
        [0.970928221842205, 51.73562456642278],
        [0.971169640716489, 51.735412867416564],
        [0.972939129992254, 51.7333098626103],
        [0.973071816976315, 51.733083190923324],
        [0.973199042500186, 51.732718240838814],
        [0.974330868562433, 51.727883509749745],
        [0.974452546239911, 51.72510504234557],
        [0.974374751186198, 51.72414098822631],
        [0.973660158628021, 51.72223153579504],
        [0.97360498018384, 51.72190104232452],
        [0.973783971023232, 51.72010550411096],
        [0.973895608293752, 51.719641451760396],
        [0.974852601447272, 51.71721319497243],
        [0.975079669664894, 51.71665479024656],
        [0.976128019657449, 51.71466301680975],
        [0.976604971222548, 51.713837109561915],
        [0.979198663367683, 51.70565336116014],
        [0.979847520099078, 51.704344635907006],
        [0.980075198511566, 51.70255070902706],
        [0.980636717794764, 51.700482287257195],
        [0.98168258435772, 51.698282803018756],
        [0.981770431863624, 51.69803674665845],
        [0.982102556433547, 51.69636088606399],
        [0.982112083506264, 51.695927966746495],
        [0.981888536755682, 51.69455400110578],
        [0.981882782619882, 51.69453208001428],
        [0.98132010525196, 51.69316912755147],
        [0.98099489993185, 51.69192326363278],
        [0.97947748473123, 51.68840359792894],
        [0.97841989229487, 51.68636022428731],
        [0.977778335961526, 51.68474306880483],
        [0.977554039714063, 51.683902456191085],
        [0.977129746296018, 51.68311441990005],
        [0.976538803883455, 51.68190887058622],
        [0.975598913054793, 51.677616958825396],
        [0.975590702703518, 51.67757353900729],
        [0.97569077822592, 51.677031930970934],
        [0.975689215569126, 51.67686963468069],
        [0.975478761087624, 51.676128596770525],
        [0.975439681315502, 51.675711783501164],
        [0.974300207925234, 51.67256317265087],
        [0.97392741175418, 51.67124780724391],
        [0.973701003420615, 51.668565122410726],
        [0.973703615143133, 51.66810832115828],
        [0.972742605725538, 51.66567533704503],
        [0.972525838819691, 51.66511511739247],
        [0.972247690883716, 51.662648130954466],
        [0.972247668007419, 51.66264778155204],
        [0.973423000697777, 51.66359120705901],
        [0.973498466376254, 51.663610801107446],
        [0.974195872190455, 51.66354431234579],
        [0.974208754031881, 51.66353884678433],
        [0.974443790657043, 51.66315288540616],
        [0.974411811506007, 51.663064883151065],
        [0.973429791115605, 51.661996398566245],
        [0.972705184984004, 51.66113149698717],
        [0.970903706650254, 51.65730425934618],
        [0.97086650599558, 51.65721933554025],
        [0.970291196015174, 51.65632745040606],
        [0.970137583815356, 51.65606530497584],
        [0.969567097914216, 51.655440312197875],
        [0.969057060672167, 51.654951505701405],
        [0.968090490217074, 51.65421158027079],
        [0.967950754503457, 51.65407851927144],
        [0.967210242339717, 51.653047645144376],
        [0.967061745474837, 51.65283772575036],
        [0.965203433354578, 51.65077077652149],
        [0.965106403297026, 51.650654749648524],
        [0.962996418866011, 51.6489363344505],
        [0.962969002895686, 51.64889189720399],
        [0.963161966649064, 51.64866399605739],
        [0.963258419281266, 51.64867169241911],
        [0.964144270146634, 51.649029666006776],
        [0.964144755286586, 51.64902938666541],
        [0.963842983329604, 51.64828520808384],
        [0.96383076247681, 51.648250389499395],
        [0.96400152288771, 51.64817510539661],
        [0.964032848138872, 51.64819005443117],
        [0.966328976870632, 51.65091376452884],
        [0.966422213005306, 51.651015850205795],
        [0.96727066615975, 51.65140723613271],
        [0.967584435167425, 51.65148775718803],
        [0.970801062580456, 51.65189736961792],
        [0.970828596115374, 51.651888006101224],
        [0.970869262043226, 51.65130783011853],
        [0.970800272368969, 51.651095829235004],
        [0.970128409097008, 51.65029468398896],
        [0.970022044045198, 51.65019502397239],
        [0.969101503810875, 51.64943904956927],
        [0.968372585615872, 51.64894607853103],
        [0.960783577618105, 51.644892481151246],
        [0.960410577348612, 51.644687018271306],
        [0.958893055321304, 51.643625315137164],
        [0.958762897770029, 51.64354133078317],
        [0.95687115994969, 51.64255915949888],
        [0.956298578954006, 51.6422433278744],
        [0.955376178979222, 51.64206249756966],
        [0.955376090308245, 51.64206249980216],
        [0.955180094028856, 51.64239825870967],
        [0.955121920784693, 51.642405341362554],
        [0.9543775341598, 51.64219823978612],
        [0.953921470387204, 51.64207634704526],
        [0.952470883104316, 51.641175988913375],
        [0.952470685609212, 51.64117591099068],
        [0.953035409577375, 51.642049238761416],
        [0.952947779984608, 51.64202467892099],
        [0.948577093837925, 51.639747441014556],
        [0.948199419245938, 51.63955189392851],
        [0.94260541310218, 51.636137633312586],
        [0.942291996594602, 51.635954602994346],
        [0.94007141598444, 51.63449986527605],
        [0.940059099135663, 51.63449181108704],
        [0.939109962563902, 51.63368585063935],
        [0.939029996925938, 51.63362266446253],
        [0.936225249510916, 51.631861558797226],
        [0.935467567296245, 51.63134690964117],
        [0.932347098978622, 51.62962986760141],
        [0.931936022424897, 51.62941809247473],
        [0.925158686648646, 51.62705297370089],
        [0.925102504316489, 51.62703694869615],
        [0.923399304907044, 51.62625374868303],
        [0.923358572863324, 51.62623818532667],
        [0.922937864812807, 51.6262409275875],
        [0.922478966929054, 51.62612700797445],
        [0.916972030779983, 51.62464366487586],
        [0.916516001291183, 51.62453175093687],
        [0.909898650356751, 51.62320905595357],
        [0.909628547408339, 51.623145048429436],
        [0.904445819621552, 51.622343091845885],
        [0.904343567297899, 51.62232343577271],
        [0.90338212912848, 51.62225230874593],
        [0.90305155517873, 51.62224297882967],
        [0.9010487058221, 51.62244061317305],
        [0.901026998473079, 51.622443139142376],
        [0.900402455480381, 51.619573267049546],
        [0.900380689838242, 51.619473213975226],
        [0.893775297622248, 51.61999997783844],
        [0.892097795920717, 51.620089948524864],
        [0.885070179672636, 51.620226524588624],
        [0.884580894670234, 51.620228863022604],
        [0.874327400169701, 51.6195043046514],
        [0.873930633283691, 51.61948465153816],
        [0.864980325153466, 51.61852851200498],
        [0.863961003416606, 51.618459102504985],
        [0.857837250787029, 51.618604745151686],
        [0.857837073523622, 51.61860474946852],
        [0.8378754067505, 51.62007398158902],
        [0.837875230052076, 51.62007399507162],
        [0.824354372048118, 51.62076104934988],
        [0.824008470041321, 51.620799305297],
        [0.821305280810259, 51.62128105530224],
        [0.820366324313203, 51.62146517288071],
        [0.815453192113039, 51.62282439679661],
        [0.815400968294667, 51.622843120523946],
        [0.808661199775847, 51.62405151776006],
        [0.808443664191604, 51.624069690893506],
        [0.805352186907449, 51.624002001776084],
        [0.805351830620008, 51.62400198266345],
        [0.804298517675616, 51.62380666563663],
        [0.803716610082469, 51.62372810291721],
        [0.800560137886729, 51.62354896567684],
        [0.80022927598251, 51.62352889051974],
        [0.79765673869915, 51.623566380441616],
        [0.797562320603333, 51.623570150754226],
        [0.794499892332207, 51.62386247695889],
        [0.794054728544177, 51.623907363712796],
        [0.78956908556692, 51.62473119165747],
        [0.789462226707222, 51.62475579796643],
        [0.786347378911523, 51.62592495125923],
        [0.78625061853157, 51.62596109399272],
        [0.782796915282411, 51.62837273287042],
        [0.782551145420522, 51.62855335950198],
        [0.780287543221193, 51.63055782658948],
        [0.779950398119767, 51.630878778615276],
        [0.777217167176105, 51.633021081060065],
        [0.776376394119106, 51.63352664230541],
        [0.770716916475002, 51.6365419666674],
        [0.770472596334265, 51.636653693069626],
        [0.768541461635369, 51.63747260151651],
        [0.768029151765712, 51.63767861640899],
        [0.765091296365206, 51.638422457276],
        [0.764705984679984, 51.63847043163492],
        [0.760644468309193, 51.638142002791334],
        [0.760644289833982, 51.63814198857284],
        [0.759556748890582, 51.6378615084787],
        [0.759160835279382, 51.637723689982856],
        [0.754415401970274, 51.634965804733675],
        [0.754105199888675, 51.6347958878602],
        [0.753116044016077, 51.63433302088067],
        [0.752890616856053, 51.63422041142092],
        [0.7507765587504, 51.633557966413065],
        [0.749742995822209, 51.63330086875779],
        [0.746523647748681, 51.63283527888244],
        [0.746079566549524, 51.632797039859675],
        [0.741018824045384, 51.63260708571907],
        [0.740345624074882, 51.63254271901362],
        [0.737645454532493, 51.63263800107354],
        [0.737449110715459, 51.63265194012831],
        [0.734793007803298, 51.633093878970044],
        [0.734348647272801, 51.633199933779316],
        [0.732433347239077, 51.633777341639835],
        [0.732208900620443, 51.63386305095145],
        [0.728019234512523, 51.63566545960091],
        [0.727314812070298, 51.635969331813186],
        [0.72480510369086, 51.63662792576622],
        [0.724582699883606, 51.636685221300716],
        [0.72267428447669, 51.63688715826853],
        [0.722442721872231, 51.63691219928235],
        [0.720623033543465, 51.63684890758412],
        [0.720583088562873, 51.636842751280746],
        [0.715472419051999, 51.635740367707164],
        [0.715046496777833, 51.63567909494569],
        [0.709075424153294, 51.63516457197736],
        [0.708983250109541, 51.63516108108119],
        [0.687361333838938, 51.63574092879026],
        [0.687205592752594, 51.63574238506678],
        [0.67610012059064, 51.63516126253667],
        [0.676010586069077, 51.63515427846353],
        [0.669743914790595, 51.63526789025538],
        [0.669620188010928, 51.635268862151804],
        [0.663593407025432, 51.63545589716133],
        [0.663440235473797, 51.63546052351466],
        [0.661294500990292, 51.63575168391443],
        [0.661242011965908, 51.635760370134136],
        [0.660332717425801, 51.63605582981506],
        [0.660091637157073, 51.63612270928511],
        [0.656207581731361, 51.63683654228299],
        [0.656079259361259, 51.63686656685725],
        [0.653156088800879, 51.63725290834365],
        [0.653043673028417, 51.63726163744935],
        [0.651457614086985, 51.63718743718032],
        [0.651261885761281, 51.63716164198849],
        [0.649007025089888, 51.636598669805565],
        [0.649007202574243, 51.636598264926995],
        [0.640483049427003, 51.63876615067241],
        [0.628711912523701, 51.63951505664736],
        [0.62916117932504, 51.642882006757276],
        [0.627549557817246, 51.64483277130381],
        [0.628443184666823, 51.64598640181919],
        [0.626426023987762, 51.65807549293304],
        [0.623293513267231, 51.66234640048414],
        [0.623322437997086, 51.66562479928023],
        [0.619516117017689, 51.67041431033234],
        [0.619765727553512, 51.6753399021686],
        [0.616142074091885, 51.6786259965536],
        [0.6088364738294, 51.681947073912895],
        [0.609157828486538, 51.684199327968436],
        [0.611129833793618, 51.68409932362117],
        [0.611152112729988, 51.68409811467514],
        [0.612204396318405, 51.685537955020514],
        [0.611303687983403, 51.689422377231914],
        [0.612822845089641, 51.689480452184355],
        [0.612854038519919, 51.6894815484605],
        [0.612381857351809, 51.690026269186966],
        [0.610562157302656, 51.68976095960619],
        [0.610548563896165, 51.691184035398315],
        [0.610905334873083, 51.69423929193822],
        [0.61225684129623, 51.69494040672023],
        [0.611185089433983, 51.696383418357655],
        [0.612602676021339, 51.69875765077588],
        [0.6103624105568, 51.70057019516274],
        [0.604563969039766, 51.70038776472628],
        [0.602989964310812, 51.7029210534994],
        [0.60378643787113, 51.705069927470845],
        [0.601864939201391, 51.71022800306215],
        [0.602074318095516, 51.71168120655171],
        [0.611152936693817, 51.72278721775366],
        [0.604108987633239, 51.72494374165116],
        [0.595366917958665, 51.72578296029036],
        [0.591189831434052, 51.72820268382947],
        [0.589497961542667, 51.73017268224754],
        [0.589128749706232, 51.73182122204091],
        [0.591200783629467, 51.73338635071481],
        [0.595130170480435, 51.7340559782698],
        [0.59515765057727, 51.73406064759146],
        [0.591805312526582, 51.74566516320118],
        [0.591694112839263, 51.75131550762087],
        [0.593463477072487, 51.755444901637546]
      ]
    ]
  }
}
