{
  "type": "Feature",
  "properties": { "name": "Cambridge", "level": 1 },
  "geometry": {
    "type": "Polygon",
    "coordinates": [
      [
        [0.099278948871109, 52.171302083045461],
        [0.101550134128387, 52.174839521518059],
        [0.101365043040594, 52.175846317482687],
        [0.099467600382192, 52.176674992841114],
        [0.099605457392478, 52.179322455640872],
        [0.098132764323445, 52.180788266000427],
        [0.100391087199492, 52.182585120248916],
        [0.099960405953553, 52.18493158325861],
        [0.104721071308828, 52.188998297563565],
        [0.104686130036539, 52.190643540328971],
        [0.104028710135882, 52.191500506999454],
        [0.100216687667354, 52.192418171987349],
        [0.099695190995668, 52.191815107483471],
        [0.096823277577813, 52.192067609518958],
        [0.097542027548839, 52.19729620286703],
        [0.09620177082931, 52.197547520125461],
        [0.094862808678919, 52.199320224939179],
        [0.092331374464853, 52.199168227159767],
        [0.09050765543633, 52.200220236442981],
        [0.08466924547702, 52.201481701361935],
        [0.085505289784826, 52.20324101916966],
        [0.078928459928721, 52.204339905187808],
        [0.079134409345638, 52.205553772127672],
        [0.077540004916111, 52.206043140924841],
        [0.077299597426201, 52.207854734459886],
        [0.073919099810111, 52.208368293851109],
        [0.074213833780324, 52.211521944012553],
        [0.069773442552713, 52.212165508926638],
        [0.071088910683354, 52.215113324133064],
        [0.068611851245714, 52.214920293233227],
        [0.068610834582198, 52.216095541803391],
        [0.081514877736652, 52.21821816954381],
        [0.087519516149637, 52.220921139554818],
        [0.088098964968207, 52.220570995255599],
        [0.089377226124891, 52.221509595387232],
        [0.089967414880116, 52.221076526767582],
        [0.092482089697285, 52.223118966360929],
        [0.093754466933474, 52.222559582933847],
        [0.095617552430528, 52.224409402035228],
        [0.107801407017593, 52.230568518243849],
        [0.111650290435331, 52.229066403837869],
        [0.117378141001373, 52.228252508201855],
        [0.118683323942188, 52.231306998885721],
        [0.124971827908095, 52.23428713156197],
        [0.127577102132946, 52.233825663792928],
        [0.129841502584423, 52.23563624495241],
        [0.147496392563881, 52.229771872565237],
        [0.155252105633347, 52.237216055769416],
        [0.166201762602025, 52.234241557059356],
        [0.167222782374641, 52.235749640641174],
        [0.169418001055138, 52.235235429310968],
        [0.171409867069071, 52.233826623659006],
        [0.171306771984798, 52.232944612585023],
        [0.16903059056248, 52.233537679127657],
        [0.166620658088869, 52.23012275239369],
        [0.164125417891573, 52.230756613965482],
        [0.163433032979023, 52.23006973749898],
        [0.160948960100553, 52.230994665401873],
        [0.157294739645163, 52.22748094182235],
        [0.154822518778968, 52.226473159252585],
        [0.156831660744772, 52.223304561456743],
        [0.163799649282049, 52.219089246389572],
        [0.16493959655794, 52.219258964803309],
        [0.165451417789798, 52.21789268649696],
        [0.175814714134975, 52.217228154133345],
        [0.170378758721192, 52.208875823406281],
        [0.170847429996312, 52.205999658961304],
        [0.167315757772354, 52.20413491434617],
        [0.173046519095825, 52.203945867852937],
        [0.175720454514259, 52.205445004046986],
        [0.178247784508886, 52.204063056059546],
        [0.177381090239286, 52.203249094733366],
        [0.179892732432311, 52.202237869606115],
        [0.178904875929417, 52.20140008134728],
        [0.18147603418852, 52.199545171220443],
        [0.180727293799042, 52.198898102527238],
        [0.182657781320487, 52.198098079142198],
        [0.181059291729736, 52.196533361753183],
        [0.183472278154946, 52.195757672314897],
        [0.181673269159552, 52.193114935595744],
        [0.184523471187566, 52.191472397910438],
        [0.182012933942426, 52.189952455797467],
        [0.180993076148507, 52.187858193195233],
        [0.183185012441396, 52.187835627700188],
        [0.183089628555862, 52.186904021221991],
        [0.181320615210241, 52.186868409596627],
        [0.181300415981233, 52.169478194559403],
        [0.176387484947818, 52.170931253857646],
        [0.162601019522597, 52.172468919558156],
        [0.159856526187449, 52.168435940483285],
        [0.154898528167434, 52.164610617209298],
        [0.141727609201117, 52.170992073149137],
        [0.120549384410309, 52.164981477278538],
        [0.103401097359278, 52.157929565962597],
        [0.101073096983892, 52.160712708638457],
        [0.104654059609145, 52.163414776102222],
        [0.107824405170167, 52.168310016645165],
        [0.106064100522741, 52.168286613398188],
        [0.106917353821166, 52.169880030654006],
        [0.099278948871109, 52.171302083045461]
      ]
    ]
  }
}
