{
  "type": "Feature",
  "properties": {
    "name": "Cambridge",
    "level": 1,
    "center": [0.13, 52.2]
  },
  "geometry": {
    "type": "Polygon",
    "coordinates": [
      [
        [0.099278948871109, 52.17130208304546],
        [0.101550134128387, 52.17483952151806],
        [0.101365043040594, 52.17584631748269],
        [0.099467600382192, 52.176674992841114],
        [0.099605457392478, 52.17932245564087],
        [0.098132764323445, 52.18078826600043],
        [0.100391087199492, 52.182585120248916],
        [0.099960405953553, 52.18493158325861],
        [0.104721071308828, 52.188998297563565],
        [0.104686130036539, 52.19064354032897],
        [0.104028710135882, 52.19150050699945],
        [0.100216687667354, 52.19241817198735],
        [0.099695190995668, 52.19181510748347],
        [0.096823277577813, 52.19206760951896],
        [0.097542027548839, 52.19729620286703],
        [0.09620177082931, 52.19754752012546],
        [0.094862808678919, 52.19932022493918],
        [0.092331374464853, 52.19916822715977],
        [0.09050765543633, 52.20022023644298],
        [0.08466924547702, 52.201481701361935],
        [0.085505289784826, 52.20324101916966],
        [0.078928459928721, 52.20433990518781],
        [0.079134409345638, 52.20555377212767],
        [0.077540004916111, 52.20604314092484],
        [0.077299597426201, 52.207854734459886],
        [0.073919099810111, 52.20836829385111],
        [0.074213833780324, 52.21152194401255],
        [0.069773442552713, 52.21216550892664],
        [0.071088910683354, 52.215113324133064],
        [0.068611851245714, 52.21492029323323],
        [0.068610834582198, 52.21609554180339],
        [0.081514877736652, 52.21821816954381],
        [0.087519516149637, 52.22092113955482],
        [0.088098964968207, 52.2205709952556],
        [0.089377226124891, 52.22150959538723],
        [0.089967414880116, 52.22107652676758],
        [0.092482089697285, 52.22311896636093],
        [0.093754466933474, 52.22255958293385],
        [0.095617552430528, 52.22440940203523],
        [0.107801407017593, 52.23056851824385],
        [0.111650290435331, 52.22906640383787],
        [0.117378141001373, 52.228252508201855],
        [0.118683323942188, 52.23130699888572],
        [0.124971827908095, 52.23428713156197],
        [0.127577102132946, 52.23382566379293],
        [0.129841502584423, 52.23563624495241],
        [0.147496392563881, 52.22977187256524],
        [0.155252105633347, 52.237216055769416],
        [0.166201762602025, 52.234241557059356],
        [0.167222782374641, 52.235749640641174],
        [0.169418001055138, 52.23523542931097],
        [0.171409867069071, 52.233826623659006],
        [0.171306771984798, 52.23294461258502],
        [0.16903059056248, 52.23353767912766],
        [0.166620658088869, 52.23012275239369],
        [0.164125417891573, 52.23075661396548],
        [0.163433032979023, 52.23006973749898],
        [0.160948960100553, 52.23099466540187],
        [0.157294739645163, 52.22748094182235],
        [0.154822518778968, 52.226473159252585],
        [0.156831660744772, 52.22330456145674],
        [0.163799649282049, 52.21908924638957],
        [0.16493959655794, 52.21925896480331],
        [0.165451417789798, 52.21789268649696],
        [0.175814714134975, 52.217228154133345],
        [0.170378758721192, 52.20887582340628],
        [0.170847429996312, 52.205999658961304],
        [0.167315757772354, 52.20413491434617],
        [0.173046519095825, 52.20394586785294],
        [0.175720454514259, 52.205445004046986],
        [0.178247784508886, 52.204063056059546],
        [0.177381090239286, 52.203249094733366],
        [0.179892732432311, 52.202237869606115],
        [0.178904875929417, 52.20140008134728],
        [0.18147603418852, 52.19954517122044],
        [0.180727293799042, 52.19889810252724],
        [0.182657781320487, 52.1980980791422],
        [0.181059291729736, 52.19653336175318],
        [0.183472278154946, 52.1957576723149],
        [0.181673269159552, 52.193114935595744],
        [0.184523471187566, 52.19147239791044],
        [0.182012933942426, 52.18995245579747],
        [0.180993076148507, 52.18785819319523],
        [0.183185012441396, 52.18783562770019],
        [0.183089628555862, 52.18690402122199],
        [0.181320615210241, 52.18686840959663],
        [0.181300415981233, 52.1694781945594],
        [0.176387484947818, 52.170931253857646],
        [0.162601019522597, 52.172468919558156],
        [0.159856526187449, 52.168435940483285],
        [0.154898528167434, 52.1646106172093],
        [0.141727609201117, 52.17099207314914],
        [0.120549384410309, 52.16498147727854],
        [0.103401097359278, 52.1579295659626],
        [0.101073096983892, 52.16071270863846],
        [0.104654059609145, 52.16341477610222],
        [0.107824405170167, 52.168310016645165],
        [0.106064100522741, 52.16828661339819],
        [0.106917353821166, 52.16988003065401],
        [0.099278948871109, 52.17130208304546]
      ]
    ]
  }
}
