{
  "type": "Feature",
  "properties": {
    "name": "Elmbridge",
    "level": 2,
    "center": [-0.3926, 51.3632]
  },
  "geometry": {
    "type": "MultiPolygon",
    "coordinates": [
      [
        [
          [-0.396926681619084, 51.312816923938406],
          [-0.397582005920572, 51.312046227779334],
          [-0.397591926109403, 51.312008594340774],
          [-0.397339752619864, 51.3118747505882],
          [-0.39725642153695, 51.31183674043675],
          [-0.39730742917795, 51.31123762812668],
          [-0.397198204181724, 51.311119228919054],
          [-0.396265369563121, 51.31038434890813],
          [-0.396122749833047, 51.31031854803345],
          [-0.395977168274997, 51.31025540421262],
          [-0.395727775421176, 51.31016565882452],
          [-0.395146924507354, 51.31019996667811],
          [-0.395054891057158, 51.31020589968663],
          [-0.392935656556721, 51.30922181772717],
          [-0.392777636850814, 51.309186376394216],
          [-0.392116889205422, 51.308551416353126],
          [-0.392001425540877, 51.30840684743697],
          [-0.391981928972146, 51.30822582682207],
          [-0.392114265325887, 51.3078877203555],
          [-0.392457681225714, 51.307667617641464],
          [-0.392637029164812, 51.307544181754395],
          [-0.392823380901952, 51.30697390540999],
          [-0.392939974994233, 51.30671651617152],
          [-0.392957560668991, 51.30608996748202],
          [-0.392999177287944, 51.30596643952933],
          [-0.392766480985406, 51.305194371641946],
          [-0.392757291977125, 51.30504676548756],
          [-0.393117595878037, 51.30438355344901],
          [-0.39312272428746, 51.30431887648334],
          [-0.392614277158057, 51.30347378017493],
          [-0.392596663205445, 51.30336202906704],
          [-0.3927586159622, 51.301477585793286],
          [-0.39278441459474, 51.30139610640725],
          [-0.393154014168873, 51.30095873836279],
          [-0.393216798056811, 51.30092722620194],
          [-0.393533389002068, 51.30106286323141],
          [-0.39364437908291, 51.30108866611678],
          [-0.393758297379843, 51.30098951068988],
          [-0.393971126037076, 51.300851244691444],
          [-0.393871739252593, 51.30065743798361],
          [-0.393766762255913, 51.30037722486636],
          [-0.394127560166188, 51.29990376296865],
          [-0.394148404099459, 51.29979973375265],
          [-0.394058745179947, 51.298751756252415],
          [-0.394077527604754, 51.29866568411884],
          [-0.394650588380436, 51.29806923395114],
          [-0.394742309438376, 51.2979481909387],
          [-0.397512084860239, 51.29807335817089],
          [-0.397593838356181, 51.2980735777025],
          [-0.399880191172005, 51.29745737062484],
          [-0.40046584396685, 51.29728012306774],
          [-0.40196589860648, 51.29671068505116],
          [-0.402291507944914, 51.29654516684691],
          [-0.403792242312567, 51.295003606946814],
          [-0.403930027563422, 51.29487688993045],
          [-0.404309533860303, 51.294852386623354],
          [-0.40532650676817, 51.29489232026487],
          [-0.40522130408375, 51.295486202500356],
          [-0.405213642934, 51.29574868424015],
          [-0.405319789364149, 51.296783388061094],
          [-0.405398118021875, 51.297006573800026],
          [-0.406009741706346, 51.29773521443824],
          [-0.406089005914913, 51.29784870181221],
          [-0.406708028907689, 51.298985706390084],
          [-0.407138127644909, 51.29953111789101],
          [-0.40818059153618, 51.30161540483411],
          [-0.408577610619557, 51.30233032196443],
          [-0.409016829935261, 51.30286236075125],
          [-0.409253281952777, 51.30303553428929],
          [-0.409889325610459, 51.30322762307767],
          [-0.410191576594464, 51.3033234520487],
          [-0.411061509524053, 51.30351421322584],
          [-0.41171330945588, 51.30370740505147],
          [-0.411794209344056, 51.30356641839912],
          [-0.413994978781221, 51.30377070352678],
          [-0.41540690742615, 51.30388693859728],
          [-0.415425525572102, 51.30405445376268],
          [-0.415659884001791, 51.30408100565753],
          [-0.415687323383051, 51.304242345264576],
          [-0.41604275193956, 51.30425254903087],
          [-0.416056028835722, 51.304491932984284],
          [-0.421294340455009, 51.304224545542894],
          [-0.421698077733229, 51.30420660679316],
          [-0.425734765782642, 51.30446597376108],
          [-0.426385531066793, 51.30448191429168],
          [-0.427866850483594, 51.303996424867655],
          [-0.428560132522453, 51.30390141569839],
          [-0.431427319695986, 51.304380493272056],
          [-0.436726442849599, 51.30396753958457],
          [-0.437425512646511, 51.30399754856051],
          [-0.439810795653155, 51.30460396355934],
          [-0.439961061103457, 51.30465722217364],
          [-0.440312213914865, 51.30483635325005],
          [-0.440393283735114, 51.30489948117258],
          [-0.441887368113153, 51.306745748800935],
          [-0.44222149240642, 51.307259169946406],
          [-0.442736183689038, 51.30765179175226],
          [-0.44295734070608, 51.30794249222363],
          [-0.443836784197882, 51.313036751400944],
          [-0.443828397270932, 51.31307261012],
          [-0.444264655316923, 51.31430228422161],
          [-0.444481288322652, 51.31485550188665],
          [-0.445473721639865, 51.316656381955674],
          [-0.44593196050028, 51.31749246767491],
          [-0.445887007208779, 51.31848374458789],
          [-0.445791679845138, 51.31990419488045],
          [-0.445905145041586, 51.322153823868916],
          [-0.44569880536364, 51.324141127093455],
          [-0.445642961377602, 51.32439217641846],
          [-0.443842572509194, 51.324112002521304],
          [-0.443647648189399, 51.324104019074916],
          [-0.442258587888758, 51.32443537589719],
          [-0.442187283059776, 51.324421838781895],
          [-0.440127975205311, 51.32504820788707],
          [-0.440088630584643, 51.325065669321205],
          [-0.440109883055336, 51.325200839732624],
          [-0.440137176529123, 51.32528483324117],
          [-0.43906281302654, 51.32611133059492],
          [-0.438999077803009, 51.32612846686719],
          [-0.437232972133257, 51.32597903970959],
          [-0.436940849916137, 51.326043487837474],
          [-0.436605501024599, 51.32628181329515],
          [-0.436601898741652, 51.32630334725901],
          [-0.436634254247842, 51.3263649278092],
          [-0.436910015060307, 51.32657093659685],
          [-0.43710808976934, 51.327120321783404],
          [-0.437163034296838, 51.32744658287918],
          [-0.437361054536341, 51.32736379400784],
          [-0.443786864202155, 51.32673527329461],
          [-0.445068931299302, 51.32676847316051],
          [-0.446189729989633, 51.32677434246422],
          [-0.450047332272013, 51.3281976653194],
          [-0.451275295419738, 51.328645534167016],
          [-0.4501895434406, 51.3300268178549],
          [-0.449921055628853, 51.330369478489146],
          [-0.451105349761263, 51.33058116822521],
          [-0.451273719973158, 51.3306112694049],
          [-0.451437776874473, 51.3308121704425],
          [-0.451452193954338, 51.330938255575134],
          [-0.455957936987358, 51.331029164574474],
          [-0.456082435629963, 51.33104069609514],
          [-0.456766255352767, 51.33093909309834],
          [-0.462344167217801, 51.32996027436768],
          [-0.461933983504869, 51.331194954019644],
          [-0.461935094983235, 51.33133345254619],
          [-0.462067138496779, 51.33163463400017],
          [-0.462299722549995, 51.33206302863226],
          [-0.462805375407093, 51.332567842765826],
          [-0.462838103463458, 51.33279128495095],
          [-0.462546883694218, 51.33385936722042],
          [-0.462489087277906, 51.333956629609396],
          [-0.461038823008416, 51.33499873778928],
          [-0.460981232147314, 51.33508970725465],
          [-0.460976956475644, 51.33530367737829],
          [-0.461021698481162, 51.33538250125798],
          [-0.461579197500947, 51.33575492247512],
          [-0.461687320432228, 51.3358273836838],
          [-0.462063082874903, 51.33678464062503],
          [-0.462071242908417, 51.33679823672174],
          [-0.46135509821103, 51.3368769678071],
          [-0.461310372493043, 51.336883574923085],
          [-0.461171902165406, 51.33703193538245],
          [-0.461170010789893, 51.337088564545894],
          [-0.461836263856369, 51.33747230379024],
          [-0.46188597463897, 51.337531408554526],
          [-0.46188266067422, 51.337974704941715],
          [-0.461932672121018, 51.33802482092778],
          [-0.462564481276396, 51.33806458303833],
          [-0.462662065071761, 51.33806586277772],
          [-0.463507150649558, 51.33855535327396],
          [-0.463571455251102, 51.338607454411175],
          [-0.463168672156554, 51.33927662672703],
          [-0.46316414431613, 51.339412357007106],
          [-0.463695831360715, 51.339613567987605],
          [-0.463725575170032, 51.339668813179664],
          [-0.46360785382285, 51.340486504459925],
          [-0.463653796630633, 51.34061570200135],
          [-0.465401732110822, 51.34124380342847],
          [-0.465498452280335, 51.341314313132266],
          [-0.465703311109069, 51.34154361004282],
          [-0.465747318488672, 51.34164490404411],
          [-0.465906622381128, 51.34250939030802],
          [-0.466071871878946, 51.3428505801755],
          [-0.468010292373866, 51.34254679181059],
          [-0.468347411307386, 51.342512527607816],
          [-0.472272257219527, 51.34222830459195],
          [-0.472821411046795, 51.342164416398994],
          [-0.476473413078041, 51.343139080768125],
          [-0.476769387550133, 51.343263429015856],
          [-0.477745311753857, 51.34388491183576],
          [-0.478133603887946, 51.34417052559455],
          [-0.478995034474023, 51.34499914228526],
          [-0.479206824077704, 51.34523839806277],
          [-0.479656894734874, 51.346263110189476],
          [-0.479703670193013, 51.346412096584125],
          [-0.479727031168652, 51.347357534722086],
          [-0.479655187534973, 51.34775048460569],
          [-0.480517369190658, 51.34773198301428],
          [-0.480682670280049, 51.34772693051509],
          [-0.481196587508695, 51.34929921904749],
          [-0.48115587563756, 51.3493580437199],
          [-0.478541853142009, 51.35072072911194],
          [-0.478410465287357, 51.350785569976175],
          [-0.474817779328427, 51.35207610284034],
          [-0.474511024901044, 51.35223218100665],
          [-0.472487697006565, 51.353741774575816],
          [-0.47249086913617, 51.35377598764716],
          [-0.467371669088187, 51.356383559782905],
          [-0.466971739375573, 51.3565752634147],
          [-0.468363348628644, 51.357527787605314],
          [-0.468434681985853, 51.35754220833507],
          [-0.469742922584314, 51.357203187589526],
          [-0.470107664970828, 51.35711892174495],
          [-0.470595454625811, 51.357264670658175],
          [-0.470676688355993, 51.35728371546284],
          [-0.470757118450662, 51.3575428507494],
          [-0.470738694798036, 51.357578580611175],
          [-0.470628210354262, 51.357661669270215],
          [-0.470011864878247, 51.35779660846713],
          [-0.469988863743285, 51.35805619271424],
          [-0.470081225152981, 51.35808617425445],
          [-0.471798576843638, 51.357840596063575],
          [-0.472192605762812, 51.357825948243025],
          [-0.473392098641422, 51.358166206019284],
          [-0.473486017801457, 51.35819260822549],
          [-0.474156760629695, 51.3580196905422],
          [-0.474206710910257, 51.358029333246705],
          [-0.474353128354949, 51.35811846679633],
          [-0.474608536635008, 51.35847250088035],
          [-0.474505067994803, 51.35899362119023],
          [-0.474557684980587, 51.35905275687768],
          [-0.475413161540355, 51.35911334465205],
          [-0.475551411362928, 51.359145716992636],
          [-0.47588240677774, 51.35947285049149],
          [-0.476086765767114, 51.35954744712368],
          [-0.475596907239557, 51.35976588934179],
          [-0.475444966639449, 51.35984304696737],
          [-0.475132999384953, 51.360240952027766],
          [-0.47513279437019, 51.3602904078848],
          [-0.475797756197023, 51.36059580776236],
          [-0.47581723064285, 51.36061494516925],
          [-0.47580590413878, 51.3609996752762],
          [-0.475818442936643, 51.36105469234611],
          [-0.476168954821757, 51.361356900330485],
          [-0.476201625005438, 51.361411279852284],
          [-0.476181165495317, 51.36168168702076],
          [-0.476136491334468, 51.36181599314921],
          [-0.475399740036984, 51.36237473530701],
          [-0.475159798361688, 51.3625928282729],
          [-0.47487892240871, 51.36304868801643],
          [-0.474853946140446, 51.363065448656265],
          [-0.474786073658958, 51.36307625557891],
          [-0.474474716352034, 51.36280602664334],
          [-0.474190934767868, 51.36287337284281],
          [-0.474173647836463, 51.36291811003126],
          [-0.474510729842197, 51.36319227155434],
          [-0.47453867070208, 51.36321601561115],
          [-0.474616288659479, 51.36351737374056],
          [-0.474653687129841, 51.3636023895416],
          [-0.475273755225991, 51.3637903074375],
          [-0.475279439023054, 51.363792179875915],
          [-0.475477885562364, 51.36408881484278],
          [-0.47546846491707, 51.36411297192193],
          [-0.475347978506756, 51.364194135058696],
          [-0.4752642500043, 51.36420653441106],
          [-0.474594845675881, 51.36399009754219],
          [-0.474332976727761, 51.36395971137192],
          [-0.473401491267719, 51.36406538223366],
          [-0.473301039866913, 51.364062275181254],
          [-0.472936640020952, 51.36357283496725],
          [-0.472819228498106, 51.36356141334928],
          [-0.472529517697032, 51.36367723718479],
          [-0.472419766596796, 51.363781018195304],
          [-0.472364701246595, 51.36405456973351],
          [-0.472388304907281, 51.36412232068168],
          [-0.472975001892949, 51.36475224366619],
          [-0.473044973977963, 51.364808009298194],
          [-0.473912231960277, 51.364906533151895],
          [-0.473953096712999, 51.36493044566829],
          [-0.47386196253675, 51.36520892386493],
          [-0.473794984735531, 51.36523592814962],
          [-0.472144700166668, 51.36505435814301],
          [-0.472082208040531, 51.36503286076963],
          [-0.471571861657614, 51.364396735483425],
          [-0.471494802561623, 51.364381342546125],
          [-0.471254620829675, 51.36447622710581],
          [-0.471198082484867, 51.364534839573906],
          [-0.471053563339936, 51.36486297622081],
          [-0.470842154583631, 51.36504276401174],
          [-0.470157939010821, 51.365271233641664],
          [-0.470008542836759, 51.36531424528824],
          [-0.469544128388271, 51.3656714744835],
          [-0.469292505418248, 51.365807570328556],
          [-0.467604070951152, 51.365649714810665],
          [-0.467556891223871, 51.365685966503],
          [-0.467607181928408, 51.36598697079596],
          [-0.467650646366349, 51.36601901278175],
          [-0.468481550090571, 51.36643273756545],
          [-0.468617788346759, 51.366396750007105],
          [-0.469732024831863, 51.367145986853096],
          [-0.470021637312712, 51.367292747942074],
          [-0.469731378469937, 51.3681567234181],
          [-0.469545818322833, 51.36846543662774],
          [-0.468943050570319, 51.36892067019973],
          [-0.468856763081481, 51.36900946659177],
          [-0.468286928464355, 51.37011347837848],
          [-0.468248511066924, 51.37014534877394],
          [-0.467362710310764, 51.37055640600583],
          [-0.466898835263219, 51.37072299034538],
          [-0.466473727383836, 51.37067516219239],
          [-0.466155688225108, 51.370475863697195],
          [-0.465637809381958, 51.37083956864851],
          [-0.465571496618584, 51.37093222100549],
          [-0.465520343242969, 51.371302037576164],
          [-0.465508962351885, 51.371384618516785],
          [-0.466078990583729, 51.371997271343176],
          [-0.466140198066394, 51.3720574225014],
          [-0.466338749344709, 51.37273714879966],
          [-0.466384875841663, 51.37281868412017],
          [-0.467415336933167, 51.37354166797158],
          [-0.467488243427666, 51.373638840193436],
          [-0.46765541798436, 51.3744845125062],
          [-0.467623598771284, 51.37461988132781],
          [-0.466516991207095, 51.37514314695523],
          [-0.465687289455371, 51.375634958729215],
          [-0.465140747024865, 51.37616644447016],
          [-0.465008988550283, 51.376239355187536],
          [-0.464194387376571, 51.376235873831156],
          [-0.464035857151576, 51.37624998196062],
          [-0.461809457399205, 51.376826860988665],
          [-0.461641332949925, 51.37691277913607],
          [-0.460484189339303, 51.378596244444864],
          [-0.460140650331092, 51.379113289134764],
          [-0.459331902199244, 51.379190782965466],
          [-0.459132448613644, 51.379225028962935],
          [-0.458526201896369, 51.37947693504804],
          [-0.458245106712451, 51.37963150285864],
          [-0.45793662186774, 51.38000242641803],
          [-0.457914187037753, 51.38007137264281],
          [-0.457990940863782, 51.38056696485308],
          [-0.458016510843981, 51.380618558046955],
          [-0.459251676646297, 51.38089558614727],
          [-0.459301528271793, 51.3809088310239],
          [-0.459581393366926, 51.381219151431274],
          [-0.459586344009306, 51.38149977929142],
          [-0.458561546365156, 51.38159061397773],
          [-0.457878892912498, 51.38184870568428],
          [-0.455333578074887, 51.383180225502144],
          [-0.455166780201872, 51.38322568628355],
          [-0.454074045571982, 51.3832841130129],
          [-0.453819201350506, 51.38325557175347],
          [-0.452196551458666, 51.38283398661749],
          [-0.45204037169403, 51.382820233328545],
          [-0.451009964857409, 51.38320408453154],
          [-0.450907199975861, 51.38326837130464],
          [-0.450464768440628, 51.383731029188944],
          [-0.450408433255614, 51.38382470493888],
          [-0.450222780021271, 51.38476915641735],
          [-0.450255060784334, 51.38491975712803],
          [-0.450364609272268, 51.385208064449216],
          [-0.450581229076349, 51.38551757010199],
          [-0.451614441158532, 51.38654287132247],
          [-0.451955589363946, 51.38691067376098],
          [-0.452068216990821, 51.387108197042075],
          [-0.452104664072964, 51.38726334863162],
          [-0.451986915882405, 51.38755854394485],
          [-0.451890990440342, 51.38763281321797],
          [-0.450455714372065, 51.38804368954269],
          [-0.45021931626012, 51.38802168088457],
          [-0.447831161811872, 51.38694426684551],
          [-0.447582958821438, 51.38684655987076],
          [-0.446414485122039, 51.386720475091266],
          [-0.446328232197904, 51.38672113061831],
          [-0.445120068301874, 51.38687597095316],
          [-0.445004262178778, 51.38690051321848],
          [-0.444506442578563, 51.387044083731816],
          [-0.444322209031441, 51.38713695943707],
          [-0.443783394744729, 51.3875569508461],
          [-0.443701950148897, 51.38767007407137],
          [-0.443306202366324, 51.3894651113707],
          [-0.443161667412009, 51.389616064155014],
          [-0.442965104520277, 51.38973305375007],
          [-0.442777492559436, 51.38979800562275],
          [-0.442092193354764, 51.3898320657352],
          [-0.441947673609527, 51.389813059701005],
          [-0.440462089262365, 51.389077508781],
          [-0.440251271996065, 51.388937119686474],
          [-0.438879052047273, 51.38765901153668],
          [-0.438496565645924, 51.38728432739341],
          [-0.437995225119158, 51.38668594435924],
          [-0.437911481536681, 51.38657062417938],
          [-0.437792394905314, 51.38576241228038],
          [-0.437764737955751, 51.38564604079312],
          [-0.437513061039406, 51.385186768254115],
          [-0.437373788238001, 51.38505631958778],
          [-0.437055909499826, 51.3848110838364],
          [-0.436550959774491, 51.384530979680626],
          [-0.435618839062391, 51.38426136048841],
          [-0.435758443857233, 51.3839179118748],
          [-0.432407326095907, 51.38395316896473],
          [-0.432213488926477, 51.38399014269595],
          [-0.429796440555103, 51.38516097468208],
          [-0.429608395366463, 51.38523848792627],
          [-0.428895923219563, 51.38535393330606],
          [-0.428855085793716, 51.38537137075315],
          [-0.427957949798329, 51.3862208191389],
          [-0.427888832162658, 51.386266652820076],
          [-0.429160691130479, 51.386688370888464],
          [-0.43019885997622, 51.387009825897636],
          [-0.43005245183281, 51.3871724269787],
          [-0.427666743643859, 51.38641474688684],
          [-0.427263080287527, 51.38699653934941],
          [-0.427174401731512, 51.38715181841673],
          [-0.426538378280078, 51.38893548247764],
          [-0.426660681375387, 51.38993798804478],
          [-0.426452541095668, 51.38997206253845],
          [-0.426399804990552, 51.39000102958976],
          [-0.42620854460252, 51.39033927624497],
          [-0.426135528823214, 51.390414731733124],
          [-0.425351733375116, 51.39088889718224],
          [-0.425079189637912, 51.39099853993719],
          [-0.423399356174413, 51.39140489328995],
          [-0.423183793096212, 51.391487421546636],
          [-0.421387011571979, 51.39240924858036],
          [-0.421077923889879, 51.39228547989169],
          [-0.420674117110197, 51.39270000285877],
          [-0.420668184457962, 51.39270531859235],
          [-0.42131889165209, 51.39309358340913],
          [-0.420707776948619, 51.394101537192604],
          [-0.420245453340788, 51.39441994634485],
          [-0.420143497660303, 51.39450040650661],
          [-0.41959485450263, 51.39444534682651],
          [-0.41951998734507, 51.394448833546946],
          [-0.419531055692158, 51.39504520657307],
          [-0.419508047652638, 51.39508716251083],
          [-0.418792033307973, 51.395341892540216],
          [-0.418685950719279, 51.39554190027347],
          [-0.418940724384113, 51.39632411570559],
          [-0.418964913635528, 51.39637300324948],
          [-0.419318512282826, 51.396540543035506],
          [-0.419621180969764, 51.39664264666671],
          [-0.419624411132698, 51.396799165184945],
          [-0.419584005297024, 51.39684538292957],
          [-0.418947696724763, 51.39716413872564],
          [-0.418783514572779, 51.39725634821273],
          [-0.417307013275222, 51.39759433147234],
          [-0.417198389440015, 51.39765941129131],
          [-0.417179534848741, 51.39878865431261],
          [-0.417140593013522, 51.398833991711726],
          [-0.416063507454347, 51.39909372008664],
          [-0.415837331663786, 51.39914911627359],
          [-0.415610935468327, 51.39966853831676],
          [-0.415561413191788, 51.39977038688589],
          [-0.414986681133219, 51.400302184107304],
          [-0.41493881898973, 51.40043912684005],
          [-0.413358317357762, 51.40132691468233],
          [-0.412933582856692, 51.401469545294596],
          [-0.411536098066136, 51.4032545731984],
          [-0.411415682307592, 51.40345168247365],
          [-0.411043167006253, 51.403787460505626],
          [-0.410755864809411, 51.40402906897269],
          [-0.409579561851321, 51.404656997843084],
          [-0.409344415690653, 51.40476261967816],
          [-0.40663150421823, 51.405544113633255],
          [-0.40604519389852, 51.40565934244259],
          [-0.404626056543637, 51.40566071579686],
          [-0.404466006150263, 51.40567382472034],
          [-0.40238157495366, 51.40599345023738],
          [-0.402091330673251, 51.40607042863638],
          [-0.400254374638452, 51.40667216753273],
          [-0.399330250837154, 51.40707231987033],
          [-0.3999243133866, 51.40780615330093],
          [-0.399919813443295, 51.4078114875576],
          [-0.398033450386208, 51.40830190588934],
          [-0.397193500974409, 51.408596177669345],
          [-0.397119553796502, 51.408572684250785],
          [-0.39708115878185, 51.40856046844104],
          [-0.397054205198917, 51.40801603357866],
          [-0.39704674637688, 51.407982658087555],
          [-0.391919697708744, 51.409364763644334],
          [-0.391190023579423, 51.409547196221936],
          [-0.390740680933647, 51.409608473371954],
          [-0.390464814232273, 51.40964335428001],
          [-0.387355296732813, 51.40941985181971],
          [-0.386994482192298, 51.40937621713927],
          [-0.381636722163049, 51.408118893419086],
          [-0.381358985637301, 51.40804401412132],
          [-0.379428185498757, 51.40783387592354],
          [-0.378097679791769, 51.40788831178751],
          [-0.376428602424252, 51.40824559830419],
          [-0.376369296382643, 51.40825556809831],
          [-0.373520498543002, 51.40854970007866],
          [-0.373150635626423, 51.40859942271659],
          [-0.366623482108404, 51.411076078340145],
          [-0.366480708720124, 51.41112804483328],
          [-0.365115742479314, 51.411500194302384],
          [-0.364740027494675, 51.4115920734803],
          [-0.364398074263575, 51.41166463856247],
          [-0.36310247612728, 51.411905537856455],
          [-0.360353967183314, 51.41204066809423],
          [-0.35999020994815, 51.41203917423639],
          [-0.355624025646537, 51.4108502924273],
          [-0.3553572158443, 51.410752124361046],
          [-0.355144310211893, 51.40983367729382],
          [-0.355109316398915, 51.40980710721402],
          [-0.351117018797846, 51.407786972784294],
          [-0.350680625035527, 51.40760726868313],
          [-0.349942953153141, 51.40700964788774],
          [-0.349890815649859, 51.40698013646152],
          [-0.347154341748904, 51.40591098448699],
          [-0.347080650976102, 51.405881167769834],
          [-0.344109979196809, 51.40413417175309],
          [-0.343787728087548, 51.40398033520062],
          [-0.340636620986078, 51.403094017973416],
          [-0.340508587254028, 51.403016664319935],
          [-0.339181892801611, 51.401935804359105],
          [-0.338951924616418, 51.40173559971844],
          [-0.337205656633047, 51.39961819003673],
          [-0.337072304190683, 51.399489498927515],
          [-0.332462939662708, 51.39605438485473],
          [-0.332263780732886, 51.39591755740616],
          [-0.33085419410582, 51.39416007383396],
          [-0.330786277382702, 51.39409076091342],
          [-0.329190901627193, 51.39274158202753],
          [-0.32867192854647, 51.39230882031303],
          [-0.327958983196591, 51.39191375877227],
          [-0.327818034458714, 51.39183710769469],
          [-0.326701599090577, 51.391549589288545],
          [-0.325968049679674, 51.39144468791332],
          [-0.324845913904785, 51.39147181612895],
          [-0.324590386842972, 51.39150233517431],
          [-0.320046167956663, 51.39254338150913],
          [-0.319833041273832, 51.392593383261634],
          [-0.318267149672005, 51.39331552436463],
          [-0.317697995253164, 51.39366706731139],
          [-0.316321283092364, 51.392559164192406],
          [-0.315710248188217, 51.39197484527369],
          [-0.314251591434115, 51.390361259777066],
          [-0.314111710021691, 51.39021716247437],
          [-0.316467234581226, 51.38896866209511],
          [-0.316523073864135, 51.388935291864556],
          [-0.316789356531451, 51.38861088198641],
          [-0.316793612486244, 51.38857317363363],
          [-0.316594847470215, 51.38858470703575],
          [-0.316495894719564, 51.3882649428575],
          [-0.315958557181551, 51.387632227816255],
          [-0.313325694672303, 51.388763419411674],
          [-0.313166507483818, 51.38883217074087],
          [-0.312849958167597, 51.38848948760851],
          [-0.311717497385602, 51.38743092250615],
          [-0.311746245691735, 51.387235295306525],
          [-0.311800451688865, 51.38720729944186],
          [-0.311671270747526, 51.38712450403286],
          [-0.311341402720764, 51.38691022108646],
          [-0.31147743717121, 51.386845634953396],
          [-0.310846315093685, 51.38618636661789],
          [-0.311765052396594, 51.385785040001124],
          [-0.310642345742035, 51.38481563373988],
          [-0.31060832049245, 51.384763884773534],
          [-0.310543789134403, 51.3846037833898],
          [-0.310631840215827, 51.38451512537584],
          [-0.31026563297156, 51.383804816887945],
          [-0.310324463640923, 51.38365099042683],
          [-0.309631838158701, 51.38251691436995],
          [-0.309535313550821, 51.382445379077076],
          [-0.309475572055634, 51.381842905014494],
          [-0.309308137543076, 51.38186297166844],
          [-0.309295806755958, 51.381104708166035],
          [-0.309253886405789, 51.380447635402426],
          [-0.308494646813201, 51.380500528912634],
          [-0.307497737723765, 51.379008634709926],
          [-0.307365580290365, 51.37838353115364],
          [-0.307869226801068, 51.37836382521946],
          [-0.307941607041963, 51.37706182557063],
          [-0.307970631659583, 51.376663867191155],
          [-0.308434179293172, 51.37585941479433],
          [-0.308672021352028, 51.375448282409714],
          [-0.311518882591188, 51.37492548227813],
          [-0.312132020975021, 51.374818306868356],
          [-0.313863129505796, 51.374667864228186],
          [-0.314318266832903, 51.3746375405424],
          [-0.315199512895008, 51.37423204844431],
          [-0.315644605663591, 51.373965965316074],
          [-0.316671015827413, 51.37316596822804],
          [-0.316925815870544, 51.37291693122959],
          [-0.317374343440396, 51.37220305223439],
          [-0.317461598861998, 51.3720172557343],
          [-0.317925990934907, 51.370633642757106],
          [-0.3180059074498, 51.370294863810756],
          [-0.317882136524162, 51.36990819788932],
          [-0.318395800228026, 51.36698033669111],
          [-0.318499620394709, 51.36618506989056],
          [-0.318280944064674, 51.363682846391356],
          [-0.318261616803461, 51.36350451245797],
          [-0.319036447087354, 51.36231150673899],
          [-0.319522813820717, 51.36048216831794],
          [-0.319768590890525, 51.35992814492012],
          [-0.319933180830774, 51.35963014881686],
          [-0.320141354426512, 51.35959356728543],
          [-0.320055523398377, 51.35942686952013],
          [-0.320235615705487, 51.359097620915904],
          [-0.321193805419348, 51.35767974206181],
          [-0.321505480139874, 51.35720850400333],
          [-0.323511362929464, 51.35466896957663],
          [-0.323729020960596, 51.354411302213556],
          [-0.324135087219171, 51.354106872620925],
          [-0.324430243556396, 51.35388988064954],
          [-0.325742448250309, 51.35335111634372],
          [-0.326456321172676, 51.353033095898866],
          [-0.327923372181523, 51.35218448120632],
          [-0.328022875745287, 51.352133745741426],
          [-0.330343680297199, 51.34857798766072],
          [-0.330510277697048, 51.348419400246705],
          [-0.32815384115355, 51.34403975707272],
          [-0.327457258749427, 51.3440055279265],
          [-0.327772605074126, 51.34390212425017],
          [-0.327883257556869, 51.34374184201325],
          [-0.327986640753133, 51.342952888820776],
          [-0.328177737976708, 51.34231805840352],
          [-0.328885661029366, 51.34077697960183],
          [-0.328955765400316, 51.34023124332815],
          [-0.328845740255815, 51.3386775871998],
          [-0.32887696376168, 51.33817445924589],
          [-0.329690234998456, 51.332864367475985],
          [-0.32969529605732, 51.33276462403468],
          [-0.329089557016808, 51.33039457601624],
          [-0.329092925980403, 51.33026243577019],
          [-0.329405393195252, 51.32984065473913],
          [-0.329610206130848, 51.32965563570143],
          [-0.330655688307807, 51.329009604869015],
          [-0.330741277793038, 51.32902431376785],
          [-0.332143116664817, 51.32761539749073],
          [-0.33226349477094, 51.3275020093306],
          [-0.335773217637789, 51.32531373464677],
          [-0.336662922983478, 51.324921714348605],
          [-0.340944381518382, 51.32356792919539],
          [-0.34149453833715, 51.323395871082504],
          [-0.345080300148429, 51.32250237798569],
          [-0.345209584562115, 51.322459241794746],
          [-0.351934825826937, 51.319417422245074],
          [-0.352499117936906, 51.319128598036755],
          [-0.354685483689662, 51.317182718709134],
          [-0.354991870717515, 51.31692173437914],
          [-0.356938896116937, 51.31548413372581],
          [-0.357040974644242, 51.31539833540636],
          [-0.358057858174642, 51.31336314165619],
          [-0.358197848266219, 51.313179852590736],
          [-0.35857131533501, 51.31288742491119],
          [-0.358660724597049, 51.31283472087878],
          [-0.359735089829169, 51.312482861385206],
          [-0.359846522263622, 51.312416076346906],
          [-0.36011934363505, 51.31188752407884],
          [-0.360316061157068, 51.311803047401256],
          [-0.360820597839415, 51.31193870309333],
          [-0.361435459949083, 51.31195809444463],
          [-0.363749547295629, 51.31184654854323],
          [-0.363955770730958, 51.31189798902377],
          [-0.364109003410633, 51.312148328329556],
          [-0.364064461573971, 51.3123113744637],
          [-0.363747259023147, 51.312556044421335],
          [-0.363665021681052, 51.31264931983824],
          [-0.363652818756322, 51.312871270283985],
          [-0.36372187262996, 51.312946874423474],
          [-0.364988320846827, 51.3128818198757],
          [-0.365220201873553, 51.31297857984544],
          [-0.365352262790703, 51.31309822724017],
          [-0.36546363514697, 51.313275139451875],
          [-0.365526444602248, 51.31372835068474],
          [-0.365620644064847, 51.31386365654741],
          [-0.366976997626613, 51.314823208514376],
          [-0.367300909261279, 51.31487448458688],
          [-0.367988210039281, 51.31447129255004],
          [-0.368078825390735, 51.31434395840942],
          [-0.368423640834388, 51.31319948809286],
          [-0.368651426653147, 51.312926582803634],
          [-0.370576320105501, 51.31177262267477],
          [-0.371080296054916, 51.31139833873413],
          [-0.371362501588926, 51.31064147642856],
          [-0.37142868809332, 51.310514699610295],
          [-0.37192348435972, 51.30991276834426],
          [-0.372189350353443, 51.30969793922552],
          [-0.373292471419502, 51.309298696447975],
          [-0.373448367685665, 51.30927208427002],
          [-0.373624271245688, 51.30953171861276],
          [-0.373733045866168, 51.30962045814789],
          [-0.377288108096979, 51.31032082707771],
          [-0.377453036699857, 51.31036357863516],
          [-0.377789453458081, 51.31058855907187],
          [-0.378154086379061, 51.31119342193806],
          [-0.378522674265015, 51.31160499475811],
          [-0.378741884132182, 51.31275370070587],
          [-0.378826787203944, 51.31290955028023],
          [-0.380079435628205, 51.31347992839882],
          [-0.380425002668023, 51.31356833798255],
          [-0.384039307302226, 51.31304360966975],
          [-0.384360842242876, 51.31291764979448],
          [-0.384921625929043, 51.31259804733623],
          [-0.385162700325124, 51.31243410701186],
          [-0.385198211557806, 51.311994853501226],
          [-0.385288619135237, 51.311790167036676],
          [-0.386478815859173, 51.31099273005528],
          [-0.386639187193954, 51.31083846632551],
          [-0.386562952004838, 51.31014857543366],
          [-0.386575041217367, 51.310008455863525],
          [-0.387291723324975, 51.30974225079843],
          [-0.387481494889565, 51.30973137472859],
          [-0.387676845157262, 51.309725071500395],
          [-0.388106991954872, 51.309774157291066],
          [-0.38977018558088, 51.31038066121819],
          [-0.389995596746569, 51.310458399342465],
          [-0.391155811820213, 51.31018657659694],
          [-0.391243311252869, 51.31022824558173],
          [-0.392115863573513, 51.31071504101755],
          [-0.392139018134572, 51.310750430330174],
          [-0.391373633952596, 51.31117876343137],
          [-0.391363484297247, 51.311345887880826],
          [-0.391463425307666, 51.31160624963345],
          [-0.391505117535054, 51.31168595777847],
          [-0.392183754010956, 51.312138614483764],
          [-0.392387634189342, 51.312216951449976],
          [-0.393872320746618, 51.312310160378246],
          [-0.394258667519017, 51.3123406370076],
          [-0.395255598882191, 51.3126780358205],
          [-0.395525804230523, 51.31274738391255],
          [-0.396926681619084, 51.312816923938406]
        ]
      ]
    ]
  }
}
