{
  "type": "Feature",
  "properties": {
    "name": "Mole Valley",
    "level": 2,
    "center": [-0.3209, 51.1954]
  },
  "geometry": {
    "type": "MultiPolygon",
    "coordinates": [
      [
        [
          [-0.396926681619084, 51.312816923938406],
          [-0.396201649394473, 51.31274674791414],
          [-0.395525804230523, 51.31274738391255],
          [-0.394510570202384, 51.31239984466285],
          [-0.394258667519017, 51.3123406370076],
          [-0.392601470862251, 51.31225675618603],
          [-0.392387634189342, 51.312216951449976],
          [-0.391505117535054, 51.31168595777847],
          [-0.391463425307666, 51.31160624963345],
          [-0.391373633952596, 51.31117876343137],
          [-0.391444558838686, 51.31107901950339],
          [-0.392010719096484, 51.31089075328702],
          [-0.392153568018771, 51.31078570151379],
          [-0.391542928291252, 51.31039962456281],
          [-0.391243311252869, 51.31022824558173],
          [-0.391155811820213, 51.31018657659694],
          [-0.390913008867804, 51.31019583080351],
          [-0.390200359455337, 51.31047020660942],
          [-0.389995596746569, 51.310458399342465],
          [-0.389157354263739, 51.31009885638977],
          [-0.388804452345329, 51.30997439933309],
          [-0.387676845157262, 51.309725071500395],
          [-0.387481494889565, 51.30973137472859],
          [-0.386726110570096, 51.30987384785535],
          [-0.386575041217367, 51.310008455863525],
          [-0.386706182532061, 51.310687412572456],
          [-0.386639187193954, 51.31083846632551],
          [-0.385795783156524, 51.31140327751379],
          [-0.385288619135237, 51.311790167036676],
          [-0.385162700325124, 51.31243410701186],
          [-0.384921625929043, 51.31259804733623],
          [-0.384360842242876, 51.31291764979448],
          [-0.384039307302226, 51.31304360966975],
          [-0.380696425463023, 51.313602664818376],
          [-0.380425002668023, 51.31356833798255],
          [-0.379020340603508, 51.3130767950357],
          [-0.378826787203944, 51.31290955028023],
          [-0.3786281603731, 51.31190950926986],
          [-0.378522674265015, 51.31160499475811],
          [-0.377789453458081, 51.31058855907187],
          [-0.377453036699857, 51.31036357863516],
          [-0.375681301571218, 51.30999100893651],
          [-0.375212767570525, 51.30997282133326],
          [-0.373585865488659, 51.30948172539726],
          [-0.373448367685665, 51.30927208427002],
          [-0.372189350353443, 51.30969793922552],
          [-0.37192348435972, 51.30991276834426],
          [-0.371501917395044, 51.31039161775017],
          [-0.37142868809332, 51.310514699610295],
          [-0.371224433578915, 51.311177322779386],
          [-0.371080296054916, 51.31139833873413],
          [-0.369083658902352, 51.31259357405866],
          [-0.368651426653147, 51.312926582803634],
          [-0.368423640834388, 51.31319948809286],
          [-0.368309758401549, 51.313497360457575],
          [-0.368163735267826, 51.31421564546604],
          [-0.368078825390735, 51.31434395840942],
          [-0.367328447002467, 51.314866774825504],
          [-0.367300909261279, 51.31487448458688],
          [-0.366976997626613, 51.314823208514376],
          [-0.366773724417299, 51.31472864940675],
          [-0.365872664340496, 51.31408029958689],
          [-0.365620644064847, 51.31386365654741],
          [-0.365352262790703, 51.31309822724017],
          [-0.365220201873553, 51.31297857984544],
          [-0.364723194932412, 51.31283225703167],
          [-0.364441142806905, 51.3128148312084],
          [-0.36390789950968, 51.31296116265657],
          [-0.36372187262996, 51.312946874423474],
          [-0.36363221220317, 51.31276486808598],
          [-0.363665021681052, 51.31264931983824],
          [-0.363933491017211, 51.31244353774387],
          [-0.364064461573971, 51.3123113744637],
          [-0.364014629639611, 51.31193747966205],
          [-0.363955770730958, 51.31189798902377],
          [-0.360510382804474, 51.311906485373534],
          [-0.360316061157068, 51.311803047401256],
          [-0.36011934363505, 51.31188752407884],
          [-0.360021965790436, 51.311962599566634],
          [-0.359890797188885, 51.31238162436427],
          [-0.359846522263622, 51.312416076346906],
          [-0.358266130981066, 51.31311606153188],
          [-0.358197848266219, 51.313179852590736],
          [-0.357193722706475, 51.31521972281982],
          [-0.357040974644242, 51.31539833540636],
          [-0.354627937975057, 51.31722687430562],
          [-0.354446308697972, 51.31737000580098],
          [-0.352676328209247, 51.31898900458812],
          [-0.352499117936906, 51.319128598036755],
          [-0.345651728631621, 51.32225685957628],
          [-0.345336096857937, 51.3224133684843],
          [-0.343130227603062, 51.32293072852292],
          [-0.34149453833715, 51.323395871082504],
          [-0.336662922983478, 51.324921714348605],
          [-0.335773217637789, 51.32531373464677],
          [-0.332665446305853, 51.32722357373407],
          [-0.33226349477094, 51.3275020093306],
          [-0.331051339196107, 51.32866813836389],
          [-0.330741277793038, 51.32902431376785],
          [-0.33013388126577, 51.3275687741157],
          [-0.330115658093691, 51.32751725748591],
          [-0.328290937147427, 51.32646248744589],
          [-0.327574219754302, 51.32631826539581],
          [-0.327299652820758, 51.326684830364684],
          [-0.324425382002831, 51.3266266474137],
          [-0.32423660072151, 51.32664732592368],
          [-0.322078707779439, 51.32733221656496],
          [-0.321750945306915, 51.32742463688972],
          [-0.320058867492832, 51.32765485582058],
          [-0.319585130520309, 51.3277352838459],
          [-0.316826774602388, 51.32909579819538],
          [-0.316741688114897, 51.32914583285062],
          [-0.313932405353086, 51.33126362779588],
          [-0.313692873659495, 51.33141485102748],
          [-0.312753351910452, 51.331864438550014],
          [-0.312580241835719, 51.33192669172742],
          [-0.311580084660241, 51.33215058708098],
          [-0.310929635809149, 51.33238940572966],
          [-0.309857403642825, 51.332933276786655],
          [-0.309620753286275, 51.333083634247245],
          [-0.307705866765492, 51.33448399607395],
          [-0.307612307933513, 51.33460763949395],
          [-0.306600316722927, 51.33491674947668],
          [-0.306192171942388, 51.33508440535332],
          [-0.306106065038948, 51.33465512318104],
          [-0.305984472943515, 51.334409672110965],
          [-0.305268774897347, 51.333262686290155],
          [-0.30500804021251, 51.33297565492435],
          [-0.297718942669038, 51.32625247570463],
          [-0.297429190586591, 51.32585979222742],
          [-0.296943406839472, 51.32579967753089],
          [-0.296302293700157, 51.32574809347714],
          [-0.29567648287567, 51.32547731054856],
          [-0.295625139331436, 51.325468470210474],
          [-0.293834501580043, 51.32529672641602],
          [-0.293570747527743, 51.32521015141049],
          [-0.29251633460525, 51.32527302814324],
          [-0.292361705806617, 51.32526268110372],
          [-0.292339790663869, 51.32511847603376],
          [-0.292278477744056, 51.324914343865395],
          [-0.291557513287246, 51.32496498474546],
          [-0.291306975115317, 51.32490917258366],
          [-0.29053303014009, 51.32445453370568],
          [-0.290431753423244, 51.32436042916545],
          [-0.289248832714953, 51.32313271618889],
          [-0.289076217208143, 51.32291166730196],
          [-0.28863228213267, 51.32180534793517],
          [-0.288541260705113, 51.32166732543049],
          [-0.287660463198853, 51.32111667289797],
          [-0.287295234614397, 51.32078848523008],
          [-0.28519515194863, 51.31625855601999],
          [-0.285129338620984, 51.31609931426003],
          [-0.284732800634178, 51.31407276684662],
          [-0.284651535212356, 51.31363541314244],
          [-0.284292144431196, 51.31303750349663],
          [-0.284205597743743, 51.31285727308845],
          [-0.28220106473452, 51.311780178247695],
          [-0.282065146185038, 51.31169274917831],
          [-0.281408281279039, 51.311223560084834],
          [-0.281162509519355, 51.311004117363495],
          [-0.280894071486825, 51.31062336537184],
          [-0.280751019828045, 51.310419819421256],
          [-0.280189878219081, 51.30896459080745],
          [-0.280036729842998, 51.308647587018136],
          [-0.279724388864286, 51.30829047489827],
          [-0.279537984263574, 51.30801884724767],
          [-0.278849072191491, 51.30652938638357],
          [-0.278782141947731, 51.306324263277006],
          [-0.278466389069431, 51.304525535786986],
          [-0.27829878083725, 51.30363726937942],
          [-0.278346854135684, 51.30346441369455],
          [-0.278426975894275, 51.30327854013335],
          [-0.278267676560765, 51.30228338016228],
          [-0.278207070086743, 51.302139501277956],
          [-0.275612735076141, 51.29878743956613],
          [-0.275314573156387, 51.29832261621406],
          [-0.273883349329664, 51.295636063491635],
          [-0.273811970778797, 51.29547404059391],
          [-0.273577911269416, 51.2942574660983],
          [-0.273548463904989, 51.294201276754976],
          [-0.270394806434639, 51.28941919644601],
          [-0.270290954757584, 51.28924410526128],
          [-0.270160284440873, 51.28890495243288],
          [-0.270139261500878, 51.28881561509885],
          [-0.270264958220056, 51.287417322812274],
          [-0.270246850755485, 51.287364898242885],
          [-0.269812637070759, 51.286860293809006],
          [-0.269480233178635, 51.28654693630521],
          [-0.269016326557362, 51.28542140081624],
          [-0.268956487132259, 51.28518221239539],
          [-0.268901805506989, 51.28419581466555],
          [-0.268873418036379, 51.28411176387339],
          [-0.267519491646176, 51.28190744181357],
          [-0.267265708926989, 51.28144956115934],
          [-0.267132726418647, 51.28079203263628],
          [-0.267093318920491, 51.280696127960205],
          [-0.266433001851968, 51.27961084066999],
          [-0.266388992947906, 51.279522960976635],
          [-0.266175583254015, 51.278564786634675],
          [-0.266180084255561, 51.278331045291694],
          [-0.266846905123487, 51.276881412680865],
          [-0.266887521963682, 51.276716549550244],
          [-0.266856356114884, 51.276135165373574],
          [-0.266713971326833, 51.27546131002418],
          [-0.267005516443914, 51.27464819653763],
          [-0.26705477086811, 51.2744061250293],
          [-0.266209811231946, 51.27335317599334],
          [-0.266125686637561, 51.27315049630783],
          [-0.266435274183498, 51.27136285247984],
          [-0.26637697491665, 51.27104544975609],
          [-0.266839891406348, 51.268992094175324],
          [-0.266874471188734, 51.2686445918623],
          [-0.266838634376359, 51.26837788025413],
          [-0.266518101379084, 51.26801972678687],
          [-0.266153598426076, 51.26654493666151],
          [-0.265775167089525, 51.26574528393762],
          [-0.26643364345425, 51.263065335039386],
          [-0.266473929951704, 51.262756584591386],
          [-0.265846258535368, 51.26149641593871],
          [-0.265744312290677, 51.26138699465029],
          [-0.264245504075856, 51.261032961900874],
          [-0.264122264696969, 51.26099426546823],
          [-0.263175531954914, 51.2602158544244],
          [-0.263015719725083, 51.26012086003631],
          [-0.261732454803288, 51.25960182911369],
          [-0.261522952604834, 51.25949440469261],
          [-0.261139799225101, 51.259127212048256],
          [-0.261076646882975, 51.259015664823465],
          [-0.260938053305994, 51.25839671072492],
          [-0.260834771805723, 51.25782953876556],
          [-0.260361637792852, 51.25783420206887],
          [-0.25922525859333, 51.25798188201638],
          [-0.258904289857813, 51.25771452500177],
          [-0.258792970404275, 51.25770207878825],
          [-0.257932839377683, 51.2578592486555],
          [-0.257684771970863, 51.25793829082874],
          [-0.25604116010898, 51.258650325710335],
          [-0.255869514233069, 51.258717013036566],
          [-0.254569914480055, 51.25901059558567],
          [-0.254426505304769, 51.25908849271946],
          [-0.253491853830512, 51.26026518447795],
          [-0.253347832495454, 51.260548103492184],
          [-0.251093380788685, 51.260620571684704],
          [-0.250865548055364, 51.260618967685396],
          [-0.24908577797875, 51.26026953663093],
          [-0.24887933395696, 51.260233177192255],
          [-0.248764879067475, 51.25958669274703],
          [-0.248729992644901, 51.25952412178196],
          [-0.247804220206985, 51.25914427348512],
          [-0.247636830664976, 51.259136373353854],
          [-0.244696946728493, 51.25948262795774],
          [-0.243747163741792, 51.259507956284885],
          [-0.24394569912358, 51.26009006037538],
          [-0.243486037760905, 51.26015420904275],
          [-0.24094743785533, 51.25986071497411],
          [-0.24091295611434, 51.25986289484433],
          [-0.240781281357036, 51.25997062737433],
          [-0.240699424133625, 51.26012497069285],
          [-0.240647585066945, 51.26054414902396],
          [-0.240686646705266, 51.26064725211316],
          [-0.239014202202842, 51.26011672873895],
          [-0.238932115993982, 51.260089415695084],
          [-0.238031949052637, 51.25997875534609],
          [-0.237708203514225, 51.25989924503564],
          [-0.236104822334061, 51.259251015811124],
          [-0.235472650594939, 51.25902926569822],
          [-0.232666055221191, 51.258290026879216],
          [-0.232011966269468, 51.25811739060718],
          [-0.228714756441916, 51.256908428077935],
          [-0.228614269327014, 51.25687543426345],
          [-0.228271819511522, 51.25650065569676],
          [-0.228206969049052, 51.256472696799115],
          [-0.227842988654874, 51.256397048244594],
          [-0.227344558475925, 51.256351737911665],
          [-0.227006837675485, 51.256152384646256],
          [-0.226744208369606, 51.255901110006384],
          [-0.226300410483265, 51.254622821566],
          [-0.22598004159442, 51.25378704315346],
          [-0.227373090364085, 51.253449322954054],
          [-0.227289384128282, 51.25316658430482],
          [-0.227555150910494, 51.25300064383057],
          [-0.22795609737338, 51.25282235958176],
          [-0.227813723751934, 51.252164637001336],
          [-0.22790736042975, 51.25136929945238],
          [-0.22860992941764, 51.2511353252262],
          [-0.228882251054899, 51.25105940831808],
          [-0.229383698233399, 51.25109936355802],
          [-0.229419640535156, 51.2510963098132],
          [-0.230302391585146, 51.250834474189546],
          [-0.230433442852324, 51.250817569547536],
          [-0.231080159200108, 51.25091816474666],
          [-0.231410384542769, 51.25090156909362],
          [-0.231518018347574, 51.250785390000125],
          [-0.231545002538427, 51.250679683635894],
          [-0.231517873125213, 51.250490427168735],
          [-0.231395621000897, 51.25042743053169],
          [-0.23150532410096, 51.25033196539966],
          [-0.23154080815047, 51.250042035558884],
          [-0.22830265518164, 51.24936180527541],
          [-0.227740445168959, 51.24922560198183],
          [-0.226566289629031, 51.24920333215877],
          [-0.22633838688495, 51.248869846378334],
          [-0.226490932030484, 51.24773547050909],
          [-0.226543776767686, 51.24755371753817],
          [-0.229604172000413, 51.24748581375517],
          [-0.229690130998231, 51.24733693415158],
          [-0.229764168186663, 51.247013414821],
          [-0.229735752367269, 51.24689518017819],
          [-0.229472537854222, 51.246510807408484],
          [-0.229215436686949, 51.24604199442287],
          [-0.229258127950417, 51.24560199471799],
          [-0.229253202096931, 51.24505875749064],
          [-0.229929580536579, 51.245056393389454],
          [-0.229992604969749, 51.24501957643619],
          [-0.230240471180416, 51.24427332671448],
          [-0.230283239374562, 51.2441669592565],
          [-0.230740178570755, 51.243610018243],
          [-0.231801516412273, 51.24223666918194],
          [-0.23112905793389, 51.24135329948164],
          [-0.231010188088596, 51.24116534995757],
          [-0.230636578283923, 51.24018577011614],
          [-0.230691226685274, 51.240105659543794],
          [-0.232164108324081, 51.238981309135625],
          [-0.232421299089124, 51.2387747576909],
          [-0.233531099963958, 51.23815121085994],
          [-0.233736709572963, 51.238019418992494],
          [-0.237013338816258, 51.237149724549504],
          [-0.237268519393112, 51.23706993225822],
          [-0.237773577008153, 51.23697411592754],
          [-0.237879422698703, 51.23697840673512],
          [-0.238948652831701, 51.23730205044309],
          [-0.239028899436818, 51.23730145873213],
          [-0.244098089202101, 51.236604195924635],
          [-0.244857045148906, 51.236310715543674],
          [-0.245505738369683, 51.235789856494826],
          [-0.245543308380618, 51.235743656381075],
          [-0.245605703302705, 51.235609697827414],
          [-0.245669867618015, 51.235504543024746],
          [-0.245494497870286, 51.23536971974372],
          [-0.245485159594135, 51.235351594018354],
          [-0.245551849200561, 51.23521769984425],
          [-0.245653612884433, 51.23510321624695],
          [-0.245934138469639, 51.23492126610235],
          [-0.245966325753377, 51.2348282221577],
          [-0.246139962311887, 51.234895572064175],
          [-0.246178686035882, 51.23489435352426],
          [-0.246463332543691, 51.234716960324995],
          [-0.246482354244787, 51.23470645372401],
          [-0.246482546175372, 51.234437568995915],
          [-0.246621529092826, 51.234323641999374],
          [-0.247145869571341, 51.234171419359626],
          [-0.247181526924869, 51.23413778016811],
          [-0.24684057216865, 51.233874579319625],
          [-0.246801249321472, 51.23362758027136],
          [-0.247371769467961, 51.233390610972585],
          [-0.24752046072205, 51.23324714887674],
          [-0.247792525712504, 51.23260821604547],
          [-0.247861586550211, 51.2325247146891],
          [-0.248643553516777, 51.23245277898575],
          [-0.248909084049132, 51.23228768095391],
          [-0.249801368936572, 51.23119487552447],
          [-0.249903145043106, 51.231079487055084],
          [-0.249934705352739, 51.23092707663908],
          [-0.24992468385715, 51.2308891559395],
          [-0.249589662973077, 51.230658421342916],
          [-0.249379973895888, 51.23044664674127],
          [-0.248863773126555, 51.22940382380815],
          [-0.248782895165067, 51.229119332106954],
          [-0.250111186575298, 51.22868954057162],
          [-0.250168820147116, 51.228642738755475],
          [-0.250210668061429, 51.228369974844476],
          [-0.250090521987971, 51.22817662651468],
          [-0.249339746050193, 51.22788122033713],
          [-0.24934911850583, 51.22782290550064],
          [-0.25073577508005, 51.227136778421844],
          [-0.250728002337613, 51.22707730799361],
          [-0.250070759972851, 51.22677071355907],
          [-0.250049492119014, 51.226727228868974],
          [-0.250247387670838, 51.226040418115566],
          [-0.250254748137859, 51.225997361370254],
          [-0.250172572737695, 51.22574702482076],
          [-0.250007616616482, 51.22552692639925],
          [-0.249129286570026, 51.225386090112835],
          [-0.249100897388801, 51.22534159921969],
          [-0.249155459547432, 51.224280328263916],
          [-0.24913248969201, 51.22424401223058],
          [-0.24760294900179, 51.224356920537126],
          [-0.247549239691417, 51.22433813024021],
          [-0.246925689179607, 51.223409696676654],
          [-0.246889088900098, 51.22339296091938],
          [-0.246578356887636, 51.22335413295098],
          [-0.246547889548322, 51.22336446831498],
          [-0.246459932312605, 51.2239459049351],
          [-0.246435665593053, 51.22398151389319],
          [-0.245585379555627, 51.22442292578028],
          [-0.245522328667353, 51.22446155051042],
          [-0.245013981983302, 51.22457263942521],
          [-0.244992682378881, 51.2245678235292],
          [-0.244715690628271, 51.22409333012473],
          [-0.244319545889502, 51.22411616722241],
          [-0.244181547716092, 51.2242049279108],
          [-0.244177454707797, 51.22423724175532],
          [-0.244197421248127, 51.22427711098033],
          [-0.244431695672257, 51.22451894245577],
          [-0.24437238330197, 51.22464755384876],
          [-0.244348900575298, 51.224662489959144],
          [-0.24332577980892, 51.22467681785944],
          [-0.24290140252318, 51.22476397697026],
          [-0.242580187814027, 51.224586486974864],
          [-0.242542538499122, 51.224522070557335],
          [-0.243003509500523, 51.224225922261375],
          [-0.243015917825493, 51.22420092776226],
          [-0.242606829377594, 51.22343486783846],
          [-0.242566176144186, 51.22341177468636],
          [-0.242353656233047, 51.223426570068014],
          [-0.242324277149365, 51.223445913801044],
          [-0.242210787018753, 51.223718499917624],
          [-0.242177113691019, 51.2237377791292],
          [-0.241589224965196, 51.22364351474353],
          [-0.241533095103887, 51.22365076536741],
          [-0.241034165828068, 51.22389058015897],
          [-0.240967029979405, 51.223885974067166],
          [-0.240308160707302, 51.223399435598694],
          [-0.240203784315434, 51.223357397409],
          [-0.239386359084303, 51.22353665919936],
          [-0.239068442010007, 51.223498602496356],
          [-0.238074636693185, 51.223158096774554],
          [-0.237989958315053, 51.22312534621663],
          [-0.237674252681774, 51.22284180656059],
          [-0.23759955996639, 51.222810105365376],
          [-0.235388223012793, 51.22236400565062],
          [-0.235368597156062, 51.22235291802994],
          [-0.236060055997127, 51.22183454370428],
          [-0.23604807776044, 51.22177320989932],
          [-0.23549532069425, 51.22158501618846],
          [-0.235410005647532, 51.22153156992869],
          [-0.234834160632729, 51.22097340720056],
          [-0.234846480936595, 51.22091333898356],
          [-0.235035358388756, 51.220617614981585],
          [-0.235154699163036, 51.220380196976556],
          [-0.236010367931273, 51.2200234771252],
          [-0.236005258454289, 51.21989479829505],
          [-0.235595093120925, 51.21961072849029],
          [-0.235559667448364, 51.2195634301878],
          [-0.23564586670772, 51.219256264942885],
          [-0.235629619490643, 51.21923173857702],
          [-0.23455918455055, 51.21902584363458],
          [-0.234524951073547, 51.21898485819937],
          [-0.234617430345471, 51.21866339932634],
          [-0.234643580962125, 51.218616130085174],
          [-0.235221587898625, 51.21832987100841],
          [-0.235211374935707, 51.21829734173166],
          [-0.235052538988177, 51.21821940449977],
          [-0.234494891862769, 51.21823527643505],
          [-0.23380794439036, 51.21695148533128],
          [-0.233740628268993, 51.2168020830652],
          [-0.234092319188532, 51.21655468247702],
          [-0.234095628084367, 51.21654304133441],
          [-0.233764258163592, 51.21633389784549],
          [-0.233828721208429, 51.21603360083304],
          [-0.234332122536217, 51.215825360320814],
          [-0.234346685649668, 51.21578151368148],
          [-0.233761453417695, 51.215321229619626],
          [-0.233759587898766, 51.21529512140517],
          [-0.234836182115948, 51.214550542920385],
          [-0.234825626731228, 51.21452700161667],
          [-0.234668567338954, 51.21447786878111],
          [-0.234180138167068, 51.21436977851423],
          [-0.233328106169938, 51.21381013976364],
          [-0.233273740218682, 51.213771548065935],
          [-0.23302220372696, 51.21342241508193],
          [-0.232914010467912, 51.21336862163309],
          [-0.232391152115319, 51.21344975907401],
          [-0.232320757766834, 51.213455890528216],
          [-0.231660151106635, 51.21324536559679],
          [-0.231567721185883, 51.21322868086904],
          [-0.230798199367498, 51.213357345163466],
          [-0.230506929469766, 51.21333585539776],
          [-0.230025612158518, 51.21364063992692],
          [-0.229957907057366, 51.21365130719203],
          [-0.228651912224278, 51.21354341814573],
          [-0.22862172327264, 51.21354655854501],
          [-0.228115236680239, 51.213872537894076],
          [-0.228032634564265, 51.21389826686862],
          [-0.227322937187485, 51.213922594336694],
          [-0.227240421197924, 51.21390875426895],
          [-0.227028995014541, 51.21378414470367],
          [-0.227008686100605, 51.21371638857729],
          [-0.2273245441205, 51.213544907039456],
          [-0.227324975590367, 51.21349635064795],
          [-0.227018036999792, 51.213323530229005],
          [-0.226954125131314, 51.21330997174802],
          [-0.22593951798391, 51.21322085479622],
          [-0.22591120879906, 51.21321233190897],
          [-0.22565763287998, 51.212768723925564],
          [-0.225070578227397, 51.21232185764212],
          [-0.225260090945171, 51.21223390052421],
          [-0.225337055959301, 51.21216851823384],
          [-0.226394936554788, 51.210794213374854],
          [-0.226458605208372, 51.21073942064214],
          [-0.22797944032564, 51.21013383420867],
          [-0.228632750246944, 51.20982356721123],
          [-0.230300529919408, 51.21016445387948],
          [-0.230397418007164, 51.21017671048055],
          [-0.232264836807784, 51.20975347266671],
          [-0.232427902627985, 51.20971996271732],
          [-0.232461257558673, 51.20952171812357],
          [-0.23246041120901, 51.20950641701302],
          [-0.233298917672314, 51.209181833630325],
          [-0.233552196957566, 51.2090354709339],
          [-0.23227859571884, 51.208233839615474],
          [-0.230724156626865, 51.2072525826495],
          [-0.23196981352588, 51.20680016422913],
          [-0.232252463837405, 51.20670910602472],
          [-0.234869054742876, 51.206270159491794],
          [-0.2347587010463, 51.206085934301946],
          [-0.233396942730934, 51.20493315108684],
          [-0.232671835612776, 51.20431606598011],
          [-0.231602109632897, 51.20473697593866],
          [-0.231556381031069, 51.20477225764616],
          [-0.231399397394773, 51.20498392273109],
          [-0.231068434391425, 51.20547714201019],
          [-0.229712745596093, 51.20682180613602],
          [-0.229549002496377, 51.20694793155296],
          [-0.228339237521924, 51.206986283182246],
          [-0.22828807338781, 51.206976515575406],
          [-0.226598806852385, 51.20589333796288],
          [-0.226502827570542, 51.20578306649396],
          [-0.226248273032328, 51.205179365478166],
          [-0.226235878335578, 51.20460721271488],
          [-0.226196330467346, 51.20418303553953],
          [-0.2247710266657, 51.20398336171391],
          [-0.224486943286766, 51.203888221666425],
          [-0.223368737565452, 51.20389283707369],
          [-0.223051813554337, 51.203870039645935],
          [-0.222943417732828, 51.20307789479199],
          [-0.22293132306631, 51.20302015490292],
          [-0.223201257638318, 51.20244059661838],
          [-0.223353064907064, 51.202029215463064],
          [-0.224743452940677, 51.20216722385033],
          [-0.224882039741772, 51.201801505378334],
          [-0.225116587346968, 51.20128525748336],
          [-0.225057215179324, 51.20081851113155],
          [-0.224998809986305, 51.200662043619204],
          [-0.224160937931545, 51.199258990568715],
          [-0.224143154871267, 51.19920026517618],
          [-0.224153329570985, 51.19837664560814],
          [-0.224144687720774, 51.19822902656189],
          [-0.22360797252504, 51.19599327403358],
          [-0.223585001897218, 51.195957852028386],
          [-0.222912647622265, 51.19583702916143],
          [-0.221087503721922, 51.1960296351791],
          [-0.220989484022878, 51.19608480228051],
          [-0.22100543261732, 51.19641419471889],
          [-0.221022887152284, 51.19644413748596],
          [-0.221319298160868, 51.196626707260144],
          [-0.221324293746479, 51.196645668834854],
          [-0.221219834696021, 51.19716568509709],
          [-0.221205497648732, 51.197277881806336],
          [-0.221699134256403, 51.19731955720704],
          [-0.221759533756593, 51.19753541161792],
          [-0.221195607486254, 51.197646451387726],
          [-0.221084524682905, 51.19766904461828],
          [-0.221184266624508, 51.19816428547633],
          [-0.221186262901009, 51.19818679873443],
          [-0.221477526353382, 51.198280257452296],
          [-0.221468355260138, 51.198295406473],
          [-0.22133487926376, 51.19834194120431],
          [-0.220961951451568, 51.198399225362635],
          [-0.220649887889024, 51.19828836212287],
          [-0.2206264458839, 51.198302394800486],
          [-0.220499108981731, 51.19878429118795],
          [-0.220481008177477, 51.198808297527634],
          [-0.220153253044114, 51.198844682323866],
          [-0.220090424516732, 51.19887790089566],
          [-0.219856596952806, 51.199262849466805],
          [-0.219851751406384, 51.19927716483315],
          [-0.219874247328611, 51.19936204274844],
          [-0.219955534716371, 51.19944421755669],
          [-0.220423142898012, 51.1994189530039],
          [-0.220434275905918, 51.19942721612812],
          [-0.219988586061827, 51.19970102544469],
          [-0.219995473296474, 51.1997451966998],
          [-0.220011393962486, 51.199777814223225],
          [-0.220184319421009, 51.20000797108356],
          [-0.220700621377215, 51.20024244902497],
          [-0.220700275351243, 51.20025143692897],
          [-0.220048654204779, 51.2005571889648],
          [-0.22004964609124, 51.200605767172995],
          [-0.220174614890859, 51.20078033651028],
          [-0.220230927251396, 51.20087921839247],
          [-0.220661078148081, 51.20097209308784],
          [-0.220652817739651, 51.20100074565048],
          [-0.220223058494211, 51.20104637170494],
          [-0.220090981139952, 51.20101918232304],
          [-0.219684131368102, 51.201250414109616],
          [-0.219659810917526, 51.201250044167296],
          [-0.219409484994011, 51.20195130067028],
          [-0.219361027252595, 51.20198293886762],
          [-0.218716631297727, 51.2019146778088],
          [-0.21855024175528, 51.20184919316965],
          [-0.218535617946635, 51.20170867711988],
          [-0.218437894091964, 51.20149585011894],
          [-0.218052277990559, 51.20117611860493],
          [-0.217673232646385, 51.20087177489416],
          [-0.216978597856108, 51.20058510650891],
          [-0.216733595815267, 51.20047975179902],
          [-0.215919720031035, 51.19990797612626],
          [-0.214658272660587, 51.19947326034092],
          [-0.215643068727853, 51.19828678802683],
          [-0.215766330130867, 51.198097112285275],
          [-0.216033931326519, 51.19728281220187],
          [-0.216033325203121, 51.19722434735877],
          [-0.21570603358008, 51.19628496874054],
          [-0.215311390116506, 51.19553341888127],
          [-0.213957855984636, 51.19429959648798],
          [-0.212820728544616, 51.19331907244625],
          [-0.214641808419731, 51.193155305921],
          [-0.214874191461019, 51.19317863483695],
          [-0.215640671677874, 51.19297268580855],
          [-0.215819066666013, 51.19291155336553],
          [-0.215495553100261, 51.19235713904537],
          [-0.215560040569246, 51.19228078075676],
          [-0.218001380355875, 51.1916183006345],
          [-0.218065951824971, 51.19161388766567],
          [-0.218779199697009, 51.19104288583132],
          [-0.218936431526426, 51.19093646124598],
          [-0.219243667665508, 51.19094833094531],
          [-0.219364872712302, 51.190996939602805],
          [-0.220655862571035, 51.190771060490995],
          [-0.220905552794631, 51.19082791611094],
          [-0.221513021904349, 51.19118248671101],
          [-0.221634843331655, 51.19128955796986],
          [-0.221789103258891, 51.1917811303958],
          [-0.221815821116106, 51.19186787077755],
          [-0.223927895686075, 51.19191343076514],
          [-0.224374468943623, 51.191912112896915],
          [-0.226181720985373, 51.191733573989985],
          [-0.226155185206075, 51.1916045695866],
          [-0.227165112433544, 51.19157940266261],
          [-0.227229521847886, 51.18937705359383],
          [-0.227276857238106, 51.18922488681807],
          [-0.227477983249659, 51.18875669136259],
          [-0.227602187083256, 51.18857780984083],
          [-0.228443567961384, 51.18787019680668],
          [-0.228469625516825, 51.187451509837544],
          [-0.22970619142677, 51.18722290972268],
          [-0.230182328902976, 51.18708352269587],
          [-0.230277330843646, 51.18718118616857],
          [-0.230346377933407, 51.187209209756496],
          [-0.232045949825183, 51.186734877733805],
          [-0.232131051389872, 51.18671727769739],
          [-0.232495276310481, 51.18669759835255],
          [-0.233447118020879, 51.18661664280318],
          [-0.233497811530208, 51.18697533554096],
          [-0.233966739535326, 51.18754898141738],
          [-0.234340732845554, 51.18779833888871],
          [-0.234788211288823, 51.18758475698546],
          [-0.234883404060641, 51.18752773728978],
          [-0.235125588784783, 51.18714378562251],
          [-0.235170644802857, 51.18712557958052],
          [-0.235630542796194, 51.187036288469024],
          [-0.235664764304385, 51.18703950242574],
          [-0.235778272499639, 51.18725255285898],
          [-0.235821305508009, 51.187287375634725],
          [-0.236181669764578, 51.18733147881752],
          [-0.23650797771492, 51.18725545879653],
          [-0.236611947522808, 51.18708076007018],
          [-0.236720479256508, 51.18704912099612],
          [-0.236354551783647, 51.186925795908564],
          [-0.236364572385403, 51.186888175734055],
          [-0.236445232105602, 51.18664927447354],
          [-0.236486254960392, 51.18654916953241],
          [-0.236737032044862, 51.18646481606554],
          [-0.236791172717106, 51.18647102781331],
          [-0.236921274613907, 51.186511658771224],
          [-0.237019920959965, 51.18666422993231],
          [-0.237005703480775, 51.18688704566557],
          [-0.237037775327223, 51.1869091124316],
          [-0.237955882307022, 51.18692474033927],
          [-0.238022861104612, 51.18693204414347],
          [-0.238397435313022, 51.18709146664771],
          [-0.238451048329934, 51.18718670172071],
          [-0.238127201432307, 51.18723578473609],
          [-0.237996292798775, 51.18729136962114],
          [-0.238003250994438, 51.18755946992437],
          [-0.238008526649888, 51.18757124044582],
          [-0.238348301857919, 51.187742729370825],
          [-0.238361713810753, 51.1877663134445],
          [-0.238011952311694, 51.18811987343446],
          [-0.238023660034203, 51.18815062639446],
          [-0.238522955871618, 51.188605102429065],
          [-0.238534664066615, 51.18863585533365],
          [-0.238275996855539, 51.18862656539569],
          [-0.237929759114161, 51.18854940703079],
          [-0.237808681774233, 51.18894777834454],
          [-0.237823104905374, 51.18901994064097],
          [-0.238133534543843, 51.18936095829385],
          [-0.238179671610296, 51.18938953165803],
          [-0.238472182548771, 51.189449692742656],
          [-0.238511107726487, 51.189442184871794],
          [-0.238755836778015, 51.18917877248946],
          [-0.238903790680067, 51.18905149815189],
          [-0.239312007042299, 51.18915476685515],
          [-0.239558276828405, 51.18900109227337],
          [-0.239614261781079, 51.188996538635486],
          [-0.239839721453152, 51.18905119102595],
          [-0.239856337144808, 51.18906582996209],
          [-0.239824018319871, 51.18927578304656],
          [-0.239837773572688, 51.189290378956905],
          [-0.240926080092064, 51.189197027817876],
          [-0.241402775675634, 51.18911785878663],
          [-0.241598158149869, 51.189511995727926],
          [-0.241603742525765, 51.189515676890714],
          [-0.241858963968434, 51.18935223966239],
          [-0.241891078876028, 51.189335635236795],
          [-0.242834216153734, 51.18952246913526],
          [-0.242900623091627, 51.18950727867407],
          [-0.243220887985661, 51.189289057888146],
          [-0.243227701483473, 51.18926038220678],
          [-0.242985206109549, 51.188900613991336],
          [-0.243006970881797, 51.18885507588894],
          [-0.243264077408869, 51.188830158043274],
          [-0.243403084329001, 51.18882505032814],
          [-0.243596179047985, 51.18830005291978],
          [-0.243689866990769, 51.18820703142641],
          [-0.24431631410897, 51.188103119023275],
          [-0.244342058127088, 51.1881035052821],
          [-0.244556815755919, 51.188327058499574],
          [-0.244591141290176, 51.188327573438805],
          [-0.244910093483387, 51.18814350243129],
          [-0.244966417904139, 51.18812995824119],
          [-0.24512081597184, 51.186776112681024],
          [-0.24513839499854, 51.18661450030289],
          [-0.244388266983723, 51.18560411264269],
          [-0.244248294120447, 51.18544643142323],
          [-0.244067186160707, 51.18486455681046],
          [-0.244017922354477, 51.18476759110131],
          [-0.24364308649271, 51.184464292695935],
          [-0.243454598712083, 51.18430318416147],
          [-0.243263849596506, 51.18393789744635],
          [-0.243213189073648, 51.18387778216692],
          [-0.243138262766589, 51.183025019523456],
          [-0.243069673135108, 51.18283423714945],
          [-0.24162603995619, 51.18328288433736],
          [-0.240911969865059, 51.18343492408558],
          [-0.23997895452135, 51.18339930945495],
          [-0.239088041568124, 51.18346054627157],
          [-0.239120404445453, 51.18373801814393],
          [-0.23912085453928, 51.18406447392861],
          [-0.237888130256262, 51.184308514542],
          [-0.23724080194149, 51.18447323063002],
          [-0.236294677338208, 51.18354257534753],
          [-0.236167361073163, 51.183429142639405],
          [-0.236446046544158, 51.18332542736899],
          [-0.236464201155211, 51.18329962125733],
          [-0.236676887181302, 51.18267511412709],
          [-0.236674198419525, 51.1826705770945],
          [-0.236420301730348, 51.18264966354843],
          [-0.236373350201979, 51.182642660706],
          [-0.234623996966052, 51.18131498802634],
          [-0.234598713683767, 51.181265144920054],
          [-0.229907613635159, 51.18039029408553],
          [-0.228942534368316, 51.180259679491385],
          [-0.229017497404454, 51.179273375447],
          [-0.228982762331004, 51.17920899888427],
          [-0.22830614268319, 51.17860790996274],
          [-0.227736389230572, 51.17813074125125],
          [-0.225671620124394, 51.17724150357019],
          [-0.225432180951812, 51.1771056732684],
          [-0.223888672242538, 51.17505071096638],
          [-0.223761652107682, 51.17493097356945],
          [-0.223194305729533, 51.17484052050962],
          [-0.222625386790473, 51.17482828015454],
          [-0.221961381887958, 51.17494499080218],
          [-0.221729539600435, 51.175021504573124],
          [-0.221059831305475, 51.17580720843102],
          [-0.221003333460946, 51.17589987773249],
          [-0.219986295858947, 51.17626751365564],
          [-0.219970636856084, 51.17626547675429],
          [-0.218803770959902, 51.17524768075541],
          [-0.218728177678834, 51.17516739075453],
          [-0.218071073997529, 51.17406472647113],
          [-0.218035447986153, 51.17398684359876],
          [-0.214573213245525, 51.174325266174144],
          [-0.21447839764195, 51.174335510439064],
          [-0.213977001765114, 51.17468668271954],
          [-0.213915590734392, 51.17468394677218],
          [-0.213241588791551, 51.17417004419519],
          [-0.212881680704812, 51.174006269576516],
          [-0.212805147487215, 51.17365437006208],
          [-0.212749381278608, 51.17361664661329],
          [-0.211989852429806, 51.17346564997575],
          [-0.211910551266186, 51.173444653352256],
          [-0.211529162173268, 51.173207701873466],
          [-0.211092886480234, 51.1729474271372],
          [-0.21078881209113, 51.17241308390745],
          [-0.210762620898012, 51.17238750270005],
          [-0.209821275817436, 51.172314648701104],
          [-0.209701319884103, 51.17230921606521],
          [-0.207129893883631, 51.17254952840368],
          [-0.206877603493482, 51.17256274924429],
          [-0.202728906213823, 51.174185311875085],
          [-0.202589520030895, 51.1742380290853],
          [-0.201853268532846, 51.17363586717353],
          [-0.201648327162109, 51.17364530798503],
          [-0.200684503926146, 51.1737824793801],
          [-0.200593452332602, 51.17380626049469],
          [-0.20007476572437, 51.174231755861264],
          [-0.200000625156541, 51.174262091810064],
          [-0.199432536080655, 51.17419220072293],
          [-0.199380925524858, 51.174195004049245],
          [-0.197929966357046, 51.17453419980631],
          [-0.196922307741982, 51.17535504753984],
          [-0.197412105126562, 51.17592916336888],
          [-0.197644845602637, 51.17616117507923],
          [-0.197906107928976, 51.17621196234128],
          [-0.198077346713302, 51.17637018121815],
          [-0.199635253991473, 51.17898240107938],
          [-0.199569789571969, 51.17901017249485],
          [-0.200692435180244, 51.18005266068861],
          [-0.20073435049882, 51.18011535813665],
          [-0.200649417967113, 51.18057000853937],
          [-0.200623710456346, 51.180605586228],
          [-0.20011772865232, 51.180849617353594],
          [-0.199627016157823, 51.18110557232682],
          [-0.198639016047591, 51.18138175276981],
          [-0.198597407100432, 51.18138470974898],
          [-0.197822034789217, 51.18105081800852],
          [-0.197718663919782, 51.18102314619155],
          [-0.196438192321065, 51.18083705001603],
          [-0.195918716773082, 51.18076609258528],
          [-0.192835415780131, 51.18072752580783],
          [-0.192630618581189, 51.18073245782267],
          [-0.191604063291161, 51.18118874742671],
          [-0.191447122199472, 51.18128704685594],
          [-0.191327181777094, 51.18128069710014],
          [-0.190557456413048, 51.181462155747646],
          [-0.189876702812114, 51.181417456684414],
          [-0.189819610057973, 51.18141387585239],
          [-0.18971152521936, 51.181104636182596],
          [-0.189658488909673, 51.181070541045536],
          [-0.187698991549783, 51.1803585338232],
          [-0.187696075303568, 51.18032341509393],
          [-0.187712945435641, 51.18025802573382],
          [-0.188010217036626, 51.17982825494903],
          [-0.188990981064765, 51.17948190501855],
          [-0.189056593233938, 51.179450544490926],
          [-0.189806021738561, 51.178763362669606],
          [-0.189792772849074, 51.1783341809058],
          [-0.189619058328078, 51.178239763456325],
          [-0.189544740932588, 51.17823771471654],
          [-0.189085516605465, 51.178419468920076],
          [-0.188662105848041, 51.17830769699447],
          [-0.188613363114586, 51.17827366778854],
          [-0.188571219842369, 51.178217257619515],
          [-0.188749810535465, 51.1779313385641],
          [-0.188690896410964, 51.17786477637905],
          [-0.187548810372341, 51.17754582498754],
          [-0.187494596485234, 51.177505415328014],
          [-0.187653582040275, 51.17724527468991],
          [-0.187659118047255, 51.17717701185667],
          [-0.187417077017819, 51.17703746633399],
          [-0.187270272492135, 51.17673122178014],
          [-0.18735058228943, 51.17647076243036],
          [-0.187338453722756, 51.176451688825985],
          [-0.187031888099678, 51.17616994949934],
          [-0.18694697526896, 51.17607330604758],
          [-0.186244169810058, 51.17575395021251],
          [-0.186233048771386, 51.17574568397985],
          [-0.186348286469336, 51.17561616835541],
          [-0.186601097018469, 51.17548069006048],
          [-0.18661839477431, 51.17529479803654],
          [-0.186595356523999, 51.17526206546887],
          [-0.186352550927071, 51.17514229080754],
          [-0.18627544962695, 51.1751383981634],
          [-0.185767903183913, 51.17534906831425],
          [-0.185735053836888, 51.175347659840625],
          [-0.185405733997073, 51.17513571041846],
          [-0.185268598033959, 51.175094014093574],
          [-0.185124686039284, 51.175079192274545],
          [-0.184436020670879, 51.17509279383558],
          [-0.184071387247371, 51.17486950059184],
          [-0.183965460690529, 51.17483458209436],
          [-0.183279147321869, 51.17489767600997],
          [-0.182786620962953, 51.17465260846175],
          [-0.182634074333369, 51.17416550398271],
          [-0.182645368462417, 51.173950740754265],
          [-0.182911249407071, 51.173300160375554],
          [-0.18291070183152, 51.173277668755006],
          [-0.182450548686351, 51.1729737469486],
          [-0.182422731413472, 51.17295352983707],
          [-0.182137111501708, 51.17250392837143],
          [-0.182049725101184, 51.17243422243389],
          [-0.181872058116329, 51.17236851004364],
          [-0.181794361788392, 51.17237989367107],
          [-0.181122482232634, 51.172659037236826],
          [-0.181096500808032, 51.1726649287579],
          [-0.180204562984275, 51.172573722597264],
          [-0.180158125948422, 51.17255411477805],
          [-0.179172909609197, 51.17196142591212],
          [-0.179143735595774, 51.17193938826969],
          [-0.179003974856422, 51.17105587572378],
          [-0.178958565539465, 51.171010203001686],
          [-0.178133820868944, 51.170557598669426],
          [-0.177877843776654, 51.17044659437885],
          [-0.176663547813892, 51.17015159185088],
          [-0.17654272945572, 51.16980526831936],
          [-0.177285907113604, 51.16909558525944],
          [-0.177356891286531, 51.16892761754449],
          [-0.177108648128849, 51.16872949749474],
          [-0.177086837425641, 51.16870217806553],
          [-0.17714859366317, 51.16804213595867],
          [-0.177148942167859, 51.16792432980162],
          [-0.176833806556502, 51.16782679112791],
          [-0.176753169537695, 51.16769513294644],
          [-0.176659412333204, 51.166952630048456],
          [-0.176706370526838, 51.16684993973365],
          [-0.177449350996685, 51.16726980250119],
          [-0.177554248967077, 51.167293918938384],
          [-0.178480023635119, 51.16721300109573],
          [-0.178998639146863, 51.16711944751097],
          [-0.183078144910266, 51.165696269500465],
          [-0.185298055699155, 51.16481970087979],
          [-0.186044181992871, 51.16443107461017],
          [-0.186203457857588, 51.16430853875963],
          [-0.186493738374833, 51.163872372943004],
          [-0.186770567346454, 51.16385238207064],
          [-0.186450864585951, 51.162448088378866],
          [-0.186271973521685, 51.16212245990036],
          [-0.186838632517584, 51.16167708851358],
          [-0.186866247970764, 51.16166582540216],
          [-0.187112716236075, 51.16169032948527],
          [-0.187613423713552, 51.16212526350348],
          [-0.18787292698037, 51.1620726265693],
          [-0.188885085361328, 51.16241295385225],
          [-0.189330856383879, 51.16216894495774],
          [-0.189425136772689, 51.16213533083728],
          [-0.190326166367845, 51.16202606625604],
          [-0.190509476691302, 51.16201990862534],
          [-0.195528907283475, 51.16240410458454],
          [-0.195740953695496, 51.162357912933246],
          [-0.196227503177526, 51.162167567285344],
          [-0.196317042017327, 51.162108693958885],
          [-0.20228928772837, 51.15696485278606],
          [-0.20252289143452, 51.156767897439764],
          [-0.20396417080699, 51.1557792165129],
          [-0.204109811060102, 51.15571130685561],
          [-0.20638887699315, 51.15516892333406],
          [-0.206517781973816, 51.15516370557166],
          [-0.21183438743857, 51.155503210073405],
          [-0.212142283953712, 51.155454857845754],
          [-0.211619517637638, 51.153773256571206],
          [-0.211419664331676, 51.15339429038788],
          [-0.211349629388895, 51.15257934683397],
          [-0.2111886218255, 51.15252742255597],
          [-0.211422948004085, 51.151200032118666],
          [-0.211574907966081, 51.15041276443015],
          [-0.214163605789167, 51.15032282060318],
          [-0.214307341709678, 51.15030343190856],
          [-0.214160932844937, 51.14950261216943],
          [-0.214099532776721, 51.14938926127507],
          [-0.214235310919083, 51.1484641492853],
          [-0.21423534559086, 51.14846325050791],
          [-0.215417909732077, 51.148312231326145],
          [-0.215884119162132, 51.14823570867346],
          [-0.216537651189572, 51.149086527988025],
          [-0.216981791875015, 51.149360393918116],
          [-0.219079381274816, 51.14921159646646],
          [-0.219311847473815, 51.149189956465655],
          [-0.222749875422621, 51.1481289242014],
          [-0.222881153814143, 51.148098544547466],
          [-0.224310748329049, 51.148029434275145],
          [-0.225172090420224, 51.1480137343044],
          [-0.225588088569345, 51.1482394788893],
          [-0.226631413435568, 51.14817616860965],
          [-0.228814009285703, 51.14584047867488],
          [-0.229041211685626, 51.145656864443225],
          [-0.229824732092966, 51.145917837196706],
          [-0.230147857342579, 51.14595510378879],
          [-0.235702511075208, 51.14591405325242],
          [-0.236127658358561, 51.14586291459842],
          [-0.236272858642062, 51.14587949471424],
          [-0.236300478016389, 51.14590509206762],
          [-0.236103899840441, 51.14659908768851],
          [-0.236066788198869, 51.14671004154674],
          [-0.238660134029486, 51.14671587725826],
          [-0.238698016917402, 51.14680997592158],
          [-0.242082855053062, 51.14604076832459],
          [-0.242290162791032, 51.146229143042184],
          [-0.242931382833113, 51.1457963263795],
          [-0.243253487149924, 51.14555925519458],
          [-0.243469324055509, 51.145108350098624],
          [-0.243343499943294, 51.144882532044974],
          [-0.24398611439717, 51.14452527230737],
          [-0.244195077834467, 51.14440610621476],
          [-0.246127278125668, 51.145632991264875],
          [-0.246591938606104, 51.14593493497736],
          [-0.248234448865981, 51.14442984762786],
          [-0.248521166207914, 51.1440690270308],
          [-0.249880018052252, 51.14424046580274],
          [-0.250089585418068, 51.14425619397645],
          [-0.251184786851286, 51.1439893058219],
          [-0.251322147861239, 51.14383488215857],
          [-0.251505869150952, 51.143588523582935],
          [-0.253280817640448, 51.143985574334195],
          [-0.252849079486099, 51.14440179456639],
          [-0.254112204802235, 51.144193143951654],
          [-0.255167854665363, 51.14414055962105],
          [-0.255427566841936, 51.14354639983917],
          [-0.255518669489742, 51.14313947610484],
          [-0.255575149014987, 51.142019787501305],
          [-0.255607497589516, 51.14180623592839],
          [-0.255437635094559, 51.140585143588666],
          [-0.25549620100047, 51.14051047617442],
          [-0.254698682479181, 51.1394059151765],
          [-0.254613448483576, 51.139050316394105],
          [-0.256236649251887, 51.13880385429527],
          [-0.256470095638508, 51.13875427800356],
          [-0.257516168966386, 51.13842094806767],
          [-0.257911865535543, 51.13835220442642],
          [-0.260428222273138, 51.13811179926049],
          [-0.26050352665621, 51.13808594092943],
          [-0.26094441731786, 51.13776515531737],
          [-0.261078082770489, 51.13759357845746],
          [-0.262237994235835, 51.137196251127875],
          [-0.262572789600915, 51.13703575663097],
          [-0.264336730255448, 51.13585330128677],
          [-0.264671224858824, 51.13566222008254],
          [-0.265868584549709, 51.134109808141936],
          [-0.265778065099213, 51.134084183798976],
          [-0.266650685407689, 51.13330124463963],
          [-0.267189922656274, 51.13290905036302],
          [-0.268587014753624, 51.132394669938954],
          [-0.268803256187631, 51.13230704352826],
          [-0.271361568778936, 51.131659641598155],
          [-0.271617095060196, 51.13159147648277],
          [-0.272643722355731, 51.13108236030771],
          [-0.273245318457821, 51.130855632771386],
          [-0.275317931960998, 51.130389821640435],
          [-0.27529094620118, 51.13030848603939],
          [-0.279309953104294, 51.13003948225908],
          [-0.279396702059078, 51.12997421100194],
          [-0.280754304053281, 51.13013268319773],
          [-0.281044207594336, 51.13017741622999],
          [-0.282116587037845, 51.13012663590082],
          [-0.282162164232407, 51.13013090305522],
          [-0.284401786369185, 51.13055499817639],
          [-0.284641730391551, 51.13063675955029],
          [-0.286389320360419, 51.13049242284532],
          [-0.286390748826667, 51.13049244378483],
          [-0.287291318913174, 51.13014052535424],
          [-0.287813602976657, 51.129853205737206],
          [-0.289252532396722, 51.12819707906252],
          [-0.289316144060891, 51.12813865628677],
          [-0.291486216489224, 51.12695994087221],
          [-0.291598089572815, 51.12691031616973],
          [-0.29359047244778, 51.12628473368934],
          [-0.294167264738372, 51.1261061000079],
          [-0.295015883809259, 51.126035747830535],
          [-0.295413688733087, 51.12602176599384],
          [-0.299901896952942, 51.1248308207997],
          [-0.300037476523189, 51.124796820926115],
          [-0.303463701035504, 51.12442482268293],
          [-0.303836735271896, 51.12438437041038],
          [-0.306489205401009, 51.12449746047541],
          [-0.306819782033634, 51.12452383118604],
          [-0.308457702445849, 51.12483081700742],
          [-0.30886705897678, 51.125048073108886],
          [-0.309008689248703, 51.12496558752009],
          [-0.309185019020651, 51.12471543506028],
          [-0.309635467473811, 51.12486403675941],
          [-0.309627243578773, 51.12454107044715],
          [-0.310375130049263, 51.12452759918159],
          [-0.310503100977284, 51.124506066664445],
          [-0.311814060468157, 51.124099635406985],
          [-0.312275455077901, 51.12402625912734],
          [-0.317599232522219, 51.12432420980116],
          [-0.318215670951569, 51.12434926516714],
          [-0.320274411917669, 51.12503353491207],
          [-0.320610155152301, 51.1251147960563],
          [-0.321056504476694, 51.125140988863315],
          [-0.321346654691759, 51.125100189325316],
          [-0.32318024120357, 51.12549250278615],
          [-0.323935514484869, 51.12539361574103],
          [-0.326228576492123, 51.12584552157457],
          [-0.32642689038023, 51.12581508594169],
          [-0.327129667605141, 51.125388986674565],
          [-0.327455162485505, 51.125160726775654],
          [-0.328144651288644, 51.12498353345967],
          [-0.328582431017069, 51.12493043780382],
          [-0.32959581646513, 51.12425156683994],
          [-0.329682586658766, 51.12426269827282],
          [-0.330452031264205, 51.12321432708476],
          [-0.3305692656987, 51.12305412932811],
          [-0.331566817972604, 51.12249552076626],
          [-0.331619367750034, 51.12246479550207],
          [-0.333291200657762, 51.12202999958634],
          [-0.333435737914364, 51.12198439741993],
          [-0.335799454371929, 51.121103486624285],
          [-0.3362499299115, 51.12097410411603],
          [-0.338504694560619, 51.1205385310355],
          [-0.338865535512797, 51.12039797283862],
          [-0.341859436270841, 51.119989917313696],
          [-0.341911268962737, 51.119978961490446],
          [-0.342437567847075, 51.1196464925065],
          [-0.342786712138654, 51.11943291434434],
          [-0.344321553554019, 51.11898702512353],
          [-0.344329449844771, 51.11892598557444],
          [-0.346488561803782, 51.118963725964676],
          [-0.346620304848796, 51.11895569638429],
          [-0.350389185972189, 51.11832725918614],
          [-0.350495423661189, 51.118273001958585],
          [-0.352703717712006, 51.11829333317076],
          [-0.352804892735334, 51.11830105298215],
          [-0.353775997739478, 51.118637567425964],
          [-0.353963380544316, 51.11875261503103],
          [-0.355084293581011, 51.11982054589991],
          [-0.355326316724333, 51.120046971542436],
          [-0.357876880280702, 51.12101626209191],
          [-0.358033572341655, 51.121030152388144],
          [-0.359585026704866, 51.1206373504358],
          [-0.359664314651305, 51.12057731106907],
          [-0.359239511359174, 51.11978178231774],
          [-0.359239765968522, 51.119774591621145],
          [-0.360230949797387, 51.119626619729395],
          [-0.36025865804351, 51.11961082105386],
          [-0.360463647684709, 51.11922880118806],
          [-0.360452129714533, 51.11919086984116],
          [-0.360008038321569, 51.1190614424643],
          [-0.360018484203176, 51.11900853119388],
          [-0.361229263513702, 51.11899402565504],
          [-0.361399216675193, 51.11899640658787],
          [-0.361411771776282, 51.119247482508854],
          [-0.361459851311965, 51.1193021130165],
          [-0.361670527632279, 51.11924391273105],
          [-0.361692681316573, 51.11922353950444],
          [-0.361803394555494, 51.118921132367994],
          [-0.361845351830351, 51.11890643216359],
          [-0.362594385057843, 51.1188170994],
          [-0.362677250869219, 51.1188173600776],
          [-0.36314762573775, 51.11897142572976],
          [-0.363193390945306, 51.118970267577296],
          [-0.363594900274247, 51.11880861866756],
          [-0.363629874730666, 51.118789323722645],
          [-0.364280521995066, 51.11909878468309],
          [-0.364316671208038, 51.11912716795656],
          [-0.364338983263637, 51.119183235498475],
          [-0.36429969424213, 51.11936524052534],
          [-0.364501197945154, 51.11948586418031],
          [-0.364545249931793, 51.11949277508657],
          [-0.365021211180747, 51.11916489562495],
          [-0.365042347463538, 51.1191328168759],
          [-0.364799266262268, 51.118935173876054],
          [-0.364813166548967, 51.11890569185955],
          [-0.365446185158451, 51.118540437717115],
          [-0.365465575645419, 51.118517327324994],
          [-0.365276282414018, 51.11809111975961],
          [-0.365180243695693, 51.11797826643731],
          [-0.366585582327819, 51.11759142374254],
          [-0.367339785575031, 51.117435586024534],
          [-0.368457197807652, 51.117515026148325],
          [-0.368656726758876, 51.1175294994178],
          [-0.369843974600238, 51.117411157142094],
          [-0.370141217987462, 51.11740990310152],
          [-0.375646176928052, 51.11672747573466],
          [-0.375955439569573, 51.1167092874451],
          [-0.378454814306772, 51.11702543381055],
          [-0.379352089105277, 51.1171080116419],
          [-0.382663068431641, 51.11701534388355],
          [-0.383101051348193, 51.116993520502675],
          [-0.383618416971799, 51.11596559659585],
          [-0.383712069064444, 51.11582030759077],
          [-0.384600499587261, 51.11476243341827],
          [-0.384631240918639, 51.11474127514368],
          [-0.385699408808461, 51.114961955960204],
          [-0.386335310134281, 51.114959038835785],
          [-0.388907813064203, 51.11469143842234],
          [-0.390345225944135, 51.11473011097775],
          [-0.391111017031517, 51.11580089870734],
          [-0.391100420228708, 51.115859206261426],
          [-0.391297117814693, 51.115914069689495],
          [-0.391323035179898, 51.11594949807243],
          [-0.391385383260873, 51.116087945496616],
          [-0.391381552948168, 51.11615713749519],
          [-0.391228802424139, 51.11635917380084],
          [-0.391225353362977, 51.116376212714734],
          [-0.391497886232228, 51.11651035615758],
          [-0.391525020682676, 51.11651072925285],
          [-0.392828925809521, 51.11545670700349],
          [-0.393188376323453, 51.11518556543514],
          [-0.395235519053463, 51.11403830554737],
          [-0.395501025893153, 51.11388007686194],
          [-0.396173867041691, 51.11272653260997],
          [-0.396504359588115, 51.11217620654682],
          [-0.397160244680119, 51.11221397225221],
          [-0.398094465342904, 51.112341877119306],
          [-0.398770163785436, 51.1118475304598],
          [-0.398843022560887, 51.11180626150568],
          [-0.399339900125832, 51.11169075917841],
          [-0.399651324213469, 51.111608689036885],
          [-0.399204205916688, 51.11020059128974],
          [-0.399161864149828, 51.110102889427864],
          [-0.399374998904616, 51.110053647622436],
          [-0.400923176929719, 51.10969352579868],
          [-0.400308330340026, 51.10850885940535],
          [-0.400218557539029, 51.10841950224485],
          [-0.401759211908327, 51.10782005899024],
          [-0.401931547666439, 51.10779363664339],
          [-0.403606677069061, 51.10772658263006],
          [-0.40385055953267, 51.10769663749292],
          [-0.403987921360303, 51.10806361956011],
          [-0.404014865354865, 51.10806938287855],
          [-0.404308070697986, 51.10801762775553],
          [-0.404328525060379, 51.10800441758828],
          [-0.404381345111695, 51.107631936874995],
          [-0.404831792692468, 51.10753556274511],
          [-0.406404399495311, 51.107375343863666],
          [-0.406847584614633, 51.10732382702847],
          [-0.408104046540024, 51.10755046577471],
          [-0.408164920007916, 51.10756658197353],
          [-0.409411983453828, 51.107484625657676],
          [-0.409481958012846, 51.1075269440527],
          [-0.411147128638228, 51.10683284825635],
          [-0.411179054127572, 51.10677662725401],
          [-0.418003828487675, 51.1053718279678],
          [-0.419179953866035, 51.10514762405287],
          [-0.419256344255706, 51.10579793715773],
          [-0.419217767901284, 51.10588194806427],
          [-0.419645701929426, 51.10657028574005],
          [-0.41979763540656, 51.106764784866975],
          [-0.419778338411656, 51.10699563915399],
          [-0.419760150232088, 51.107068235081655],
          [-0.419515220210309, 51.10729693937133],
          [-0.419507376075108, 51.10731751680139],
          [-0.419564562092206, 51.10790282180071],
          [-0.419546618352664, 51.10796822674326],
          [-0.419076698013039, 51.10884586708996],
          [-0.418918451342101, 51.109213332269924],
          [-0.417386685773975, 51.1089300247139],
          [-0.417287058543616, 51.10912831722131],
          [-0.41813668073053, 51.10939070977396],
          [-0.418207354620193, 51.109370982070494],
          [-0.418397329165955, 51.110041717740906],
          [-0.418447941639265, 51.11014941674762],
          [-0.418552049714585, 51.11124345149963],
          [-0.418422589548523, 51.111813643491125],
          [-0.418583693385488, 51.11215844837387],
          [-0.418643244549107, 51.112255476766656],
          [-0.418496021232382, 51.11259251475541],
          [-0.418442833551926, 51.11264395372767],
          [-0.418490157544253, 51.11297373060155],
          [-0.418467674802996, 51.113255800761245],
          [-0.418637193431676, 51.11381474814201],
          [-0.418637609455842, 51.11384443003617],
          [-0.418629610448489, 51.113869501730235],
          [-0.4182987193222, 51.114355134686804],
          [-0.418366811841725, 51.11671396944861],
          [-0.418357625959837, 51.117024996235486],
          [-0.417894946914779, 51.11806370304432],
          [-0.417860995880593, 51.11817925107782],
          [-0.417839131038812, 51.119489207584685],
          [-0.417838198169237, 51.11964207269938],
          [-0.418050707003899, 51.11990483911022],
          [-0.418152528416058, 51.11993589241695],
          [-0.417852187863712, 51.121408449118135],
          [-0.417947975829979, 51.12140704690336],
          [-0.417580541297359, 51.1225423641236],
          [-0.417503846897532, 51.12286326885818],
          [-0.417277420165109, 51.123174953267785],
          [-0.417264488724537, 51.123218843014925],
          [-0.417054376390887, 51.12455862482427],
          [-0.417036929043945, 51.12465101453538],
          [-0.415440867491241, 51.12485422288177],
          [-0.415278197513147, 51.124888889477766],
          [-0.414248565450858, 51.12516000627466],
          [-0.413304842067143, 51.12542598441501],
          [-0.413315031717818, 51.125545726811914],
          [-0.41323676103477, 51.12632883751509],
          [-0.413808631793943, 51.12794990317802],
          [-0.413720681888261, 51.12813935779256],
          [-0.414945687184331, 51.129678446543494],
          [-0.415038922137275, 51.1297939185811],
          [-0.415705702400669, 51.13094144071665],
          [-0.415820706628185, 51.131130947938644],
          [-0.415932037020629, 51.13146968573039],
          [-0.415398796293184, 51.13155688686562],
          [-0.415108956928793, 51.13158983017073],
          [-0.415308037824381, 51.13207903799384],
          [-0.415310030861176, 51.13218787783422],
          [-0.416236299581622, 51.132352402443374],
          [-0.416324674238022, 51.132401260920545],
          [-0.416112738389464, 51.13274731153931],
          [-0.416103915624387, 51.13300528529799],
          [-0.416288033616363, 51.134517668107],
          [-0.416308785202278, 51.13470499901199],
          [-0.416068566583189, 51.13529257203096],
          [-0.41595443120011, 51.13557879539068],
          [-0.415996127627593, 51.13615669676669],
          [-0.416011641132701, 51.136288201488895],
          [-0.415896321546623, 51.137110378525755],
          [-0.415902143203182, 51.137149126331934],
          [-0.415733817000092, 51.13738965157644],
          [-0.415708801221064, 51.137535895069874],
          [-0.415902038277443, 51.13882358058598],
          [-0.415950011365744, 51.139134481156674],
          [-0.415343041185668, 51.14007859473],
          [-0.415332085449841, 51.14010632391379],
          [-0.415200823868557, 51.14060004756149],
          [-0.41507429791193, 51.1409553464448],
          [-0.415141136039238, 51.14159204138617],
          [-0.415151931076557, 51.14173607206703],
          [-0.414845018931972, 51.14239108375911],
          [-0.414836595086476, 51.14247010605669],
          [-0.414969274444896, 51.14373089299277],
          [-0.414988780046239, 51.143912811406395],
          [-0.414818006291604, 51.144265711876],
          [-0.414814378893097, 51.144288144658546],
          [-0.415108370579686, 51.14492971631653],
          [-0.41511468114683, 51.14503771512805],
          [-0.414611978481686, 51.14986451764498],
          [-0.414561247704515, 51.15017677838147],
          [-0.414928407006533, 51.15139667807503],
          [-0.414948424926618, 51.15152194891418],
          [-0.415004218129024, 51.151980437189145],
          [-0.414817546395774, 51.15217035295959],
          [-0.41483956079641, 51.152320830625904],
          [-0.415841722616322, 51.154666233053526],
          [-0.415969690761466, 51.154980015161534],
          [-0.415540529509762, 51.15632131956011],
          [-0.415493404671484, 51.15636114868391],
          [-0.416216185513676, 51.157137120815285],
          [-0.416339062411566, 51.15734921517405],
          [-0.416159509007206, 51.157414229907346],
          [-0.415637865188644, 51.157488100593326],
          [-0.415211715994328, 51.15844815093001],
          [-0.415140310432335, 51.15865401710437],
          [-0.415550191629365, 51.16075847852412],
          [-0.415732259033527, 51.16082928935789],
          [-0.415806028416934, 51.16306049031398],
          [-0.415691839605258, 51.16322081334688],
          [-0.416040021918426, 51.16382894166927],
          [-0.41607951078309, 51.16388702992617],
          [-0.416519755207057, 51.16673649555195],
          [-0.416623960747951, 51.16707693234971],
          [-0.416186255902934, 51.16845589043458],
          [-0.416191093488325, 51.16860703407815],
          [-0.416736647652066, 51.16980236029847],
          [-0.416877223449396, 51.1700416711251],
          [-0.417641806478588, 51.17127502799972],
          [-0.41787708386463, 51.17163162469907],
          [-0.418274030791453, 51.17198770892222],
          [-0.418442064903782, 51.17221929544352],
          [-0.418579681832513, 51.17296395590212],
          [-0.418565094202583, 51.173181382969894],
          [-0.417558694121588, 51.17341147812601],
          [-0.417033273255523, 51.17350688742472],
          [-0.416620363177302, 51.17374230531331],
          [-0.416494703315484, 51.17415337131132],
          [-0.415578175799886, 51.17401416505711],
          [-0.415490365687374, 51.174030062046924],
          [-0.413709087743001, 51.17487012636501],
          [-0.413614723073591, 51.174910213489824],
          [-0.412335675960498, 51.17528764485648],
          [-0.412228686558192, 51.1753203653582],
          [-0.411138428006114, 51.175532181362335],
          [-0.410912935365065, 51.175557895861715],
          [-0.408443833417858, 51.17555311026589],
          [-0.408336951290621, 51.17570723270208],
          [-0.408054556226414, 51.17763415716679],
          [-0.408066694989595, 51.177738639476864],
          [-0.408317536254483, 51.1781404359076],
          [-0.408642856266697, 51.17866464839791],
          [-0.408522583014366, 51.17870887595219],
          [-0.409056505879018, 51.18015589361406],
          [-0.409101075691835, 51.180274306057264],
          [-0.409583665477223, 51.18113518827588],
          [-0.409895169316457, 51.181396617944436],
          [-0.409743093931024, 51.18149167375842],
          [-0.409897474254061, 51.18211967447762],
          [-0.409789201894677, 51.18256334895915],
          [-0.409358883536112, 51.18317620729075],
          [-0.40927804611826, 51.183363058758516],
          [-0.409312742111499, 51.18464141654861],
          [-0.409325783165402, 51.1847198318635],
          [-0.410117829128005, 51.18690237607213],
          [-0.410450416736099, 51.18792488760981],
          [-0.410683719755898, 51.18825629649808],
          [-0.410932580080826, 51.188468311037056],
          [-0.41131658215312, 51.189577849208206],
          [-0.411363356186707, 51.189757442237074],
          [-0.410978333150167, 51.190674881875964],
          [-0.410852862758836, 51.19099422309947],
          [-0.410065066757503, 51.191804569802386],
          [-0.410010137053487, 51.191903644208246],
          [-0.409869577045439, 51.19253663130322],
          [-0.409878286277375, 51.19269952094819],
          [-0.410020916046897, 51.19308815325149],
          [-0.410140532820796, 51.193313701400164],
          [-0.41123140916695, 51.194136977814416],
          [-0.411634133572056, 51.19441223136823],
          [-0.412180059998474, 51.19451856187878],
          [-0.412329967474411, 51.194570955967805],
          [-0.413975540654032, 51.19533068640894],
          [-0.414305547586564, 51.19559864979448],
          [-0.415036118928705, 51.196581575651656],
          [-0.415161186618355, 51.1967325511195],
          [-0.416341327426371, 51.19783756352598],
          [-0.416615446096537, 51.1981083607337],
          [-0.417522501599157, 51.19924833437877],
          [-0.417719424484091, 51.19947491917657],
          [-0.417970203560075, 51.2005952226198],
          [-0.418010867513617, 51.20087095425557],
          [-0.418635100800789, 51.201578136924525],
          [-0.418952628154577, 51.201794658781644],
          [-0.419158705694869, 51.20183791052588],
          [-0.419523594818785, 51.20179967299658],
          [-0.420210250422425, 51.20227297608881],
          [-0.421149752863804, 51.2029295436953],
          [-0.42228167666994, 51.20348527970528],
          [-0.422335392320068, 51.20354715530511],
          [-0.428033489387112, 51.20575333689439],
          [-0.428123549520748, 51.20571497791951],
          [-0.429461135056423, 51.20666819133772],
          [-0.429999632873607, 51.2070827922883],
          [-0.430656113092577, 51.20785958593759],
          [-0.430836588273622, 51.2079411427673],
          [-0.433424404538369, 51.20842095468438],
          [-0.433852321248916, 51.208551681989334],
          [-0.436392069252834, 51.20871963310558],
          [-0.436867341619865, 51.20876285234626],
          [-0.437755197911135, 51.20926391758935],
          [-0.438436939624572, 51.209679492001044],
          [-0.438306379282863, 51.21150959154633],
          [-0.438305296056913, 51.21166875034193],
          [-0.436954387101339, 51.21275054188236],
          [-0.436776206102455, 51.21289654413439],
          [-0.43539031855163, 51.21640501817309],
          [-0.435255180179981, 51.21671706174267],
          [-0.434485793336071, 51.2176609145558],
          [-0.434392274857114, 51.21767405231723],
          [-0.434192995248362, 51.21827300804913],
          [-0.43416242068761, 51.218372419625176],
          [-0.433975775778366, 51.21851380822442],
          [-0.433931588343598, 51.218592354076925],
          [-0.433916511802922, 51.2189104990394],
          [-0.433901893288238, 51.21904609539381],
          [-0.4338065132075, 51.219156330506415],
          [-0.433705773564708, 51.219213436050815],
          [-0.43257950063392, 51.22227571093308],
          [-0.432632674011605, 51.22231239427586],
          [-0.431735495345181, 51.22389480861061],
          [-0.431598122571002, 51.224144767646074],
          [-0.431144243757923, 51.22566027289191],
          [-0.430612624000036, 51.227101881032084],
          [-0.42698490877538, 51.22920335964056],
          [-0.426544593541288, 51.22947351987364],
          [-0.42569000195996, 51.230257889243795],
          [-0.42567631178971, 51.23032335225994],
          [-0.425994000776476, 51.23146610716351],
          [-0.426071068979416, 51.2317684006673],
          [-0.427269563535852, 51.233251226418986],
          [-0.427489678017054, 51.23347540510255],
          [-0.42965366722536, 51.23474904132054],
          [-0.430011886020688, 51.23499844629959],
          [-0.432025451855971, 51.23707755765186],
          [-0.432250446930708, 51.23732786906948],
          [-0.434063525912066, 51.238777471976384],
          [-0.434337193591945, 51.23907159517474],
          [-0.434572376238005, 51.239697931269],
          [-0.434648415760459, 51.239905779100035],
          [-0.434102459894133, 51.240416454161306],
          [-0.433812977342581, 51.24071473462099],
          [-0.432887584986462, 51.24079677294938],
          [-0.432599084319188, 51.24085495974196],
          [-0.429502428748389, 51.24041418275376],
          [-0.429339185805702, 51.2404119925965],
          [-0.427421934644128, 51.24097077477924],
          [-0.427128793284021, 51.24103877762851],
          [-0.425419203693044, 51.241136296253195],
          [-0.42515295821789, 51.24108775150481],
          [-0.422345362819601, 51.24007154718344],
          [-0.42222831813475, 51.24014281014726],
          [-0.419255375231982, 51.238645894355635],
          [-0.419107489843979, 51.238739219369585],
          [-0.416148493585887, 51.23671634247418],
          [-0.415944148738837, 51.23661825538907],
          [-0.413003083011106, 51.23591476252502],
          [-0.412460339767268, 51.23578510319506],
          [-0.411077573218565, 51.23517372655762],
          [-0.410973517658334, 51.23515882512864],
          [-0.409288663687974, 51.235167416318],
          [-0.408961226929573, 51.2351917428591],
          [-0.402950778266605, 51.2358508911367],
          [-0.40261110136753, 51.235897514543865],
          [-0.399600046212493, 51.23684737852808],
          [-0.398993157320077, 51.23703961624954],
          [-0.397353957476297, 51.237670053092806],
          [-0.396963878458442, 51.237888629154895],
          [-0.397342683592988, 51.24100527211236],
          [-0.397336291361494, 51.24110680150202],
          [-0.396661059417158, 51.241903296421235],
          [-0.396573058631565, 51.24212690724012],
          [-0.396758394987354, 51.24351341135154],
          [-0.396774751993303, 51.24366111446378],
          [-0.395801051911881, 51.24372780977879],
          [-0.395731370466467, 51.24379519884392],
          [-0.395814639114399, 51.24428463958039],
          [-0.395834146449075, 51.24458885766765],
          [-0.395537669761416, 51.24672773701124],
          [-0.395493423948272, 51.24696993138953],
          [-0.395964886141792, 51.2497695004753],
          [-0.395940050645621, 51.25056590631502],
          [-0.395155667282245, 51.25136449519027],
          [-0.395077107786833, 51.25156305526149],
          [-0.394422259327363, 51.2541961189087],
          [-0.394405587937959, 51.25426333518149],
          [-0.394519921092861, 51.25464259495204],
          [-0.394459928338455, 51.255089606467195],
          [-0.394348750882438, 51.25531919283046],
          [-0.394069051213479, 51.25520294777753],
          [-0.393855539529673, 51.25516135000874],
          [-0.392418762009865, 51.25514432532237],
          [-0.392177043332041, 51.25508974740461],
          [-0.391956385567451, 51.255253080573674],
          [-0.391862748878151, 51.255390281145225],
          [-0.391538154963835, 51.256273396504554],
          [-0.391570244418352, 51.25646268316051],
          [-0.390061043426504, 51.25605615165833],
          [-0.389274434918963, 51.25592842611754],
          [-0.389986891969253, 51.25719450092659],
          [-0.390062596894109, 51.25740686946054],
          [-0.390086107580284, 51.25907263373984],
          [-0.39009347352075, 51.25923100723773],
          [-0.390479096911276, 51.26013108749869],
          [-0.390597446037209, 51.260435769927454],
          [-0.390748751416222, 51.26139737493983],
          [-0.39078352447227, 51.26167392991694],
          [-0.390673436565487, 51.26244579157235],
          [-0.390637920536165, 51.262600877575565],
          [-0.390074638476135, 51.26456973456206],
          [-0.389950461729416, 51.264677738020005],
          [-0.387674938909584, 51.26490450988817],
          [-0.38718726010645, 51.264913978806824],
          [-0.387142693670426, 51.26508152887316],
          [-0.387245826901854, 51.265493018350696],
          [-0.388420760452341, 51.266858108922875],
          [-0.388537419041748, 51.26700629635574],
          [-0.388616165892778, 51.26774658227812],
          [-0.388647525048757, 51.267956544365035],
          [-0.389028336337156, 51.268831381643835],
          [-0.389139186433037, 51.26914585369863],
          [-0.389878848759703, 51.26972077210326],
          [-0.390039270307532, 51.26980661069963],
          [-0.390251315625547, 51.27017912735296],
          [-0.390374072371775, 51.27039933829414],
          [-0.390394571513541, 51.27124853252363],
          [-0.390228975264715, 51.27147467053945],
          [-0.392111825570149, 51.27125324629138],
          [-0.392920906929957, 51.272059311613376],
          [-0.393431946183895, 51.27253304747596],
          [-0.393191530039635, 51.27305492218693],
          [-0.392852759466261, 51.27372472519634],
          [-0.393215015562207, 51.274148757843484],
          [-0.39355566726059, 51.27453472347961],
          [-0.392513292980693, 51.27503030208854],
          [-0.392048110563678, 51.275213660038986],
          [-0.392946123530056, 51.276349179593694],
          [-0.39261543669787, 51.27645794796798],
          [-0.393217039912362, 51.27672069980897],
          [-0.393351229720051, 51.27694286272094],
          [-0.394665670447047, 51.27691053463883],
          [-0.394810655480727, 51.27645299534004],
          [-0.395972724138024, 51.278530949437716],
          [-0.396041742993634, 51.278648800152],
          [-0.396051461744813, 51.278657926001735],
          [-0.397214917229546, 51.278804253792416],
          [-0.397295556956904, 51.279165065747435],
          [-0.397376461894168, 51.27964188707544],
          [-0.397447575274599, 51.28196567432],
          [-0.397434572796307, 51.28225685968949],
          [-0.397079402212007, 51.28541562728073],
          [-0.397049589499199, 51.28577762458948],
          [-0.396470805713504, 51.28592617198196],
          [-0.396365444442752, 51.28598677850925],
          [-0.395595106188438, 51.28669384179453],
          [-0.395509449080067, 51.28684734229575],
          [-0.39508063587433, 51.28787652394149],
          [-0.39500957448752, 51.28810486347479],
          [-0.394541403769434, 51.29050848571298],
          [-0.394506902523822, 51.29067527663618],
          [-0.394553865013078, 51.2917136766329],
          [-0.394560473538972, 51.291853153877376],
          [-0.394944895570323, 51.29238629481159],
          [-0.395077963270143, 51.292559879149564],
          [-0.395088990543088, 51.29290175243747],
          [-0.395763581476282, 51.294410077571605],
          [-0.396043890952392, 51.294721467469145],
          [-0.396105244613605, 51.29514226623387],
          [-0.396111669993073, 51.29582220110078],
          [-0.395839872694751, 51.295965957828315],
          [-0.39576767341521, 51.296062089660104],
          [-0.396068541284249, 51.29631890567529],
          [-0.396108850049244, 51.29643816121492],
          [-0.395655122335303, 51.2969454275278],
          [-0.39565580399014, 51.296967019303025],
          [-0.395362360314401, 51.29699087567552],
          [-0.395302348776894, 51.29706649106526],
          [-0.395462655371488, 51.29732318073537],
          [-0.395484795340175, 51.29742869848471],
          [-0.395010269813766, 51.297585862008255],
          [-0.394861218685614, 51.29762338669534],
          [-0.394742309438376, 51.2979481909387],
          [-0.394650588380436, 51.29806923395114],
          [-0.394219270998885, 51.2984266241663],
          [-0.394106283375032, 51.29858154729677],
          [-0.394162079079561, 51.29969560621768],
          [-0.394148404099459, 51.29979973375265],
          [-0.393869217069261, 51.300236545900276],
          [-0.393766762255913, 51.30037722486636],
          [-0.393954149502753, 51.300803350602024],
          [-0.393971126037076, 51.300851244691444],
          [-0.393758297379843, 51.30098951068988],
          [-0.39364437908291, 51.30108866611678],
          [-0.393323957028996, 51.3009394877937],
          [-0.393216798056811, 51.30092722620194],
          [-0.392893521277597, 51.301229440573536],
          [-0.39278441459474, 51.30139610640725],
          [-0.392572677968564, 51.30293994273719],
          [-0.392561059727886, 51.303026113069414],
          [-0.392614277158057, 51.30347378017493],
          [-0.392719755490221, 51.30373961296263],
          [-0.393066947716033, 51.304108581542735],
          [-0.39311928059713, 51.304253182625],
          [-0.392791686292639, 51.304883570653494],
          [-0.392757291977125, 51.30504676548756],
          [-0.392930284518965, 51.30572089314357],
          [-0.392999177287944, 51.30596643952933],
          [-0.392934553330781, 51.306584249335955],
          [-0.392939974994233, 51.30671651617152],
          [-0.39270929628712, 51.307405787017466],
          [-0.392637029164812, 51.307544181754395],
          [-0.392114265325887, 51.3078877203555],
          [-0.391981928972146, 51.30822582682207],
          [-0.392671128923415, 51.30911387255921],
          [-0.392777636850814, 51.309186376394216],
          [-0.394824457304554, 51.310107419466505],
          [-0.395054891057158, 51.31020589968663],
          [-0.395727775421176, 51.31016565882452],
          [-0.395977168274997, 51.31025540421262],
          [-0.397019333926024, 51.31098189112086],
          [-0.397198204181724, 51.311119228919054],
          [-0.39730742917795, 51.31123762812668],
          [-0.397319358970976, 51.31130703483665],
          [-0.397251431760569, 51.31165052414212],
          [-0.39725642153695, 51.31183674043675],
          [-0.397593272635686, 51.31196994434099],
          [-0.397591926109403, 51.312008594340774],
          [-0.396926681619084, 51.312816923938406]
        ]
      ]
    ]
  }
}
