{
  "type": "Feature",
  "properties": {
    "name": "Reigate & Banstead",
    "level": 2
  },
  "geometry": {
    "type": "MultiPolygon",
    "coordinates": [
      [
        [
          [-0.233890458602267, 51.327315403187185],
          [-0.223004207077104, 51.32959576600808],
          [-0.222011144829504, 51.329774928965115],
          [-0.216816291770405, 51.329849674751785],
          [-0.2160836706262, 51.3298268202038],
          [-0.214344722981158, 51.33024994425107],
          [-0.214264843099251, 51.330273905450575],
          [-0.212452267173656, 51.33255379427845],
          [-0.211906157153757, 51.333308043486305],
          [-0.212247551570778, 51.334053366637434],
          [-0.213030953585217, 51.33554104623685],
          [-0.202931428750186, 51.3398360587882],
          [-0.20258541923539, 51.3399827244383],
          [-0.202046498402166, 51.340142613150704],
          [-0.201878186428819, 51.340187689583864],
          [-0.201708616268551, 51.33986134385354],
          [-0.201700182800209, 51.33985671789053],
          [-0.201358700091231, 51.339924312907186],
          [-0.201199470252052, 51.33988409636203],
          [-0.200067454112035, 51.341220111507994],
          [-0.199557577896001, 51.341884032329595],
          [-0.199326340040979, 51.34188587114116],
          [-0.199120931230799, 51.34188810686837],
          [-0.198751624955852, 51.34215220863242],
          [-0.198557761430241, 51.34229940505537],
          [-0.19769936777653, 51.34342827673126],
          [-0.197652626595729, 51.34348511094701],
          [-0.197331437344042, 51.34358358227468],
          [-0.197319498941979, 51.343595089057594],
          [-0.196564640444853, 51.34340180744058],
          [-0.19669050476336, 51.343158243184114],
          [-0.196267289544814, 51.34303931273016],
          [-0.196094597983942, 51.343268665732026],
          [-0.196047678552288, 51.34332999296274],
          [-0.194415087536733, 51.34289205276576],
          [-0.19322950831461, 51.342625558319895],
          [-0.19127959435227, 51.34211612917308],
          [-0.187874429394815, 51.340935765950334],
          [-0.187357865838582, 51.340782084425385],
          [-0.187436061287889, 51.34069246787007],
          [-0.18744814314089, 51.34067736717082],
          [-0.182305652531798, 51.33801578494355],
          [-0.181996286068414, 51.3378518072625],
          [-0.179716020054644, 51.3364116878452],
          [-0.179370462882607, 51.33618329108418],
          [-0.175594693002031, 51.334122692808734],
          [-0.175019965316552, 51.33380977447147],
          [-0.174666425841347, 51.33316846315469],
          [-0.174139307412504, 51.33321150060216],
          [-0.173883173231429, 51.33228663087505],
          [-0.173719843618321, 51.33177238582633],
          [-0.172947430904934, 51.33014879988797],
          [-0.172863806645606, 51.33001349986826],
          [-0.169961262425664, 51.33023163925307],
          [-0.169894664661231, 51.33024588577682],
          [-0.169991388039815, 51.32994343736004],
          [-0.170066032842174, 51.32947427446348],
          [-0.165434427039385, 51.32996476800408],
          [-0.163076948408872, 51.33026416661975],
          [-0.162290692872946, 51.32888940771744],
          [-0.163535317738416, 51.32874255343376],
          [-0.16397087264296, 51.328583010259045],
          [-0.163973921541035, 51.32850661808943],
          [-0.163982351543818, 51.328187500990076],
          [-0.164197346424686, 51.32815939453797],
          [-0.164362313111148, 51.32812600744178],
          [-0.164359192891932, 51.327988366638436],
          [-0.164342767682776, 51.327716522631945],
          [-0.163567383668575, 51.32621334310335],
          [-0.164187165504697, 51.32604049904376],
          [-0.162195354022514, 51.3244849765248],
          [-0.160600244293741, 51.32324140991695],
          [-0.159024940056249, 51.323980165439366],
          [-0.158931647180331, 51.323872583523915],
          [-0.158634723451609, 51.32397583225224],
          [-0.156484468559911, 51.321438401346235],
          [-0.1564405881588, 51.321387350786836],
          [-0.158689113019823, 51.320679894340365],
          [-0.161879946839809, 51.319625665669214],
          [-0.161182369166559, 51.31797621501339],
          [-0.161091637119204, 51.31773288220797],
          [-0.161197198992386, 51.31760504107658],
          [-0.16117752007936, 51.31752289689344],
          [-0.160919388877371, 51.317267044685124],
          [-0.160481678173033, 51.31687258057717],
          [-0.159917618813607, 51.317054373445664],
          [-0.159581236982173, 51.31710484648916],
          [-0.159485640209677, 51.316409094426945],
          [-0.159314339511488, 51.315955860258875],
          [-0.158304945517399, 51.3149660711321],
          [-0.157879652268155, 51.31451333935997],
          [-0.157415864512469, 51.313767732254995],
          [-0.1571698335148, 51.31338975967004],
          [-0.158332192185509, 51.31102042164904],
          [-0.158330726158474, 51.31098532635042],
          [-0.15806504894466, 51.31099104312396],
          [-0.157638489793261, 51.31092948142968],
          [-0.156617392252395, 51.31052223409651],
          [-0.156466155424554, 51.310464998550735],
          [-0.15535073785609, 51.310406979002934],
          [-0.154315486323764, 51.310317837076006],
          [-0.156478523288707, 51.30728984201999],
          [-0.157163206330982, 51.3067088935745],
          [-0.156572144490146, 51.30649276500736],
          [-0.156415935794714, 51.30645253815772],
          [-0.155140122029337, 51.30642526403651],
          [-0.154509341375066, 51.30644860404636],
          [-0.155023498212116, 51.30579124114477],
          [-0.1576449719492, 51.30453035188632],
          [-0.157735171197629, 51.304427455342775],
          [-0.156963282439082, 51.30364014613785],
          [-0.156684139902206, 51.30358899223079],
          [-0.155379668117273, 51.30137873692588],
          [-0.155317860193872, 51.301274347424815],
          [-0.153360684158116, 51.301677854308274],
          [-0.149993681335444, 51.30028571837589],
          [-0.149814791169952, 51.30020375949333],
          [-0.149496416036985, 51.300700521215575],
          [-0.148451914146137, 51.30070380647981],
          [-0.145649400166554, 51.299833969382924],
          [-0.145625245894533, 51.299828191590564],
          [-0.144852215970012, 51.30071252187641],
          [-0.144423007033115, 51.300541158363984],
          [-0.143559107613775, 51.301260387262914],
          [-0.142833217332302, 51.299980013863205],
          [-0.140962323745572, 51.29956006773289],
          [-0.140855056414239, 51.2995520710538],
          [-0.137376163979819, 51.300795367337216],
          [-0.137313627773492, 51.30078088408831],
          [-0.136644963045183, 51.299792747291164],
          [-0.136643565835563, 51.29979182580728],
          [-0.136512694337324, 51.299091914243945],
          [-0.136328038928283, 51.29826794739281],
          [-0.134453963501862, 51.29838920256579],
          [-0.134431463828454, 51.29837805320234],
          [-0.132307122814181, 51.29632536038733],
          [-0.132124238482505, 51.29613090132544],
          [-0.131261934400152, 51.29560636903664],
          [-0.131109544080151, 51.29547354479785],
          [-0.131083512604513, 51.29544345376249],
          [-0.131050257969429, 51.29534400379446],
          [-0.131465398393448, 51.29476430052085],
          [-0.131458951166546, 51.29471114084019],
          [-0.130631091713318, 51.29326899808649],
          [-0.130531116255625, 51.29311722508876],
          [-0.130188747941095, 51.29268281071526],
          [-0.130129229575721, 51.29262970330262],
          [-0.127057877117891, 51.29028303269168],
          [-0.126278291286826, 51.28952867618603],
          [-0.126109440029786, 51.2886051302391],
          [-0.126056755309778, 51.288384867312985],
          [-0.124351956139083, 51.2868630081463],
          [-0.124293114467183, 51.28675865056491],
          [-0.124517210668708, 51.286749648831496],
          [-0.127336572862003, 51.28643774520484],
          [-0.127273278724766, 51.286336915208665],
          [-0.126746874753925, 51.28556502421447],
          [-0.126691882902637, 51.28508483748134],
          [-0.126797697834789, 51.28491656893916],
          [-0.130283312433716, 51.284792405920236],
          [-0.131056709823846, 51.28481733800909],
          [-0.130963840233375, 51.284597335928964],
          [-0.13042435323955, 51.28351141083808],
          [-0.130253001518099, 51.281237134535736],
          [-0.130247605204631, 51.281087770509345],
          [-0.130466525576195, 51.27954812865197],
          [-0.130479480297234, 51.27947639436972],
          [-0.131485113312331, 51.277242491141585],
          [-0.131494603018563, 51.27683257858261],
          [-0.13126675108907, 51.27612391864196],
          [-0.130900878803154, 51.275318626031044],
          [-0.130371082290041, 51.274595232329204],
          [-0.130248751850496, 51.27435946381926],
          [-0.129986477512702, 51.27255670181082],
          [-0.129977898999449, 51.27248552113521],
          [-0.130195353910259, 51.27196741035072],
          [-0.130376814426588, 51.271629480641025],
          [-0.131935228873697, 51.26979105435247],
          [-0.132022771005003, 51.26968273943306],
          [-0.132029868379167, 51.269119001501124],
          [-0.132036743525287, 51.26902018999994],
          [-0.129850895408387, 51.26654009210176],
          [-0.129673768429765, 51.26652466969157],
          [-0.129897817097273, 51.26573686114753],
          [-0.130093812874155, 51.26560509843483],
          [-0.129758761156364, 51.2652777894013],
          [-0.128634953614833, 51.26414737045735],
          [-0.127915772573397, 51.26427885177726],
          [-0.127763463165013, 51.264323177921995],
          [-0.126927082350785, 51.26419917208105],
          [-0.126825058644125, 51.26409951355016],
          [-0.126925310151148, 51.263854708397105],
          [-0.127041496745942, 51.26328820574005],
          [-0.127025808091984, 51.26251005221316],
          [-0.12680209126184, 51.26173666078825],
          [-0.127608184119814, 51.26165244295601],
          [-0.128438260484721, 51.26090671208262],
          [-0.129624703295789, 51.2598905875022],
          [-0.129744039189373, 51.25931603902021],
          [-0.1297689297531, 51.25916175594982],
          [-0.130973395125074, 51.25713328479765],
          [-0.131040858906377, 51.25702464727931],
          [-0.131395140927079, 51.256699362930135],
          [-0.131522636577273, 51.256559309221345],
          [-0.131831746395493, 51.254377128308136],
          [-0.131792857366644, 51.25416966595777],
          [-0.13487826916667, 51.25466767131734],
          [-0.135135678947152, 51.254716740250075],
          [-0.135195211311846, 51.25455581371457],
          [-0.135224291146126, 51.254545485527444],
          [-0.136070304428842, 51.25446274120623],
          [-0.136196030540013, 51.25443686564566],
          [-0.136815496937457, 51.254108592844645],
          [-0.136859115730528, 51.25409309994867],
          [-0.137513949481871, 51.25402438738874],
          [-0.137656912799737, 51.25403295837667],
          [-0.13773028539665, 51.25388394192904],
          [-0.137755104036311, 51.253872645983144],
          [-0.138693395957725, 51.25366904579596],
          [-0.138795169782997, 51.25370393931431],
          [-0.13940315087485, 51.25337547028773],
          [-0.139447674520417, 51.253337508138415],
          [-0.139716593209026, 51.253349878264714],
          [-0.139781312952727, 51.25345073048358],
          [-0.140560601686669, 51.25328055942891],
          [-0.140631465601564, 51.25326459885605],
          [-0.140946179338229, 51.25334963855941],
          [-0.140955917037543, 51.2534280330327],
          [-0.141538258873178, 51.2533797294961],
          [-0.141700438398793, 51.253409284872326],
          [-0.142027795014598, 51.25325170952276],
          [-0.142581526793093, 51.25320204714664],
          [-0.142892836691337, 51.25330051715129],
          [-0.142949254407402, 51.25332299606642],
          [-0.143063985144096, 51.253036139606245],
          [-0.143152296269454, 51.252907141755514],
          [-0.144152219990213, 51.25184743674097],
          [-0.144199710981365, 51.2518068219688],
          [-0.145545065985567, 51.25145674164647],
          [-0.14566271848251, 51.251346193186855],
          [-0.145752910954379, 51.251134487014205],
          [-0.145742502013513, 51.25110824213608],
          [-0.145169747777352, 51.250598248710965],
          [-0.145056234763457, 51.250463351474366],
          [-0.14466129793172, 51.249736743587306],
          [-0.144590510556695, 51.24957284628415],
          [-0.144394687551264, 51.2479932541847],
          [-0.144372982771915, 51.24792726044194],
          [-0.142749660511012, 51.24593021654584],
          [-0.142733970577103, 51.245786078124766],
          [-0.143089086412503, 51.24493737271525],
          [-0.143102748117174, 51.24488273176657],
          [-0.143003260178426, 51.24404389637495],
          [-0.143075926483173, 51.243875979901155],
          [-0.145225236945393, 51.241662706941334],
          [-0.145288262604014, 51.24159176161574],
          [-0.145305956531703, 51.24068823755526],
          [-0.145328543279559, 51.24058967178308],
          [-0.14601156171949, 51.23960046871112],
          [-0.146022992165003, 51.239565576863214],
          [-0.145553406547133, 51.23830989321966],
          [-0.145249570838007, 51.23770703566783],
          [-0.145289970433055, 51.237343456296465],
          [-0.145307597047736, 51.23729697174402],
          [-0.146094205197068, 51.23654502959781],
          [-0.14621114414418, 51.23641558395195],
          [-0.147132770690993, 51.23508302299463],
          [-0.147709920520944, 51.234515707644505],
          [-0.148017520787763, 51.234204021973454],
          [-0.149054807164494, 51.23444976522843],
          [-0.149277500536101, 51.23454052201474],
          [-0.149750139957872, 51.23493560138118],
          [-0.149784380431073, 51.23497481326361],
          [-0.149888951805348, 51.23540363863284],
          [-0.150075775915081, 51.23581757724712],
          [-0.150266576508038, 51.23595369231141],
          [-0.150322355310425, 51.236027418318194],
          [-0.150724921738716, 51.2359195716331],
          [-0.150813412157304, 51.235856220513604],
          [-0.151400876471565, 51.234959004604455],
          [-0.151446659918535, 51.23492465519602],
          [-0.152215257543376, 51.235048312321226],
          [-0.152247220435976, 51.23503712617987],
          [-0.153613047366701, 51.23344533323312],
          [-0.153640217408771, 51.23341068902726],
          [-0.153574684548934, 51.2330436360319],
          [-0.15367296056402, 51.23284284268807],
          [-0.154352590346572, 51.23193087650342],
          [-0.154373745421522, 51.23190333169723],
          [-0.154912192660269, 51.230831755656354],
          [-0.154960812795391, 51.23069043170082],
          [-0.154959063537036, 51.23066252553353],
          [-0.154872040589843, 51.230367078915314],
          [-0.15447373638237, 51.22993991912619],
          [-0.154448659129007, 51.229886464255095],
          [-0.154211312592714, 51.22890876759815],
          [-0.154227148117781, 51.22879930173133],
          [-0.153992297866138, 51.22854738648403],
          [-0.153890298670015, 51.22841177971941],
          [-0.153753327939533, 51.2279329840223],
          [-0.153355804651807, 51.22712902171604],
          [-0.152591773490286, 51.22682288367085],
          [-0.152442281400863, 51.22676476545226],
          [-0.15279571367473, 51.226415119760084],
          [-0.152901509277153, 51.226312470424055],
          [-0.152193196610658, 51.22572392683695],
          [-0.151935817154767, 51.22503368777944],
          [-0.151801251671523, 51.224817526125136],
          [-0.151246283040948, 51.224298846791555],
          [-0.151097024707792, 51.22419936175277],
          [-0.150844092593442, 51.22386351747679],
          [-0.150667541349089, 51.22344434533594],
          [-0.150101169334383, 51.22285353411019],
          [-0.149558406958195, 51.22206704383365],
          [-0.147520203599787, 51.220076075502455],
          [-0.147444195560962, 51.22000742306696],
          [-0.146409531546969, 51.218134848199185],
          [-0.146216481452436, 51.217700118256204],
          [-0.1451314240963, 51.21626469548612],
          [-0.144733674558356, 51.21625658675419],
          [-0.144495851051523, 51.2139074046035],
          [-0.144481404930954, 51.21369673606083],
          [-0.144565526865497, 51.21306405502673],
          [-0.144729773159005, 51.21253966349246],
          [-0.145246444610374, 51.21140393333527],
          [-0.145502445156463, 51.21073350855729],
          [-0.143854535548541, 51.2107325419885],
          [-0.143745249881411, 51.21074429683937],
          [-0.135868475025201, 51.21207407799033],
          [-0.135853823556015, 51.212046864994825],
          [-0.135808066084296, 51.211477769091886],
          [-0.135783910493541, 51.211366768360655],
          [-0.135919183341754, 51.21113690192808],
          [-0.135919400960578, 51.211131509513194],
          [-0.1356976114579, 51.2109508086936],
          [-0.135645069349958, 51.21062082200741],
          [-0.135764411605633, 51.2102180334129],
          [-0.135795840864222, 51.210113314736645],
          [-0.136567121436857, 51.20866871966068],
          [-0.136639245159083, 51.20851338834641],
          [-0.13658333281952, 51.20812489282715],
          [-0.136580203330037, 51.20802501905569],
          [-0.136730030748959, 51.20757595084919],
          [-0.136747218889974, 51.20754025216839],
          [-0.137004104794211, 51.20734739554721],
          [-0.137046303675801, 51.207295008343074],
          [-0.137308811209027, 51.206607617686466],
          [-0.137320764204969, 51.20659521770063],
          [-0.137749686558351, 51.206609244345394],
          [-0.13781139073221, 51.2063215471466],
          [-0.138028303325581, 51.20424308837083],
          [-0.138040599698227, 51.204186627361636],
          [-0.137485764981028, 51.203141779742396],
          [-0.137397830992811, 51.202979401574424],
          [-0.137059969683857, 51.200849836375625],
          [-0.137024068081109, 51.20056867793752],
          [-0.137047263124972, 51.199851395563115],
          [-0.137067871488829, 51.19976628917516],
          [-0.137366294177576, 51.19911004847455],
          [-0.137457772023647, 51.19911330439763],
          [-0.137524339891267, 51.1986692046987],
          [-0.137571311613345, 51.198498184066885],
          [-0.137815986398023, 51.196049653044895],
          [-0.137776225942094, 51.19597077947812],
          [-0.138548669888324, 51.19488052093952],
          [-0.138600378422022, 51.19480490246422],
          [-0.139334668135362, 51.1930260555479],
          [-0.139366332266334, 51.19298609029109],
          [-0.141004651094842, 51.19178638599256],
          [-0.1411979371988, 51.191570926319244],
          [-0.141454037899348, 51.19153722630888],
          [-0.141555362744534, 51.19147318712781],
          [-0.141613546045513, 51.190702502829026],
          [-0.141601902901762, 51.190671741191764],
          [-0.142717678238235, 51.190434964500476],
          [-0.142955539932469, 51.19039197827211],
          [-0.143237593800622, 51.189712081240074],
          [-0.143243581347156, 51.18966990866132],
          [-0.143243950821993, 51.18909075765962],
          [-0.143148346516357, 51.18826457040957],
          [-0.143293349570619, 51.18793232884453],
          [-0.143508334991236, 51.18653461377899],
          [-0.141524156658272, 51.18644823754725],
          [-0.141491445547658, 51.18644322109814],
          [-0.140360883908384, 51.185982785724235],
          [-0.140324244676558, 51.185968713368226],
          [-0.141270508736862, 51.18517617619204],
          [-0.141667019223104, 51.18485243052658],
          [-0.140337683570548, 51.18360733477605],
          [-0.14000766972045, 51.18330981044079],
          [-0.139834191576589, 51.182891569791565],
          [-0.139418840058088, 51.182545922277704],
          [-0.136720161084346, 51.181234029016274],
          [-0.136695618200017, 51.18120396075716],
          [-0.136494788520362, 51.18093276648808],
          [-0.136485612524153, 51.180911936149336],
          [-0.136626691000448, 51.18067766566859],
          [-0.136614872575323, 51.18065139737767],
          [-0.136114294663906, 51.18039790878141],
          [-0.136063708274745, 51.180339546719516],
          [-0.13633555765287, 51.18009117317376],
          [-0.136336970708078, 51.18005612261295],
          [-0.135909053550023, 51.179384712785904],
          [-0.135884821875623, 51.179311482461706],
          [-0.136265542265635, 51.17881123888351],
          [-0.136359462032069, 51.17871740870862],
          [-0.136254114303989, 51.17852687484046],
          [-0.136254967082368, 51.17847023190576],
          [-0.136421417893913, 51.178103267956025],
          [-0.136374746311401, 51.177947842934316],
          [-0.135517736900578, 51.17752229952392],
          [-0.135130889035122, 51.177358752497476],
          [-0.135021332902618, 51.17659888735433],
          [-0.134977574595467, 51.17654872752874],
          [-0.132786207585707, 51.1759714836651],
          [-0.132206739315625, 51.17590197849404],
          [-0.132214735780481, 51.17563321237504],
          [-0.132207037670899, 51.17554046047104],
          [-0.129100167061335, 51.17496291267218],
          [-0.128979798087446, 51.174791017313694],
          [-0.128611361641454, 51.17063929146604],
          [-0.128552453585649, 51.1700448023333],
          [-0.127722696987839, 51.16506550907793],
          [-0.127719427661591, 51.16504027589601],
          [-0.128191516656351, 51.16295332382004],
          [-0.12825391695985, 51.162789747445224],
          [-0.128656047067045, 51.16260732510376],
          [-0.129121511470613, 51.16245019591919],
          [-0.135722696472293, 51.16076684879895],
          [-0.135796676030112, 51.16074104825364],
          [-0.140377342018701, 51.1603553046162],
          [-0.140462665356693, 51.16004729544712],
          [-0.146232700728177, 51.160278268938974],
          [-0.14685390136827, 51.16026562836617],
          [-0.15109538763068, 51.160025175482495],
          [-0.153143472435157, 51.159843479907984],
          [-0.154441200256319, 51.160043817015676],
          [-0.154514307273098, 51.1600395739982],
          [-0.155391954229236, 51.159656810459076],
          [-0.155464240641333, 51.15963726544901],
          [-0.157010900312098, 51.159584291485615],
          [-0.158313188417869, 51.15959849794399],
          [-0.160292829589072, 51.159733956651],
          [-0.160449617797732, 51.15974721317294],
          [-0.164165930219056, 51.160519632711726],
          [-0.164327084214644, 51.16056712678638],
          [-0.168550853497324, 51.162360902497525],
          [-0.169067205845525, 51.162612697625846],
          [-0.176611078793525, 51.166799892030774],
          [-0.176706370526838, 51.16684993973365],
          [-0.176611570273833, 51.167186607296976],
          [-0.176687429955268, 51.16754841824655],
          [-0.177058231876903, 51.16790313193719],
          [-0.177148942167859, 51.16792432980162],
          [-0.17708792125521, 51.16863834287213],
          [-0.177077857223538, 51.16867595778245],
          [-0.177355306383561, 51.16889521716609],
          [-0.177356891286531, 51.16892761754449],
          [-0.177193040548052, 51.16923803104987],
          [-0.177025141449728, 51.169433267668694],
          [-0.176555015973558, 51.169783875933945],
          [-0.17654272945572, 51.16980526831936],
          [-0.176663547813892, 51.17015159185088],
          [-0.176712817672764, 51.170208117492436],
          [-0.177532432873586, 51.170390854502614],
          [-0.177808713409897, 51.17042213572806],
          [-0.178912590481148, 51.17097891065654],
          [-0.178958565539465, 51.171010203001686],
          [-0.179088332687691, 51.17116600642384],
          [-0.179095566712295, 51.17120029330637],
          [-0.179111510327741, 51.17188582678764],
          [-0.179143735595774, 51.17193938826969],
          [-0.180158125948422, 51.17255411477805],
          [-0.180204562984275, 51.172573722597264],
          [-0.181062153251474, 51.172665294311805],
          [-0.181096500808032, 51.1726649287579],
          [-0.182006605630177, 51.172402975651444],
          [-0.182049725101184, 51.17243422243389],
          [-0.182377775359297, 51.17289617425206],
          [-0.182422731413472, 51.17295352983707],
          [-0.182898998957994, 51.17324780935318],
          [-0.18291070183152, 51.173277668755006],
          [-0.182655199184913, 51.17388254471994],
          [-0.182645368462417, 51.173950740754265],
          [-0.182758802472161, 51.174632391411905],
          [-0.182786620962953, 51.17465260846175],
          [-0.183343504788197, 51.17493464791038],
          [-0.183376001059758, 51.17494504485453],
          [-0.183928428244635, 51.174830410202624],
          [-0.183965460690529, 51.17483458209436],
          [-0.184230057900358, 51.17494570686213],
          [-0.184436020670879, 51.17509279383558],
          [-0.185124686039284, 51.175079192274545],
          [-0.185268598033959, 51.175094014093574],
          [-0.185695302291531, 51.17533984910431],
          [-0.185735053836888, 51.175347659840625],
          [-0.186176091855715, 51.17515484503442],
          [-0.18627544962695, 51.1751383981634],
          [-0.186568965771413, 51.17524187148887],
          [-0.186595356523999, 51.17526206546887],
          [-0.18661839477431, 51.17529479803654],
          [-0.186601097018469, 51.17548069006048],
          [-0.186253362675615, 51.17570193190428],
          [-0.186233048771386, 51.17574568397985],
          [-0.18648635632744, 51.175853030948296],
          [-0.18694697526896, 51.17607330604758],
          [-0.187320429866788, 51.176437020542295],
          [-0.187338453722756, 51.176451688825985],
          [-0.187269047406315, 51.17665296169905],
          [-0.187262271513904, 51.176679836458334],
          [-0.187417077017819, 51.17703746633399],
          [-0.187659118047255, 51.17717701185667],
          [-0.187481143418468, 51.17748362326529],
          [-0.187494596485234, 51.177505415328014],
          [-0.188307140094809, 51.17776350928608],
          [-0.188690896410964, 51.17786477637905],
          [-0.188771139541307, 51.1779712387982],
          [-0.18879012369256, 51.178034485137594],
          [-0.188613363114586, 51.17827366778854],
          [-0.188662105848041, 51.17830769699447],
          [-0.189085516605465, 51.178419468920076],
          [-0.189141246055755, 51.17842123039495],
          [-0.189462394736659, 51.17825802481218],
          [-0.189504423492811, 51.17824428571537],
          [-0.189757038664723, 51.178296756060774],
          [-0.189792772849074, 51.1783341809058],
          [-0.189784337955583, 51.178842167727225],
          [-0.189769019098749, 51.17886801118139],
          [-0.188795587044216, 51.17953913647709],
          [-0.188010217036626, 51.17982825494903],
          [-0.187712945435641, 51.18025802573382],
          [-0.187696075303568, 51.18032341509393],
          [-0.187778229269984, 51.18045418943675],
          [-0.187861080606174, 51.18049414293994],
          [-0.18931433240046, 51.1809438095225],
          [-0.189658488909673, 51.181070541045536],
          [-0.189769116613728, 51.18138791399184],
          [-0.189819610057973, 51.18141387585239],
          [-0.19044945949334, 51.18140652699342],
          [-0.190557456413048, 51.181462155747646],
          [-0.191398749777333, 51.181280004235816],
          [-0.191447122199472, 51.18128704685594],
          [-0.192246872401017, 51.1808497392838],
          [-0.192630618581189, 51.18073245782267],
          [-0.194519357664061, 51.18076700056407],
          [-0.194624839306711, 51.18070387627299],
          [-0.197539540848027, 51.180993408557654],
          [-0.197612188112527, 51.18100172172534],
          [-0.198550463356614, 51.18137769207994],
          [-0.198597407100432, 51.18138470974898],
          [-0.200390094409474, 51.18072610128234],
          [-0.200554405362734, 51.18065848015475],
          [-0.20073435049882, 51.18011535813665],
          [-0.200692435180244, 51.18005266068861],
          [-0.199904272542236, 51.179385837101215],
          [-0.199569789571969, 51.17901017249485],
          [-0.199369432929026, 51.17842343092355],
          [-0.199187086137279, 51.17803571611383],
          [-0.19855086807121, 51.177289382076495],
          [-0.198316878598887, 51.1769422398204],
          [-0.198114096041051, 51.17641841099692],
          [-0.198077346713302, 51.17637018121815],
          [-0.197807072330692, 51.176183457949946],
          [-0.197644845602637, 51.17616117507923],
          [-0.196924782044343, 51.17536497815079],
          [-0.196922307741982, 51.17535504753984],
          [-0.197929966357046, 51.17453419980631],
          [-0.198152202334326, 51.17455830537937],
          [-0.198358216488726, 51.17437441855275],
          [-0.198408992425729, 51.17435631443128],
          [-0.199380925524858, 51.174195004049245],
          [-0.199432536080655, 51.17419220072293],
          [-0.199825322356707, 51.17428187875397],
          [-0.200000625156541, 51.174262091810064],
          [-0.200456855598083, 51.173860817380515],
          [-0.200593452332602, 51.17380626049469],
          [-0.201519962972025, 51.17367211333771],
          [-0.201648327162109, 51.17364530798503],
          [-0.201877504199881, 51.17363803824217],
          [-0.201911433681313, 51.17364845210888],
          [-0.202338624283029, 51.17406780157611],
          [-0.202589520030895, 51.1742380290853],
          [-0.204835319468964, 51.173322829369916],
          [-0.205085486532606, 51.17318007906371],
          [-0.206828019647786, 51.17262404193885],
          [-0.206877603493482, 51.17256274924429],
          [-0.208198151601853, 51.1723743388908],
          [-0.208606136232834, 51.1723302245486],
          [-0.210742744050089, 51.17238360150065],
          [-0.210762620898012, 51.17238750270005],
          [-0.211043640688811, 51.17288911835611],
          [-0.211092886480234, 51.1729474271372],
          [-0.211786679729027, 51.1733923989978],
          [-0.211837281778965, 51.17341565506068],
          [-0.212615639052356, 51.173560645174405],
          [-0.212749381278608, 51.17361664661329],
          [-0.212851444988651, 51.17378907426393],
          [-0.212881680704812, 51.174006269576516],
          [-0.213859128392313, 51.17466419946636],
          [-0.213915590734392, 51.17468394677218],
          [-0.214245895115039, 51.17446595942762],
          [-0.21447839764195, 51.174335510439064],
          [-0.216010355446773, 51.174267146990196],
          [-0.21625665653483, 51.174261009409065],
          [-0.217695382985114, 51.174013140104],
          [-0.218035447986153, 51.17398684359876],
          [-0.218407572252204, 51.17461393153355],
          [-0.218728177678834, 51.17516739075453],
          [-0.21983608148737, 51.1761186397623],
          [-0.219970636856084, 51.17626547675429],
          [-0.220557683454736, 51.17610443797109],
          [-0.221003333460946, 51.17589987773249],
          [-0.221683025925641, 51.1750405821444],
          [-0.221729539600435, 51.175021504573124],
          [-0.222245538501514, 51.174884559837],
          [-0.222625386790473, 51.17482828015454],
          [-0.223510255289016, 51.17484621858885],
          [-0.223761652107682, 51.17493097356945],
          [-0.225402516825138, 51.17705845919339],
          [-0.225432180951812, 51.1771056732684],
          [-0.227619842818499, 51.17807321858913],
          [-0.227736389230572, 51.17813074125125],
          [-0.228685223563596, 51.17898326510092],
          [-0.228982762331004, 51.17920899888427],
          [-0.229091487154659, 51.17950831512388],
          [-0.229092473665926, 51.17959466349318],
          [-0.228939173636995, 51.1802353473415],
          [-0.228942534368316, 51.180259679491385],
          [-0.234514240781756, 51.18126656831286],
          [-0.234598713683767, 51.181265144920054],
          [-0.235559600509169, 51.182069226988695],
          [-0.235830604910378, 51.182279253863875],
          [-0.236599331287448, 51.18264516757875],
          [-0.236674198419525, 51.1826705770945],
          [-0.236396190576624, 51.18335705074712],
          [-0.236167361073163, 51.183429142639405],
          [-0.236825716224517, 51.18410095509518],
          [-0.23724080194149, 51.18447323063002],
          [-0.238599397294422, 51.18415554931155],
          [-0.23912085453928, 51.18406447392861],
          [-0.239120404445453, 51.18373801814393],
          [-0.239088041568124, 51.18346054627157],
          [-0.240817277499594, 51.18344159407755],
          [-0.240911969865059, 51.18343492408558],
          [-0.243052580765519, 51.18283218188026],
          [-0.243069673135108, 51.18283423714945],
          [-0.24319068693955, 51.18382978134595],
          [-0.243213189073648, 51.18387778216692],
          [-0.243416842546995, 51.18424236340604],
          [-0.243454598712083, 51.18430318416147],
          [-0.243735773473615, 51.184435107396205],
          [-0.244017922354477, 51.18476759110131],
          [-0.244278943680993, 51.185392932632084],
          [-0.244248294120447, 51.18544643142323],
          [-0.245089808981605, 51.186499559092034],
          [-0.245117728542183, 51.18655573512409],
          [-0.244992850204222, 51.187999055260505],
          [-0.244966417904139, 51.18812995824119],
          [-0.244631733505101, 51.188313793396425],
          [-0.244591141290176, 51.188327573438805],
          [-0.244431172901326, 51.18813092232858],
          [-0.244387552356244, 51.18811138234633],
          [-0.243741221751605, 51.188173628373114],
          [-0.243689866990769, 51.18820703142641],
          [-0.243424787191215, 51.188705767676375],
          [-0.243403084329001, 51.18882505032814],
          [-0.243057169795022, 51.1888144612671],
          [-0.243006970881797, 51.18885507588894],
          [-0.243210712670754, 51.18921785951115],
          [-0.243227701483473, 51.18926038220678],
          [-0.242900623091627, 51.18950727867407],
          [-0.242834216153734, 51.18952246913526],
          [-0.242199434527513, 51.18935555592196],
          [-0.241891078876028, 51.189335635236795],
          [-0.241659386229432, 51.18952011025934],
          [-0.241603742525765, 51.189515676890714],
          [-0.24146981656909, 51.18919890508052],
          [-0.241402775675634, 51.18911785878663],
          [-0.240052722690248, 51.18928282022045],
          [-0.239837773572688, 51.189290378956905],
          [-0.239881185873067, 51.189127357003315],
          [-0.239876662090615, 51.18909581300772],
          [-0.239670007249451, 51.18899827655927],
          [-0.239614261781079, 51.188996538635486],
          [-0.239312007042299, 51.18915476685515],
          [-0.238903790680067, 51.18905149815189],
          [-0.238472182548771, 51.189449692742656],
          [-0.238413404872751, 51.189452405178145],
          [-0.237823104905374, 51.18901994064097],
          [-0.237808681774233, 51.18894777834454],
          [-0.237852870782485, 51.188689441444595],
          [-0.237929759114161, 51.18854940703079],
          [-0.238516097672946, 51.18867244770088],
          [-0.238531084702464, 51.18865468703554],
          [-0.238011952311694, 51.18811987343446],
          [-0.238009031368556, 51.18808385690142],
          [-0.238359530425315, 51.18778606547391],
          [-0.238361713810753, 51.1877663134445],
          [-0.238003250994438, 51.18755946992437],
          [-0.237996292798775, 51.18729136962114],
          [-0.238439907315822, 51.187216211349636],
          [-0.238451048329934, 51.18718670172071],
          [-0.238215790795594, 51.18697631761501],
          [-0.238115206552959, 51.186949622322885],
          [-0.237057523753361, 51.186916604488744],
          [-0.237037775327223, 51.1869091124316],
          [-0.236921274613907, 51.186511658771224],
          [-0.236791172717106, 51.18647102781331],
          [-0.236486254960392, 51.18654916953241],
          [-0.236445232105602, 51.18664927447354],
          [-0.236390424709438, 51.18699828176262],
          [-0.236720479256508, 51.18704912099612],
          [-0.236532163070227, 51.18722164934669],
          [-0.23650797771492, 51.18725545879653],
          [-0.236125583755365, 51.18733872720023],
          [-0.236013960196676, 51.18733884312041],
          [-0.235821305508009, 51.187287375634725],
          [-0.235778272499639, 51.18725255285898],
          [-0.235726869432079, 51.1870620224125],
          [-0.235697384195178, 51.18704718879675],
          [-0.235376121486582, 51.18710349771435],
          [-0.235170644802857, 51.18712557958052],
          [-0.234624769529538, 51.18766772656431],
          [-0.234340732845554, 51.18779833888871],
          [-0.233497811530208, 51.18697533554096],
          [-0.233447118020879, 51.18661664280318],
          [-0.232309251289826, 51.1866974865961],
          [-0.232131051389872, 51.18671727769739],
          [-0.232045949825183, 51.186734877733805],
          [-0.230346377933407, 51.187209209756496],
          [-0.230277330843646, 51.18718118616857],
          [-0.230182328902976, 51.18708352269587],
          [-0.229323957751975, 51.187301662830485],
          [-0.228469625516825, 51.187451509837544],
          [-0.228443567961384, 51.18787019680668],
          [-0.227477983249659, 51.18875669136259],
          [-0.227276857238106, 51.18922488681807],
          [-0.227152064945015, 51.189717620499515],
          [-0.227146516332739, 51.189787683121416],
          [-0.227194855896551, 51.191400889302194],
          [-0.227165112433544, 51.19157940266261],
          [-0.223927895686075, 51.19191343076514],
          [-0.221815821116106, 51.19186787077755],
          [-0.221708427888222, 51.191422875695],
          [-0.221706211380602, 51.19136888298276],
          [-0.221153687374996, 51.190925216829754],
          [-0.220905552794631, 51.19082791611094],
          [-0.219104364493956, 51.19092372834843],
          [-0.218936431526426, 51.19093646124598],
          [-0.21814195584135, 51.191572776647256],
          [-0.218065951824971, 51.19161388766567],
          [-0.215624570484325, 51.192240395788424],
          [-0.215560040569246, 51.19228078075676],
          [-0.215830786895294, 51.19290453745552],
          [-0.215819066666013, 51.19291155336553],
          [-0.215067697394181, 51.19313392168799],
          [-0.214874191461019, 51.19317863483695],
          [-0.213080519461578, 51.19326278408528],
          [-0.212820728544616, 51.19331907244625],
          [-0.215227111292365, 51.19541792067828],
          [-0.215311390116506, 51.19553341888127],
          [-0.215987615270598, 51.196888205503924],
          [-0.216033325203121, 51.19722434735877],
          [-0.215643068727853, 51.19828678802683],
          [-0.214658272660587, 51.19947326034092],
          [-0.215919720031035, 51.19990797612626],
          [-0.216459480836685, 51.20031279953999],
          [-0.216733595815267, 51.20047975179902],
          [-0.217578101776878, 51.200814568805384],
          [-0.217673232646385, 51.20087177489416],
          [-0.218535617946635, 51.20170867711988],
          [-0.21855024175528, 51.20184919316965],
          [-0.219297109490049, 51.20200714729706],
          [-0.219361027252595, 51.20198293886762],
          [-0.219586858642537, 51.20139732176028],
          [-0.219659810917526, 51.201250044167296],
          [-0.219821608880698, 51.201248907939025],
          [-0.220090981139952, 51.20101918232304],
          [-0.220652817739651, 51.20100074565048],
          [-0.220661078148081, 51.20097209308784],
          [-0.220174614890859, 51.20078033651028],
          [-0.22004964609124, 51.200605767172995],
          [-0.22007479754331, 51.20047305079376],
          [-0.220131444522213, 51.200414557370244],
          [-0.220700275351243, 51.20025143692897],
          [-0.220700621377215, 51.20024244902497],
          [-0.220184319421009, 51.20000797108356],
          [-0.220011393962486, 51.199777814223225],
          [-0.220434633655066, 51.199455100381115],
          [-0.220439513648, 51.19943988619846],
          [-0.219955534716371, 51.19944421755669],
          [-0.219874247328611, 51.19936204274844],
          [-0.220003403213263, 51.19898179751667],
          [-0.220018885546422, 51.19895145621201],
          [-0.22038763112886, 51.19889141351608],
          [-0.220481008177477, 51.198808297527634],
          [-0.2206264458839, 51.198302394800486],
          [-0.220649887889024, 51.19828836212287],
          [-0.220885014345087, 51.19838996202204],
          [-0.220961951451568, 51.198399225362635],
          [-0.221450704767345, 51.19830772868943],
          [-0.221468355260138, 51.198295406473],
          [-0.221199980075504, 51.198202295596346],
          [-0.221186262901009, 51.19818679873443],
          [-0.221204684344913, 51.19808006001873],
          [-0.221244563413696, 51.19797364741071],
          [-0.22108334855641, 51.19769960351287],
          [-0.221084524682905, 51.19766904461828],
          [-0.221718489663405, 51.19759774018295],
          [-0.221759533756593, 51.19753541161792],
          [-0.22170089780989, 51.19727371884447],
          [-0.221685750241312, 51.197258200305335],
          [-0.221323363890371, 51.19730215602631],
          [-0.221205497648732, 51.197277881806336],
          [-0.221320775664623, 51.19666270239125],
          [-0.221324293746479, 51.196645668834854],
          [-0.221067243871726, 51.196481683687296],
          [-0.221022887152284, 51.19644413748596],
          [-0.220973415266967, 51.19613042319993],
          [-0.220974383847398, 51.1961052570463],
          [-0.221385151523555, 51.195956817571705],
          [-0.221404715740042, 51.19593193400588],
          [-0.222912647622265, 51.19583702916143],
          [-0.223585001897218, 51.195957852028386],
          [-0.223831574662397, 51.197325857888394],
          [-0.224144687720774, 51.19822902656189],
          [-0.224119645541721, 51.198955294378386],
          [-0.224143154871267, 51.19920026517618],
          [-0.225076929112473, 51.200901547221044],
          [-0.225116587346968, 51.20128525748336],
          [-0.224743452940677, 51.20216722385033],
          [-0.223353064907064, 51.202029215463064],
          [-0.222965777635546, 51.20286869353603],
          [-0.222937550635913, 51.2029698877327],
          [-0.22302851052582, 51.20332200216739],
          [-0.223051813554337, 51.203870039645935],
          [-0.225935548240057, 51.20407746036963],
          [-0.226196330467346, 51.20418303553953],
          [-0.226248273032328, 51.205179365478166],
          [-0.226502827570542, 51.20578306649396],
          [-0.22828807338781, 51.206976515575406],
          [-0.228339237521924, 51.206986283182246],
          [-0.229447021164453, 51.206994052645015],
          [-0.229549002496377, 51.20694793155296],
          [-0.231722043648719, 51.20467043995531],
          [-0.232671835612776, 51.20431606598011],
          [-0.2347587010463, 51.206085934301946],
          [-0.234869054742876, 51.206270159491794],
          [-0.231586146192032, 51.206912178446316],
          [-0.230724156626865, 51.2072525826495],
          [-0.233564021874872, 51.209025756941564],
          [-0.233552196957566, 51.2090354709339],
          [-0.232834709183765, 51.209452713947925],
          [-0.23246041120901, 51.20950641701302],
          [-0.232458432651046, 51.20970783336206],
          [-0.232427902627985, 51.20971996271732],
          [-0.230823801416256, 51.210071641072034],
          [-0.230397418007164, 51.21017671048055],
          [-0.228784440675891, 51.20978809155107],
          [-0.228632750246944, 51.20982356721123],
          [-0.226540944584652, 51.21068311213589],
          [-0.226458605208372, 51.21073942064214],
          [-0.225188350927969, 51.212275080516974],
          [-0.225070578227397, 51.21232185764212],
          [-0.22565763287998, 51.212768723925564],
          [-0.225886037753353, 51.21319666206975],
          [-0.22591120879906, 51.21321233190897],
          [-0.227122447487571, 51.213363782170156],
          [-0.227324975590367, 51.21349635064795],
          [-0.227254458644257, 51.213617589319696],
          [-0.227008686100605, 51.21371638857729],
          [-0.227183698010536, 51.213894405478186],
          [-0.227240421197924, 51.21390875426895],
          [-0.22760245062818, 51.21395200782607],
          [-0.227940049724304, 51.21392294534304],
          [-0.22862172327264, 51.21354655854501],
          [-0.228651912224278, 51.21354341814573],
          [-0.229957907057366, 51.21365130719203],
          [-0.230025612158518, 51.21364063992692],
          [-0.230416279477878, 51.213384846528584],
          [-0.230506929469766, 51.21333585539776],
          [-0.231526222278261, 51.21322805389138],
          [-0.231567721185883, 51.21322868086904],
          [-0.232270878965843, 51.21344974138738],
          [-0.232320757766834, 51.213455890528216],
          [-0.232872820830657, 51.213359905986394],
          [-0.232914010467912, 51.21336862163309],
          [-0.234113028961554, 51.214327397724716],
          [-0.234180138167068, 51.21436977851423],
          [-0.234784710430253, 51.214511096272616],
          [-0.234825626731228, 51.21452700161667],
          [-0.234824974325851, 51.214656492792884],
          [-0.234798047816131, 51.21468666336331],
          [-0.2338029910703, 51.215208542991626],
          [-0.233759587898766, 51.21529512140517],
          [-0.234253014091042, 51.21568477357038],
          [-0.234346685649668, 51.21578151368148],
          [-0.233872719102834, 51.21600638599904],
          [-0.233828721208429, 51.21603360083304],
          [-0.233764258163592, 51.21633389784549],
          [-0.233779884811896, 51.21637460269529],
          [-0.234085072647822, 51.21651949997071],
          [-0.234095628084367, 51.21654304133441],
          [-0.233935880057463, 51.21667642741586],
          [-0.233740628268993, 51.2168020830652],
          [-0.234303350032571, 51.21792662060002],
          [-0.234494891862769, 51.21823527643505],
          [-0.235181057091738, 51.218266307957414],
          [-0.235211374935707, 51.21829734173166],
          [-0.234934440086942, 51.21853688011148],
          [-0.234643580962125, 51.218616130085174],
          [-0.234532004880352, 51.218875248309075],
          [-0.234524951073547, 51.21898485819937],
          [-0.235316612586404, 51.2191784571777],
          [-0.235629619490643, 51.21923173857702],
          [-0.235555625165504, 51.219519302888635],
          [-0.235559667448364, 51.2195634301878],
          [-0.235991976232681, 51.219867618725814],
          [-0.236005258454289, 51.21989479829505],
          [-0.235961342134275, 51.220107273766715],
          [-0.235902479969432, 51.220148654411815],
          [-0.235209268620594, 51.22033875198482],
          [-0.235154699163036, 51.220380196976556],
          [-0.234857598882895, 51.22088472860546],
          [-0.234846480936595, 51.22091333898356],
          [-0.234832202526142, 51.22102463854006],
          [-0.23484861012677, 51.22108244202061],
          [-0.235316584069571, 51.22146541100681],
          [-0.235410005647532, 51.22153156992869],
          [-0.236009959145418, 51.22172137461144],
          [-0.23604807776044, 51.22177320989932],
          [-0.236039355350733, 51.221889089864554],
          [-0.235928703442992, 51.22201152756795],
          [-0.235345261312399, 51.222326486151545],
          [-0.235368597156062, 51.22235291802994],
          [-0.237562586277419, 51.22280325349033],
          [-0.23759955996639, 51.222810105365376],
          [-0.237933160833567, 51.223075029038554],
          [-0.237989958315053, 51.22312534621663],
          [-0.238974934437857, 51.22347201502694],
          [-0.239068442010007, 51.223498602496356],
          [-0.239513815453624, 51.223536777539294],
          [-0.239591449590454, 51.22352895197492],
          [-0.240132458134815, 51.22335002989933],
          [-0.240203784315434, 51.223357397409],
          [-0.240907222015869, 51.22387698149548],
          [-0.240967029979405, 51.223885974067166],
          [-0.241533095103887, 51.22365076536741],
          [-0.241589224965196, 51.22364351474353],
          [-0.242148179117899, 51.223745438432],
          [-0.242177113691019, 51.2237377791292],
          [-0.24231967528513, 51.22345393851324],
          [-0.242324277149365, 51.223445913801044],
          [-0.242522249830461, 51.223399424127415],
          [-0.242566176144186, 51.22341177468636],
          [-0.242967511412725, 51.22404282153957],
          [-0.243016875364753, 51.22417576139067],
          [-0.24289628508087, 51.22429625778763],
          [-0.242556902302335, 51.224408073549085],
          [-0.242580187814027, 51.224586486974864],
          [-0.24290140252318, 51.22476397697026],
          [-0.244322691799772, 51.224673787930165],
          [-0.244348900575298, 51.224662489959144],
          [-0.244423342898578, 51.2245502931088],
          [-0.244431695672257, 51.22451894245577],
          [-0.244197421248127, 51.22427711098033],
          [-0.244177454707797, 51.22423724175532],
          [-0.244290645592746, 51.22412292825625],
          [-0.244319545889502, 51.22411616722241],
          [-0.244715690628271, 51.22409333012473],
          [-0.244728367748617, 51.224098916091286],
          [-0.24492115195147, 51.22452808065736],
          [-0.244992682378881, 51.2245678235292],
          [-0.245415008019635, 51.224496813717295],
          [-0.245522328667353, 51.22446155051042],
          [-0.246303941070745, 51.22409375316093],
          [-0.246354006302174, 51.22405763141018],
          [-0.246449870471699, 51.22349429956273],
          [-0.246486952714741, 51.223422910094364],
          [-0.246806856873465, 51.22337104516034],
          [-0.246889088900098, 51.22339296091938],
          [-0.247485137039222, 51.22429130564846],
          [-0.247549239691417, 51.22433813024021],
          [-0.249088833422091, 51.22422447369674],
          [-0.24913248969201, 51.22424401223058],
          [-0.249094353915851, 51.225325313737464],
          [-0.249100897388801, 51.22534159921969],
          [-0.249202457906106, 51.225458230141],
          [-0.249341507460179, 51.22549268497722],
          [-0.249957619361249, 51.22548570992954],
          [-0.250007616616482, 51.22552692639925],
          [-0.250244010255091, 51.22590277356786],
          [-0.250254748137859, 51.225997361370254],
          [-0.250043186561492, 51.22670465191891],
          [-0.250049492119014, 51.226727228868974],
          [-0.250199898931384, 51.22691563383001],
          [-0.25022784645966, 51.226934037721016],
          [-0.250728002337613, 51.22707730799361],
          [-0.25073577508005, 51.227136778421844],
          [-0.250473725192735, 51.227362185744546],
          [-0.250371582304927, 51.22741191969843],
          [-0.249405967543819, 51.227721234561486],
          [-0.24934911850583, 51.22782290550064],
          [-0.249578631935841, 51.228040372711696],
          [-0.249624541619761, 51.22807613215468],
          [-0.250050167411432, 51.228145446839214],
          [-0.250090521987971, 51.22817662651468],
          [-0.250217114432652, 51.22857781117621],
          [-0.250168820147116, 51.228642738755475],
          [-0.248817694754879, 51.22907039074185],
          [-0.248782895165067, 51.229119332106954],
          [-0.249226150829832, 51.230121495158485],
          [-0.249379973895888, 51.23044664674127],
          [-0.249905459733945, 51.230867285199515],
          [-0.24992468385715, 51.2308891559395],
          [-0.249913813368883, 51.231062559697016],
          [-0.249903145043106, 51.231079487055084],
          [-0.249419210297181, 51.231791697643615],
          [-0.249361776536079, 51.231870877187546],
          [-0.248936762340534, 51.23219996282174],
          [-0.248909084049132, 51.23228768095391],
          [-0.248643553516777, 51.23245277898575],
          [-0.247935520762018, 51.23246376891063],
          [-0.247861586550211, 51.2325247146891],
          [-0.247541390703754, 51.23322408016288],
          [-0.24752046072205, 51.23324714887674],
          [-0.246874265107411, 51.23359090267524],
          [-0.246801249321472, 51.23362758027136],
          [-0.246853898284534, 51.23390085825552],
          [-0.246874348523877, 51.23392814314957],
          [-0.247183504907008, 51.23412342114704],
          [-0.247181526924869, 51.23413778016811],
          [-0.246716670675312, 51.234270210052046],
          [-0.246621529092826, 51.234323641999374],
          [-0.246482546175372, 51.234437568995915],
          [-0.246473443781572, 51.234450922020365],
          [-0.246514673916071, 51.234647584631006],
          [-0.24650308088503, 51.23468877833634],
          [-0.246258863392053, 51.23485778428778],
          [-0.246216251395671, 51.23488592330372],
          [-0.246014661153362, 51.234837939137684],
          [-0.245966325753377, 51.2348282221577],
          [-0.245811747774146, 51.23508849899831],
          [-0.245653612884433, 51.23510321624695],
          [-0.245551849200561, 51.23521769984425],
          [-0.24548594572282, 51.23533092213273],
          [-0.245531957391177, 51.23540175619084],
          [-0.245669867618015, 51.235504543024746],
          [-0.245578292106531, 51.235652453017536],
          [-0.245543308380618, 51.235743656381075],
          [-0.244904809249643, 51.23626017198016],
          [-0.244857045148906, 51.236310715543674],
          [-0.244098089202101, 51.236604195924635],
          [-0.239532549966609, 51.23724248459965],
          [-0.239028899436818, 51.23730145873213],
          [-0.237521546319793, 51.23700899213011],
          [-0.237268519393112, 51.23706993225822],
          [-0.234194170941824, 51.237895022721034],
          [-0.233736709572963, 51.238019418992494],
          [-0.231038594501754, 51.239752090251116],
          [-0.230691226685274, 51.240105659543794],
          [-0.230607514314305, 51.24030853408966],
          [-0.230616211156851, 51.2403806089833],
          [-0.230912261360483, 51.2409543351058],
          [-0.231010188088596, 51.24116534995757],
          [-0.23169366457943, 51.24202280797667],
          [-0.231801516412273, 51.24223666918194],
          [-0.230440717515134, 51.2439463187274],
          [-0.230283239374562, 51.2441669592565],
          [-0.230127485888585, 51.24464122144037],
          [-0.229992604969749, 51.24501957643619],
          [-0.229679311386403, 51.24508138700459],
          [-0.229253202096931, 51.24505875749064],
          [-0.229238765557125, 51.24588227605441],
          [-0.229215436686949, 51.24604199442287],
          [-0.229675555817332, 51.24678365930871],
          [-0.229713478488484, 51.24684088693944],
          [-0.229747724589122, 51.247180431520825],
          [-0.229690130998231, 51.24733693415158],
          [-0.229604172000413, 51.24748581375517],
          [-0.229526011727741, 51.247580854666055],
          [-0.228397209482161, 51.24742349721923],
          [-0.228312718328713, 51.24742221905268],
          [-0.227009679013031, 51.24754818200767],
          [-0.226543776767686, 51.24755371753817],
          [-0.226499789957608, 51.248324631023976],
          [-0.22633838688495, 51.248869846378334],
          [-0.226566289629031, 51.24920333215877],
          [-0.227650706112172, 51.2492116541323],
          [-0.227740445168959, 51.24922560198183],
          [-0.230923193238479, 51.249930191083656],
          [-0.23154080815047, 51.250042035558884],
          [-0.23150532410096, 51.25033196539966],
          [-0.231395621000897, 51.25042743053169],
          [-0.231517873125213, 51.250490427168735],
          [-0.231545002538427, 51.250679683635894],
          [-0.231485374358452, 51.250889212362324],
          [-0.231410384542769, 51.25090156909362],
          [-0.231080159200108, 51.25091816474666],
          [-0.230433442852324, 51.250817569547536],
          [-0.229595849580405, 51.25106030476581],
          [-0.229419640535156, 51.2510963098132],
          [-0.22860992941764, 51.2511353252262],
          [-0.22790736042975, 51.25136929945238],
          [-0.227809615129088, 51.25219694859875],
          [-0.22795609737338, 51.25282235958176],
          [-0.227555150910494, 51.25300064383057],
          [-0.227289384128282, 51.25316658430482],
          [-0.227373090364085, 51.253449322954054],
          [-0.22598004159442, 51.25378704315346],
          [-0.22672899004638, 51.25566347205723],
          [-0.226744208369606, 51.255901110006384],
          [-0.227006837675485, 51.256152384646256],
          [-0.227344558475925, 51.256351737911665],
          [-0.228160220545671, 51.25645850070401],
          [-0.228206969049052, 51.256472696799115],
          [-0.2285424291982, 51.25684287353481],
          [-0.228614269327014, 51.25687543426345],
          [-0.231724140751504, 51.25799883970036],
          [-0.232011966269468, 51.25811739060718],
          [-0.234916650984933, 51.258877004461645],
          [-0.235472650594939, 51.25902926569822],
          [-0.237621924276766, 51.25986917017169],
          [-0.237708203514225, 51.25989924503564],
          [-0.238841194668829, 51.260068264590785],
          [-0.238932115993982, 51.260089415695084],
          [-0.240398934617745, 51.26059976490116],
          [-0.240686646705266, 51.26064725211316],
          [-0.24062935851226, 51.260458444971285],
          [-0.240623758660838, 51.26034235557075],
          [-0.24088113337771, 51.259870510239146],
          [-0.24091295611434, 51.25986289484433],
          [-0.243162233094278, 51.26015115055934],
          [-0.243486037760905, 51.26015420904275],
          [-0.24394569912358, 51.26009006037538],
          [-0.243747163741792, 51.259507956284885],
          [-0.247158493561532, 51.25920205547597],
          [-0.247636830664976, 51.259136373353854],
          [-0.248764879067475, 51.25958669274703],
          [-0.24887933395696, 51.260233177192255],
          [-0.250664387281111, 51.26059438076133],
          [-0.250865548055364, 51.260618967685396],
          [-0.252734116218417, 51.26051736643451],
          [-0.253347832495454, 51.260548103492184],
          [-0.254426505304769, 51.25908849271946],
          [-0.254569914480055, 51.25901059558567],
          [-0.25543099994753, 51.258866953810106],
          [-0.255869514233069, 51.258717013036566],
          [-0.257932839377683, 51.2578592486555],
          [-0.258407253468895, 51.25774490375819],
          [-0.258792970404275, 51.25770207878825],
          [-0.258904289857813, 51.25771452500177],
          [-0.259164467731746, 51.257883857675886],
          [-0.25922525859333, 51.25798188201638],
          [-0.260641634927396, 51.25782037559788],
          [-0.260834771805723, 51.25782953876556],
          [-0.260957271062566, 51.2586469919955],
          [-0.261076646882975, 51.259015664823465],
          [-0.261334658916213, 51.25935671976195],
          [-0.261422257834054, 51.259428162854036],
          [-0.262936856618358, 51.260083719770016],
          [-0.263015719725083, 51.26012086003631],
          [-0.26402801424481, 51.260947005966365],
          [-0.264122264696969, 51.26099426546823],
          [-0.265670283762709, 51.26133553960665],
          [-0.265744312290677, 51.26138699465029],
          [-0.266463943510237, 51.26256489356022],
          [-0.266473929951704, 51.262756584591386],
          [-0.265897436076506, 51.26523901051193],
          [-0.265775167089525, 51.26574528393762],
          [-0.26634875341786, 51.26699655807824],
          [-0.266402114862427, 51.267140330829946],
          [-0.266482167710074, 51.26786991755411],
          [-0.266518101379084, 51.26801972678687],
          [-0.266838634376359, 51.26837788025413],
          [-0.266871547289398, 51.2685699099239],
          [-0.266452229968427, 51.27060772436014],
          [-0.26637697491665, 51.27104544975609],
          [-0.266308274914844, 51.272489544838],
          [-0.266125686637561, 51.27315049630783],
          [-0.266209811231946, 51.27335317599334],
          [-0.266398517416129, 51.2737102778743],
          [-0.266978506338556, 51.27426111498531],
          [-0.26705477086811, 51.2744061250293],
          [-0.266875681452207, 51.27501227434465],
          [-0.266713971326833, 51.27546131002418],
          [-0.26689793465321, 51.27663037450923],
          [-0.266887521963682, 51.276716549550244],
          [-0.266175583254015, 51.278564786634675],
          [-0.266167380214424, 51.27863031129041],
          [-0.266301964309566, 51.278787875632524],
          [-0.26634396396412, 51.27889101307641],
          [-0.266380382829265, 51.2794850645681],
          [-0.266388992947906, 51.279522960976635],
          [-0.266709208531558, 51.27992966969675],
          [-0.266820428770214, 51.28009857804142],
          [-0.267236557091759, 51.28130974447148],
          [-0.267265708926989, 51.28144956115934],
          [-0.268529812997525, 51.283410657368066],
          [-0.268873418036379, 51.28411176387339],
          [-0.268899521202932, 51.28467598604774],
          [-0.268898081554387, 51.28494304514287],
          [-0.269340711980062, 51.28613840892164],
          [-0.269480233178635, 51.28654693630521],
          [-0.270132396594423, 51.287204937829664],
          [-0.270246850755485, 51.287364898242885],
          [-0.270192369113558, 51.28900524428535],
          [-0.270215501240443, 51.28907662755548],
          [-0.271618039926469, 51.291331999827925],
          [-0.272234576182556, 51.2923302876985],
          [-0.269848780891002, 51.294100797507824],
          [-0.269775462230275, 51.2941815477117],
          [-0.269557737798046, 51.294555124599555],
          [-0.269356481153889, 51.2947958521663],
          [-0.269118160486989, 51.29552613398503],
          [-0.269048226085335, 51.295631213884924],
          [-0.267583638808695, 51.29746204856263],
          [-0.267455810569231, 51.29758065966671],
          [-0.264479496169365, 51.299515879086655],
          [-0.26439948965837, 51.29954526843386],
          [-0.260771401492828, 51.299285508259956],
          [-0.260454378942151, 51.299247526609754],
          [-0.260254700345519, 51.29933088980032],
          [-0.260121894939007, 51.299428735203435],
          [-0.253391318920168, 51.29935012459606],
          [-0.253283551435218, 51.29920373597703],
          [-0.252433716358179, 51.29940867830295],
          [-0.251600668264083, 51.299624656034794],
          [-0.250139492252987, 51.298780028804515],
          [-0.249894447762579, 51.298660365797595],
          [-0.247492533238199, 51.29814966999489],
          [-0.24712649215118, 51.29804347928976],
          [-0.247173591320876, 51.29838860189872],
          [-0.247175662390823, 51.29848485416762],
          [-0.246978659067807, 51.29917524119709],
          [-0.246816869151478, 51.29965662600794],
          [-0.246819966642452, 51.30055413873281],
          [-0.246817010865114, 51.30097046155781],
          [-0.246659392769964, 51.30156792459857],
          [-0.246378731020663, 51.30223189225906],
          [-0.243251719463425, 51.306804680312055],
          [-0.243220492460526, 51.30690852890303],
          [-0.243213944180474, 51.30719260335378],
          [-0.243254129842945, 51.307342486047546],
          [-0.243803208813693, 51.30840556802026],
          [-0.244028848144982, 51.30877135765191],
          [-0.244120743659858, 51.309220589659574],
          [-0.244027053778901, 51.30941973378313],
          [-0.242738671289144, 51.3100938012196],
          [-0.242857447937316, 51.31028983370567],
          [-0.241029606350037, 51.309798376295895],
          [-0.240737275895964, 51.31057639431593],
          [-0.241273240777116, 51.31134435755531],
          [-0.241438891186342, 51.311552785725624],
          [-0.242302657311508, 51.31147850586622],
          [-0.244071425584311, 51.3113395378022],
          [-0.244220532052085, 51.31228245489682],
          [-0.244360084911116, 51.31264876754871],
          [-0.244366562882967, 51.312892578988915],
          [-0.24436124530691, 51.31303189321293],
          [-0.243922463593024, 51.31381312144914],
          [-0.24363077675356, 51.31438701138119],
          [-0.242259417429952, 51.315576036389665],
          [-0.241219717915384, 51.31615848725597],
          [-0.241082065614574, 51.316830908031676],
          [-0.240997962047142, 51.31707875627728],
          [-0.241634102197327, 51.31834462042607],
          [-0.241936505179762, 51.318768229692395],
          [-0.242008638686419, 51.31965961720622],
          [-0.242084239487899, 51.32000967921664],
          [-0.242349878138842, 51.32041924811656],
          [-0.24294290633562, 51.321275284039295],
          [-0.242484403006337, 51.321368228404744],
          [-0.241972665837224, 51.32187764614128],
          [-0.241546011373528, 51.32230110580261],
          [-0.238684771940539, 51.32434806339044],
          [-0.238334356441416, 51.32446599398411],
          [-0.236566429783361, 51.32591780071052],
          [-0.236097788342838, 51.32623627918245],
          [-0.233890458602267, 51.327315403187185]
        ]
      ]
    ]
  }
}
