{
  "type": "Feature",
  "properties": { "name": "Runnymede", "level": 2 },
  "geometry": {
    "type": "MultiPolygon",
    "coordinates": [
      [
        [
          [-0.47412154545798, 51.36396774962364],
          [-0.474332976727761, 51.363959711371919],
          [-0.474594845675881, 51.363990097542192],
          [-0.474813884381249, 51.364099059311854],
          [-0.475047189842239, 51.364167740312553],
          [-0.4752642500043, 51.364206534411061],
          [-0.475347978506756, 51.364194135058696],
          [-0.475382827415996, 51.364182898242802],
          [-0.475420906028479, 51.364160912485858],
          [-0.475453390239865, 51.36413435771037],
          [-0.47546846491707, 51.364112971921926],
          [-0.475477885562364, 51.364088814842781],
          [-0.475479138381454, 51.36405106282654],
          [-0.475415858348244, 51.36392344599917],
          [-0.475311837459711, 51.363811485536978],
          [-0.475279439023054, 51.363792179875915],
          [-0.475273755225991, 51.363790307437498],
          [-0.475163193571112, 51.363788868951211],
          [-0.475022806972692, 51.363777150572432],
          [-0.474830696052918, 51.363722494373789],
          [-0.474792494766972, 51.363704911558408],
          [-0.474741848260713, 51.363672778838676],
          [-0.474653687129841, 51.363602389541597],
          [-0.474616288659479, 51.363517373740557],
          [-0.474559223427289, 51.363245958214456],
          [-0.47453867070208, 51.363216015611151],
          [-0.474510729842197, 51.36319227155434],
          [-0.474234645274249, 51.362984549022933],
          [-0.474173647836463, 51.362918110031259],
          [-0.474190934767868, 51.362873372842813],
          [-0.474213308200173, 51.362848485258489],
          [-0.474247078706167, 51.362826443775312],
          [-0.474287819368653, 51.362810787733686],
          [-0.474357127379165, 51.362799999777337],
          [-0.474474716352034, 51.362806026643341],
          [-0.474786073658958, 51.36307625557891],
          [-0.474853946140446, 51.363065448656265],
          [-0.47487892240871, 51.363048688016427],
          [-0.474944516360626, 51.362976702702575],
          [-0.475038069896793, 51.362798070937778],
          [-0.475061934615432, 51.362728240304378],
          [-0.475087925017701, 51.362680918458366],
          [-0.475159798361688, 51.362592828272902],
          [-0.475399740036984, 51.362374735307007],
          [-0.475513429820886, 51.362281793336173],
          [-0.475857555733588, 51.362083938560318],
          [-0.476053139606846, 51.36194709861936],
          [-0.476136491334468, 51.361815993149207],
          [-0.476181165495317, 51.361681687020763],
          [-0.476187475095513, 51.361664683371124],
          [-0.476210015854617, 51.361548074391123],
          [-0.476216082059709, 51.361495097718446],
          [-0.476201625005438, 51.361411279852284],
          [-0.476168954821757, 51.361356900330485],
          [-0.475936488405006, 51.361176726313886],
          [-0.475882942612062, 51.361145455686376],
          [-0.475837082688254, 51.361098997794869],
          [-0.475818442936643, 51.361054692346109],
          [-0.47580590413878, 51.360999675276197],
          [-0.475809755219892, 51.360926886410873],
          [-0.475857356055263, 51.360747656133228],
          [-0.475857321706759, 51.360705391111274],
          [-0.475843108651057, 51.360657546243637],
          [-0.47581723064285, 51.360614945169253],
          [-0.475797756197023, 51.360595807762358],
          [-0.475525613968739, 51.360529321407768],
          [-0.47522125567578, 51.360438135731606],
          [-0.475171089964082, 51.360391621607256],
          [-0.475146827524954, 51.360343645948952],
          [-0.47513279437019, 51.360290407884797],
          [-0.475132999384953, 51.360240952027766],
          [-0.475145465980899, 51.360168275285986],
          [-0.475269439171989, 51.360068273165659],
          [-0.475444966639449, 51.35984304696737],
          [-0.475596907239557, 51.359765889341787],
          [-0.47572345588324, 51.359718076448495],
          [-0.475949521331541, 51.359701232463436],
          [-0.476010597087441, 51.359678646121495],
          [-0.476070475545057, 51.35964885020757],
          [-0.476101430715978, 51.359624972979731],
          [-0.476111237505865, 51.359589130606089],
          [-0.476086765767114, 51.359547447123681],
          [-0.47588240677774, 51.359472850491493],
          [-0.475834576196854, 51.359442553454159],
          [-0.475759045110073, 51.359381321833652],
          [-0.475682129394735, 51.359231946019868],
          [-0.475657270615575, 51.35920194763402],
          [-0.475616648870671, 51.359170845015512],
          [-0.475551411362928, 51.359145716992636],
          [-0.475413161540355, 51.359113344652052],
          [-0.475177198198076, 51.359125562710197],
          [-0.474909499947883, 51.359141863648397],
          [-0.474814593937711, 51.3591451251026],
          [-0.47475985794487, 51.35914980839955],
          [-0.474724353115881, 51.359137656231958],
          [-0.474557684980587, 51.359052756877681],
          [-0.474505067994803, 51.35899362119023],
          [-0.474507515181303, 51.358919914890421],
          [-0.474541607144378, 51.358844821775307],
          [-0.474556078843492, 51.358798248713256],
          [-0.474611098546903, 51.358655083482667],
          [-0.474622033547494, 51.358541919331962],
          [-0.474608536635008, 51.358472500880353],
          [-0.474353128354949, 51.358118466796327],
          [-0.474318399449325, 51.35808294378684],
          [-0.474264887577573, 51.358050773341162],
          [-0.474206710910257, 51.358029333246705],
          [-0.474156760629695, 51.3580196905422],
          [-0.474112344288986, 51.358016414648212],
          [-0.474060540824625, 51.358019337382466],
          [-0.474002726231327, 51.358030275159962],
          [-0.473635507206322, 51.358189159189955],
          [-0.473486017801457, 51.358192608225487],
          [-0.473392098641422, 51.358166206019284],
          [-0.473339844013717, 51.358139447084156],
          [-0.473240089617237, 51.35807250222868],
          [-0.473183647563429, 51.358042091669404],
          [-0.473104324401669, 51.358008685297506],
          [-0.472989169335757, 51.357973013632552],
          [-0.472885111757416, 51.357949176755227],
          [-0.47277812325961, 51.357927100119383],
          [-0.472583228250099, 51.357870605604028],
          [-0.472450219001639, 51.357853585187328],
          [-0.472192605762812, 51.357825948243025],
          [-0.471798576843638, 51.357840596063575],
          [-0.471304978853346, 51.357869231548278],
          [-0.470894708585877, 51.357897153335458],
          [-0.470693985201794, 51.357929605955192],
          [-0.470563728790934, 51.357959380562981],
          [-0.470199039885945, 51.358085013987328],
          [-0.470109818930852, 51.358090144434051],
          [-0.470081225152981, 51.358086174254453],
          [-0.469988863743285, 51.358056192714237],
          [-0.469966311804378, 51.358043308821202],
          [-0.469932753141258, 51.358015893202058],
          [-0.469910829428811, 51.357984133164322],
          [-0.469903322237624, 51.357950762781037],
          [-0.469904638443397, 51.357911212782341],
          [-0.469926741936742, 51.357851251252157],
          [-0.470011864878247, 51.357796608467133],
          [-0.470628210354262, 51.357661669270215],
          [-0.470679415039808, 51.357633561105629],
          [-0.470738694798036, 51.357578580611175],
          [-0.470757118450662, 51.357542850749397],
          [-0.470768692656799, 51.357497139735358],
          [-0.47077287932611, 51.357457627138096],
          [-0.470797493900775, 51.357408489199919],
          [-0.470767882692046, 51.357348752134733],
          [-0.470676688355993, 51.357283715462842],
          [-0.470595454625811, 51.357264670658175],
          [-0.47036473416562, 51.357162742562927],
          [-0.470267828407933, 51.357139896045503],
          [-0.470107664970828, 51.357118921744949],
          [-0.469742922584314, 51.357203187589526],
          [-0.469109411241265, 51.357422427947633],
          [-0.468877821757968, 51.357476056502335],
          [-0.468723816714164, 51.357528899484315],
          [-0.46859251378814, 51.35754696793591],
          [-0.468509156184296, 51.357548576776239],
          [-0.468434681985853, 51.357542208335069],
          [-0.468363348628644, 51.357527787605314],
          [-0.468265336938016, 51.357495033210043],
          [-0.468147137267112, 51.357421547979278],
          [-0.46804840936969, 51.357324036904963],
          [-0.467874789759097, 51.357189576214225],
          [-0.467580068738412, 51.35702565443269],
          [-0.467243002347761, 51.356796431797186],
          [-0.466971739375573, 51.356575263414697],
          [-0.467371669088187, 51.356383559782905],
          [-0.467818673991943, 51.356158298720352],
          [-0.46834397565422, 51.355867513365126],
          [-0.469065190789853, 51.35551543281089],
          [-0.469243294436299, 51.355428732066066],
          [-0.470928347823469, 51.354553262573049],
          [-0.4724456214796, 51.35379787963366],
          [-0.47249086913617, 51.353775987647161],
          [-0.472487697006565, 51.353741774575816],
          [-0.472905566027609, 51.353483734925682],
          [-0.473232336548707, 51.353244291212349],
          [-0.473972188334145, 51.352587571518349],
          [-0.474122275470101, 51.352478915756784],
          [-0.474269401429235, 51.352372919022784],
          [-0.474511024901044, 51.352232181006649],
          [-0.474817779328427, 51.352076102840343],
          [-0.475108026282697, 51.351941391358451],
          [-0.475412179150434, 51.351820348751438],
          [-0.475657303678687, 51.351747098067968],
          [-0.476070905428499, 51.351616685059561],
          [-0.476312978123844, 51.351548788821951],
          [-0.476698975043653, 51.351427906668548],
          [-0.477088078676868, 51.351299869421183],
          [-0.477235825264493, 51.35121815662604],
          [-0.477386420029223, 51.351180544369413],
          [-0.477949488055712, 51.350959440789609],
          [-0.478295431559208, 51.350833536901447],
          [-0.478410465287357, 51.350785569976175],
          [-0.478541853142009, 51.350720729111941],
          [-0.478778463183199, 51.350600599404224],
          [-0.478990252979417, 51.350492736631118],
          [-0.479597298290683, 51.350200250698336],
          [-0.4802097103421, 51.349875457553409],
          [-0.480924489141971, 51.349494433972659],
          [-0.48115587563756, 51.349358043719903],
          [-0.481157780657928, 51.349430909370312],
          [-0.48117396780102, 51.349462593498174],
          [-0.481195837240893, 51.349496149752696],
          [-0.481234694270845, 51.349537120160221],
          [-0.481262690702253, 51.349559065216582],
          [-0.481355013092056, 51.349589936666874],
          [-0.481477923455053, 51.34960771502184],
          [-0.481628728750362, 51.349606969695166],
          [-0.481713683712594, 51.349599976087873],
          [-0.481782997480736, 51.349588283588446],
          [-0.481904666872319, 51.349556585523693],
          [-0.482207998151426, 51.34941572887341],
          [-0.482536143874011, 51.34926260276179],
          [-0.483919734383103, 51.348586260119205],
          [-0.485220330642048, 51.347987073172753],
          [-0.485436484705944, 51.347876561136587],
          [-0.486125100705176, 51.34754644124429],
          [-0.486160595263059, 51.347471361532207],
          [-0.486411163129767, 51.347362192027518],
          [-0.486488788310172, 51.347359598312039],
          [-0.486545420488038, 51.347427775442313],
          [-0.486852354041101, 51.347394872094924],
          [-0.486832106484449, 51.347311877747451],
          [-0.48711382372981, 51.347259763254414],
          [-0.487695642932811, 51.347076634168602],
          [-0.488780376218123, 51.34675161502205],
          [-0.48903641073356, 51.346650604209458],
          [-0.489310896607733, 51.346556125802401],
          [-0.489898421142544, 51.346329895204221],
          [-0.489970952071135, 51.346307449686982],
          [-0.490088094748239, 51.346281982358072],
          [-0.490944540632447, 51.346043027573891],
          [-0.491436630459594, 51.345924370839235],
          [-0.491610130237595, 51.345887937703395],
          [-0.491713006756529, 51.34585958723418],
          [-0.491900395361455, 51.345793656848173],
          [-0.4928557179611, 51.345516394632355],
          [-0.493105085099006, 51.345443166841868],
          [-0.493780654552102, 51.345245928233147],
          [-0.493782089812072, 51.345245946697275],
          [-0.494696999346411, 51.344974445178877],
          [-0.496579570418977, 51.344441991128029],
          [-0.49820159145101, 51.343972711619919],
          [-0.498378097060432, 51.343931811155578],
          [-0.498479765393825, 51.343896245456484],
          [-0.498593384621123, 51.343846444769234],
          [-0.498651790671176, 51.343816618926631],
          [-0.498927564886785, 51.34363760528673],
          [-0.499025395722378, 51.343587601779547],
          [-0.499238044860606, 51.343495006394214],
          [-0.500657677788233, 51.34302220097328],
          [-0.501435934732542, 51.342800157207321],
          [-0.5019934037246, 51.342612158423016],
          [-0.502106373559644, 51.342582131265381],
          [-0.502294001409935, 51.342508097130157],
          [-0.50239551851888, 51.342477023769959],
          [-0.502564811491116, 51.342436926257115],
          [-0.502739406178052, 51.342410385254617],
          [-0.502782725274575, 51.342402846485058],
          [-0.50290427607291, 51.342373827659237],
          [-0.50338786824838, 51.342205560645944],
          [-0.503451630600178, 51.34218749211054],
          [-0.503535427285503, 51.342171478325113],
          [-0.503745871357115, 51.342146293635516],
          [-0.504001624780598, 51.342096508756946],
          [-0.504209753448937, 51.342054207610531],
          [-0.504490722543621, 51.341979564779457],
          [-0.504613531509249, 51.341955955700001],
          [-0.505140415245574, 51.341913231764195],
          [-0.505401731413944, 51.341868910524049],
          [-0.506288324816986, 51.341625745650724],
          [-0.506675403213996, 51.341555150554015],
          [-0.507535947142238, 51.34131793852751],
          [-0.507604100014359, 51.341297225895488],
          [-0.50816636158225, 51.341093072441403],
          [-0.508976535910898, 51.340814740546556],
          [-0.509204892408449, 51.34076819214026],
          [-0.509394907426566, 51.340708564936989],
          [-0.51152499302418, 51.339927256762621],
          [-0.511700534173826, 51.339871038687932],
          [-0.512821825307544, 51.339604732555067],
          [-0.513771901799783, 51.339393792883101],
          [-0.513991723344195, 51.339344428950547],
          [-0.514435135551657, 51.339217870584214],
          [-0.51562545752379, 51.338857992024941],
          [-0.516080199893858, 51.339314293485806],
          [-0.516288055938396, 51.339502178757066],
          [-0.516428377051218, 51.339602877752746],
          [-0.517169494792265, 51.340350571207949],
          [-0.517248703149727, 51.340387545954627],
          [-0.517286944953665, 51.340448281364175],
          [-0.517795270721933, 51.341024857030931],
          [-0.518280754813038, 51.340751338309573],
          [-0.519441141403969, 51.341633821905752],
          [-0.51899844590991, 51.341915980572651],
          [-0.518554628393724, 51.342188231492123],
          [-0.517904676203283, 51.342574772221916],
          [-0.518247237509222, 51.342949608211633],
          [-0.518403741606899, 51.343127846034818],
          [-0.518432636102531, 51.343166880280627],
          [-0.518544053648164, 51.343318468186673],
          [-0.51873683736437, 51.343618565278],
          [-0.518843864299795, 51.343772795060048],
          [-0.519067935221872, 51.34368121024194],
          [-0.519500055034886, 51.34350503057945],
          [-0.520202640484869, 51.343178498249308],
          [-0.520369114453329, 51.34358257398334],
          [-0.520541396918516, 51.344073951197473],
          [-0.520774351612313, 51.344866448482328],
          [-0.520960267758601, 51.344800456020074],
          [-0.521296649859766, 51.344654533090896],
          [-0.521736217053146, 51.344425382999752],
          [-0.522151832966696, 51.344226503453051],
          [-0.52265431278143, 51.344005338947468],
          [-0.523140249086458, 51.343807344143613],
          [-0.524198522254788, 51.345058085360677],
          [-0.526472523432401, 51.345206360013457],
          [-0.526747268043628, 51.34523589984434],
          [-0.527045496499371, 51.345249548114026],
          [-0.52938554207384, 51.345398597957811],
          [-0.529459373579916, 51.345424705614029],
          [-0.529746256621966, 51.345613560094129],
          [-0.529905719668426, 51.345656031368058],
          [-0.529948664546287, 51.345660168219482],
          [-0.529991839396917, 51.345657113863993],
          [-0.530032316053399, 51.345648630017841],
          [-0.530112265142764, 51.345618160758825],
          [-0.530249799644796, 51.345583019579031],
          [-0.530319155155456, 51.345569502991893],
          [-0.53035216766176, 51.345569917838887],
          [-0.530418938310176, 51.345592339119825],
          [-0.530592409031892, 51.345690739606709],
          [-0.530877779048812, 51.345792344057273],
          [-0.531077374811606, 51.345882079393235],
          [-0.53145564213935, 51.345997438829862],
          [-0.531952614215127, 51.346217702065516],
          [-0.532169237196769, 51.346313944088294],
          [-0.532338034883411, 51.346379010703046],
          [-0.532820487989931, 51.346514557589778],
          [-0.532901901697564, 51.346528168548467],
          [-0.533445128043942, 51.346559261779177],
          [-0.533481529661014, 51.346588494565033],
          [-0.533612467511535, 51.346715133534929],
          [-0.533752019963595, 51.346886843360849],
          [-0.5339089107941, 51.347010210327177],
          [-0.533933858732574, 51.347038400128255],
          [-0.533973277022434, 51.347108137275086],
          [-0.534038314594777, 51.347455167613475],
          [-0.534048908965956, 51.34748317746908],
          [-0.534110292691269, 51.34762962698592],
          [-0.534179652282621, 51.347661071163792],
          [-0.534241058897687, 51.347671732647882],
          [-0.534354111079954, 51.34768394059482],
          [-0.534441756132727, 51.347682341152662],
          [-0.534806830822416, 51.347626665022119],
          [-0.534842225816506, 51.347597432873329],
          [-0.534863925869065, 51.347547346170117],
          [-0.534864527578692, 51.347528469249355],
          [-0.534820254304107, 51.347430794525394],
          [-0.53500044849638, 51.347363807309122],
          [-0.535116087528981, 51.347430001168604],
          [-0.535861050698169, 51.347394358213158],
          [-0.535900407486748, 51.347375966021552],
          [-0.535956068895741, 51.347341591073629],
          [-0.535988849956813, 51.347304232173911],
          [-0.536004520884077, 51.347263062245396],
          [-0.536004001723702, 51.347234279462718],
          [-0.535955677962615, 51.347128461778041],
          [-0.535811950048235, 51.346907244832437],
          [-0.5358312112386, 51.346888601313346],
          [-0.535845650875402, 51.346886084149389],
          [-0.536220230075102, 51.3469375302993],
          [-0.536335485371909, 51.346880519672091],
          [-0.536508032291098, 51.346737896410303],
          [-0.5366133580495, 51.346722127294861],
          [-0.536699566048802, 51.346720507235283],
          [-0.537077959885708, 51.346742322823026],
          [-0.53713085866627, 51.346659352911232],
          [-0.537147587032843, 51.34658492353843],
          [-0.537186136762022, 51.346546737196306],
          [-0.537219665109237, 51.346530969547452],
          [-0.537241338611942, 51.346526744102057],
          [-0.537438417634281, 51.346560680767901],
          [-0.537465689566654, 51.346561021522241],
          [-0.537494597095163, 51.34655508790032],
          [-0.53774536942532, 51.34643592181029],
          [-0.537789951427355, 51.346433780960162],
          [-0.53780990349427, 51.346438526486494],
          [-0.53786198235751, 51.346471550306163],
          [-0.538041242399014, 51.346569110648403],
          [-0.538188810672988, 51.346669871940598],
          [-0.538221452460013, 51.346681969921462],
          [-0.538303239895379, 51.346683890511571],
          [-0.538495401778234, 51.346646722623483],
          [-0.538652879712091, 51.34657135263673],
          [-0.538871312560408, 51.346565986126507],
          [-0.539371469041524, 51.346687333101798],
          [-0.539527531375139, 51.346746832768986],
          [-0.539720249657187, 51.34678250958747],
          [-0.539806493499277, 51.346824951232342],
          [-0.539887424410244, 51.346853837696401],
          [-0.539993363950717, 51.346909114446852],
          [-0.540023306943216, 51.346915782701977],
          [-0.540083478532566, 51.346920130192395],
          [-0.540135266327504, 51.346917179048056],
          [-0.540291343533451, 51.346885852990354],
          [-0.540398825421411, 51.346892588785316],
          [-0.540447285597333, 51.346903984100095],
          [-0.540631572170676, 51.34697912146185],
          [-0.541104375986227, 51.347238604893015],
          [-0.541164205605863, 51.347253738602241],
          [-0.541238845737476, 51.347254668767114],
          [-0.541332773693487, 51.347236055625274],
          [-0.541455266637878, 51.347222294603434],
          [-0.541759131675264, 51.347194606418839],
          [-0.541930427514415, 51.34718145285138],
          [-0.541950494386927, 51.347182602053351],
          [-0.541984658401254, 51.347192020125405],
          [-0.542018508672344, 51.347211326074962],
          [-0.542032434690552, 51.347224988335547],
          [-0.542125572447972, 51.347412293911034],
          [-0.54214788273745, 51.347433254602635],
          [-0.542177541137204, 51.347448911274761],
          [-0.542201714662593, 51.34745640634835],
          [-0.542261972675348, 51.347458055995233],
          [-0.54241540764928, 51.347419500159127],
          [-0.542496074788903, 51.347411512017757],
          [-0.542570743712852, 51.347411542426542],
          [-0.542642285242573, 51.347419627135785],
          [-0.543306965492476, 51.347334377874965],
          [-0.543340606469886, 51.347315012928149],
          [-0.543351423683263, 51.347290867700586],
          [-0.543307219340077, 51.347190500537472],
          [-0.543307675340102, 51.347176118162153],
          [-0.543321334808963, 51.347152907559789],
          [-0.543353511772497, 51.347134423649422],
          [-0.543424330102521, 51.347120017568471],
          [-0.543517829579312, 51.347114886184329],
          [-0.543613743896811, 51.347124172816621],
          [-0.543705067168385, 51.347142394780967],
          [-0.543747758336213, 51.347154616166414],
          [-0.543942127124962, 51.347228974220045],
          [-0.544556770243644, 51.347499199493704],
          [-0.544632003531532, 51.34757207500941],
          [-0.544695765465546, 51.347689770453108],
          [-0.544684607103356, 51.347724702559688],
          [-0.544692422205953, 51.347749978768398],
          [-0.544726684224797, 51.347801662054842],
          [-0.544861709504568, 51.347845605355694],
          [-0.54490276685501, 51.347864100732032],
          [-0.544932796516883, 51.347868070997244],
          [-0.544983320470974, 51.347859706458642],
          [-0.545105830491619, 51.347800079978228],
          [-0.545304786651526, 51.347729713093969],
          [-0.545493962944598, 51.347696093684263],
          [-0.545615744491906, 51.347704800751593],
          [-0.545697862948974, 51.347650966632088],
          [-0.545780591411677, 51.347623218320422],
          [-0.546111729322653, 51.347595857634353],
          [-0.54617342307474, 51.347597523086151],
          [-0.54628940601972, 51.347607955945833],
          [-0.546409382329727, 51.347628330030332],
          [-0.546527724242541, 51.347654978447544],
          [-0.546686896661068, 51.34770731265273],
          [-0.546866591634029, 51.347746412624069],
          [-0.547176766694861, 51.347791627940289],
          [-0.547355879788557, 51.347803742416062],
          [-0.547657670603825, 51.347841658387061],
          [-0.548101070671322, 51.347942478881421],
          [-0.548549488962201, 51.348020878614243],
          [-0.548491823549853, 51.349164007966422],
          [-0.548763288865249, 51.349571135764791],
          [-0.549099853070298, 51.350008744612452],
          [-0.549763615737476, 51.351135632028175],
          [-0.54991325733911, 51.351308342337504],
          [-0.550357621400432, 51.351743684664768],
          [-0.550602289554496, 51.352045263380589],
          [-0.550640555200872, 51.352106885804112],
          [-0.550779564107774, 51.352389171282617],
          [-0.55078997042833, 51.352423471448482],
          [-0.550821558263124, 51.3525146862928],
          [-0.550839573810409, 51.352626415841101],
          [-0.550887792765917, 51.352736720647805],
          [-0.551053354016707, 51.352996853062947],
          [-0.551195374122049, 51.353183854968769],
          [-0.551238589526141, 51.353270717265048],
          [-0.551249779602581, 51.353325709730981],
          [-0.551254450809826, 51.353450762768453],
          [-0.55123529533508, 51.353511674550134],
          [-0.551181600878103, 51.353574856774742],
          [-0.550910912971161, 51.353733372028373],
          [-0.550486211994412, 51.354039255530132],
          [-0.550211808492286, 51.354178839149689],
          [-0.550025299162268, 51.354263757098757],
          [-0.550076641340961, 51.35459351715339],
          [-0.550317980392583, 51.355410323060433],
          [-0.55043487753496, 51.35566535745123],
          [-0.550579257061746, 51.356005260937117],
          [-0.55066739852793, 51.35621587605511],
          [-0.550784985937976, 51.356540160435657],
          [-0.551056646966371, 51.357079471958691],
          [-0.55121057857885, 51.357298993505978],
          [-0.551483567511688, 51.357614407925126],
          [-0.551630373432984, 51.357741218119628],
          [-0.551735895490962, 51.357810865210489],
          [-0.551846196614028, 51.357911145620839],
          [-0.552227170916421, 51.358400547214444],
          [-0.552388271840478, 51.358575192915787],
          [-0.553696134469728, 51.36009847704274],
          [-0.554194470015833, 51.360693631763837],
          [-0.554918430357427, 51.361513680336799],
          [-0.555234077593686, 51.36193572097784],
          [-0.555790754842756, 51.361956072735993],
          [-0.558382195381109, 51.362086903746068],
          [-0.558708750803044, 51.362071137954118],
          [-0.560263003151484, 51.362022803935602],
          [-0.560355178425856, 51.362014944134131],
          [-0.560987145079538, 51.36192469015927],
          [-0.562196932027594, 51.361730018878603],
          [-0.562583591080498, 51.361675413146749],
          [-0.564434267891831, 51.361333909852746],
          [-0.565076209192409, 51.361199693108354],
          [-0.565077645003779, 51.361199710692787],
          [-0.566229707393277, 51.360966522549489],
          [-0.567795599151644, 51.36068173005809],
          [-0.568599177881436, 51.36052249393844],
          [-0.569624769242661, 51.36033718967041],
          [-0.569640115003824, 51.360351764948476],
          [-0.56979921922342, 51.360592906203429],
          [-0.570208661068319, 51.361143744687254],
          [-0.570799985498428, 51.36185057093244],
          [-0.571165514897277, 51.362336124092266],
          [-0.571260988587349, 51.362499151947702],
          [-0.571369282634863, 51.362711794291251],
          [-0.571727073963837, 51.363446340438372],
          [-0.572119700938112, 51.364169619497453],
          [-0.572709515409376, 51.365296359990388],
          [-0.572781912153553, 51.365462701979247],
          [-0.572821020608461, 51.365590870366333],
          [-0.572872446886354, 51.366292903437852],
          [-0.572886419800578, 51.366582628658357],
          [-0.572932508186732, 51.366948281089911],
          [-0.572942381975203, 51.367277522400947],
          [-0.573007251842709, 51.36782504707574],
          [-0.573006196922881, 51.367997687266545],
          [-0.573053995070767, 51.36817002316176],
          [-0.573143122022969, 51.368537996203983],
          [-0.573174682425839, 51.368631900908014],
          [-0.573296298142682, 51.368971493929649],
          [-0.57352376579064, 51.36964958842664],
          [-0.573814328848815, 51.370377908338924],
          [-0.573954256872535, 51.370822034708517],
          [-0.575455360685306, 51.371199089079589],
          [-0.575764797944636, 51.371273890302142],
          [-0.576269983122796, 51.371383441845609],
          [-0.577550387234431, 51.371697538903085],
          [-0.578255768052753, 51.371884148627764],
          [-0.578711246152592, 51.372021862054275],
          [-0.579301336658596, 51.37217379528942],
          [-0.579927093571111, 51.372426872142476],
          [-0.580206849972468, 51.372532775192163],
          [-0.580486607652627, 51.372638677595148],
          [-0.581182972579628, 51.37288540932667],
          [-0.581759232396491, 51.373113597758341],
          [-0.582337322694839, 51.373329216240272],
          [-0.58342947847801, 51.373694026513377],
          [-0.584490082315907, 51.374057546271459],
          [-0.585136265396275, 51.37425599220014],
          [-0.585477512315327, 51.374372520920232],
          [-0.585822931394137, 51.374493595253455],
          [-0.586695048129147, 51.374821558800683],
          [-0.587122592556842, 51.37493552785547],
          [-0.587484096296685, 51.375047799203983],
          [-0.588454128894134, 51.375276217119278],
          [-0.589144253024587, 51.375449097850669],
          [-0.589612082876626, 51.37556174477983],
          [-0.589878772906908, 51.375627004851964],
          [-0.590997800634424, 51.375870683820004],
          [-0.59190920000195, 51.376044412396112],
          [-0.593402395276914, 51.376316848828502],
          [-0.59441618603049, 51.37652595952882],
          [-0.594550730507941, 51.376918740980962],
          [-0.594599784425702, 51.377100075576074],
          [-0.594703076452934, 51.377387271503203],
          [-0.594769594542814, 51.37760838192127],
          [-0.595056677419537, 51.378369880761142],
          [-0.59513363853287, 51.378578527123629],
          [-0.595273390833947, 51.378989355019598],
          [-0.595354683915668, 51.379150393977774],
          [-0.59557803747882, 51.379787932088483],
          [-0.595995068370291, 51.38090618487923],
          [-0.596365502328661, 51.381951039729394],
          [-0.59687779237113, 51.383339302716621],
          [-0.597388304151615, 51.38464571584327],
          [-0.597553213974881, 51.385081124132959],
          [-0.597808527647121, 51.385803572582375],
          [-0.598000285329577, 51.386301349316852],
          [-0.598485572971028, 51.386411474781312],
          [-0.598788777759597, 51.386460068192733],
          [-0.59892595872305, 51.386485990384095],
          [-0.599309931359751, 51.386572418308823],
          [-0.599794665548826, 51.386653756271244],
          [-0.600458780881151, 51.386791192340368],
          [-0.600954876174383, 51.386877157661942],
          [-0.601594792608042, 51.387007103467894],
          [-0.602138241952831, 51.387095422699687],
          [-0.60241691831314, 51.387147307842902],
          [-0.603048215182918, 51.387277136898071],
          [-0.603254594220198, 51.387343444539717],
          [-0.603448332092616, 51.387447368976538],
          [-0.603728249000765, 51.387647639744046],
          [-0.603843903277936, 51.38781447819261],
          [-0.603953631927461, 51.387939881007419],
          [-0.604015043671296, 51.387999962718943],
          [-0.604151699822892, 51.38809061613572],
          [-0.604547719972268, 51.388206841345387],
          [-0.60522646624448, 51.388383984159532],
          [-0.605360617643314, 51.388415256729402],
          [-0.605738422620696, 51.388421554151385],
          [-0.605973892033685, 51.388382093453757],
          [-0.606048273004713, 51.388535848975756],
          [-0.60607732557362, 51.388573063474247],
          [-0.60611204326513, 51.388613043105757],
          [-0.606234065118828, 51.388712512192988],
          [-0.606318322971258, 51.388825020239906],
          [-0.606400135041824, 51.388970770831712],
          [-0.606577291638494, 51.38924264966451],
          [-0.60665598622024, 51.389396456078444],
          [-0.606703335817583, 51.38944647741009],
          [-0.606755132183339, 51.389492055450049],
          [-0.606892098100713, 51.389572817659349],
          [-0.606968728899552, 51.38960520250842],
          [-0.607247526628028, 51.38970113993782],
          [-0.607759320132815, 51.389839413361997],
          [-0.607979247940529, 51.389886090400857],
          [-0.608142822346085, 51.389895228594092],
          [-0.608334621918695, 51.389874127996215],
          [-0.608910258084466, 51.38985039349047],
          [-0.609609157914338, 51.390265147930073],
          [-0.609836540072824, 51.39035057704924],
          [-0.610415845715827, 51.390538198824046],
          [-0.611050053742575, 51.390716577302257],
          [-0.612008136126926, 51.391021986582359],
          [-0.613248713002709, 51.391397276821252],
          [-0.614390846606961, 51.391748908139583],
          [-0.615809225781689, 51.392187422379976],
          [-0.616079761838136, 51.392272450080476],
          [-0.616278862428331, 51.392343144586107],
          [-0.616499706126814, 51.392407800978006],
          [-0.616686797070465, 51.392447778931682],
          [-0.616858949466662, 51.392458804655256],
          [-0.617995666140818, 51.392419169854968],
          [-0.618495356767901, 51.392388192946527],
          [-0.619025789394628, 51.392434008129072],
          [-0.619634981835428, 51.392824255480704],
          [-0.619165038195614, 51.393252152412906],
          [-0.618839761393118, 51.393505501924579],
          [-0.618465089924422, 51.393823912570049],
          [-0.617931543141637, 51.394262741569641],
          [-0.615567390660804, 51.396250900624665],
          [-0.615419870112483, 51.396375948693965],
          [-0.615584283635082, 51.396739384289013],
          [-0.615816778552637, 51.396799683243472],
          [-0.615833859846137, 51.396805280521342],
          [-0.61595896017459, 51.396851720629961],
          [-0.616088507247009, 51.396893716977218],
          [-0.616156859815757, 51.396915207001456],
          [-0.616262357625168, 51.3969443297213],
          [-0.616369346757535, 51.396971671495479],
          [-0.616476471482142, 51.396994518604245],
          [-0.616586578678942, 51.397013803908415],
          [-0.616055354288774, 51.397373515994467],
          [-0.615905174228244, 51.397491339383983],
          [-0.615747211631081, 51.397581194363326],
          [-0.615608634561593, 51.397647898201377],
          [-0.615217522765738, 51.397317751921129],
          [-0.615197811404815, 51.397304030353673],
          [-0.61517959130061, 51.397288527947595],
          [-0.615164299461559, 51.397271261694776],
          [-0.61515738560942, 51.397262187606685],
          [-0.615146431927213, 51.397244073412161],
          [-0.6151383793854, 51.397225094286505],
          [-0.615017482699941, 51.397039321764261],
          [-0.614529575278443, 51.397297026630582],
          [-0.61452236217023, 51.397345499937323],
          [-0.61452089709114, 51.397394041239842],
          [-0.614713833427852, 51.397574371732169],
          [-0.614741892717219, 51.39778782203382],
          [-0.615027803172551, 51.398126617484508],
          [-0.615202904660383, 51.398088222409143],
          [-0.615480957211645, 51.398401745228306],
          [-0.61556875261925, 51.39849360561842],
          [-0.615792526527004, 51.39870037647453],
          [-0.616474873351016, 51.398287597461064],
          [-0.616928716243634, 51.398587906145821],
          [-0.617212499207587, 51.398759413490424],
          [-0.617840165137915, 51.398729953581444],
          [-0.617845069365065, 51.398662568979468],
          [-0.618100104247802, 51.398643097489952],
          [-0.618141624603329, 51.398791960800224],
          [-0.618368906099359, 51.39902574277022],
          [-0.618125806239356, 51.399078629469358],
          [-0.617960059075926, 51.399140519357609],
          [-0.617774197216102, 51.399297490331222],
          [-0.61774301708618, 51.399330393982083],
          [-0.617670843063747, 51.399435651687057],
          [-0.61765639331345, 51.399485838193833],
          [-0.617638286462795, 51.399609718636796],
          [-0.617285346030327, 51.399920284135675],
          [-0.616825030136814, 51.400406729555193],
          [-0.616694772156476, 51.400578742961471],
          [-0.615844915851161, 51.401443652719244],
          [-0.615337810346012, 51.402002374474336],
          [-0.615006899984472, 51.402391424835798],
          [-0.614853034985378, 51.402582939401704],
          [-0.614463949368665, 51.402993780777571],
          [-0.614384763920884, 51.403092658341883],
          [-0.614312791246417, 51.403190721954125],
          [-0.614255407511384, 51.403281764303202],
          [-0.613983832710398, 51.403752444023837],
          [-0.613865831747333, 51.403993839097623],
          [-0.613657329461817, 51.404375341581215],
          [-0.613398374180046, 51.404903719663011],
          [-0.613214218690339, 51.405240548071625],
          [-0.61302322369856, 51.405613264243897],
          [-0.612740662121782, 51.406113484972174],
          [-0.612342116695241, 51.406787679999439],
          [-0.612218806710311, 51.407061382366841],
          [-0.612087229605422, 51.407275637610852],
          [-0.611976803062267, 51.407503631772784],
          [-0.611597457445407, 51.408207725879066],
          [-0.611350453706631, 51.408624736134243],
          [-0.611296148966783, 51.408708619495854],
          [-0.610928283408726, 51.40922311225944],
          [-0.610659511793791, 51.409504080876474],
          [-0.609923011264837, 51.410367594644171],
          [-0.609629646985403, 51.410700424217374],
          [-0.609355993803681, 51.411046975546277],
          [-0.609128404175829, 51.411296956414475],
          [-0.608796188896862, 51.411630221556628],
          [-0.608544767475968, 51.41195455422104],
          [-0.608501362432631, 51.412010689971396],
          [-0.60834448902207, 51.412157198786595],
          [-0.608022315460335, 51.412538240150035],
          [-0.607832331430401, 51.41278057228471],
          [-0.607531829892718, 51.413110613741516],
          [-0.607324699652207, 51.413349144190214],
          [-0.606683187345767, 51.414111253738163],
          [-0.60638352529064, 51.414744342467856],
          [-0.606069402878276, 51.415474374970714],
          [-0.605928137296568, 51.415721779841306],
          [-0.6057880125955, 51.416073508717957],
          [-0.605501804829936, 51.416594351366413],
          [-0.605366107590478, 51.416894876312057],
          [-0.605262020846178, 51.417149017675456],
          [-0.605154935793896, 51.417359961120184],
          [-0.605084147042955, 51.417559646975135],
          [-0.60508317508287, 51.418017345314603],
          [-0.605063583868101, 51.418283285073556],
          [-0.605055516255111, 51.41892704016557],
          [-0.605009641173209, 51.419300574784565],
          [-0.604989660657738, 51.419721177988237],
          [-0.604986992174217, 51.420707605124797],
          [-0.604961089812948, 51.42127561192833],
          [-0.604956453760521, 51.421380766976959],
          [-0.604942069683842, 51.421759172758577],
          [-0.604901158307793, 51.422584181296308],
          [-0.604902627711447, 51.422914217292039],
          [-0.604904850535067, 51.423503241307358],
          [-0.604953119078726, 51.425226746173735],
          [-0.604982156186314, 51.426825926702712],
          [-0.605065989102683, 51.429177516896075],
          [-0.605085708879373, 51.430137231717218],
          [-0.605090115480986, 51.43032342509148],
          [-0.605124779677634, 51.431312093095457],
          [-0.604633520995434, 51.431665934093679],
          [-0.604292716508201, 51.431897472104851],
          [-0.602484125194909, 51.433227451854187],
          [-0.601936998289163, 51.433619282285591],
          [-0.597912298906403, 51.436561993179225],
          [-0.597174535111974, 51.437116073497656],
          [-0.596361166296235, 51.437695320443723],
          [-0.59485827468993, 51.438801330280604],
          [-0.594141842246777, 51.439314283117348],
          [-0.593871844938231, 51.440564569009176],
          [-0.594106051697135, 51.440622234954347],
          [-0.59417263404111, 51.440656306083199],
          [-0.594279881201351, 51.440725036253063],
          [-0.594471059706396, 51.440872107908476],
          [-0.5944834590701, 51.440937001419407],
          [-0.594477628316524, 51.440986389131758],
          [-0.594467317126425, 51.44104111843891],
          [-0.594445195887042, 51.441105597495714],
          [-0.594395668279341, 51.441219205210395],
          [-0.594339417125334, 51.441317445244707],
          [-0.594264356673514, 51.441419056323504],
          [-0.594219689593241, 51.441467977683757],
          [-0.594001848476209, 51.441627223259324],
          [-0.593938950682522, 51.441660638635518],
          [-0.593803361888198, 51.441718359345508],
          [-0.593659528519985, 51.441763391624356],
          [-0.593513176619974, 51.44179670346518],
          [-0.593382950094743, 51.441820317329785],
          [-0.593270397762412, 51.441830654957286],
          [-0.593214218120442, 51.44183267758126],
          [-0.5930216680715, 51.441824069025266],
          [-0.592729452366557, 51.441780990592228],
          [-0.592487356385757, 51.441698947835846],
          [-0.592406583247492, 51.441658410516318],
          [-0.592328769802993, 51.441615211033664],
          [-0.592092091834935, 51.441450503308445],
          [-0.592010129573536, 51.441401858326202],
          [-0.591906343516523, 51.44136104387929],
          [-0.591668483481736, 51.441281748047139],
          [-0.5915444504669, 51.441244286633328],
          [-0.591335554345978, 51.441205803991693],
          [-0.591194813939952, 51.441150156538797],
          [-0.591052609749905, 51.44114215057018],
          [-0.590635266071043, 51.441191080971635],
          [-0.59050805475218, 51.441210231782939],
          [-0.590313738966273, 51.441259148323226],
          [-0.590096769206881, 51.441342861753384],
          [-0.589747110475744, 51.441530186572308],
          [-0.589615970677194, 51.441630219947548],
          [-0.589233861274065, 51.441983510161485],
          [-0.589153118031338, 51.442035591807397],
          [-0.588986154105863, 51.442130696600714],
          [-0.58874378409261, 51.442244675324986],
          [-0.58859496459653, 51.442311222914206],
          [-0.588480334986856, 51.442342213257042],
          [-0.588365871317891, 51.442367810096627],
          [-0.588127760813563, 51.442390117264651],
          [-0.587547367096254, 51.442406496409404],
          [-0.587245359304325, 51.442401053892951],
          [-0.586997098724139, 51.442379173895262],
          [-0.586696310696798, 51.442334178453891],
          [-0.586509236392505, 51.442334617627125],
          [-0.586277790438726, 51.442374086926556],
          [-0.586106867618114, 51.442410689800745],
          [-0.58590272638531, 51.442404627260046],
          [-0.585515247367032, 51.442371170877841],
          [-0.585378710914091, 51.442365924213597],
          [-0.585167440615337, 51.442870538429347],
          [-0.584816412979605, 51.442868094273543],
          [-0.584764897906601, 51.442951999509994],
          [-0.584738090449779, 51.442981350171834],
          [-0.584670313268582, 51.443032686430229],
          [-0.584656673554288, 51.443055002378649],
          [-0.584648704244837, 51.443080084566731],
          [-0.584641858100596, 51.443208592103908],
          [-0.584630484501905, 51.44325071856418],
          [-0.584571554393185, 51.443341727962206],
          [-0.584562113741851, 51.44341445169912],
          [-0.584343128147224, 51.443516115352203],
          [-0.58425833831423, 51.443559152618796],
          [-0.584502834798746, 51.443656527966255],
          [-0.584110268165662, 51.443740805773956],
          [-0.583847493520688, 51.443815861302021],
          [-0.583716644541686, 51.443859240380476],
          [-0.583593043110784, 51.443900908521179],
          [-0.583416795979028, 51.443969815887236],
          [-0.582599915117627, 51.444187436755328],
          [-0.582296997479403, 51.444257506845773],
          [-0.58196676813437, 51.44437310637322],
          [-0.581811851231559, 51.444403602671137],
          [-0.580783183614168, 51.444535916525368],
          [-0.580276304461949, 51.444593617775055],
          [-0.580063150575969, 51.444645886593875],
          [-0.579861030419576, 51.444713575848006],
          [-0.57974873582665, 51.444761671853499],
          [-0.579675791543895, 51.444747298590293],
          [-0.579645026390559, 51.44476491013193],
          [-0.57916059248269, 51.445119626590198],
          [-0.578713312057196, 51.445436125034853],
          [-0.578356929946768, 51.445744733097186],
          [-0.577986532383316, 51.445994719669102],
          [-0.577520282756325, 51.446319076743393],
          [-0.577049641816639, 51.446691937522928],
          [-0.576803571189822, 51.446876887776284],
          [-0.576738432569426, 51.446935445760921],
          [-0.576618029166315, 51.447058976295466],
          [-0.576553001732351, 51.447113938594022],
          [-0.576485236670724, 51.447164371401691],
          [-0.576338812117864, 51.447245321270785],
          [-0.576275446067542, 51.447293109733209],
          [-0.576174467917057, 51.447393495857071],
          [-0.575717043178333, 51.447896002577849],
          [-0.575531995422487, 51.448061909319975],
          [-0.575350730955823, 51.448244947323346],
          [-0.575184341163048, 51.448366118685314],
          [-0.575011316661734, 51.448469224367045],
          [-0.574869576944631, 51.448584400574404],
          [-0.574813344439905, 51.448634073601326],
          [-0.57465063664233, 51.448821832631289],
          [-0.57458944453007, 51.448892127661985],
          [-0.574464602047149, 51.449019199160936],
          [-0.574248231044606, 51.449173931994544],
          [-0.57398808440894, 51.449347914721621],
          [-0.573524322589731, 51.449728939646938],
          [-0.573451495303013, 51.449756828276229],
          [-0.57331201490275, 51.449799192044772],
          [-0.573242456573957, 51.44981453103896],
          [-0.573098341190982, 51.449820868587871],
          [-0.572949668416856, 51.449881104711636],
          [-0.572912526423472, 51.449918420173404],
          [-0.572792870684113, 51.450063538023628],
          [-0.572699771658261, 51.450141536529493],
          [-0.572542661460524, 51.450195374692953],
          [-0.57236321479866, 51.450273219840831],
          [-0.572296822731006, 51.450325465659262],
          [-0.572120467933461, 51.450488775783363],
          [-0.571991110472884, 51.45066794628115],
          [-0.571675405977209, 51.451007607294578],
          [-0.571478775826089, 51.450944060966464],
          [-0.571182336900571, 51.450850521099539],
          [-0.570921080460167, 51.450782588489346],
          [-0.570477732069469, 51.450692649772073],
          [-0.569899320095886, 51.450595664925487],
          [-0.56959888656153, 51.450538041879597],
          [-0.569213460842712, 51.45048297693436],
          [-0.568864648221807, 51.450407675619665],
          [-0.568315628491441, 51.450245397683695],
          [-0.568040161255929, 51.450171889877907],
          [-0.567819953219707, 51.450080173164935],
          [-0.567564562143213, 51.449916985830257],
          [-0.567375912415389, 51.449736629318465],
          [-0.566911114649482, 51.449366751806437],
          [-0.566811222516992, 51.449293590499096],
          [-0.566358428683015, 51.449000293020084],
          [-0.565882416304492, 51.448575420294304],
          [-0.565687549205991, 51.448456133195336],
          [-0.565589721962165, 51.448409074074803],
          [-0.565297201426656, 51.44828319508219],
          [-0.56520242108291, 51.448230777498985],
          [-0.565110687076662, 51.448173001703573],
          [-0.564945102271517, 51.448037885657236],
          [-0.564840304678933, 51.447891823960688],
          [-0.564657504951781, 51.447525391545987],
          [-0.564593073559989, 51.447377126468155],
          [-0.564456290587011, 51.447195602035748],
          [-0.564338604210637, 51.447001722090342],
          [-0.564268422114121, 51.446899247645987],
          [-0.564151189682728, 51.446736846508827],
          [-0.563866180429915, 51.446371857558553],
          [-0.563462371280546, 51.445986526950307],
          [-0.563141665244066, 51.445750589169791],
          [-0.562951048606654, 51.445634047156105],
          [-0.562575797930358, 51.445393841642023],
          [-0.562444133905214, 51.445324782756501],
          [-0.562442695416049, 51.445324765103109],
          [-0.562019612763422, 51.445141522235481],
          [-0.56190825767939, 51.445113177939128],
          [-0.56170103253744, 51.44506747006713],
          [-0.561051322741649, 51.444952480913301],
          [-0.560918419867454, 51.444922971725347],
          [-0.560180407400656, 51.444733154953504],
          [-0.55988879946999, 51.444625258110385],
          [-0.55967156899202, 51.444531763736926],
          [-0.559291743815766, 51.444346344989881],
          [-0.5589718879409, 51.444130189237711],
          [-0.558759461839989, 51.44397560371111],
          [-0.558064013661596, 51.443440088459027],
          [-0.557953151158806, 51.443350597864345],
          [-0.557577786952837, 51.44302404709763],
          [-0.557495722935487, 51.442934011429728],
          [-0.557274353687128, 51.442652519632659],
          [-0.556958149822804, 51.44227543852611],
          [-0.556620051820382, 51.44199970215282],
          [-0.556285813480547, 51.441784261847239],
          [-0.556166576868225, 51.441732434759544],
          [-0.556074272861292, 51.441693528902519],
          [-0.555746714330759, 51.441540216855174],
          [-0.555567124577104, 51.441485846493386],
          [-0.555301573944501, 51.44141962478286],
          [-0.55516411529507, 51.441398146041422],
          [-0.555032296794409, 51.441380333672889],
          [-0.554772379640704, 51.441363638412575],
          [-0.554535695063847, 51.441385896572037],
          [-0.55429550940796, 51.441427894312135],
          [-0.554052466201772, 51.441514818264167],
          [-0.553825235030224, 51.441647798158463],
          [-0.553633025030572, 51.441810884973698],
          [-0.553425616104284, 51.442090684920245],
          [-0.553232437204217, 51.44242101893628],
          [-0.553224989734103, 51.442429020146882],
          [-0.552860778898343, 51.442889430294684],
          [-0.552764584506561, 51.442973670020642],
          [-0.552678714246316, 51.443049944037519],
          [-0.552486163609625, 51.443177955133322],
          [-0.552028495176274, 51.443407900545033],
          [-0.551921927447057, 51.443456041596463],
          [-0.55181837843979, 51.443499723652614],
          [-0.551600340911333, 51.443568967341676],
          [-0.551407337044947, 51.443574675410865],
          [-0.551277965048823, 51.443570379230735],
          [-0.551141457878073, 51.443564196248971],
          [-0.550810065961652, 51.443532224146928],
          [-0.550445006084799, 51.443472857542822],
          [-0.550165325440294, 51.443398359189487],
          [-0.549889347830812, 51.443297827880521],
          [-0.549882241183235, 51.443295042253418],
          [-0.54978167979259, 51.44324434003839],
          [-0.549671192131959, 51.443189018730273],
          [-0.549571257433422, 51.443118540709797],
          [-0.549383266205079, 51.442966041192825],
          [-0.549296505724509, 51.442888531973004],
          [-0.548993628694155, 51.442501705989251],
          [-0.548948269433479, 51.442434600547685],
          [-0.548870696004113, 51.44229425758973],
          [-0.548728368116787, 51.442154012436021],
          [-0.548508227530634, 51.44201730057506],
          [-0.548184754437017, 51.441872114903511],
          [-0.547308119285835, 51.441610368633377],
          [-0.547146897526415, 51.441567005922984],
          [-0.546825351395958, 51.441497376524815],
          [-0.546424840077238, 51.441422271085443],
          [-0.546119089352449, 51.441353734792301],
          [-0.545761416707613, 51.441289049910935],
          [-0.545563685835638, 51.441217355688323],
          [-0.544962620010774, 51.441023755061615],
          [-0.544632926844693, 51.440893769306896],
          [-0.54431135124674, 51.440780069734387],
          [-0.543946389766251, 51.440628062330035],
          [-0.543469814331817, 51.440456682414414],
          [-0.542933891950476, 51.440251291061188],
          [-0.54253410570706, 51.440108738032585],
          [-0.541333795758079, 51.439756595103013],
          [-0.540662922648146, 51.439542320196132],
          [-0.539346831415252, 51.43916713359414],
          [-0.539043070677313, 51.439172341258093],
          [-0.53873536375046, 51.439120846670505],
          [-0.538363333587837, 51.439010997852286],
          [-0.537571236318488, 51.438718758007944],
          [-0.53715249681769, 51.43858494232223],
          [-0.536952260012547, 51.43850241112689],
          [-0.536754986590745, 51.438417218837735],
          [-0.536576583346005, 51.438326866293075],
          [-0.536405400719225, 51.4382357043661],
          [-0.536093211608308, 51.438054655777265],
          [-0.535278190797285, 51.437670391046304],
          [-0.534928502159586, 51.437537429905412],
          [-0.534600158361668, 51.437411928884032],
          [-0.534392625267482, 51.437332899325],
          [-0.533981472980142, 51.437187477434193],
          [-0.533479285251975, 51.43705440416889],
          [-0.533258495300925, 51.43698509844819],
          [-0.532570962134665, 51.436754382746727],
          [-0.532089407577513, 51.436606274537482],
          [-0.531804938621641, 51.436548758235666],
          [-0.531405880435985, 51.436430455953882],
          [-0.5310475188555, 51.436389097905717],
          [-0.53074248563578, 51.436344810035081],
          [-0.530455143684008, 51.436287254432614],
          [-0.52978143051897, 51.43616460470875],
          [-0.528610394353654, 51.435892731390453],
          [-0.528115709972388, 51.435795698866748],
          [-0.527582399948028, 51.435691884481969],
          [-0.52645798567823, 51.435581539751908],
          [-0.525760927916158, 51.435514326564963],
          [-0.525681974744303, 51.435508837608161],
          [-0.525570002194934, 51.435501134894849],
          [-0.522765209664864, 51.43530036997165],
          [-0.522743695636027, 51.435298300424954],
          [-0.522220661897857, 51.435233258537551],
          [-0.521434158214273, 51.435084859313463],
          [-0.52063759067059, 51.434847302485949],
          [-0.519762196741716, 51.434600651839766],
          [-0.518995759270464, 51.434366161843336],
          [-0.518227167075505, 51.434065095342262],
          [-0.517454446981217, 51.433758570192168],
          [-0.516844679864022, 51.433440615059517],
          [-0.516372082953666, 51.433196333004851],
          [-0.516113189300011, 51.43301680328581],
          [-0.515314027224573, 51.432683852130943],
          [-0.514192301838143, 51.432272168654833],
          [-0.513955038560951, 51.432180134879374],
          [-0.513724908020966, 51.432089989583268],
          [-0.513425686867447, 51.431956702949883],
          [-0.512800949401854, 51.431658320199475],
          [-0.511994953369748, 51.431227242402343],
          [-0.511459384416151, 51.430885922021872],
          [-0.511337406438301, 51.430788153533392],
          [-0.511202896314266, 51.430677636304047],
          [-0.511002526470515, 51.430513226763914],
          [-0.5109231926976, 51.430431286851167],
          [-0.510846793613616, 51.430347585698385],
          [-0.510699128771834, 51.430155069725075],
          [-0.510388984627751, 51.429783337502272],
          [-0.510308965458789, 51.429589882498675],
          [-0.510236112392137, 51.429441480628959],
          [-0.510205730235328, 51.429358364110918],
          [-0.510037277490697, 51.429009114930849],
          [-0.50990833895235, 51.428506597666271],
          [-0.50970332940226, 51.427026536057141],
          [-0.509688455657196, 51.426776357618124],
          [-0.509658325977197, 51.426552962389515],
          [-0.509644957881532, 51.426389130313012],
          [-0.509633203224606, 51.426219923300216],
          [-0.509681860032989, 51.425697183263935],
          [-0.509704395414442, 51.425093179487362],
          [-0.509719730517482, 51.424975573890713],
          [-0.509792142133005, 51.424606906556598],
          [-0.509848289452705, 51.424163395264166],
          [-0.50994350254164, 51.423845375284138],
          [-0.510022059779944, 51.423641347115108],
          [-0.510085219679957, 51.423512659412047],
          [-0.510183962671298, 51.423307089299392],
          [-0.510351648215431, 51.423016068356809],
          [-0.510711116858082, 51.422312035068998],
          [-0.51086539359025, 51.42207929363186],
          [-0.511096767476174, 51.421775592269995],
          [-0.511302113689833, 51.421476055969705],
          [-0.511538589528492, 51.421192201835424],
          [-0.51178552882839, 51.420851827836664],
          [-0.51233397742798, 51.420040481632718],
          [-0.512528616970103, 51.419671565463759],
          [-0.512633988136037, 51.419571288611465],
          [-0.512710497051708, 51.419341154418589],
          [-0.512760237601721, 51.419226682703432],
          [-0.512875385772012, 51.41900243424687],
          [-0.512931656619586, 51.418819702893892],
          [-0.512945119920454, 51.418626536600023],
          [-0.51297535981878, 51.418403908191642],
          [-0.512965521985853, 51.418175375721518],
          [-0.512923123423164, 51.417975205797298],
          [-0.512851119842063, 51.41775667527903],
          [-0.512595962357258, 51.417376654052838],
          [-0.512428447055794, 51.417220757093951],
          [-0.51219983245442, 51.417130628154887],
          [-0.511969722883438, 51.417042278303192],
          [-0.51154151828191, 51.416898356622795],
          [-0.511218274273027, 51.416887955534463],
          [-0.510892774510203, 51.416902703664249],
          [-0.510390514483282, 51.41691340553654],
          [-0.509953420912304, 51.416998671759018],
          [-0.509455129336308, 51.417108336686759],
          [-0.509002628831194, 51.417180813984558],
          [-0.508552387497891, 51.4172722024366],
          [-0.508085332877567, 51.417349886451689],
          [-0.507685576179015, 51.4173924559772],
          [-0.50725944257258, 51.41740591236794],
          [-0.507041284720015, 51.417392342163076],
          [-0.506821835972142, 51.417374258890696],
          [-0.506370880418019, 51.417310960144135],
          [-0.505827481405794, 51.417171843831014],
          [-0.505384245058551, 51.417048390580895],
          [-0.505154941318595, 51.416979820972585],
          [-0.504695426633451, 51.416826482485831],
          [-0.50428320790484, 51.416634179274524],
          [-0.503618489718746, 51.416335237696714],
          [-0.50304791973451, 51.416104039000231],
          [-0.502681129505661, 51.415886232484212],
          [-0.502129181000562, 51.415481713612287],
          [-0.501882476340529, 51.415242059253032],
          [-0.501736512395706, 51.415044158356444],
          [-0.501655232848766, 51.414891147233909],
          [-0.501633423038215, 51.414678647291716],
          [-0.501642352126845, 51.414537580497459],
          [-0.501657031011135, 51.414396587219407],
          [-0.501707450461633, 51.414130157058793],
          [-0.501796151171275, 51.4138804026637],
          [-0.502137449335217, 51.413338026640375],
          [-0.502398142721265, 51.413017631487541],
          [-0.502699457279624, 51.412774190358661],
          [-0.502978945213393, 51.412494499912185],
          [-0.503092418101352, 51.412366458612254],
          [-0.503384018725187, 51.412023974937242],
          [-0.503560241209637, 51.411735770191711],
          [-0.503736697679871, 51.411396311333093],
          [-0.503787097648113, 51.41126206849907],
          [-0.503768445106133, 51.411128742458288],
          [-0.503696726423725, 51.411035204735263],
          [-0.50353850375454, 51.41090459261909],
          [-0.503379487392987, 51.410842312579618],
          [-0.503244172210994, 51.410802816119364],
          [-0.502749844616061, 51.410704778395768],
          [-0.502460263872696, 51.410677697754899],
          [-0.502099459818588, 51.410673985549032],
          [-0.50144628957775, 51.410640455531571],
          [-0.501168003242259, 51.41061981019854],
          [-0.500895109526863, 51.410654086991798],
          [-0.500644565715532, 51.410708432503775],
          [-0.500460340915574, 51.410801394487869],
          [-0.500293354389796, 51.410982702597153],
          [-0.500165263597709, 51.411161810662968],
          [-0.500102324233158, 51.411327364784441],
          [-0.500117468605772, 51.411523593497272],
          [-0.500154065570633, 51.411635568046222],
          [-0.500306390532817, 51.41199002090039],
          [-0.50067503319998, 51.412633200934096],
          [-0.500790500926501, 51.412883768573764],
          [-0.50082380553004, 51.413096415866896],
          [-0.500800672398762, 51.413275968279734],
          [-0.500740022928308, 51.413415473971433],
          [-0.5004273281582, 51.413786456170392],
          [-0.500249365338344, 51.413907374467342],
          [-0.500001525789945, 51.414010312320606],
          [-0.499772053354075, 51.414079313637082],
          [-0.499515126795487, 51.414108396264439],
          [-0.499206893374984, 51.414123332506115],
          [-0.498925706268619, 51.414146707627651],
          [-0.498537217084558, 51.414109357071489],
          [-0.498115519815018, 51.41407607575902],
          [-0.497965766517294, 51.414038186350851],
          [-0.497474121891844, 51.413901492379161],
          [-0.497290077474237, 51.413856867649805],
          [-0.496703211843259, 51.413729740021225],
          [-0.496318703271754, 51.413615098324009],
          [-0.496004689819526, 51.413499561814639],
          [-0.495663307780672, 51.413385471543002],
          [-0.495511422034573, 51.413325070539472],
          [-0.494861941955788, 51.413046956103003],
          [-0.494669082308536, 51.412964445800441],
          [-0.49456859161019, 51.412915494789502],
          [-0.494473732596544, 51.412870213027404],
          [-0.494383126908735, 51.412826784330299],
          [-0.494119148003456, 51.412676815219271],
          [-0.493642923019992, 51.412334376672796],
          [-0.493549218986477, 51.412254038536091],
          [-0.493486398783351, 51.412196578505863],
          [-0.493461235270851, 51.412174673119701],
          [-0.493306859065331, 51.41201532050075],
          [-0.493203224270758, 51.411887194505368],
          [-0.493149809489316, 51.411762412040446],
          [-0.492901337452495, 51.411359952326869],
          [-0.492666894404923, 51.410837173982337],
          [-0.492517495669687, 51.410308295430887],
          [-0.492488827995971, 51.409912259626822],
          [-0.492545636436035, 51.409409414420217],
          [-0.492698209380744, 51.408923987598676],
          [-0.492860295958059, 51.408280415359904],
          [-0.493018397875953, 51.407714126525534],
          [-0.493071880069245, 51.407224726131382],
          [-0.493094717846927, 51.40670525645848],
          [-0.493067537088035, 51.406220213943598],
          [-0.493030728447751, 51.405765621867964],
          [-0.492948617288599, 51.4053769911337],
          [-0.492664565156446, 51.405008243474299],
          [-0.492464534092053, 51.404795246409456],
          [-0.492256922350681, 51.404637904624849],
          [-0.492040773159006, 51.404390528067395],
          [-0.49184563815703, 51.404203671033116],
          [-0.491669174684552, 51.404061117062582],
          [-0.491493701818104, 51.403844837467112],
          [-0.491361893466448, 51.403656097231575],
          [-0.491208644644003, 51.403376256947404],
          [-0.49116964551531, 51.403250759597128],
          [-0.491155876554296, 51.403101307544638],
          [-0.491141124730595, 51.402807064322964],
          [-0.491141842168021, 51.402566975040287],
          [-0.491144979624252, 51.40247169543234],
          [-0.491185790372245, 51.402323845528635],
          [-0.491250587192542, 51.402189793187866],
          [-0.491467246918924, 51.401547824132862],
          [-0.491635083063273, 51.401166007268174],
          [-0.491861018914773, 51.400766053923164],
          [-0.491915959370243, 51.40062557959407],
          [-0.491946972950457, 51.400469510057334],
          [-0.491938011301304, 51.400217605841782],
          [-0.49186041920734, 51.399779573475527],
          [-0.491834814889986, 51.399683923788366],
          [-0.491763429508261, 51.399494163131465],
          [-0.49164176288965, 51.399259692005103],
          [-0.491611687697339, 51.399212543986017],
          [-0.49152461951072, 51.399106211132711],
          [-0.491322902532434, 51.398945346327437],
          [-0.491146904447087, 51.398789308639884],
          [-0.491082461216982, 51.398738120853942],
          [-0.490896629392984, 51.398618825218421],
          [-0.489620069356017, 51.397833518720802],
          [-0.488806190808046, 51.397360810362407],
          [-0.488609201248496, 51.397231475392395],
          [-0.488205981348134, 51.396991569371572],
          [-0.487990760109107, 51.39684850937028],
          [-0.48786302665453, 51.396755137564895],
          [-0.487501699710534, 51.396335021196748],
          [-0.487131300346222, 51.39588511135802],
          [-0.487039124463474, 51.395759824913362],
          [-0.486954222439926, 51.39563193459545],
          [-0.48689303536888, 51.39552593243905],
          [-0.486761422672074, 51.395245465917313],
          [-0.486660489871711, 51.394950108352397],
          [-0.486613369007748, 51.39472288938321],
          [-0.486559682390366, 51.394563928344397],
          [-0.486485071282645, 51.394080967970318],
          [-0.486391723012547, 51.393381946074612],
          [-0.48638419967359, 51.393130958873506],
          [-0.48638947750739, 51.39305818803151],
          [-0.486407389560868, 51.392994572898708],
          [-0.486474929271109, 51.392820991517944],
          [-0.486623603194114, 51.392497384682059],
          [-0.486822264796221, 51.39218341580753],
          [-0.486875755875881, 51.392086987976057],
          [-0.486801277661207, 51.391338751120543],
          [-0.486772121743851, 51.390915728044206],
          [-0.486526051516908, 51.390271385494799],
          [-0.486342537890798, 51.389822088222807],
          [-0.486261756401781, 51.389613318123281],
          [-0.486321638681748, 51.389366798667965],
          [-0.486402583250801, 51.389091775372002],
          [-0.486413132240464, 51.389033460541754],
          [-0.486424084508001, 51.388919397535965],
          [-0.486421721039438, 51.388816852709951],
          [-0.48640540655104, 51.388701538154287],
          [-0.486393829703953, 51.388616859245793],
          [-0.48624467281877, 51.388346056734882],
          [-0.486155980971965, 51.388202829409202],
          [-0.485910947087322, 51.387875933269427],
          [-0.48580187730534, 51.387740535510709],
          [-0.485445137904617, 51.387358239517184],
          [-0.485327937400885, 51.387251512126689],
          [-0.485249774334859, 51.387181259334177],
          [-0.48510396157201, 51.387070564745038],
          [-0.484998355321258, 51.387004453131311],
          [-0.484679566553877, 51.386822279141043],
          [-0.484604674919308, 51.386783542097632],
          [-0.484523888485412, 51.386749225004408],
          [-0.484415836669845, 51.386713655924474],
          [-0.483754579985123, 51.386544135033297],
          [-0.483527233351248, 51.386508819797641],
          [-0.48319160815385, 51.386488288897318],
          [-0.482862937159853, 51.38651820497595],
          [-0.482614625225359, 51.38655185860118],
          [-0.482595830641172, 51.386555212188945],
          [-0.482390556380149, 51.386591221195282],
          [-0.482207999391715, 51.386635617352965],
          [-0.48207156165807, 51.386676114481858],
          [-0.481988664348093, 51.386705614912842],
          [-0.481841277227527, 51.386772947336759],
          [-0.481691857788085, 51.386858238185177],
          [-0.481313297375641, 51.387092531786031],
          [-0.481042650123169, 51.387279663810894],
          [-0.480637099105277, 51.387590940456811],
          [-0.480297657209395, 51.387902173868184],
          [-0.480174312139148, 51.388067833863957],
          [-0.479880508326772, 51.388389549674542],
          [-0.479582760009626, 51.38878675021374],
          [-0.479487397936225, 51.388975253700011],
          [-0.479331855682432, 51.389244807443546],
          [-0.47913538014285, 51.389621739168106],
          [-0.479067032309431, 51.389732358469914],
          [-0.479012836884165, 51.389806292353441],
          [-0.478887592986226, 51.389942251020813],
          [-0.478858083910191, 51.389965248291631],
          [-0.478667139177814, 51.390088663437531],
          [-0.478485917308439, 51.39017893241472],
          [-0.478379517410781, 51.390223412105428],
          [-0.478222564509986, 51.390275328274136],
          [-0.47798168612914, 51.390344138871093],
          [-0.477822724441451, 51.390369950258034],
          [-0.477736313724846, 51.39037512223527],
          [-0.477627065070335, 51.390375501154764],
          [-0.47738324453928, 51.390359743150505],
          [-0.477112992792094, 51.390317562939813],
          [-0.476904967252611, 51.390262702417012],
          [-0.476761264816946, 51.390218569566329],
          [-0.476475835070804, 51.390114142608986],
          [-0.475935087406293, 51.389864313080921],
          [-0.475186468944426, 51.389425632067443],
          [-0.474920768882189, 51.389246820839972],
          [-0.474634029330136, 51.389052447940351],
          [-0.474232748061159, 51.388801728794348],
          [-0.473071519576428, 51.388151733509808],
          [-0.472497950973446, 51.387809737905087],
          [-0.472260283655523, 51.387652868226759],
          [-0.471844871639061, 51.387352498484503],
          [-0.471296106466002, 51.386913702297541],
          [-0.470881306443216, 51.386595352380532],
          [-0.470704194274222, 51.386476138988584],
          [-0.470569880341191, 51.38636647645621],
          [-0.470353150509974, 51.386142433034045],
          [-0.470247869352619, 51.386024156730855],
          [-0.470136185519016, 51.385882416381207],
          [-0.470049910486942, 51.385754496381814],
          [-0.469998500086417, 51.38565850515139],
          [-0.469930579601895, 51.385411225219826],
          [-0.469821782990956, 51.385096867340891],
          [-0.46983235732252, 51.384952227057902],
          [-0.469907373771447, 51.384685231794499],
          [-0.470092054641225, 51.384232625478028],
          [-0.470373844866177, 51.383755209188664],
          [-0.470752016304504, 51.383317720343165],
          [-0.470976656050644, 51.382959158308388],
          [-0.471020446170667, 51.382680066756997],
          [-0.471020419818881, 51.382551475400227],
          [-0.470966195224204, 51.382496813555697],
          [-0.470876870890172, 51.382331087382013],
          [-0.470721740444196, 51.382156409161027],
          [-0.47064920242593, 51.38209071729635],
          [-0.470615446870186, 51.382068695008108],
          [-0.470560204687326, 51.382044593779213],
          [-0.470406867087293, 51.38198863794377],
          [-0.470211813319099, 51.381933935760522],
          [-0.470113388584706, 51.38191196825187],
          [-0.469954543833666, 51.381891909437371],
          [-0.469527953177855, 51.381885439087007],
          [-0.4692324378469, 51.381869888763994],
          [-0.468982438691124, 51.381868420992632],
          [-0.46828750210421, 51.381893509862628],
          [-0.468109383994317, 51.38189118134035],
          [-0.467978938090758, 51.381881382706709],
          [-0.467606904771982, 51.381833354396271],
          [-0.467486964491894, 51.381810204032888],
          [-0.46733081322053, 51.381795572277134],
          [-0.464775863121943, 51.38183406362959],
          [-0.464594330909836, 51.381847871304913],
          [-0.464444129489233, 51.381870182444565],
          [-0.464093473363656, 51.381956409658585],
          [-0.463295825230745, 51.382130295298886],
          [-0.463029321904858, 51.382192444291036],
          [-0.462900635237141, 51.382215934915706],
          [-0.462663974039274, 51.382245202714238],
          [-0.462295761781979, 51.38225475894162],
          [-0.462094096380078, 51.382226034310854],
          [-0.461999953722045, 51.382205015383974],
          [-0.46181355704839, 51.38214951350664],
          [-0.461647662727136, 51.382082590393907],
          [-0.461455772396142, 51.381976658414771],
          [-0.461376396860782, 51.381900979283898],
          [-0.461330451337282, 51.381814048982143],
          [-0.461282045419013, 51.381629069265365],
          [-0.461269992232458, 51.381474241817159],
          [-0.461350261605292, 51.381308936632237],
          [-0.461413655082245, 51.381132618923196],
          [-0.461681990637641, 51.38062987041031],
          [-0.461811616211023, 51.380406762340598],
          [-0.461941853934087, 51.380251105121182],
          [-0.462044247848524, 51.380154432087807],
          [-0.462141549061142, 51.380081072348986],
          [-0.462217927468194, 51.380031717395283],
          [-0.462253033027387, 51.380013294105446],
          [-0.462494091598569, 51.379938223731621],
          [-0.462725516312875, 51.379850437120695],
          [-0.462845466566607, 51.379787265599631],
          [-0.46289990683082, 51.379749312508956],
          [-0.463390543766934, 51.379301632198441],
          [-0.463479088759398, 51.379146325769689],
          [-0.463501093556687, 51.379089962263009],
          [-0.46348653813331, 51.378837984388475],
          [-0.463454443343562, 51.378766523591317],
          [-0.463382943771345, 51.378670266542194],
          [-0.463312631764048, 51.378624382424874],
          [-0.463235942506551, 51.378597298646262],
          [-0.463104801557412, 51.378522740125881],
          [-0.463013990097642, 51.378488277038365],
          [-0.462897264632576, 51.378455272394866],
          [-0.462795917462928, 51.378435058748344],
          [-0.462665633057714, 51.378420760008218],
          [-0.462219145817774, 51.378408606126634],
          [-0.462036280394289, 51.378419694505695],
          [-0.46185984342188, 51.378453347983488],
          [-0.461781468265765, 51.378476598530071],
          [-0.461567646263638, 51.378553823500361],
          [-0.461464612085502, 51.378583943971513],
          [-0.461350318064038, 51.378649886076417],
          [-0.46117410911297, 51.378976693679235],
          [-0.461096284662463, 51.379069192467945],
          [-0.461048904930574, 51.379110834427543],
          [-0.460982671711337, 51.379157624163852],
          [-0.460871218142996, 51.37922450236497],
          [-0.460732673848799, 51.379327893395661],
          [-0.460393480069025, 51.379458322780877],
          [-0.460265240945024, 51.379511491254114],
          [-0.46002288416741, 51.37962520730882],
          [-0.458642241085419, 51.380214939222817],
          [-0.457990940863782, 51.380566964853081],
          [-0.457933874301179, 51.380469095886603],
          [-0.457914201054835, 51.38041308407918],
          [-0.457890322682373, 51.380311155675855],
          [-0.457886040283108, 51.380224772260242],
          [-0.457894202053727, 51.380152940468705],
          [-0.457914187037753, 51.38007137264281],
          [-0.45793662186774, 51.380002426418031],
          [-0.457999801722957, 51.379875565810757],
          [-0.45804946692186, 51.379808776408126],
          [-0.458140165572609, 51.379718247481861],
          [-0.458245106712451, 51.379631502858643],
          [-0.458526201896369, 51.379476935048039],
          [-0.458866759196822, 51.379306063150167],
          [-0.459016484233225, 51.379254977260985],
          [-0.459132448613644, 51.379225028962935],
          [-0.459331902199244, 51.379190782965466],
          [-0.460047185882039, 51.379157921984238],
          [-0.460108236378712, 51.379137142609814],
          [-0.460140650331092, 51.379113289134764],
          [-0.460484189339303, 51.378596244444864],
          [-0.46117971118731, 51.377566759235791],
          [-0.461371231606437, 51.377254540517676],
          [-0.461534897903593, 51.377044469099161],
          [-0.461641332949925, 51.37691277913607],
          [-0.461809457399205, 51.376826860988665],
          [-0.462436966853628, 51.376667839046746],
          [-0.462984514030301, 51.376536540480096],
          [-0.463951591343581, 51.376277652894196],
          [-0.464035857151576, 51.376249981960619],
          [-0.464194387376571, 51.376235873831156],
          [-0.464208780071074, 51.376235163255721],
          [-0.46424462646456, 51.376237431613248],
          [-0.464294805406758, 51.376240787064418],
          [-0.464650367007126, 51.376264331085977],
          [-0.464884507956933, 51.376266499908901],
          [-0.464963983425533, 51.376253153377796],
          [-0.46497699997603, 51.376250626199258],
          [-0.465008988550283, 51.376239355187536],
          [-0.465140747024865, 51.376166444470158],
          [-0.465516237661204, 51.375765805977231],
          [-0.465563579889115, 51.375725061007834],
          [-0.465687289455371, 51.375634958729215],
          [-0.466516991207095, 51.375143146955232],
          [-0.467098512240169, 51.374897171671186],
          [-0.4675759294052, 51.374670514417673],
          [-0.467605523964136, 51.374644823592746],
          [-0.467623598771284, 51.37461988132781],
          [-0.46765541798436, 51.3744845125062],
          [-0.467673333312342, 51.374249146363077],
          [-0.467647622455499, 51.374029395908593],
          [-0.467646186260127, 51.37402937712411],
          [-0.467615318504587, 51.373921064774429],
          [-0.467534282817437, 51.373723071597787],
          [-0.467488243427666, 51.373638840193436],
          [-0.467415336933167, 51.37354166797158],
          [-0.467372105871526, 51.373502435181166],
          [-0.467236098151461, 51.373401739629394],
          [-0.466666212192031, 51.373084944305504],
          [-0.466547020810046, 51.372997057353651],
          [-0.466480217067532, 51.372932336987489],
          [-0.466413773872563, 51.372856830434266],
          [-0.466384875841663, 51.372818684120169],
          [-0.466338749344709, 51.372737148799658],
          [-0.466292623008716, 51.372655613460459],
          [-0.466242163792468, 51.372531757146831],
          [-0.466217255094962, 51.372417227703352],
          [-0.466170875476838, 51.372214291729811],
          [-0.466140198066394, 51.372057422501399],
          [-0.466078990583729, 51.371997271343176],
          [-0.465636271621035, 51.371573327714728],
          [-0.465574590759142, 51.371484394421834],
          [-0.465508962351885, 51.371384618516785],
          [-0.465520343242969, 51.371302037576164],
          [-0.465553536323726, 51.370996730992957],
          [-0.465571496618584, 51.370932221005489],
          [-0.465637809381958, 51.370839568648513],
          [-0.465684070751183, 51.370788018654665],
          [-0.465703460958209, 51.370766690859895],
          [-0.466015896363115, 51.370574748139852],
          [-0.466155688225108, 51.370475863697195],
          [-0.466473727383836, 51.370675162192391],
          [-0.466551211073897, 51.370721138389499],
          [-0.466644226754591, 51.370732247501415],
          [-0.466734310254596, 51.370745116641338],
          [-0.466845219567314, 51.370736676520536],
          [-0.466898835263219, 51.370722990345378],
          [-0.467362710310764, 51.370556406005832],
          [-0.467616965896985, 51.370471606609364],
          [-0.46809699630076, 51.370251276386185],
          [-0.46822801623812, 51.370156770959255],
          [-0.468248511066924, 51.370145348773939],
          [-0.468286928464355, 51.370113478378478],
          [-0.468330133834654, 51.370067282735285],
          [-0.468386930172151, 51.369915154535605],
          [-0.468452489082259, 51.369801808113458],
          [-0.468475319340351, 51.369763439245233],
          [-0.468600301969657, 51.369548356181362],
          [-0.468661638521274, 51.369475420206484],
          [-0.46871095602546, 51.369289023012712],
          [-0.468856763081481, 51.36900946659177],
          [-0.468943050570319, 51.368920670199728],
          [-0.469000524493538, 51.368877358458782],
          [-0.469273170119097, 51.368714561323273],
          [-0.469332049526314, 51.36867216701846],
          [-0.469423540137646, 51.368599624541915],
          [-0.469476914907985, 51.368549964346364],
          [-0.469545818322833, 51.368465436627737],
          [-0.469731378469937, 51.368156723418103],
          [-0.469759413615115, 51.368091445090037],
          [-0.46981479860389, 51.367895235000738],
          [-0.470021637312712, 51.367292747942074],
          [-0.469732024831863, 51.367145986853096],
          [-0.469622772844846, 51.36710499336278],
          [-0.469367086228754, 51.366974860598958],
          [-0.468936913178432, 51.366649110707314],
          [-0.468617788346759, 51.366396750007105],
          [-0.468481550090571, 51.366432737565447],
          [-0.468105704118046, 51.366244379166524],
          [-0.467833960186123, 51.366122125498698],
          [-0.467650646366349, 51.366019012781749],
          [-0.467607181928408, 51.365986970795959],
          [-0.467565453461122, 51.365945959095349],
          [-0.467526866927524, 51.365896895314968],
          [-0.467513347450487, 51.365871539712025],
          [-0.467488674418936, 51.36579298298831],
          [-0.467516591125793, 51.36573130058391],
          [-0.467556891223871, 51.365685966503001],
          [-0.467604070951152, 51.365649714810665],
          [-0.4676492147774, 51.365631421283943],
          [-0.467715927546493, 51.365612510629767],
          [-0.467849469260869, 51.365614257321965],
          [-0.468441149570832, 51.365791950047488],
          [-0.468642536364969, 51.365826954662396],
          [-0.468990448373551, 51.365862074944886],
          [-0.469047945540711, 51.365861027665709],
          [-0.469133084964043, 51.365849550586304],
          [-0.469292505418248, 51.365807570328556],
          [-0.469544128388271, 51.365671474483499],
          [-0.469735652503877, 51.365485134953197],
          [-0.470008542836759, 51.365314245288239],
          [-0.470157939010821, 51.365271233641664],
          [-0.470487422415173, 51.365212587601732],
          [-0.470575880999258, 51.365187664108994],
          [-0.470656023345696, 51.365153639590993],
          [-0.470717558632932, 51.365117573707906],
          [-0.470842154583631, 51.36504276401174],
          [-0.471053563339936, 51.364862976220813],
          [-0.471112885027028, 51.364720770584967],
          [-0.471198082484867, 51.364534839573906],
          [-0.471254620829675, 51.364476227105811],
          [-0.471301795785633, 51.364439973536221],
          [-0.471358333779337, 51.364424524664678],
          [-0.471494802561623, 51.364381342546125],
          [-0.471571861657614, 51.364396735483425],
          [-0.471618916797914, 51.364407240852763],
          [-0.471681108686261, 51.364437726956808],
          [-0.471698728380829, 51.364469430249436],
          [-0.471794216398365, 51.3646649120154],
          [-0.471939124921649, 51.364929380634116],
          [-0.471989142795709, 51.364980390452267],
          [-0.472031322823026, 51.36500791773193],
          [-0.472082208040531, 51.365032860769631],
          [-0.472144700166668, 51.365054358143013],
          [-0.472211828962731, 51.365066024257473],
          [-0.472266393406386, 51.3650667356155],
          [-0.472566227743155, 51.365035573610555],
          [-0.472648253702768, 51.36503124726385],
          [-0.472754510715653, 51.365032632117611],
          [-0.472863760513008, 51.36507362260231],
          [-0.472983930020117, 51.365131840916106],
          [-0.473096770898, 51.365194459845071],
          [-0.473219243433151, 51.365226629868836],
          [-0.473333429302509, 51.365248800128434],
          [-0.473422157194748, 51.365258948466654],
          [-0.47364460436258, 51.365265443067081],
          [-0.473729771302295, 51.36525306368604],
          [-0.473794984735531, 51.365235928149623],
          [-0.47386196253675, 51.365208923864927],
          [-0.473923405648556, 51.36517555275163],
          [-0.473972104644346, 51.365136620179314],
          [-0.473994509274464, 51.365110833846877],
          [-0.474018705526243, 51.365031116169291],
          [-0.473983701154411, 51.364960519273197],
          [-0.473953096712999, 51.364930445668293],
          [-0.473912231960277, 51.364906533151895],
          [-0.473866910230181, 51.364887058801493],
          [-0.473815635884219, 51.364873801622188],
          [-0.473745515665264, 51.364865694439786],
          [-0.47357787587704, 51.364895883766764],
          [-0.473349418165694, 51.364897403992352],
          [-0.473255216325431, 51.36487909110928],
          [-0.473131667402868, 51.364836116198212],
          [-0.473044973977963, 51.364808009298194],
          [-0.472975001892949, 51.364752243666189],
          [-0.472863266649683, 51.364613203338052],
          [-0.472606921301427, 51.364287034035129],
          [-0.47258307924458, 51.364269637660549],
          [-0.472545296885842, 51.364239470175086],
          [-0.472494591679755, 51.364209134240028],
          [-0.472388304907281, 51.36412232068168],
          [-0.472364701246595, 51.364054569733511],
          [-0.472348905723804, 51.36401120014127],
          [-0.472352733163502, 51.363939310544623],
          [-0.472372325222828, 51.363868525683934],
          [-0.472401609542392, 51.363808658077815],
          [-0.472419766596796, 51.363781018195304],
          [-0.472529517697032, 51.363677237184788],
          [-0.47260696327981, 51.36363778058054],
          [-0.472629338035834, 51.363612893358798],
          [-0.472723655053944, 51.36358444747583],
          [-0.472819228498106, 51.363561413349281],
          [-0.472936640020952, 51.36357283496725],
          [-0.473005622505473, 51.363615099018226],
          [-0.473058002277457, 51.363638262589802],
          [-0.473075533042254, 51.363672662273707],
          [-0.473088548775984, 51.363756461555987],
          [-0.473105785902331, 51.36392934100234],
          [-0.47314434694587, 51.363979301827577],
          [-0.473186526751206, 51.364006828685298],
          [-0.473215963017702, 51.364028794042738],
          [-0.473256975925695, 51.36404821247789],
          [-0.473301039866913, 51.364062275181254],
          [-0.473401491267719, 51.364065382233662],
          [-0.473980412076157, 51.363978501379059],
          [-0.47412154545798, 51.36396774962364]
        ]
      ]
    ]
  }
}
