{
  "type": "Feature",
  "properties": {
    "name": "Runnymede",
    "level": 2
  },
  "geometry": {
    "type": "MultiPolygon",
    "coordinates": [
      [
        [
          [-0.47412154545798, 51.36396774962364],
          [-0.475453390239865, 51.36413435771037],
          [-0.47546846491707, 51.36411297192193],
          [-0.475415858348244, 51.36392344599917],
          [-0.475311837459711, 51.36381148553698],
          [-0.474741848260713, 51.363672778838676],
          [-0.474653687129841, 51.3636023895416],
          [-0.474616288659479, 51.36351737374056],
          [-0.474559223427289, 51.363245958214456],
          [-0.474234645274249, 51.36298454902293],
          [-0.474173647836463, 51.36291811003126],
          [-0.474357127379165, 51.36279999977734],
          [-0.474474716352034, 51.36280602664334],
          [-0.474786073658958, 51.36307625557891],
          [-0.474853946140446, 51.363065448656265],
          [-0.475087925017701, 51.362680918458366],
          [-0.475159798361688, 51.3625928282729],
          [-0.476053139606846, 51.36194709861936],
          [-0.476136491334468, 51.36181599314921],
          [-0.476216082059709, 51.361495097718446],
          [-0.476201625005438, 51.361411279852284],
          [-0.475882942612062, 51.361145455686376],
          [-0.475837082688254, 51.36109899779487],
          [-0.475843108651057, 51.36065754624364],
          [-0.47581723064285, 51.36061494516925],
          [-0.475146827524954, 51.36034364594895],
          [-0.47513279437019, 51.3602904078848],
          [-0.475269439171989, 51.36006827316566],
          [-0.475444966639449, 51.35984304696737],
          [-0.476111237505865, 51.35958913060609],
          [-0.476086765767114, 51.35954744712368],
          [-0.475616648870671, 51.35917084501551],
          [-0.475551411362928, 51.359145716992636],
          [-0.474724353115881, 51.35913765623196],
          [-0.474557684980587, 51.35905275687768],
          [-0.474622033547494, 51.35854191933196],
          [-0.474608536635008, 51.35847250088035],
          [-0.474264887577573, 51.35805077334116],
          [-0.474206710910257, 51.358029333246705],
          [-0.473635507206322, 51.358189159189955],
          [-0.473486017801457, 51.35819260822549],
          [-0.472450219001639, 51.35785358518733],
          [-0.472192605762812, 51.357825948243025],
          [-0.470109818930852, 51.35809014443405],
          [-0.470081225152981, 51.35808617425445],
          [-0.469904638443397, 51.35791121278234],
          [-0.469926741936742, 51.35785125125216],
          [-0.470628210354262, 51.357661669270215],
          [-0.470679415039808, 51.35763356110563],
          [-0.470767882692046, 51.35734875213473],
          [-0.470676688355993, 51.35728371546284],
          [-0.470267828407933, 51.3571398960455],
          [-0.470107664970828, 51.35711892174495],
          [-0.468509156184296, 51.35754857677624],
          [-0.468434681985853, 51.35754220833507],
          [-0.467243002347761, 51.356796431797186],
          [-0.466971739375573, 51.3565752634147],
          [-0.4724456214796, 51.35379787963366],
          [-0.47249086913617, 51.35377598764716],
          [-0.474511024901044, 51.35223218100665],
          [-0.474817779328427, 51.35207610284034],
          [-0.478295431559208, 51.35083353690145],
          [-0.478410465287357, 51.350785569976175],
          [-0.480924489141971, 51.34949443397266],
          [-0.48115587563756, 51.3493580437199],
          [-0.481234694270845, 51.34953712016022],
          [-0.481262690702253, 51.34955906521658],
          [-0.481782997480736, 51.349588283588446],
          [-0.481904666872319, 51.34955658552369],
          [-0.486160595263059, 51.34747136153221],
          [-0.486411163129767, 51.34736219202752],
          [-0.486545420488038, 51.34742777544231],
          [-0.486852354041101, 51.347394872094924],
          [-0.489898421142544, 51.34632989520422],
          [-0.489970952071135, 51.34630744968698],
          [-0.49820159145101, 51.34397271161992],
          [-0.498378097060432, 51.34393181115558],
          [-0.499025395722378, 51.34358760177955],
          [-0.499238044860606, 51.343495006394214],
          [-0.502294001409935, 51.34250809713016],
          [-0.50239551851888, 51.34247702376996],
          [-0.506288324816986, 51.341625745650724],
          [-0.506675403213996, 51.341555150554015],
          [-0.51152499302418, 51.33992725676262],
          [-0.511700534173826, 51.33987103868793],
          [-0.514435135551657, 51.339217870584214],
          [-0.51562545752379, 51.33885799202494],
          [-0.517286944953665, 51.340448281364175],
          [-0.517795270721933, 51.34102485703093],
          [-0.518280754813038, 51.34075133830957],
          [-0.519441141403969, 51.34163382190575],
          [-0.518554628393724, 51.34218823149212],
          [-0.517904676203283, 51.342574772221916],
          [-0.51873683736437, 51.343618565278],
          [-0.518843864299795, 51.34377279506005],
          [-0.519500055034886, 51.34350503057945],
          [-0.520202640484869, 51.34317849824931],
          [-0.520541396918516, 51.34407395119747],
          [-0.520774351612313, 51.34486644848233],
          [-0.52265431278143, 51.34400533894747],
          [-0.523140249086458, 51.34380734414361],
          [-0.524198522254788, 51.34505808536068],
          [-0.527045496499371, 51.345249548114026],
          [-0.52938554207384, 51.34539859795781],
          [-0.529905719668426, 51.34565603136806],
          [-0.529948664546287, 51.34566016821948],
          [-0.530319155155456, 51.34556950299189],
          [-0.53035216766176, 51.34556991783889],
          [-0.532901901697564, 51.34652816854847],
          [-0.533445128043942, 51.34655926177918],
          [-0.5339089107941, 51.34701021032718],
          [-0.533933858732574, 51.347038400128255],
          [-0.534179652282621, 51.34766107116379],
          [-0.534241058897687, 51.34767173264788],
          [-0.534441756132727, 51.34768234115266],
          [-0.534806830822416, 51.34762666502212],
          [-0.534864527578692, 51.347528469249355],
          [-0.534820254304107, 51.347430794525394],
          [-0.535116087528981, 51.347430001168604],
          [-0.535861050698169, 51.34739435821316],
          [-0.536004520884077, 51.347263062245396],
          [-0.536004001723702, 51.34723427946272],
          [-0.535811950048235, 51.34690724483244],
          [-0.5358312112386, 51.346888601313346],
          [-0.535845650875402, 51.34688608414939],
          [-0.536220230075102, 51.3469375302993],
          [-0.536699566048802, 51.34672050723528],
          [-0.537077959885708, 51.346742322823026],
          [-0.537186136762022, 51.346546737196306],
          [-0.537219665109237, 51.34653096954745],
          [-0.53774536942532, 51.34643592181029],
          [-0.537789951427355, 51.34643378096016],
          [-0.538188810672988, 51.3466698719406],
          [-0.538221452460013, 51.34668196992146],
          [-0.538652879712091, 51.34657135263673],
          [-0.538871312560408, 51.34656598612651],
          [-0.539993363950717, 51.34690911444685],
          [-0.540023306943216, 51.34691578270198],
          [-0.540398825421411, 51.346892588785316],
          [-0.540447285597333, 51.346903984100095],
          [-0.541104375986227, 51.347238604893015],
          [-0.541164205605863, 51.34725373860224],
          [-0.541930427514415, 51.34718145285138],
          [-0.541950494386927, 51.34718260205335],
          [-0.542177541137204, 51.34744891127476],
          [-0.542201714662593, 51.34745640634835],
          [-0.542642285242573, 51.347419627135785],
          [-0.543306965492476, 51.347334377874965],
          [-0.543307675340102, 51.34717611816215],
          [-0.543321334808963, 51.34715290755979],
          [-0.543613743896811, 51.34712417281662],
          [-0.543705067168385, 51.34714239478097],
          [-0.543942127124962, 51.347228974220045],
          [-0.544556770243644, 51.347499199493704],
          [-0.544861709504568, 51.347845605355694],
          [-0.54490276685501, 51.34786410073203],
          [-0.545780591411677, 51.34762321832042],
          [-0.546111729322653, 51.34759585763435],
          [-0.548101070671322, 51.34794247888142],
          [-0.548549488962201, 51.34802087861424],
          [-0.548491823549853, 51.34916400796642],
          [-0.549099853070298, 51.35000874461245],
          [-0.549763615737476, 51.351135632028175],
          [-0.550357621400432, 51.35174368466477],
          [-0.550602289554496, 51.35204526338059],
          [-0.551195374122049, 51.35318385496877],
          [-0.551238589526141, 51.35327071726505],
          [-0.55123529533508, 51.353511674550134],
          [-0.551181600878103, 51.35357485677474],
          [-0.550211808492286, 51.35417883914969],
          [-0.550025299162268, 51.35426375709876],
          [-0.55066739852793, 51.35621587605511],
          [-0.550784985937976, 51.35654016043566],
          [-0.551056646966371, 51.35707947195869],
          [-0.55121057857885, 51.35729899350598],
          [-0.554918430357427, 51.3615136803368],
          [-0.555234077593686, 51.36193572097784],
          [-0.560263003151484, 51.3620228039356],
          [-0.560355178425856, 51.36201494413413],
          [-0.568599177881436, 51.36052249393844],
          [-0.569624769242661, 51.36033718967041],
          [-0.570799985498428, 51.36185057093244],
          [-0.571165514897277, 51.362336124092266],
          [-0.572709515409376, 51.36529635999039],
          [-0.572781912153553, 51.36546270197925],
          [-0.573007251842709, 51.36782504707574],
          [-0.573006196922881, 51.367997687266545],
          [-0.573814328848815, 51.370377908338924],
          [-0.573954256872535, 51.37082203470852],
          [-0.578711246152592, 51.372021862054275],
          [-0.579301336658596, 51.37217379528942],
          [-0.587122592556842, 51.37493552785547],
          [-0.587484096296685, 51.37504779920398],
          [-0.593402395276914, 51.3763168488285],
          [-0.59441618603049, 51.37652595952882],
          [-0.597808527647121, 51.385803572582375],
          [-0.598000285329577, 51.38630134931685],
          [-0.603048215182918, 51.38727713689807],
          [-0.603254594220198, 51.38734344453972],
          [-0.604015043671296, 51.38799996271894],
          [-0.604151699822892, 51.38809061613572],
          [-0.605738422620696, 51.388421554151385],
          [-0.605973892033685, 51.38838209345376],
          [-0.606892098100713, 51.38957281765935],
          [-0.606968728899552, 51.38960520250842],
          [-0.608334621918695, 51.389874127996215],
          [-0.608910258084466, 51.38985039349047],
          [-0.609609157914338, 51.39026514793007],
          [-0.609836540072824, 51.39035057704924],
          [-0.616278862428331, 51.39234314458611],
          [-0.616499706126814, 51.392407800978006],
          [-0.619025789394628, 51.39243400812907],
          [-0.619634981835428, 51.392824255480704],
          [-0.615567390660804, 51.396250900624665],
          [-0.615419870112483, 51.396375948693965],
          [-0.615584283635082, 51.39673938428901],
          [-0.616476471482142, 51.396994518604245],
          [-0.616586578678942, 51.397013803908415],
          [-0.615747211631081, 51.397581194363326],
          [-0.615608634561593, 51.39764789820138],
          [-0.615017482699941, 51.39703932176426],
          [-0.614529575278443, 51.39729702663058],
          [-0.614741892717219, 51.39778782203382],
          [-0.615027803172551, 51.39812661748451],
          [-0.615202904660383, 51.39808822240914],
          [-0.61556875261925, 51.39849360561842],
          [-0.615792526527004, 51.39870037647453],
          [-0.616474873351016, 51.398287597461064],
          [-0.616928716243634, 51.39858790614582],
          [-0.617212499207587, 51.398759413490424],
          [-0.617845069365065, 51.39866256897947],
          [-0.618100104247802, 51.39864309748995],
          [-0.618141624603329, 51.398791960800224],
          [-0.618368906099359, 51.39902574277022],
          [-0.617960059075926, 51.39914051935761],
          [-0.617774197216102, 51.39929749033122],
          [-0.61765639331345, 51.39948583819383],
          [-0.617638286462795, 51.399609718636796],
          [-0.614384763920884, 51.40309265834188],
          [-0.614312791246417, 51.403190721954125],
          [-0.611350453706631, 51.40862473613424],
          [-0.611296148966783, 51.408708619495854],
          [-0.607324699652207, 51.413349144190214],
          [-0.606683187345767, 51.41411125373816],
          [-0.605262020846178, 51.417149017675456],
          [-0.605154935793896, 51.417359961120184],
          [-0.604942069683842, 51.42175917275858],
          [-0.604901158307793, 51.42258418129631],
          [-0.605090115480986, 51.43032342509148],
          [-0.605124779677634, 51.43131209309546],
          [-0.59485827468993, 51.438801330280604],
          [-0.594141842246777, 51.43931428311735],
          [-0.593871844938231, 51.440564569009176],
          [-0.594279881201351, 51.44072503625306],
          [-0.594471059706396, 51.440872107908476],
          [-0.594219689593241, 51.44146797768376],
          [-0.594001848476209, 51.441627223259324],
          [-0.5930216680715, 51.441824069025266],
          [-0.592729452366557, 51.44178099059223],
          [-0.591194813939952, 51.4411501565388],
          [-0.591052609749905, 51.44114215057018],
          [-0.590313738966273, 51.441259148323226],
          [-0.590096769206881, 51.441342861753384],
          [-0.588480334986856, 51.44234221325704],
          [-0.588365871317891, 51.44236781009663],
          [-0.585515247367032, 51.44237117087784],
          [-0.585378710914091, 51.4423659242136],
          [-0.585167440615337, 51.44287053842935],
          [-0.584816412979605, 51.44286809427354],
          [-0.584571554393185, 51.443341727962206],
          [-0.584562113741851, 51.44341445169912],
          [-0.58425833831423, 51.443559152618796],
          [-0.584502834798746, 51.443656527966255],
          [-0.582296997479403, 51.44425750684577],
          [-0.58196676813437, 51.44437310637322],
          [-0.579675791543895, 51.44474729859029],
          [-0.579645026390559, 51.44476491013193],
          [-0.576338812117864, 51.447245321270785],
          [-0.576275446067542, 51.44729310973321],
          [-0.57458944453007, 51.448892127661985],
          [-0.574464602047149, 51.44901919916094],
          [-0.57398808440894, 51.44934791472162],
          [-0.573524322589731, 51.44972893964694],
          [-0.573098341190982, 51.44982086858787],
          [-0.572949668416856, 51.449881104711636],
          [-0.571991110472884, 51.45066794628115],
          [-0.571675405977209, 51.45100760729458],
          [-0.568040161255929, 51.45017188987791],
          [-0.567819953219707, 51.450080173164935],
          [-0.566358428683015, 51.449000293020084],
          [-0.565882416304492, 51.448575420294304],
          [-0.565110687076662, 51.44817300170357],
          [-0.564945102271517, 51.448037885657236],
          [-0.564268422114121, 51.44689924764599],
          [-0.564151189682728, 51.44673684650883],
          [-0.563462371280546, 51.44598652695031],
          [-0.563141665244066, 51.44575058916979],
          [-0.562442695416049, 51.44532476510311],
          [-0.562019612763422, 51.44514152223548],
          [-0.55967156899202, 51.444531763736926],
          [-0.559291743815766, 51.44434634498988],
          [-0.557274353687128, 51.44265251963266],
          [-0.556958149822804, 51.44227543852611],
          [-0.556074272861292, 51.44169352890252],
          [-0.555746714330759, 51.441540216855174],
          [-0.55516411529507, 51.44139814604142],
          [-0.555032296794409, 51.44138033367289],
          [-0.55429550940796, 51.441427894312135],
          [-0.554052466201772, 51.44151481826417],
          [-0.553825235030224, 51.44164779815846],
          [-0.553633025030572, 51.4418108849737],
          [-0.552678714246316, 51.44304994403752],
          [-0.552486163609625, 51.44317795513332],
          [-0.55181837843979, 51.443499723652614],
          [-0.551600340911333, 51.443568967341676],
          [-0.550810065961652, 51.44353222414693],
          [-0.550445006084799, 51.44347285754282],
          [-0.549671192131959, 51.44318901873027],
          [-0.549571257433422, 51.4431185407098],
          [-0.548508227530634, 51.44201730057506],
          [-0.548184754437017, 51.44187211490351],
          [-0.546119089352449, 51.4413537347923],
          [-0.545761416707613, 51.441289049910935],
          [-0.541333795758079, 51.43975659510301],
          [-0.540662922648146, 51.43954232019613],
          [-0.53873536375046, 51.439120846670505],
          [-0.538363333587837, 51.439010997852286],
          [-0.536093211608308, 51.438054655777265],
          [-0.535278190797285, 51.437670391046304],
          [-0.532570962134665, 51.43675438274673],
          [-0.532089407577513, 51.43660627453748],
          [-0.528115709972388, 51.43579569886675],
          [-0.527582399948028, 51.43569188448197],
          [-0.522743695636027, 51.435298300424954],
          [-0.522220661897857, 51.43523325853755],
          [-0.519762196741716, 51.434600651839766],
          [-0.518995759270464, 51.434366161843336],
          [-0.513724908020966, 51.43208998958327],
          [-0.513425686867447, 51.43195670294988],
          [-0.511202896314266, 51.43067763630405],
          [-0.511002526470515, 51.430513226763914],
          [-0.510699128771834, 51.430155069725075],
          [-0.510388984627751, 51.42978333750227],
          [-0.510037277490697, 51.42900911493085],
          [-0.50990833895235, 51.42850659766627],
          [-0.509644957881532, 51.42638913031301],
          [-0.509633203224606, 51.426219923300216],
          [-0.509704395414442, 51.42509317948736],
          [-0.509719730517482, 51.42497557389071],
          [-0.510085219679957, 51.42351265941205],
          [-0.510183962671298, 51.42330708929939],
          [-0.512528616970103, 51.41967156546376],
          [-0.512633988136037, 51.419571288611465],
          [-0.512875385772012, 51.41900243424687],
          [-0.512931656619586, 51.41881970289389],
          [-0.512923123423164, 51.4179752057973],
          [-0.512851119842063, 51.41775667527903],
          [-0.512595962357258, 51.41737665405284],
          [-0.512428447055794, 51.41722075709395],
          [-0.511969722883438, 51.41704227830319],
          [-0.51154151828191, 51.416898356622795],
          [-0.510892774510203, 51.41690270366425],
          [-0.510390514483282, 51.41691340553654],
          [-0.508085332877567, 51.41734988645169],
          [-0.507685576179015, 51.4173924559772],
          [-0.506821835972142, 51.417374258890696],
          [-0.506370880418019, 51.417310960144135],
          [-0.505154941318595, 51.416979820972585],
          [-0.504695426633451, 51.41682648248583],
          [-0.50304791973451, 51.41610403900023],
          [-0.502681129505661, 51.41588623248421],
          [-0.502129181000562, 51.41548171361229],
          [-0.501882476340529, 51.41524205925303],
          [-0.501736512395706, 51.415044158356444],
          [-0.501655232848766, 51.41489114723391],
          [-0.501642352126845, 51.41453758049746],
          [-0.501657031011135, 51.41439658721941],
          [-0.501796151171275, 51.4138804026637],
          [-0.502137449335217, 51.413338026640375],
          [-0.503560241209637, 51.41173577019171],
          [-0.503736697679871, 51.41139631133309],
          [-0.503787097648113, 51.41126206849907],
          [-0.503768445106133, 51.41112874245829],
          [-0.503379487392987, 51.41084231257962],
          [-0.503244172210994, 51.410802816119364],
          [-0.50144628957775, 51.41064045553157],
          [-0.501168003242259, 51.41061981019854],
          [-0.500644565715532, 51.410708432503775],
          [-0.500460340915574, 51.41080139448787],
          [-0.500102324233158, 51.41132736478444],
          [-0.500117468605772, 51.41152359349727],
          [-0.50082380553004, 51.413096415866896],
          [-0.500800672398762, 51.413275968279734],
          [-0.500740022928308, 51.41341547397143],
          [-0.5004273281582, 51.41378645617039],
          [-0.500001525789945, 51.414010312320606],
          [-0.499772053354075, 51.41407931363708],
          [-0.498537217084558, 51.41410935707149],
          [-0.498115519815018, 51.41407607575902],
          [-0.496703211843259, 51.413729740021225],
          [-0.496318703271754, 51.41361509832401],
          [-0.494473732596544, 51.412870213027404],
          [-0.494383126908735, 51.4128267843303],
          [-0.493461235270851, 51.4121746731197],
          [-0.493306859065331, 51.41201532050075],
          [-0.492517495669687, 51.41030829543089],
          [-0.492488827995971, 51.40991225962682],
          [-0.492860295958059, 51.408280415359904],
          [-0.493018397875953, 51.40771412652553],
          [-0.493030728447751, 51.405765621867964],
          [-0.492948617288599, 51.4053769911337],
          [-0.49184563815703, 51.404203671033116],
          [-0.491669174684552, 51.40406111706258],
          [-0.491208644644003, 51.4033762569474],
          [-0.49116964551531, 51.40325075959713],
          [-0.491144979624252, 51.40247169543234],
          [-0.491185790372245, 51.402323845528635],
          [-0.491861018914773, 51.400766053923164],
          [-0.491915959370243, 51.40062557959407],
          [-0.49186041920734, 51.39977957347553],
          [-0.491834814889986, 51.399683923788366],
          [-0.49164176288965, 51.3992596920051],
          [-0.491611687697339, 51.39921254398602],
          [-0.491146904447087, 51.398789308639884],
          [-0.491082461216982, 51.39873812085394],
          [-0.487990760109107, 51.39684850937028],
          [-0.48786302665453, 51.396755137564895],
          [-0.486954222439926, 51.39563193459545],
          [-0.48689303536888, 51.39552593243905],
          [-0.486613369007748, 51.39472288938321],
          [-0.486559682390366, 51.3945639283444],
          [-0.486391723012547, 51.39338194607461],
          [-0.48638419967359, 51.393130958873506],
          [-0.486822264796221, 51.39218341580753],
          [-0.486875755875881, 51.39208698797606],
          [-0.486801277661207, 51.39133875112054],
          [-0.486772121743851, 51.390915728044206],
          [-0.486342537890798, 51.38982208822281],
          [-0.486261756401781, 51.38961331812328],
          [-0.48640540655104, 51.38870153815429],
          [-0.486393829703953, 51.38861685924579],
          [-0.48580187730534, 51.38774053551071],
          [-0.485445137904617, 51.387358239517184],
          [-0.484415836669845, 51.386713655924474],
          [-0.483754579985123, 51.3865441350333],
          [-0.48207156165807, 51.38667611448186],
          [-0.481988664348093, 51.38670561491284],
          [-0.480637099105277, 51.38759094045681],
          [-0.480297657209395, 51.387902173868184],
          [-0.479012836884165, 51.38980629235344],
          [-0.478887592986226, 51.38994225102081],
          [-0.478222564509986, 51.390275328274136],
          [-0.47798168612914, 51.39034413887109],
          [-0.47738324453928, 51.390359743150505],
          [-0.477112992792094, 51.39031756293981],
          [-0.476475835070804, 51.39011414260899],
          [-0.475935087406293, 51.38986431308092],
          [-0.473071519576428, 51.38815173350981],
          [-0.472497950973446, 51.38780973790509],
          [-0.470247869352619, 51.386024156730855],
          [-0.470136185519016, 51.38588241638121],
          [-0.46983235732252, 51.3849522270579],
          [-0.469907373771447, 51.3846852317945],
          [-0.470976656050644, 51.38295915830839],
          [-0.471020446170667, 51.382680066757],
          [-0.47064920242593, 51.38209071729635],
          [-0.470615446870186, 51.38206869500811],
          [-0.470113388584706, 51.38191196825187],
          [-0.469954543833666, 51.38189190943737],
          [-0.467486964491894, 51.38181020403289],
          [-0.46733081322053, 51.381795572277134],
          [-0.464775863121943, 51.38183406362959],
          [-0.464594330909836, 51.38184787130491],
          [-0.462900635237141, 51.382215934915706],
          [-0.462663974039274, 51.38224520271424],
          [-0.46181355704839, 51.38214951350664],
          [-0.461647662727136, 51.38208259039391],
          [-0.461282045419013, 51.381629069265365],
          [-0.461269992232458, 51.38147424181716],
          [-0.461681990637641, 51.38062987041031],
          [-0.461811616211023, 51.3804067623406],
          [-0.462141549061142, 51.380081072348986],
          [-0.462217927468194, 51.38003171739528],
          [-0.462845466566607, 51.37978726559963],
          [-0.46289990683082, 51.379749312508956],
          [-0.463479088759398, 51.37914632576969],
          [-0.463501093556687, 51.37908996226301],
          [-0.463454443343562, 51.37876652359132],
          [-0.463382943771345, 51.378670266542194],
          [-0.462897264632576, 51.378455272394866],
          [-0.462795917462928, 51.378435058748344],
          [-0.461567646263638, 51.37855382350036],
          [-0.461464612085502, 51.37858394397151],
          [-0.460871218142996, 51.37922450236497],
          [-0.460732673848799, 51.37932789339566],
          [-0.457990940863782, 51.38056696485308],
          [-0.457933874301179, 51.3804690958866],
          [-0.457894202053727, 51.380152940468705],
          [-0.457914187037753, 51.38007137264281],
          [-0.458140165572609, 51.37971824748186],
          [-0.458245106712451, 51.37963150285864],
          [-0.458866759196822, 51.37930606315017],
          [-0.459016484233225, 51.379254977260985],
          [-0.460108236378712, 51.379137142609814],
          [-0.460140650331092, 51.379113289134764],
          [-0.461534897903593, 51.37704446909916],
          [-0.461641332949925, 51.37691277913607],
          [-0.463951591343581, 51.376277652894196],
          [-0.464035857151576, 51.37624998196062],
          [-0.46497699997603, 51.37625062619926],
          [-0.465008988550283, 51.376239355187536],
          [-0.465563579889115, 51.375725061007834],
          [-0.465687289455371, 51.375634958729215],
          [-0.467605523964136, 51.374644823592746],
          [-0.467623598771284, 51.37461988132781],
          [-0.467534282817437, 51.37372307159779],
          [-0.467488243427666, 51.373638840193436],
          [-0.466413773872563, 51.372856830434266],
          [-0.466384875841663, 51.37281868412017],
          [-0.466170875476838, 51.37221429172981],
          [-0.466140198066394, 51.3720574225014],
          [-0.465574590759142, 51.371484394421834],
          [-0.465508962351885, 51.371384618516785],
          [-0.465553536323726, 51.37099673099296],
          [-0.465571496618584, 51.37093222100549],
          [-0.466015896363115, 51.37057474813985],
          [-0.466155688225108, 51.370475863697195],
          [-0.466734310254596, 51.37074511664134],
          [-0.466845219567314, 51.370736676520536],
          [-0.46822801623812, 51.370156770959255],
          [-0.468248511066924, 51.37014534877394],
          [-0.46871095602546, 51.36928902301271],
          [-0.468856763081481, 51.36900946659177],
          [-0.469423540137646, 51.368599624541915],
          [-0.469476914907985, 51.368549964346364],
          [-0.46981479860389, 51.36789523500074],
          [-0.470021637312712, 51.367292747942074],
          [-0.468936913178432, 51.366649110707314],
          [-0.468617788346759, 51.366396750007105],
          [-0.467833960186123, 51.3661221254987],
          [-0.467650646366349, 51.36601901278175],
          [-0.467516591125793, 51.36573130058391],
          [-0.467556891223871, 51.365685966503],
          [-0.467715927546493, 51.36561251062977],
          [-0.467849469260869, 51.365614257321965],
          [-0.469133084964043, 51.365849550586304],
          [-0.469292505418248, 51.365807570328556],
          [-0.469735652503877, 51.3654851349532],
          [-0.470008542836759, 51.36531424528824],
          [-0.470717558632932, 51.365117573707906],
          [-0.470842154583631, 51.36504276401174],
          [-0.471358333779337, 51.36442452466468],
          [-0.471494802561623, 51.364381342546125],
          [-0.471618916797914, 51.36440724085276],
          [-0.471681108686261, 51.36443772695681],
          [-0.472031322823026, 51.36500791773193],
          [-0.472082208040531, 51.36503286076963],
          [-0.47364460436258, 51.36526544306708],
          [-0.473729771302295, 51.36525306368604],
          [-0.473972104644346, 51.365136620179314],
          [-0.473994509274464, 51.36511083384688],
          [-0.473983701154411, 51.3649605192732],
          [-0.473953096712999, 51.36493044566829],
          [-0.473131667402868, 51.36483611619821],
          [-0.473044973977963, 51.364808009298194],
          [-0.472352733163502, 51.36393931054462],
          [-0.472372325222828, 51.363868525683934],
          [-0.472723655053944, 51.36358444747583],
          [-0.472819228498106, 51.36356141334928],
          [-0.473005622505473, 51.363615099018226],
          [-0.473058002277457, 51.3636382625898],
          [-0.473256975925695, 51.36404821247789],
          [-0.473301039866913, 51.364062275181254],
          [-0.47412154545798, 51.36396774962364]
        ]
      ]
    ]
  }
}
