{
  "type": "Feature",
  "properties": {
    "name": "Slough",
    "level": 2
  },
  "geometry": {
    "type": "Polygon",
    "coordinates": [
      [
        [-0.490044309885314, 51.49474627918132],
        [-0.490446664416825, 51.49416606802996],
        [-0.490485082347307, 51.494136888316014],
        [-0.490441765648102, 51.49387825549951],
        [-0.490455585919462, 51.49385235607573],
        [-0.490870251984102, 51.493684143366266],
        [-0.490952994488812, 51.49362136356065],
        [-0.491446471993675, 51.49307289473542],
        [-0.491464106779448, 51.49306233094764],
        [-0.492213874830656, 51.492997336975115],
        [-0.49223997086779, 51.492992277147565],
        [-0.492702803797296, 51.492760832776824],
        [-0.49274476806125, 51.49275507754786],
        [-0.494814413597445, 51.49267824636685],
        [-0.494849710917296, 51.49265621892195],
        [-0.494888226062708, 51.49244899407259],
        [-0.494909213172466, 51.492424085318795],
        [-0.495331464415227, 51.492112079555596],
        [-0.495368240554344, 51.49204511007991],
        [-0.494992971141675, 51.49176153798536],
        [-0.494936482397695, 51.49168348044618],
        [-0.494935115731727, 51.49137503145327],
        [-0.494961546547767, 51.491316022294676],
        [-0.495401932315685, 51.49119668143513],
        [-0.495472287346562, 51.49115981684687],
        [-0.495943326916784, 51.490590359427145],
        [-0.496005426135421, 51.49054169882685],
        [-0.496721608481102, 51.49053289620789],
        [-0.496780768039907, 51.49048599595619],
        [-0.496990943734103, 51.49022701738942],
        [-0.496988389230885, 51.49021709326555],
        [-0.496513505960596, 51.49011568962509],
        [-0.496481040840819, 51.49009549066893],
        [-0.496599533447936, 51.489865011592705],
        [-0.496669974141661, 51.48982544973855],
        [-0.496852284111633, 51.48975674826056],
        [-0.497057098270519, 51.489704520792394],
        [-0.497392627006906, 51.48988236885737],
        [-0.497401295360244, 51.48988158069595],
        [-0.498403563540239, 51.489407041428194],
        [-0.498648938231804, 51.489260013477555],
        [-0.498470794563274, 51.48902663413256],
        [-0.498401574334072, 51.48898528314658],
        [-0.498054618542948, 51.48897994129086],
        [-0.498018720254923, 51.48893272227599],
        [-0.49830013782993, 51.48847772513382],
        [-0.49832685072165, 51.48845378829995],
        [-0.498499039669344, 51.48860526290346],
        [-0.49852474870406, 51.48861188655689],
        [-0.498805410829709, 51.48844282960254],
        [-0.498847665573107, 51.488428083753654],
        [-0.499170588400215, 51.4885949748236],
        [-0.499188367231825, 51.488579915640535],
        [-0.499227946285317, 51.48816408457544],
        [-0.499237925194078, 51.488035624212],
        [-0.499049928265265, 51.487883049159024],
        [-0.499043585460261, 51.48785689068603],
        [-0.499518446090201, 51.48734411855607],
        [-0.499613715500842, 51.487250020345535],
        [-0.499563390245854, 51.486984107427325],
        [-0.499555253521114, 51.486968716636255],
        [-0.499691748362231, 51.48684727003542],
        [-0.499695099768736, 51.48683292543085],
        [-0.499079561196014, 51.4867612052069],
        [-0.499015984555335, 51.48672352364907],
        [-0.499095615262024, 51.48627223638918],
        [-0.499091856902336, 51.48625510316004],
        [-0.498713622915285, 51.48610638728648],
        [-0.49871885702067, 51.4860785785444],
        [-0.498953987310458, 51.485935914916276],
        [-0.498980491761148, 51.485918269787035],
        [-0.498896846005863, 51.485702286225674],
        [-0.49891785728461, 51.48567647784388],
        [-0.499020693562752, 51.48565891044071],
        [-0.499102341556975, 51.485672544405766],
        [-0.501726199872423, 51.483133432710964],
        [-0.50197433122852, 51.482856945733644],
        [-0.503221311869802, 51.4810159826335],
        [-0.503514086758746, 51.48051885457951],
        [-0.50414542781069, 51.479136718163645],
        [-0.504207506367754, 51.47895586793052],
        [-0.504203208143331, 51.478250826134996],
        [-0.504244813342544, 51.477947421058445],
        [-0.504468286593334, 51.477542925287],
        [-0.504535265873028, 51.47743227636825],
        [-0.505254164714489, 51.47411793040822],
        [-0.505330125415253, 51.473908481434975],
        [-0.505849320125714, 51.472693059531444],
        [-0.505961462604567, 51.472477776591184],
        [-0.507086456892052, 51.47074312341627],
        [-0.507204700995185, 51.470605249778544],
        [-0.508805552588238, 51.46933074237899],
        [-0.508853660240698, 51.469312470527235],
        [-0.509689361079225, 51.46920439742703],
        [-0.509720549769252, 51.46917511957174],
        [-0.511034950780877, 51.469266451588275],
        [-0.511201659415299, 51.46927576198592],
        [-0.511487250428483, 51.46899433514226],
        [-0.511630744073306, 51.46892062212237],
        [-0.513282966631023, 51.46854052953444],
        [-0.513602285612695, 51.468416888466],
        [-0.513755961421419, 51.468162558967954],
        [-0.513869736282632, 51.46798415718624],
        [-0.515680330167983, 51.46826786284798],
        [-0.515787769326309, 51.46828450946345],
        [-0.516104007848122, 51.46883253880587],
        [-0.516231074215801, 51.46899870362174],
        [-0.516894867390221, 51.469662630883555],
        [-0.517023716500193, 51.469773965032246],
        [-0.518747354474054, 51.47078938573686],
        [-0.519004912779705, 51.470883459786755],
        [-0.521239998772168, 51.47144670034372],
        [-0.521498073435098, 51.47148052780173],
        [-0.524010317043241, 51.47153285695905],
        [-0.524377642438172, 51.47152758831537],
        [-0.524267401605904, 51.471865205971454],
        [-0.52421277536976, 51.47195174260083],
        [-0.5237265424515, 51.47238444051598],
        [-0.523731748293437, 51.47240159117782],
        [-0.52391366284244, 51.472787846834464],
        [-0.523950579863541, 51.472848559055286],
        [-0.524904002870211, 51.47368963378395],
        [-0.524945993576169, 51.473727029853606],
        [-0.525499394541582, 51.47447134712534],
        [-0.52554137684903, 51.47455370370214],
        [-0.524737661582417, 51.47487360832927],
        [-0.524713124289579, 51.474920058920866],
        [-0.524740024398909, 51.4751128297037],
        [-0.524787135802833, 51.47517007300131],
        [-0.525034810839469, 51.47521455232169],
        [-0.52505913496746, 51.475219354335074],
        [-0.525366708478643, 51.476755487289466],
        [-0.525379372872569, 51.47689862194417],
        [-0.525200671189889, 51.477215596593375],
        [-0.525172442532886, 51.47728717890391],
        [-0.525204676694722, 51.4777165104626],
        [-0.525157493066201, 51.477840008937825],
        [-0.524584845833665, 51.478360645885786],
        [-0.524542771933864, 51.47841496874481],
        [-0.524339855813927, 51.47916955569775],
        [-0.524304825797976, 51.47949642959159],
        [-0.526938555078162, 51.48012751905546],
        [-0.527151992112055, 51.48020753231067],
        [-0.529353897805672, 51.48159567780828],
        [-0.529464246662154, 51.481657308940036],
        [-0.53036719346003, 51.481971662936175],
        [-0.530474896563983, 51.48202606622652],
        [-0.532507006176818, 51.483325698925384],
        [-0.532688851293183, 51.48344846894988],
        [-0.533643426542918, 51.48440008722618],
        [-0.533874914261493, 51.48463677705377],
        [-0.533491093961039, 51.48479383692731],
        [-0.534364116644426, 51.48667331747167],
        [-0.534396247114817, 51.48683917439394],
        [-0.535394814617288, 51.48691549270654],
        [-0.535472070623943, 51.48693174407294],
        [-0.536011397953021, 51.48727118662507],
        [-0.536121682555563, 51.487290547473435],
        [-0.536912646440771, 51.48719341077202],
        [-0.536978212933872, 51.487214910599235],
        [-0.538247139422085, 51.48811555884422],
        [-0.538134361131341, 51.488354243237396],
        [-0.540064901006761, 51.488925910967296],
        [-0.541312443128544, 51.48928133594269],
        [-0.541902088983045, 51.48876802347204],
        [-0.545427953752171, 51.48990434767018],
        [-0.545212731539226, 51.49019482166792],
        [-0.547002140580701, 51.49045349610065],
        [-0.547169981092187, 51.48993133434596],
        [-0.54946956515418, 51.49031768318743],
        [-0.55135824062527, 51.490581115457026],
        [-0.553287626087524, 51.49106083019143],
        [-0.55417445261488, 51.49130376218446],
        [-0.552895801681045, 51.49401889898967],
        [-0.552518987049412, 51.49486400415914],
        [-0.555889824987588, 51.49577778935505],
        [-0.556487979211469, 51.49590474734953],
        [-0.560165427260305, 51.49710543301576],
        [-0.560537094894986, 51.49724307792071],
        [-0.562033089228765, 51.49543782899956],
        [-0.562386362291151, 51.49506089423346],
        [-0.563187977200982, 51.49357353110652],
        [-0.563237558630443, 51.493508496091394],
        [-0.564583234433039, 51.491941462383885],
        [-0.564778607879448, 51.49168308213176],
        [-0.56533623870914, 51.49140215686753],
        [-0.565486185021095, 51.491397696417195],
        [-0.567287955732096, 51.49204826740711],
        [-0.567337873757114, 51.49206416372989],
        [-0.56838431415965, 51.49227296888057],
        [-0.568525149184778, 51.492329539624635],
        [-0.570131832900694, 51.49332478044062],
        [-0.570225689000018, 51.493363691400305],
        [-0.571673367268934, 51.49345686320475],
        [-0.571933951700281, 51.4935076943262],
        [-0.573534562066454, 51.49433196403902],
        [-0.573570084890553, 51.49434768261179],
        [-0.575222165562437, 51.494909086502446],
        [-0.575325801151626, 51.49495800343099],
        [-0.576094011665833, 51.495546422561354],
        [-0.576096943169905, 51.49563727827725],
        [-0.577904279228343, 51.49607284087069],
        [-0.57952799277556, 51.49648457083404],
        [-0.588732400257135, 51.49922406161747],
        [-0.589198143900742, 51.49935105729612],
        [-0.589794256114127, 51.49940858113891],
        [-0.589847239198195, 51.49937235060612],
        [-0.590770619404537, 51.49783411332493],
        [-0.591062031863764, 51.49730708157447],
        [-0.591723750998726, 51.49794627183942],
        [-0.591855244252854, 51.49802698074423],
        [-0.593528993437135, 51.498878828814824],
        [-0.594425949638869, 51.499319401420756],
        [-0.59689780659286, 51.50026978313773],
        [-0.59749842735167, 51.50055661932769],
        [-0.60004311117328, 51.502096784773464],
        [-0.600570561661664, 51.50232788009057],
        [-0.601335674493931, 51.501525921654206],
        [-0.602495586171053, 51.50006235071027],
        [-0.603425576857369, 51.49857714767263],
        [-0.604341573169152, 51.49759532629073],
        [-0.606714773162954, 51.49824129443892],
        [-0.607743803338625, 51.497282370302614],
        [-0.608951052028068, 51.498039437728586],
        [-0.609049162338468, 51.498081964666106],
        [-0.610144492367058, 51.4983044632593],
        [-0.610665833110102, 51.49840505603751],
        [-0.611946383163152, 51.4992178118728],
        [-0.612083867989323, 51.499292274364365],
        [-0.614496341053669, 51.500264960148],
        [-0.614849447270447, 51.50045076981294],
        [-0.616044583681544, 51.50128135471458],
        [-0.616301509802121, 51.50140847600218],
        [-0.617372493442251, 51.501820351460395],
        [-0.617975822925733, 51.50187961518181],
        [-0.620326335187871, 51.50305197201451],
        [-0.620444033971577, 51.503114502174995],
        [-0.622922223355681, 51.50383151206373],
        [-0.624110413144494, 51.50413499831417],
        [-0.626421358141747, 51.504332030633904],
        [-0.626576652594056, 51.504390498777845],
        [-0.62771897738824, 51.50439937173162],
        [-0.628287865117334, 51.504311609082734],
        [-0.630725968879993, 51.503680078689456],
        [-0.631186900022777, 51.50349212945151],
        [-0.633375573785986, 51.50214096835807],
        [-0.633422872338359, 51.50210105524529],
        [-0.634438748276286, 51.50060222414776],
        [-0.634477268633507, 51.50056670443634],
        [-0.635452811667697, 51.50041620020525],
        [-0.636290803625001, 51.500288367324046],
        [-0.636784591228, 51.50025274356008],
        [-0.637036494879269, 51.500260166803244],
        [-0.638317258686218, 51.50059965378934],
        [-0.638537902034074, 51.500640880629994],
        [-0.640364181007447, 51.500805036386915],
        [-0.640830679892859, 51.50086349557653],
        [-0.642052547235621, 51.50061687807846],
        [-0.642229508564282, 51.500625220962085],
        [-0.64289103439093, 51.50221817052911],
        [-0.643023101283657, 51.50267109801321],
        [-0.644595021794147, 51.502330489798915],
        [-0.644950023715141, 51.502214098079364],
        [-0.646947387743074, 51.501079880609],
        [-0.647059883741302, 51.501027226024945],
        [-0.648408348848335, 51.500688485469944],
        [-0.648580614261901, 51.50066079656284],
        [-0.65212518811477, 51.50064762731633],
        [-0.652174209201076, 51.500646392184066],
        [-0.65244808436781, 51.500446319093975],
        [-0.653547325201801, 51.50044725225107],
        [-0.653595025118807, 51.50063753136217],
        [-0.654823249245106, 51.500857539770024],
        [-0.654877475791617, 51.50087524643719],
        [-0.655024853611603, 51.500958763697625],
        [-0.655075220919261, 51.501009696485504],
        [-0.654942245612347, 51.50126894028288],
        [-0.654828687570205, 51.50165159721651],
        [-0.654581003065157, 51.50159840135277],
        [-0.654423208862341, 51.501575010575195],
        [-0.654032219308081, 51.503892263262344],
        [-0.653942937076416, 51.50423293531101],
        [-0.658084547387862, 51.50475066823841],
        [-0.659337849476228, 51.50490617307274],
        [-0.659139809482192, 51.50600812804059],
        [-0.659007307472367, 51.50713511013233],
        [-0.658283332767915, 51.5071565055452],
        [-0.657708052567063, 51.5071193515643],
        [-0.655960429662563, 51.50681789173772],
        [-0.655619549505581, 51.50679690085597],
        [-0.655491329579505, 51.508020142746],
        [-0.655428245764648, 51.508254111075814],
        [-0.653961468335862, 51.50824987892034],
        [-0.653943361506603, 51.50827754637964],
        [-0.653766564299874, 51.50909379022899],
        [-0.653434887021924, 51.509151129137564],
        [-0.653604886321454, 51.50925019404137],
        [-0.653238301133571, 51.51019823951418],
        [-0.653035560308482, 51.510769601737564],
        [-0.653449469810482, 51.510856180706334],
        [-0.654017965330598, 51.51102725837994],
        [-0.653959251257569, 51.512188351420605],
        [-0.65389056363615, 51.51261198574862],
        [-0.653258795670658, 51.515074837197744],
        [-0.653284269709101, 51.51518842879881],
        [-0.653857776329365, 51.51612028732906],
        [-0.654032926907426, 51.51648557355938],
        [-0.654342427821072, 51.51752500174016],
        [-0.654924616158372, 51.517576638022824],
        [-0.65494129019326, 51.51862529547273],
        [-0.65502388421765, 51.518806082198736],
        [-0.656861289911415, 51.5188145433585],
        [-0.657893531280251, 51.51939375089085],
        [-0.658928693407188, 51.51933455151379],
        [-0.659048869574501, 51.51975764933706],
        [-0.659211761270535, 51.52024777586651],
        [-0.660156559785149, 51.520321513416555],
        [-0.660165204958127, 51.52032161214639],
        [-0.660156540134653, 51.5204204250216],
        [-0.660145379340135, 51.52055517732702],
        [-0.659759822932761, 51.52057954786058],
        [-0.659630150217497, 51.52067607908871],
        [-0.659729842820691, 51.52238659400368],
        [-0.659724121550338, 51.52243418614937],
        [-0.659876571668119, 51.52269129987778],
        [-0.659747743234087, 51.52285707912637],
        [-0.660092462026254, 51.524716061901664],
        [-0.660160198590991, 51.525453278427065],
        [-0.659973971548248, 51.52772162544623],
        [-0.659901160358665, 51.52833584482761],
        [-0.659510956381489, 51.52822168531363],
        [-0.659228883663384, 51.52825443018123],
        [-0.658638369038133, 51.52857948447156],
        [-0.658232399989958, 51.52875648042881],
        [-0.654334449138199, 51.52972883166997],
        [-0.653990420379985, 51.52975995419559],
        [-0.653974517507525, 51.52990813935823],
        [-0.654124153122618, 51.53001596120555],
        [-0.653713334233509, 51.530111958194226],
        [-0.653456737316225, 51.530306837111326],
        [-0.6531635160654, 51.53032595154235],
        [-0.653142667302935, 51.530006497069955],
        [-0.653081510696808, 51.52978279401095],
        [-0.652825532563411, 51.52985898457283],
        [-0.652235509325868, 51.53016512930918],
        [-0.645514616329169, 51.533999245684136],
        [-0.645354367933818, 51.53410350101986],
        [-0.644980328168431, 51.534561369666136],
        [-0.644942827777995, 51.534658949135284],
        [-0.64480037645667, 51.536008797835954],
        [-0.644847273497865, 51.53617748939429],
        [-0.644565434260101, 51.53634598071222],
        [-0.644251589872127, 51.5364754360731],
        [-0.641874448443747, 51.53708907347141],
        [-0.641510735270167, 51.53714960530226],
        [-0.639587396466744, 51.53714530567831],
        [-0.639322176419911, 51.53719078707289],
        [-0.637127741064807, 51.537863096666264],
        [-0.636857760647257, 51.53792290438456],
        [-0.635440236244529, 51.53783089540232],
        [-0.635233228861714, 51.53785816138511],
        [-0.631477761445166, 51.53874868782648],
        [-0.630712183663617, 51.5388899224329],
        [-0.625903442195476, 51.53826361579334],
        [-0.625523587362489, 51.53823668685726],
        [-0.624120137757223, 51.537869551014204],
        [-0.623893210627038, 51.53783991389965],
        [-0.622351523529702, 51.53789735581645],
        [-0.622174286301279, 51.53789347634423],
        [-0.620810207275344, 51.537751562823544],
        [-0.620586710490539, 51.5377516331946],
        [-0.619919512454046, 51.53788136517251],
        [-0.619733627588178, 51.53792503786153],
        [-0.619583393640026, 51.537362170130955],
        [-0.619184431576727, 51.53739524218058],
        [-0.619008695008605, 51.53705597418095],
        [-0.618934997114344, 51.53682311329544],
        [-0.619336130082074, 51.5362892135252],
        [-0.619369471277922, 51.536235653868204],
        [-0.619608892894399, 51.53556586950536],
        [-0.619612237151388, 51.53545530729295],
        [-0.61858838947031, 51.535269712129484],
        [-0.618238151375564, 51.53526558813713],
        [-0.617884507227091, 51.53461220066795],
        [-0.617879095965064, 51.53460044732741],
        [-0.616845927977326, 51.534770810230036],
        [-0.616509012073125, 51.53399442523799],
        [-0.615451842190594, 51.534148307222516],
        [-0.614566477375832, 51.53429431725445],
        [-0.61430154272988, 51.53390273414915],
        [-0.61434017733758, 51.53372245114978],
        [-0.613812310723091, 51.53382322085708],
        [-0.613550194446083, 51.53314932032948],
        [-0.613393633973769, 51.532797681216294],
        [-0.612003795761281, 51.532987165005196],
        [-0.611828394988745, 51.533018360359605],
        [-0.610779453374182, 51.531812705904635],
        [-0.610553979067604, 51.53149981167584],
        [-0.608443056782635, 51.5320287025872],
        [-0.608330494679539, 51.532079521192685],
        [-0.60711053963146, 51.53213518250885],
        [-0.606426037192527, 51.53217201449166],
        [-0.605995807839327, 51.530350516833956],
        [-0.605985789147771, 51.53001769321323],
        [-0.603638842505037, 51.52916701519552],
        [-0.602963784480144, 51.52899082833261],
        [-0.597137303699102, 51.52798703505726],
        [-0.596239571381478, 51.52792774050861],
        [-0.59646340278523, 51.526227328146234],
        [-0.596489478937016, 51.5258949349789],
        [-0.595509746682562, 51.52601899030529],
        [-0.595695856410822, 51.52559229820393],
        [-0.594719589517299, 51.52565074656021],
        [-0.595012154262119, 51.52438817226493],
        [-0.595040191169085, 51.52427340998379],
        [-0.590099414863969, 51.524160186735216],
        [-0.589841902913707, 51.52414360377718],
        [-0.589877620051249, 51.52275386376333],
        [-0.589844096282091, 51.52267253245708],
        [-0.588616772186946, 51.52316042908294],
        [-0.588430422555465, 51.52317347359693],
        [-0.581204813783497, 51.52306922963859],
        [-0.581010124537283, 51.52307227026216],
        [-0.581152538098211, 51.52368455267592],
        [-0.58110477343484, 51.52475762531411],
        [-0.580872024752082, 51.525752927184364],
        [-0.580755260043933, 51.52603116731742],
        [-0.579367306132098, 51.52792248084144],
        [-0.57927317694586, 51.52807510495912],
        [-0.578548080458343, 51.530111112473975],
        [-0.578381492968679, 51.53046068284926],
        [-0.576289725851672, 51.533646376016954],
        [-0.576170814870678, 51.533899407700716],
        [-0.572772868643363, 51.533934556051356],
        [-0.572604805985182, 51.53391452750911],
        [-0.569292826721282, 51.533046920532854],
        [-0.569198355089817, 51.53302508681295],
        [-0.567395574571812, 51.532997693275924],
        [-0.56722000144163, 51.532987456534],
        [-0.567308314481742, 51.531873521203664],
        [-0.567332545017852, 51.531560893832975],
        [-0.567689667938629, 51.530517680456974],
        [-0.567645469967654, 51.53045599495385],
        [-0.569456421670789, 51.529805484341665],
        [-0.569617314023608, 51.5297777722116],
        [-0.572651700569869, 51.529695132454876],
        [-0.572856196948675, 51.52970211612598],
        [-0.57475532013265, 51.5294563393447],
        [-0.575050174158881, 51.52943204543955],
        [-0.575113468087154, 51.52929793348178],
        [-0.575034795287178, 51.52913961722738],
        [-0.574586137254798, 51.52859554375715],
        [-0.574256619263805, 51.528345157842836],
        [-0.573430699419718, 51.52806445767812],
        [-0.573147863276795, 51.52793512962474],
        [-0.572526815960826, 51.52751124322156],
        [-0.57245503040009, 51.527409658842664],
        [-0.572079151561171, 51.52596905427058],
        [-0.571988805393959, 51.52567751137179],
        [-0.571863211929726, 51.52453129428684],
        [-0.571836635749598, 51.52441317487025],
        [-0.571291137855743, 51.52355768320293],
        [-0.571081106168707, 51.52335999766712],
        [-0.569194500278952, 51.522293925484554],
        [-0.567556721699491, 51.521431383785625],
        [-0.565765501109777, 51.521280013746804],
        [-0.565383171547998, 51.52129152478364],
        [-0.565476962627901, 51.520921299410304],
        [-0.565037849978574, 51.52067584111212],
        [-0.568226116145196, 51.518286937589195],
        [-0.568987623514314, 51.517718938323725],
        [-0.56822020335877, 51.51663682110071],
        [-0.56669135007426, 51.514560765996116],
        [-0.567773837125719, 51.512625404546085],
        [-0.568090041162375, 51.51205467106143],
        [-0.568704953606553, 51.51137877754782],
        [-0.568805552727066, 51.511249619830934],
        [-0.566112466754919, 51.51050635830211],
        [-0.56485900994728, 51.51031478542331],
        [-0.554673603158206, 51.509179922586114],
        [-0.553967596295807, 51.50913165652872],
        [-0.551335565129266, 51.509109972309815],
        [-0.550406979560383, 51.50912817497412],
        [-0.54357078371074, 51.50944634398568],
        [-0.542488412134127, 51.50949674450541],
        [-0.542605963372007, 51.50897396547586],
        [-0.542366995100283, 51.50896650024372],
        [-0.541699511392808, 51.50951751296119],
        [-0.541635615090897, 51.5095329043909],
        [-0.537837622062763, 51.50960611966143],
        [-0.536186004659811, 51.50965745814639],
        [-0.528855065161888, 51.51007380289887],
        [-0.528412460724373, 51.51012490160231],
        [-0.528105510321156, 51.50972269988184],
        [-0.528095861669996, 51.50970909064276],
        [-0.527740440085039, 51.50973790121196],
        [-0.52653276250693, 51.509204791902356],
        [-0.526483797296931, 51.50915921625484],
        [-0.526149154741305, 51.5078295740156],
        [-0.526200457187971, 51.50744535590308],
        [-0.527178384781963, 51.50580668544593],
        [-0.52749393552366, 51.50562810699993],
        [-0.528710607188409, 51.502121159634825],
        [-0.528926241723666, 51.5015097020593],
        [-0.528105638164315, 51.501579437560984],
        [-0.527967003510373, 51.501589387595764],
        [-0.527783678765439, 51.500705858367326],
        [-0.527724380262677, 51.50017637695956],
        [-0.52784667229006, 51.4988848437167],
        [-0.527990998804669, 51.49838489418801],
        [-0.529043004790472, 51.49649535693358],
        [-0.529047662905781, 51.49635064201718],
        [-0.529552501473839, 51.49597300801946],
        [-0.529933104204701, 51.4956954259262],
        [-0.531939005221402, 51.493613692973476],
        [-0.531838055034341, 51.49339302130791],
        [-0.514956428105038, 51.493311776339134],
        [-0.514163507760912, 51.49333140822738],
        [-0.511285527111679, 51.4935916550491],
        [-0.510625137348027, 51.49365520825609],
        [-0.500887477358402, 51.4953151960356],
        [-0.500732864382615, 51.4953734672539],
        [-0.500558044850609, 51.49481821461309],
        [-0.497001693694231, 51.494981313977696],
        [-0.496096481366624, 51.49499758638464],
        [-0.490044309885314, 51.49474627918132]
      ]
    ]
  }
}
