{
  "type": "Feature",
  "properties": {
    "name": "Slough",
    "level": 2,
    "center": [-0.614, 51.516]
  },
  "geometry": {
    "type": "Polygon",
    "coordinates": [
      [
        [-0.490044309885314, 51.49474627918132],
        [-0.490050485448362, 51.49473376964552],
        [-0.490136319359722, 51.49457751163547],
        [-0.490170270060942, 51.494465546545285],
        [-0.490258701004195, 51.494274252407166],
        [-0.490273753588522, 51.494254663387615],
        [-0.49030065223964, 51.49422533545761],
        [-0.49032719455741, 51.49420679354027],
        [-0.490446664416825, 51.49416606802996],
        [-0.490485082347307, 51.494136888316014],
        [-0.490491970221652, 51.494102806713606],
        [-0.49044903952199, 51.49400693716879],
        [-0.490441676595129, 51.49396817606755],
        [-0.490437876376508, 51.49390877882538],
        [-0.490441765648102, 51.49387825549951],
        [-0.490455585919462, 51.49385235607573],
        [-0.490482424836304, 51.493824825769316],
        [-0.490520575266859, 51.49380373555518],
        [-0.490736904331541, 51.49375256645588],
        [-0.490804090394695, 51.493724656041046],
        [-0.490870251984102, 51.493684143366266],
        [-0.490952994488812, 51.49362136356065],
        [-0.491100056732863, 51.49348657459731],
        [-0.491446471993675, 51.49307289473542],
        [-0.491464106779448, 51.49306233094764],
        [-0.491503518012995, 51.493046651935515],
        [-0.491552800829825, 51.493037394390775],
        [-0.491684246702347, 51.49302649582213],
        [-0.492213874830656, 51.492997336975115],
        [-0.49223997086779, 51.492992277147565],
        [-0.492368075230605, 51.49295166069298],
        [-0.492546351241153, 51.4928748210496],
        [-0.492584588867944, 51.49285103363819],
        [-0.49267071123597, 51.49277300937852],
        [-0.492702803797296, 51.492760832776824],
        [-0.49274476806125, 51.49275507754786],
        [-0.492786524823416, 51.49275561415707],
        [-0.492912701501042, 51.492773421449556],
        [-0.493170429476569, 51.4928207944971],
        [-0.493233606870412, 51.49282700144585],
        [-0.493284032685411, 51.49282675003001],
        [-0.493358059735175, 51.49280971664736],
        [-0.493532013889173, 51.49273281999599],
        [-0.493572627019578, 51.49272434946584],
        [-0.49368226587304, 51.4927194630916],
        [-0.493863425167435, 51.49272988253645],
        [-0.494576377296447, 51.49273274120285],
        [-0.494708147282731, 51.4927119520246],
        [-0.494769155438374, 51.49269654909907],
        [-0.494814413597445, 51.49267824636685],
        [-0.494849710917296, 51.49265621892195],
        [-0.494869317460727, 51.49262949402483],
        [-0.494879051988721, 51.492596347920596],
        [-0.494878757976907, 51.492474050644944],
        [-0.494888226062708, 51.49244899407259],
        [-0.494909213172466, 51.492424085318795],
        [-0.494937310855034, 51.49240196545761],
        [-0.495101773612539, 51.492306960355535],
        [-0.495224301814999, 51.49221681231693],
        [-0.495331464415227, 51.492112079555596],
        [-0.495368240554344, 51.49204511007991],
        [-0.495367984291658, 51.492009138114035],
        [-0.49535033128211, 51.49197653983661],
        [-0.495286839367473, 51.49193615974332],
        [-0.495167281694944, 51.491892362629294],
        [-0.495113484355488, 51.4918637966466],
        [-0.494992971141675, 51.49176153798536],
        [-0.494936482397695, 51.49168348044618],
        [-0.494921887119168, 51.49164552603623],
        [-0.494912273073363, 51.49154379113494],
        [-0.494935115731727, 51.49137503145327],
        [-0.494961546547767, 51.491316022294676],
        [-0.49502376618758, 51.491263766887414],
        [-0.495117425439008, 51.49121910858782],
        [-0.495194358487357, 51.49120121212617],
        [-0.495357001351108, 51.4912050972002],
        [-0.495401932315685, 51.49119668143513],
        [-0.495472287346562, 51.49115981684687],
        [-0.495568687539022, 51.4910756277983],
        [-0.495759484978035, 51.490924308900794],
        [-0.495857856396482, 51.49082395899043],
        [-0.495883901169464, 51.4907766344971],
        [-0.495902529140475, 51.490648285343724],
        [-0.495917933027408, 51.490617909504934],
        [-0.495943326916784, 51.490590359427145],
        [-0.496005426135421, 51.49054169882685],
        [-0.496041924434779, 51.490526880163465],
        [-0.496086854609249, 51.49051846412855],
        [-0.496111361124766, 51.49051787914938],
        [-0.496261921251781, 51.49053869317234],
        [-0.496527933343644, 51.49055289407919],
        [-0.496628750413213, 51.49055328718932],
        [-0.496667773410239, 51.49054929129846],
        [-0.496721608481102, 51.49053289620789],
        [-0.496780768039907, 51.49048599595619],
        [-0.496857213873731, 51.49039525558434],
        [-0.496965128409257, 51.49031121296599],
        [-0.496986024719193, 51.490289000329355],
        [-0.496994672044094, 51.49024504950917],
        [-0.496990943734103, 51.49022701738942],
        [-0.496988389230885, 51.49021709326555],
        [-0.496965094712378, 51.49018082605931],
        [-0.496790265585684, 51.490153407366925],
        [-0.496636117336765, 51.490154129234334],
        [-0.496600299496413, 51.49014827481008],
        [-0.496513505960596, 51.49011568962509],
        [-0.496481040840819, 51.49009549066893],
        [-0.496460123767258, 51.49007454052828],
        [-0.496447845546811, 51.49005370113157],
        [-0.496445705106168, 51.49003119326312],
        [-0.496453702430519, 51.49000701692333],
        [-0.496495790896438, 51.489953603446466],
        [-0.496550926164995, 51.4898976595486],
        [-0.496599533447936, 51.489865011592705],
        [-0.496669974141661, 51.48982544973855],
        [-0.496748905695308, 51.48979049275715],
        [-0.496852284111633, 51.48975674826056],
        [-0.497057098270519, 51.489704520792394],
        [-0.497392627006906, 51.48988236885737],
        [-0.497401295360244, 51.48988158069595],
        [-0.497489663005855, 51.489822465248096],
        [-0.497563012014142, 51.48978204090179],
        [-0.497639092770957, 51.48974614758789],
        [-0.497758603605605, 51.48970361677294],
        [-0.497935528768328, 51.48966721646148],
        [-0.498015898889278, 51.48963227705572],
        [-0.498051782998278, 51.48959227182765],
        [-0.498092436796205, 51.489494777775676],
        [-0.498128084463252, 51.48946196323296],
        [-0.498190615524952, 51.489443880394816],
        [-0.498333597443121, 51.489432222920314],
        [-0.498364098733891, 51.489424520491525],
        [-0.498403563540239, 51.489407041428194],
        [-0.498648938231804, 51.489260013477555],
        [-0.498658462599006, 51.48923315888696],
        [-0.498638253453451, 51.48919063698749],
        [-0.498470794563274, 51.48902663413256],
        [-0.498401574334072, 51.48898528314658],
        [-0.498357177586883, 51.48897752098326],
        [-0.498313836751432, 51.48898146214545],
        [-0.498177139626647, 51.489021075798604],
        [-0.498136796414434, 51.489021458411734],
        [-0.498095426893784, 51.489009238828366],
        [-0.498054618542948, 51.48897994129086],
        [-0.498018720254923, 51.48893272227599],
        [-0.497997367414797, 51.48888119344225],
        [-0.497998962307068, 51.4888326561401],
        [-0.498005518821467, 51.488808461242755],
        [-0.498040110181952, 51.48876394337441],
        [-0.498163006917753, 51.48866210718094],
        [-0.49830013782993, 51.48847772513382],
        [-0.49832685072165, 51.48845378829995],
        [-0.4983473025907, 51.488445057988585],
        [-0.498371896556498, 51.48844177601008],
        [-0.498397575953974, 51.4884492985298],
        [-0.498414292029064, 51.48846659767507],
        [-0.498459818800963, 51.488571489742284],
        [-0.498499039669344, 51.48860526290346],
        [-0.49852474870406, 51.48861188655689],
        [-0.498549224652139, 51.48861219989865],
        [-0.49858263440373, 51.488603635431424],
        [-0.498616280323846, 51.48858788024076],
        [-0.498805410829709, 51.48844282960254],
        [-0.498847665573107, 51.488428083753654],
        [-0.498882249236255, 51.4884276271814],
        [-0.498905019682751, 51.488436011574784],
        [-0.498994035498376, 51.4885324678623],
        [-0.499071392426471, 51.48858920932251],
        [-0.499107091329496, 51.48859865834381],
        [-0.499145876356801, 51.48860185232711],
        [-0.499170588400215, 51.4885949748236],
        [-0.499188367231825, 51.488579915640535],
        [-0.499197773088358, 51.48855665635726],
        [-0.499188156315046, 51.48841086012394],
        [-0.499227946285317, 51.48816408457544],
        [-0.499237925194078, 51.488035624212],
        [-0.499232608866749, 51.488022067925904],
        [-0.499195034259239, 51.487982021553236],
        [-0.499073518442734, 51.48791032757367],
        [-0.499049928265265, 51.487883049159024],
        [-0.499043585460261, 51.48785689068603],
        [-0.499051610522786, 51.487831815306585],
        [-0.49909768848773, 51.48778834334648],
        [-0.49929277342928, 51.48768113525029],
        [-0.49935603926875, 51.48764058077033],
        [-0.499368058737494, 51.487625447867735],
        [-0.499373381158532, 51.48759494258254],
        [-0.499343660696754, 51.48749115232319],
        [-0.499359385772865, 51.48745088875253],
        [-0.499380191072105, 51.48743137217777],
        [-0.499518446090201, 51.48734411855607],
        [-0.499613715500842, 51.487250020345535],
        [-0.499648746606142, 51.487192019371],
        [-0.499658859943257, 51.487147187884254],
        [-0.499659219761514, 51.487092340233815],
        [-0.499644621935309, 51.487054386362935],
        [-0.499563390245854, 51.486984107427325],
        [-0.499555253521114, 51.486968716636255],
        [-0.499567862786301, 51.486935606912176],
        [-0.499675262588284, 51.48686684192303],
        [-0.499691748362231, 51.48684727003542],
        [-0.499695099768736, 51.48683292543085],
        [-0.499660759121075, 51.486782129959245],
        [-0.499633994744566, 51.48676380322296],
        [-0.499604144473694, 51.48675173152354],
        [-0.49957696711306, 51.48674598853326],
        [-0.499542355222973, 51.48674734416081],
        [-0.499406019917805, 51.48677617324575],
        [-0.499317902882933, 51.48678403794586],
        [-0.499216946511673, 51.486788141413626],
        [-0.499160886561157, 51.48678472638163],
        [-0.499122250625851, 51.486777038216296],
        [-0.499079561196014, 51.4867612052069],
        [-0.499015984555335, 51.48672352364907],
        [-0.498979909911045, 51.4866816979552],
        [-0.498974829917822, 51.48666095093892],
        [-0.498980093448447, 51.48663224334726],
        [-0.499036962828458, 51.48652326665023],
        [-0.499056098424165, 51.48646686084852],
        [-0.49908602643439, 51.48634495028826],
        [-0.499095615262024, 51.48627223638918],
        [-0.499091856902336, 51.48625510316004],
        [-0.499082280774435, 51.486239693912154],
        [-0.499058248762077, 51.48622589809528],
        [-0.499026782236068, 51.48621920086562],
        [-0.498898414016875, 51.48622475166592],
        [-0.498809950384009, 51.4861993404975],
        [-0.49876884887079, 51.486179031608266],
        [-0.49873932390561, 51.48615707245623],
        [-0.498721404992698, 51.48613256421041],
        [-0.498713622915285, 51.48610638728648],
        [-0.49871885702067, 51.4860785785444],
        [-0.498737136802057, 51.486048239142505],
        [-0.498765464802578, 51.486018927576374],
        [-0.498809747302389, 51.485986223351645],
        [-0.498853734587131, 51.485962507506805],
        [-0.498953987310458, 51.485935914916276],
        [-0.498980491761148, 51.485918269787035],
        [-0.498984079416563, 51.48589673448353],
        [-0.498931555715896, 51.48582952015107],
        [-0.498895311273652, 51.485749025894314],
        [-0.498896846005863, 51.485702286225674],
        [-0.49891785728461, 51.48567647784388],
        [-0.498936897633105, 51.48566683014838],
        [-0.498970275637265, 51.485659164388245],
        [-0.499020693562752, 51.48565891044071],
        [-0.499102341556975, 51.485672544405766],
        [-0.499299954865615, 51.48548803595269],
        [-0.499869013466795, 51.48495668486018],
        [-0.500446229834951, 51.48439576114835],
        [-0.500834996456952, 51.48404733883457],
        [-0.501086514066551, 51.48379967197861],
        [-0.501381663081168, 51.4834950122003],
        [-0.501726199872423, 51.483133432710964],
        [-0.50197433122852, 51.482856945733644],
        [-0.502278933225579, 51.482483164689675],
        [-0.502500032770443, 51.482152378319526],
        [-0.502701943954548, 51.48183573403373],
        [-0.502704970232071, 51.48183127658203],
        [-0.503007332576546, 51.48134955891538],
        [-0.503065007118902, 51.48125947409902],
        [-0.503183381691897, 51.48107484690623],
        [-0.503221311869802, 51.4810159826335],
        [-0.503514086758746, 51.48051885457951],
        [-0.503739198937049, 51.480020862526715],
        [-0.503931224415711, 51.479609672086575],
        [-0.504068748182414, 51.4793236766394],
        [-0.50414542781069, 51.479136718163645],
        [-0.504207506367754, 51.47895586793052],
        [-0.504244203446516, 51.478758508014955],
        [-0.50426371500657, 51.47855823124242],
        [-0.504263744407581, 51.478557332399326],
        [-0.504228468758005, 51.47835905449961],
        [-0.504203208143331, 51.478250826134996],
        [-0.504244813342544, 51.477947421058445],
        [-0.504292848350585, 51.47775560101809],
        [-0.504468286593334, 51.477542925287],
        [-0.504535265873028, 51.47743227636825],
        [-0.5045832402921, 51.4772422538651],
        [-0.504742822202968, 51.47641341099062],
        [-0.504874313395875, 51.47578293695638],
        [-0.504966495964092, 51.47534169670731],
        [-0.504999544329136, 51.47512360792832],
        [-0.505001071819105, 51.475120929745685],
        [-0.50504119898204, 51.47490652806531],
        [-0.505048102208061, 51.47487154654428],
        [-0.505098362955052, 51.47465547558243],
        [-0.505154380485511, 51.47443947797588],
        [-0.505209222350879, 51.47425943409636],
        [-0.505219003966761, 51.47422448925232],
        [-0.505254164714489, 51.47411793040822],
        [-0.505330125415253, 51.473908481434975],
        [-0.505413281884636, 51.473699124118355],
        [-0.505500696701583, 51.4734916194459],
        [-0.505541319638477, 51.47339412230696],
        [-0.505793689151093, 51.472809249148426],
        [-0.505849320125714, 51.472693059531444],
        [-0.505961462604567, 51.472477776591184],
        [-0.506080770909581, 51.47226348404823],
        [-0.506164803032009, 51.47211528420935],
        [-0.506370343548803, 51.47177350152502],
        [-0.506497989923246, 51.47156830694086],
        [-0.506743792890709, 51.47118387385901],
        [-0.506834312664558, 51.47105733740041],
        [-0.506930530092754, 51.47093267185364],
        [-0.507031035272773, 51.47080896003595],
        [-0.507086456892052, 51.47074312341627],
        [-0.507204700995185, 51.470605249778544],
        [-0.507328642499624, 51.47046924698155],
        [-0.507456842178296, 51.470335096689226],
        [-0.507584718502892, 51.470210833550794],
        [-0.507690038642853, 51.47011595745548],
        [-0.507798207386141, 51.47002201673343],
        [-0.507910663901817, 51.469929029688856],
        [-0.508025910358427, 51.46983877569057],
        [-0.508144005391636, 51.469749457038446],
        [-0.508149908665388, 51.46974503604489],
        [-0.508263568446926, 51.46965925772393],
        [-0.508377227801039, 51.46957347928812],
        [-0.508495086992968, 51.46949135103689],
        [-0.508622844073173, 51.469414743863446],
        [-0.508758854756593, 51.469349931358565],
        [-0.508805552588238, 51.46933074237899],
        [-0.508853660240698, 51.469312470527235],
        [-0.508901738554832, 51.4692950975018],
        [-0.50894978753353, 51.46927862330275],
        [-0.509000685498589, 51.4692630845273],
        [-0.509050114973231, 51.46924842627798],
        [-0.509102334845316, 51.4692365011417],
        [-0.509154525395483, 51.469225474828455],
        [-0.50915887216563, 51.46922463087184],
        [-0.509196524637456, 51.469217915805395],
        [-0.509234147804932, 51.46921209957332],
        [-0.509273180828173, 51.46920720047087],
        [-0.509310774685561, 51.46920228306064],
        [-0.509349778401485, 51.46919828277917],
        [-0.509388723529913, 51.46919608017793],
        [-0.509427668654856, 51.46919387756372],
        [-0.509453602780357, 51.46919330799369],
        [-0.509488171850703, 51.46919284817365],
        [-0.509524150790334, 51.46919330548221],
        [-0.509560129730914, 51.46919376277974],
        [-0.509594610941919, 51.46919599946841],
        [-0.509629092156504, 51.46919823614698],
        [-0.509664983247548, 51.46920138995258],
        [-0.509689361079225, 51.46920439742703],
        [-0.509720549769252, 51.46917511957174],
        [-0.510022070134158, 51.46920053234632],
        [-0.510197998735491, 51.46919197694494],
        [-0.510419131492146, 51.46921007284869],
        [-0.511034950780877, 51.469266451588275],
        [-0.511201659415299, 51.46927576198592],
        [-0.511327615432626, 51.46916585792417],
        [-0.511402995678568, 51.4690616062474],
        [-0.511487250428483, 51.46899433514226],
        [-0.511630744073306, 51.46892062212237],
        [-0.511866313501766, 51.46884897665674],
        [-0.512144354924999, 51.46879945086226],
        [-0.512547601427093, 51.46875151264685],
        [-0.512890074305696, 51.46866863204387],
        [-0.513282966631023, 51.46854052953444],
        [-0.513602285612695, 51.468416888466],
        [-0.513677717844476, 51.468310837565035],
        [-0.513755961421419, 51.468162558967954],
        [-0.513869736282632, 51.46798415718624],
        [-0.515680330167983, 51.46826786284798],
        [-0.515787769326309, 51.46828450946345],
        [-0.515814150467597, 51.46831451757573],
        [-0.515857218013939, 51.46836272124167],
        [-0.51593225876635, 51.468490460764045],
        [-0.515986918637579, 51.46862513605881],
        [-0.516053179486079, 51.46875726047508],
        [-0.516104007848122, 51.46883253880587],
        [-0.516231074215801, 51.46899870362174],
        [-0.516371239713994, 51.469160537928836],
        [-0.516524475293475, 51.46931894053082],
        [-0.516685024372933, 51.46947383856042],
        [-0.516852857846872, 51.46962613083779],
        [-0.516894867390221, 51.469662630883555],
        [-0.517023716500193, 51.469773965032246],
        [-0.517155502880721, 51.469883537740245],
        [-0.517291665725938, 51.469991367194815],
        [-0.517432234185158, 51.470096554531125],
        [-0.517578647459624, 51.470199117927066],
        [-0.517729524621983, 51.47029724146958],
        [-0.517887685810018, 51.47039275922092],
        [-0.518051779204218, 51.470482956414244],
        [-0.518255850740158, 51.470583549927596],
        [-0.518497167967622, 51.470690008939634],
        [-0.518747354474054, 51.47078938573686],
        [-0.519004912779705, 51.470883459786755],
        [-0.519170086854823, 51.47094039797804],
        [-0.519264056864175, 51.470973057199025],
        [-0.519403674744832, 51.47101888174309],
        [-0.51964172657066, 51.47109292530098],
        [-0.519884242285653, 51.47116252862427],
        [-0.520128343383492, 51.47122765536009],
        [-0.520376937337781, 51.47128744296629],
        [-0.520628613919493, 51.47134097440667],
        [-0.520731628190734, 51.471361157489675],
        [-0.520985006426423, 51.47140661666751],
        [-0.521239998772168, 51.47144670034372],
        [-0.521498073435098, 51.47148052780173],
        [-0.52175629374031, 51.471509860437976],
        [-0.522017596180464, 51.47153293682695],
        [-0.52227910217349, 51.47154972067498],
        [-0.522402731637464, 51.47155577457881],
        [-0.522789771220089, 51.471564247570946],
        [-0.523178598477365, 51.471561951189166],
        [-0.523566247609925, 51.471551545728865],
        [-0.523623904288471, 51.47154957397383],
        [-0.524010317043241, 51.47153285695905],
        [-0.524377642438172, 51.47152758831537],
        [-0.52435888191622, 51.47161817318745],
        [-0.524332345095409, 51.47172664454616],
        [-0.524267401605904, 51.471865205971454],
        [-0.52421277536976, 51.47195174260083],
        [-0.524157231725445, 51.47202208174897],
        [-0.524091729118734, 51.47208869866192],
        [-0.524005815619794, 51.47216315159493],
        [-0.523808022987698, 51.47231352885264],
        [-0.5237265424515, 51.47238444051598],
        [-0.523731748293437, 51.47240159117782],
        [-0.523825429803616, 51.472577218604044],
        [-0.52391366284244, 51.472787846834464],
        [-0.523950579863541, 51.472848559055286],
        [-0.52404531836409, 51.472946866920076],
        [-0.524280998916446, 51.47313956775784],
        [-0.524304654828637, 51.473165043517845],
        [-0.524399924349434, 51.473336194344235],
        [-0.524466081786931, 51.47342784769635],
        [-0.524539243582366, 51.47348092280625],
        [-0.524753360017861, 51.47358342964731],
        [-0.524904002870211, 51.47368963378395],
        [-0.524945993576169, 51.473727029853606],
        [-0.524976585814229, 51.47376068567103],
        [-0.525001246916405, 51.4737996621811],
        [-0.525014306584485, 51.47384119041802],
        [-0.525031374173711, 51.473981682917135],
        [-0.525044694808425, 51.47401512147982],
        [-0.525055745561872, 51.474029647938174],
        [-0.525062623298794, 51.47403962582637],
        [-0.525233988685906, 51.47417306665481],
        [-0.525324965339113, 51.474254241012275],
        [-0.52539605252895, 51.47432707225056],
        [-0.525422269539907, 51.47436247136294],
        [-0.525499394541582, 51.47447134712534],
        [-0.52554137684903, 51.47455370370214],
        [-0.525541116041254, 51.47456179337349],
        [-0.525299596770342, 51.47468374761048],
        [-0.525213342355529, 51.474724026888325],
        [-0.525149257666411, 51.47474660058597],
        [-0.5251130422061, 51.4747533388541],
        [-0.525042398461079, 51.47475604723393],
        [-0.52492701911949, 51.47476178974921],
        [-0.524860316482207, 51.47477623740953],
        [-0.524816411357279, 51.47479816554359],
        [-0.524772071279864, 51.47483357644107],
        [-0.524737661582417, 51.47487360832927],
        [-0.524713124289579, 51.474920058920866],
        [-0.524701338119261, 51.47497296443677],
        [-0.524703800452592, 51.47503054528432],
        [-0.524718154554213, 51.47507658591344],
        [-0.524740024398909, 51.4751128297037],
        [-0.524787135802833, 51.47517007300131],
        [-0.524820926508333, 51.47519387769895],
        [-0.524859267262225, 51.475210545887435],
        [-0.524893666868577, 51.47521547467253],
        [-0.52501045772693, 51.475210649155336],
        [-0.525034810839469, 51.47521455232169],
        [-0.52505913496746, 51.475219354335074],
        [-0.525085127981844, 51.47548495016071],
        [-0.52508486708468, 51.4754930398291],
        [-0.525094380631863, 51.475689188701],
        [-0.525110802394983, 51.47576043334342],
        [-0.52512412357953, 51.47579387189179],
        [-0.525222599069039, 51.47595517087593],
        [-0.525243774058022, 51.47601298702203],
        [-0.525249927478415, 51.47604543619927],
        [-0.525256630902005, 51.47619479044002],
        [-0.525258466185823, 51.47622718531363],
        [-0.525272328441318, 51.476288506357115],
        [-0.52534556299566, 51.47642880582719],
        [-0.525369356286317, 51.47649474781655],
        [-0.525366708478643, 51.476755487289466],
        [-0.525379372872569, 51.47689862194417],
        [-0.525375276709618, 51.476936337526716],
        [-0.525344198663941, 51.47700698483445],
        [-0.525200671189889, 51.477215596593375],
        [-0.525172442532886, 51.47728717890391],
        [-0.525170365357588, 51.47730693554137],
        [-0.525213971014616, 51.47760692295508],
        [-0.525213584187209, 51.47766356871788],
        [-0.525204676694722, 51.4777165104626],
        [-0.525157493066201, 51.477840008937825],
        [-0.525124317896427, 51.477886350968426],
        [-0.524994592614156, 51.47802409795715],
        [-0.524987221427601, 51.478029400544294],
        [-0.524762858160753, 51.47819922793796],
        [-0.524584845833665, 51.478360645885786],
        [-0.524542771933864, 51.47841496874481],
        [-0.524493895977648, 51.478501577793054],
        [-0.524453569598523, 51.47859099203987],
        [-0.52440182175178, 51.478766587321104],
        [-0.524368612619478, 51.47894781114085],
        [-0.524339855813927, 51.47916955569775],
        [-0.524304825797976, 51.47949642959159],
        [-0.524795555620437, 51.47959612194718],
        [-0.524961551202212, 51.47962878322062],
        [-0.525088883551637, 51.47965466350717],
        [-0.525849480119654, 51.47982608548588],
        [-0.525969471141502, 51.479856368609816],
        [-0.526938555078162, 51.48012751905546],
        [-0.527151992112055, 51.48020753231067],
        [-0.527299472605842, 51.48027862400133],
        [-0.527528737953475, 51.480403796110274],
        [-0.528085174983496, 51.48074439014166],
        [-0.528622212035283, 51.481106319254266],
        [-0.529172531651364, 51.48145852105968],
        [-0.529270727389362, 51.481539782698455],
        [-0.529353897805672, 51.48159567780828],
        [-0.529464246662154, 51.481657308940036],
        [-0.529521019758854, 51.481683198826616],
        [-0.529725889026449, 51.481761301464516],
        [-0.530130969439211, 51.4818832770932],
        [-0.530260641249686, 51.481926266120645],
        [-0.53036719346003, 51.481971662936175],
        [-0.530474896563983, 51.48202606622652],
        [-0.530781421061349, 51.482212447321224],
        [-0.531245197133559, 51.482524888739064],
        [-0.531646160446078, 51.482775395250854],
        [-0.53208996675032, 51.483082187930236],
        [-0.532507006176818, 51.483325698925384],
        [-0.532688851293183, 51.48344846894988],
        [-0.533058387103924, 51.48373634434065],
        [-0.533169061075242, 51.48383304535703],
        [-0.53327098234623, 51.4839332336616],
        [-0.533412721767001, 51.48409416718547],
        [-0.533643426542918, 51.48440008722618],
        [-0.533874914261493, 51.48463677705377],
        [-0.533491093961039, 51.48479383692731],
        [-0.533616942745287, 51.48495636989478],
        [-0.533709162754009, 51.485089707423484],
        [-0.53397836356146, 51.48563260138825],
        [-0.534021003683654, 51.48574014088822],
        [-0.534096664939633, 51.48603063360811],
        [-0.534131215065084, 51.48612098687052],
        [-0.53429193487296, 51.48645390637448],
        [-0.534364116644426, 51.48667331747167],
        [-0.534396247114817, 51.48683917439394],
        [-0.534437538198116, 51.48685407779755],
        [-0.534534978786144, 51.48686968279263],
        [-0.534589659722237, 51.48687126523685],
        [-0.534753011893269, 51.48685262422098],
        [-0.534823645083231, 51.48685080899368],
        [-0.534987543846612, 51.48686005011715],
        [-0.535394814617288, 51.48691549270654],
        [-0.535472070623943, 51.48693174407294],
        [-0.535613279678091, 51.4869748711221],
        [-0.535758232394842, 51.48703602901804],
        [-0.535803440261283, 51.487063569832664],
        [-0.535845567182904, 51.487097366665296],
        [-0.535873383138994, 51.48712828718835],
        [-0.535913754117184, 51.48721691412697],
        [-0.535937538835581, 51.48723879217096],
        [-0.536011397953021, 51.48727118662507],
        [-0.536121682555563, 51.487290547473435],
        [-0.536245385462463, 51.48729568826204],
        [-0.536320511210112, 51.487288532915635],
        [-0.53640015761662, 51.4872751394378],
        [-0.536437965074576, 51.48726392145504],
        [-0.536570794593657, 51.487208928458024],
        [-0.536680991870017, 51.48718602463734],
        [-0.536805097352887, 51.48717858086483],
        [-0.536855373226134, 51.48718280493547],
        [-0.536912646440771, 51.48719341077202],
        [-0.536978212933872, 51.487214910599235],
        [-0.537043463067255, 51.48724629779568],
        [-0.537090025373976, 51.487276552645085],
        [-0.537117986105762, 51.487302978604205],
        [-0.537162044526939, 51.487366473105006],
        [-0.538247139422085, 51.48811555884422],
        [-0.538134361131341, 51.488354243237396],
        [-0.539148906385823, 51.48860787357976],
        [-0.540064901006761, 51.488925910967296],
        [-0.541312443128544, 51.48928133594269],
        [-0.541902088983045, 51.48876802347204],
        [-0.542574393005732, 51.4890047797858],
        [-0.544258827807342, 51.489527459743265],
        [-0.545427953752171, 51.48990434767018],
        [-0.545212731539226, 51.49019482166792],
        [-0.547002140580701, 51.49045349610065],
        [-0.547169981092187, 51.48993133434596],
        [-0.547316598661219, 51.48998620394296],
        [-0.547419409965092, 51.49001445366588],
        [-0.547528209250221, 51.490035583752594],
        [-0.547625832651131, 51.49004578479647],
        [-0.547779809722284, 51.49005038904263],
        [-0.548158801450259, 51.49004518967833],
        [-0.548214812426778, 51.49005037906074],
        [-0.548317824273312, 51.49007233598756],
        [-0.548544332734484, 51.490151572357725],
        [-0.548788805035567, 51.49020944945904],
        [-0.549003725993413, 51.49024537936593],
        [-0.549334818481654, 51.49029713319616],
        [-0.54946956515418, 51.49031768318743],
        [-0.55135824062527, 51.490581115457026],
        [-0.551687414298924, 51.49064812552252],
        [-0.552007978254367, 51.49071412915464],
        [-0.552292261838563, 51.490788676215196],
        [-0.553287626087524, 51.49106083019143],
        [-0.55417445261488, 51.49130376218446],
        [-0.554018624611224, 51.49172177305263],
        [-0.553790684491813, 51.49214249140525],
        [-0.553490774808508, 51.49278892306639],
        [-0.552988659901431, 51.49381592360759],
        [-0.552954675544681, 51.49388834046962],
        [-0.552895801681045, 51.49401889898967],
        [-0.552518987049412, 51.49486400415914],
        [-0.552550410691357, 51.49487248485162],
        [-0.5528660023695, 51.49496000566452],
        [-0.55352573340207, 51.495143489682846],
        [-0.554624454011283, 51.49543039439008],
        [-0.555615044862582, 51.49572045328224],
        [-0.555889824987588, 51.49577778935505],
        [-0.556487979211469, 51.49590474734953],
        [-0.557281931443339, 51.49617258923172],
        [-0.55836699718931, 51.49652852986139],
        [-0.559295826896568, 51.49681420143844],
        [-0.560165427260305, 51.49710543301576],
        [-0.560537094894986, 51.49724307792071],
        [-0.560838576921854, 51.49691047272365],
        [-0.56120946979749, 51.496432146914515],
        [-0.561248071317795, 51.4963957527902],
        [-0.561886421003656, 51.49565813579077],
        [-0.562033089228765, 51.49543782899956],
        [-0.562386362291151, 51.49506089423346],
        [-0.56259780327705, 51.4947047006191],
        [-0.562781736649449, 51.49444438508783],
        [-0.562941640478821, 51.49416938749015],
        [-0.563046906944806, 51.493936882421956],
        [-0.563116088446024, 51.49370663283172],
        [-0.56314556717842, 51.49363955316344],
        [-0.563187977200982, 51.49357353110652],
        [-0.563237558630443, 51.493508496091394],
        [-0.563654842899188, 51.4930649007918],
        [-0.563953309211228, 51.492780808032194],
        [-0.564216451312454, 51.492474701051265],
        [-0.564404262547277, 51.49222791859317],
        [-0.564583234433039, 51.491941462383885],
        [-0.564778607879448, 51.49168308213176],
        [-0.564890015397304, 51.491575640825],
        [-0.564973980368421, 51.49151642103947],
        [-0.56505173403793, 51.49147151257577],
        [-0.565163875691112, 51.49143242000955],
        [-0.565240754354358, 51.49141537625042],
        [-0.56533623870914, 51.49140215686753],
        [-0.565486185021095, 51.491397696417195],
        [-0.565940459504081, 51.491472490795616],
        [-0.567287955732096, 51.49204826740711],
        [-0.567337873757114, 51.49206416372989],
        [-0.567447817495447, 51.49209518055404],
        [-0.567616741635956, 51.492128715997644],
        [-0.568114618836874, 51.492191445431175],
        [-0.568211744928265, 51.492217809003336],
        [-0.56838431415965, 51.49227296888057],
        [-0.568525149184778, 51.492329539624635],
        [-0.568589044941674, 51.49235909415656],
        [-0.568808972804112, 51.492511946068824],
        [-0.569757867378687, 51.49307653498957],
        [-0.570131832900694, 51.49332478044062],
        [-0.570225689000018, 51.493363691400305],
        [-0.57030308117336, 51.49337632451112],
        [-0.57052175799795, 51.493385284290255],
        [-0.570617757310982, 51.49340174080416],
        [-0.570777599181847, 51.493449548331625],
        [-0.571004129316629, 51.49348378078148],
        [-0.571206285978009, 51.493468259341675],
        [-0.571673367268934, 51.49345686320475],
        [-0.571933951700281, 51.4935076943262],
        [-0.572018973359347, 51.493552790746755],
        [-0.572121795796257, 51.493673637433226],
        [-0.572217748016753, 51.49373775017728],
        [-0.572539812477174, 51.49384957536836],
        [-0.572957562597217, 51.49394188204848],
        [-0.573314786892234, 51.49421958743675],
        [-0.573463488435271, 51.49430142573006],
        [-0.573534562066454, 51.49433196403902],
        [-0.573570084890553, 51.49434768261179],
        [-0.573661318547736, 51.49437846601364],
        [-0.573867162718241, 51.49442952632375],
        [-0.574424855044787, 51.49465391454697],
        [-0.574572288210051, 51.4947303407405],
        [-0.574674734985152, 51.4947711509186],
        [-0.574993894155972, 51.494837973515985],
        [-0.575222165562437, 51.494909086502446],
        [-0.575325801151626, 51.49495800343099],
        [-0.575423564838382, 51.49501044578722],
        [-0.575589788284804, 51.49513116015483],
        [-0.575773253439616, 51.49520712317434],
        [-0.575805337452777, 51.49524078349099],
        [-0.575919929492219, 51.49540043565697],
        [-0.57602910299342, 51.49545661286196],
        [-0.576063759350825, 51.495500195635046],
        [-0.576094011665833, 51.495546422561354],
        [-0.576096943169905, 51.49563727827725],
        [-0.577904279228343, 51.49607284087069],
        [-0.57952799277556, 51.49648457083404],
        [-0.580761682469423, 51.49683850631812],
        [-0.584158001815535, 51.49792892761718],
        [-0.584666171002917, 51.498080732153106],
        [-0.58518298432198, 51.498232638732496],
        [-0.586756570676167, 51.498685925944336],
        [-0.587931168510251, 51.498997709824124],
        [-0.588315707619931, 51.49909495679368],
        [-0.588732400257135, 51.49922406161747],
        [-0.589198143900742, 51.49935105729612],
        [-0.589660956835748, 51.499433055500546],
        [-0.589747643903014, 51.49942510568],
        [-0.589794256114127, 51.49940858113891],
        [-0.589847239198195, 51.49937235060612],
        [-0.590389936506047, 51.49845268994502],
        [-0.590770619404537, 51.49783411332493],
        [-0.591062031863764, 51.49730708157447],
        [-0.591563484165138, 51.49781755929097],
        [-0.591723750998726, 51.49794627183942],
        [-0.591855244252854, 51.49802698074423],
        [-0.593528993437135, 51.498878828814824],
        [-0.594425949638869, 51.499319401420756],
        [-0.594928906038083, 51.499454913032444],
        [-0.596060833764972, 51.49993875167458],
        [-0.59689780659286, 51.50026978313773],
        [-0.59749842735167, 51.50055661932769],
        [-0.597894340889525, 51.500753782636764],
        [-0.598443767129111, 51.50106607894656],
        [-0.598988804545923, 51.50142777656411],
        [-0.599091185337083, 51.50151891996792],
        [-0.599278389718396, 51.501709988906704],
        [-0.60004311117328, 51.502096784773464],
        [-0.600570561661664, 51.50232788009057],
        [-0.601335674493931, 51.501525921654206],
        [-0.602495586171053, 51.50006235071027],
        [-0.602611033108438, 51.49986769912325],
        [-0.602937705569207, 51.499172907034655],
        [-0.603141590934504, 51.49891276694227],
        [-0.603425576857369, 51.49857714767263],
        [-0.604341573169152, 51.49759532629073],
        [-0.60491605280376, 51.497747831762695],
        [-0.606714773162954, 51.49824129443892],
        [-0.607743803338625, 51.497282370302614],
        [-0.608951052028068, 51.498039437728586],
        [-0.609049162338468, 51.498081964666106],
        [-0.609084864636281, 51.498092279294696],
        [-0.610144492367058, 51.4983044632593],
        [-0.610665833110102, 51.49840505603751],
        [-0.611069400108062, 51.49873085182947],
        [-0.611946383163152, 51.4992178118728],
        [-0.612083867989323, 51.499292274364365],
        [-0.612392733814844, 51.49936876419353],
        [-0.612489573805518, 51.499405877956335],
        [-0.612584919194812, 51.49944477237106],
        [-0.612808810336656, 51.49956791387259],
        [-0.613266983237036, 51.49975676926562],
        [-0.614496341053669, 51.500264960148],
        [-0.614849447270447, 51.50045076981294],
        [-0.615122036885797, 51.50067878967015],
        [-0.615881246791514, 51.50115623642374],
        [-0.616044583681544, 51.50128135471458],
        [-0.616301509802121, 51.50140847600218],
        [-0.617104745710752, 51.50171738350189],
        [-0.617372493442251, 51.501820351460395],
        [-0.617975822925733, 51.50187961518181],
        [-0.618304960289919, 51.502096604040425],
        [-0.61854629915351, 51.50216778605913],
        [-0.619045420923872, 51.50243353320261],
        [-0.619300948825607, 51.50255973216481],
        [-0.61945038618791, 51.502668496337094],
        [-0.619742196291237, 51.502833787114774],
        [-0.620326335187871, 51.50305197201451],
        [-0.620444033971577, 51.503114502174995],
        [-0.620868629575292, 51.5032723596279],
        [-0.621406250084771, 51.50340906378741],
        [-0.621720324363818, 51.50350537250889],
        [-0.622293795431193, 51.50364788902188],
        [-0.62251289365066, 51.50374038247925],
        [-0.622615729287556, 51.50377036455089],
        [-0.622717260227719, 51.50379583519301],
        [-0.622922223355681, 51.50383151206373],
        [-0.624110413144494, 51.50413499831417],
        [-0.624618341771512, 51.50420569749972],
        [-0.624923908759979, 51.50420208621244],
        [-0.625100826240888, 51.504212252790396],
        [-0.625381049091307, 51.504284775570646],
        [-0.625475705594905, 51.50429937280882],
        [-0.626262453666115, 51.50429779850336],
        [-0.626309903692461, 51.50430105178535],
        [-0.626421358141747, 51.504332030633904],
        [-0.626576652594056, 51.504390498777845],
        [-0.627222554974266, 51.504425035441336],
        [-0.62771897738824, 51.50439937173162],
        [-0.628287865117334, 51.504311609082734],
        [-0.629579947199605, 51.503939154383346],
        [-0.629941607701082, 51.50384266818291],
        [-0.630182318592647, 51.5037915271228],
        [-0.630428359113639, 51.50375483504957],
        [-0.630725968879993, 51.503680078689456],
        [-0.631186900022777, 51.50349212945151],
        [-0.631408722526958, 51.503349945940485],
        [-0.631559403310976, 51.503225815379956],
        [-0.631724419118395, 51.50315220722346],
        [-0.632087104561448, 51.50297299968914],
        [-0.632369952217186, 51.502813541921874],
        [-0.632698280736694, 51.502626738313076],
        [-0.632699721024446, 51.50262675510125],
        [-0.632956289683698, 51.50247867925776],
        [-0.633375573785986, 51.50214096835807],
        [-0.633422872338359, 51.50210105524529],
        [-0.633525423257667, 51.50199614392449],
        [-0.63371902845832, 51.50178528790459],
        [-0.633886411636238, 51.50158401742141],
        [-0.633959913405348, 51.501486860238785],
        [-0.634043168943541, 51.50130439226818],
        [-0.634382101880464, 51.500713965119985],
        [-0.634405720121896, 51.500646799820245],
        [-0.634438748276286, 51.50060222414776],
        [-0.634477268633507, 51.50056670443634],
        [-0.6345197872575, 51.500542021697015],
        [-0.634601299281012, 51.50051419602184],
        [-0.634779359761263, 51.50048569560992],
        [-0.635452811667697, 51.50041620020525],
        [-0.636290803625001, 51.500288367324046],
        [-0.636677934837125, 51.50025420161473],
        [-0.636784591228, 51.50025274356008],
        [-0.637036494879269, 51.500260166803244],
        [-0.637177099845021, 51.500279784522554],
        [-0.637275804600745, 51.50030341132918],
        [-0.637445609027736, 51.50035843686761],
        [-0.637663121787185, 51.50045627880311],
        [-0.638317258686218, 51.50059965378934],
        [-0.638537902034074, 51.500640880629994],
        [-0.638876350120506, 51.500693365307185],
        [-0.639200584067645, 51.500739389687205],
        [-0.639316921665411, 51.50075152968004],
        [-0.639414830720242, 51.50075356457235],
        [-0.639705945079888, 51.50075064642902],
        [-0.639812468796043, 51.5007536800921],
        [-0.640039597568231, 51.5007707008189],
        [-0.640364181007447, 51.500805036386915],
        [-0.640830679892859, 51.50086349557653],
        [-0.640925682068411, 51.500866394726955],
        [-0.641016577419851, 51.50086205259839],
        [-0.641115074925701, 51.500844310423716],
        [-0.641319832183938, 51.50079003247523],
        [-0.641557262867507, 51.500702862051995],
        [-0.64163138277336, 51.500681240320745],
        [-0.641766339670237, 51.5006486333509],
        [-0.641870650790908, 51.500629159453865],
        [-0.641961679171247, 51.500620322120895],
        [-0.642052547235621, 51.50061687807846],
        [-0.642229508564282, 51.500625220962085],
        [-0.64231607858051, 51.50071794166524],
        [-0.642414781235082, 51.500887234953595],
        [-0.642601993192192, 51.501423527893216],
        [-0.642640955104094, 51.501566951966865],
        [-0.642681754727388, 51.50179402313056],
        [-0.642697649426898, 51.50184096558319],
        [-0.642829053452525, 51.502073581034345],
        [-0.64289103439093, 51.50221817052911],
        [-0.643023101283657, 51.50267109801321],
        [-0.643499253617766, 51.502599273794],
        [-0.6438327089284, 51.50252939479978],
        [-0.644050753359134, 51.50246447526446],
        [-0.644247859657291, 51.502425390201445],
        [-0.644372684568411, 51.50239446152955],
        [-0.644595021794147, 51.502330489798915],
        [-0.644950023715141, 51.502214098079364],
        [-0.645144193370514, 51.50212821907042],
        [-0.645352044344216, 51.502018219274404],
        [-0.646128626356341, 51.50153172438515],
        [-0.64635004706033, 51.50140119779329],
        [-0.646947387743074, 51.501079880609],
        [-0.647059883741302, 51.501027226024945],
        [-0.64717782110003, 51.50098542451597],
        [-0.647625034718765, 51.50086828976048],
        [-0.648148525488641, 51.50075383079338],
        [-0.648408348848335, 51.500688485469944],
        [-0.648580614261901, 51.50066079656284],
        [-0.649083437317032, 51.50061173709088],
        [-0.649447093674586, 51.500591646135085],
        [-0.650633388552802, 51.50057202800573],
        [-0.650790108615063, 51.500582822725825],
        [-0.650877511718067, 51.50059911443941],
        [-0.651041705726596, 51.50064955967367],
        [-0.65112342770818, 51.50066308826449],
        [-0.651192506010484, 51.500665680989954],
        [-0.651957237296865, 51.50062681409731],
        [-0.65212518811477, 51.50064762731633],
        [-0.652174209201076, 51.500646392184066],
        [-0.652223442394069, 51.500637965852505],
        [-0.652264113688887, 51.50062674352345],
        [-0.652297716344378, 51.500610943958094],
        [-0.652328650597886, 51.50058792011039],
        [-0.65244808436781, 51.500446319093975],
        [-0.653547325201801, 51.50044725225107],
        [-0.653595025118807, 51.50063753136217],
        [-0.654001092713084, 51.5006448891362],
        [-0.654074333033869, 51.50065292313166],
        [-0.654210282015674, 51.50068415658852],
        [-0.654371308427304, 51.50074445202107],
        [-0.654823249245106, 51.500857539770024],
        [-0.654877475791617, 51.50087524643719],
        [-0.654928689584636, 51.50089741454147],
        [-0.654979718209964, 51.5009258749119],
        [-0.655024853611603, 51.500958763697625],
        [-0.655075220919261, 51.501009696485504],
        [-0.654942245612347, 51.50126894028288],
        [-0.654828687570205, 51.50165159721651],
        [-0.654581003065157, 51.50159840135277],
        [-0.654423208862341, 51.501575010575195],
        [-0.65436737846407, 51.501905276341745],
        [-0.654062690647378, 51.50344481059548],
        [-0.654032219308081, 51.503892263262344],
        [-0.653942937076416, 51.50423293531101],
        [-0.654611732037485, 51.504322434981795],
        [-0.655799123590018, 51.504464632985616],
        [-0.656649807929251, 51.504542717094296],
        [-0.657207770392742, 51.50457967818944],
        [-0.657211365471705, 51.50465345382314],
        [-0.658084547387862, 51.50475066823841],
        [-0.659337849476228, 51.50490617307274],
        [-0.659139809482192, 51.50600812804059],
        [-0.659007307472367, 51.50713511013233],
        [-0.658485232760388, 51.50715072179161],
        [-0.658283332767915, 51.5071565055452],
        [-0.657708052567063, 51.5071193515643],
        [-0.657659235939349, 51.50711339777223],
        [-0.656872211598081, 51.50697580367593],
        [-0.65647991052049, 51.506890383295456],
        [-0.656375234553313, 51.506872998794705],
        [-0.656197360891775, 51.50684578371474],
        [-0.655960429662563, 51.50681789173772],
        [-0.655619549505581, 51.50679690085597],
        [-0.655491329579505, 51.508020142746],
        [-0.655428245764648, 51.508254111075814],
        [-0.655136977994628, 51.508260663491846],
        [-0.654815063052626, 51.50828035176905],
        [-0.654236017016264, 51.5082728112488],
        [-0.653961468335862, 51.50824987892034],
        [-0.653943361506603, 51.50827754637964],
        [-0.653895723657309, 51.50842716627543],
        [-0.65395520115332, 51.50851147441609],
        [-0.653868570183784, 51.508566230801094],
        [-0.653841820238583, 51.50859379906409],
        [-0.653820646789949, 51.50862772571842],
        [-0.653818146707669, 51.50866366505633],
        [-0.653886085735031, 51.508900934438174],
        [-0.65384015878866, 51.50894356905696],
        [-0.653766564299874, 51.50909379022899],
        [-0.653434887021924, 51.509151129137564],
        [-0.653604886321454, 51.50925019404137],
        [-0.653507635486705, 51.50956739484788],
        [-0.653238301133571, 51.51019823951418],
        [-0.653035560308482, 51.510769601737564],
        [-0.653449469810482, 51.510856180706334],
        [-0.654017965330598, 51.51102725837994],
        [-0.653962433114279, 51.511200166878886],
        [-0.653930219723179, 51.51190207265583],
        [-0.653930637272294, 51.511985703064845],
        [-0.65396473863626, 51.51214884957503],
        [-0.653959251257569, 51.512188351420605],
        [-0.65389056363615, 51.51261198574862],
        [-0.653763974679934, 51.51299539078004],
        [-0.653643086122644, 51.51347867228053],
        [-0.653518949853139, 51.51387649235955],
        [-0.653385249192291, 51.51435423129584],
        [-0.653330478949147, 51.51450107137946],
        [-0.653306456834649, 51.51458262281442],
        [-0.653275382450928, 51.51475671087156],
        [-0.653258795670658, 51.515074837197744],
        [-0.653284269709101, 51.51518842879881],
        [-0.653299163141803, 51.51522097095657],
        [-0.653404707002474, 51.51535616323322],
        [-0.653491601814881, 51.5154884437661],
        [-0.653511966790705, 51.5155309398908],
        [-0.653580920822337, 51.51573405121106],
        [-0.653812299143012, 51.51604962792924],
        [-0.653857776329365, 51.51612028732906],
        [-0.654032926907426, 51.51648557355938],
        [-0.654078759417882, 51.516593104121554],
        [-0.654133377361174, 51.51698937847688],
        [-0.654183987497258, 51.517228246908594],
        [-0.654342427821072, 51.51752500174016],
        [-0.654924616158372, 51.517576638022824],
        [-0.654942274060184, 51.51790684660171],
        [-0.65494129019326, 51.51862529547273],
        [-0.65502388421765, 51.518806082198736],
        [-0.656861289911415, 51.5188145433585],
        [-0.656919900478256, 51.518879956670865],
        [-0.65744570881252, 51.51923216650824],
        [-0.657554126943124, 51.519172261618245],
        [-0.6576875826655, 51.51924122852955],
        [-0.657893531280251, 51.51939375089085],
        [-0.658928693407188, 51.51933455151379],
        [-0.659048869574501, 51.51975764933706],
        [-0.659211761270535, 51.52024777586651],
        [-0.659394412417639, 51.52035956534064],
        [-0.660156559785149, 51.520321513416555],
        [-0.660165204958127, 51.52032161214639],
        [-0.660156540134653, 51.5204204250216],
        [-0.660145379340135, 51.52055517732702],
        [-0.659759822932761, 51.52057954786058],
        [-0.659630150217497, 51.52067607908871],
        [-0.659653747923255, 51.52070692143055],
        [-0.659664578509053, 51.52077988023752],
        [-0.659679172980641, 51.52101923374744],
        [-0.659717846312631, 51.521371262116425],
        [-0.659693505764846, 51.521758538522995],
        [-0.659698884963347, 51.52196811317205],
        [-0.659812063470062, 51.522089898633396],
        [-0.659816112148728, 51.522148392765985],
        [-0.659811515307657, 51.52220678814014],
        [-0.659736012645244, 51.522323720612135],
        [-0.659729842820691, 51.52238659400368],
        [-0.659724121550338, 51.52243418614937],
        [-0.659860303409118, 51.52255803272818],
        [-0.659876571668119, 51.52269129987778],
        [-0.659747743234087, 51.52285707912637],
        [-0.659808830120955, 51.52328040003686],
        [-0.659852693710175, 51.523504801390594],
        [-0.660036205091472, 51.524226255775176],
        [-0.660092462026254, 51.524716061901664],
        [-0.660160198590991, 51.525453278427065],
        [-0.660115160381626, 51.525710833831134],
        [-0.660115397107786, 51.526095693126926],
        [-0.660012446700644, 51.52754042699421],
        [-0.659973971548248, 51.52772162544623],
        [-0.659901160358665, 51.52833584482761],
        [-0.65965553738941, 51.52835461987728],
        [-0.659510956381489, 51.52822168531363],
        [-0.659228883663384, 51.52825443018123],
        [-0.659115779310679, 51.52832597262253],
        [-0.658638369038133, 51.52857948447156],
        [-0.658232399989958, 51.52875648042881],
        [-0.657368055366722, 51.528980384036636],
        [-0.655135725294675, 51.52959144959747],
        [-0.654990524171395, 51.529626652280676],
        [-0.654843934652211, 51.529660040472265],
        [-0.654589178834985, 51.52969488579609],
        [-0.654334449138199, 51.52972883166997],
        [-0.653990420379985, 51.52975995419559],
        [-0.653974517507525, 51.52990813935823],
        [-0.654124153122618, 51.53001596120555],
        [-0.653943116050573, 51.5300930138111],
        [-0.653713334233509, 51.530111958194226],
        [-0.653456737316225, 51.530306837111326],
        [-0.6531635160654, 51.53032595154235],
        [-0.653158166613503, 51.53011637709716],
        [-0.653142667302935, 51.530006497069955],
        [-0.653081510696808, 51.52978279401095],
        [-0.652825532563411, 51.52985898457283],
        [-0.652235509325868, 51.53016512930918],
        [-0.651887554366395, 51.53037783851697],
        [-0.651890770418357, 51.530464198444996],
        [-0.6508468712531, 51.53100520619842],
        [-0.648681500164873, 51.53217262359865],
        [-0.647937639446243, 51.532559701185825],
        [-0.647924455246415, 51.53256674284093],
        [-0.647580838923745, 51.532777690951136],
        [-0.647261880601484, 51.5329835271603],
        [-0.646997394180283, 51.53319988182456],
        [-0.646623450771832, 51.53346083250274],
        [-0.646183096264432, 51.53367605586909],
        [-0.645841090459919, 51.53383216643813],
        [-0.645514616329169, 51.533999245684136],
        [-0.645354367933818, 51.53410350101986],
        [-0.645267143960006, 51.534176228179305],
        [-0.645175115510188, 51.53426508535645],
        [-0.645092882226916, 51.534363946745],
        [-0.645027864117435, 51.53446570446994],
        [-0.644980328168431, 51.534561369666136],
        [-0.644942827777995, 51.534658949135284],
        [-0.644887577822012, 51.534868723302665],
        [-0.644827496187301, 51.535144083058114],
        [-0.644796400721312, 51.53531726904298],
        [-0.64478882029297, 51.5353783269229],
        [-0.644789727473761, 51.53554199135044],
        [-0.64480037645667, 51.536008797835954],
        [-0.644847273497865, 51.53617748939429],
        [-0.644565434260101, 51.53634598071222],
        [-0.644251589872127, 51.5364754360731],
        [-0.643692042223425, 51.53667308733806],
        [-0.643504208591743, 51.536734759014124],
        [-0.643232427439627, 51.53680714929993],
        [-0.642881262899349, 51.53688221762568],
        [-0.642411449715436, 51.53697119855455],
        [-0.641874448443747, 51.53708907347141],
        [-0.641510735270167, 51.53714960530226],
        [-0.641205613302608, 51.5371793426107],
        [-0.641028109036595, 51.5371844805079],
        [-0.640590651600578, 51.53715513481413],
        [-0.640176497920881, 51.537117964778105],
        [-0.6400453590816, 51.537115545730956],
        [-0.639866413585889, 51.537120665165396],
        [-0.639707459819319, 51.53713231047798],
        [-0.639587396466744, 51.53714530567831],
        [-0.639322176419911, 51.53719078707289],
        [-0.638419488101465, 51.53743478869227],
        [-0.637931659117117, 51.53759547849633],
        [-0.637414220365623, 51.5377818991769],
        [-0.637286142396144, 51.53782177489414],
        [-0.637127741064807, 51.537863096666264],
        [-0.636857760647257, 51.53792290438456],
        [-0.636739055295527, 51.537938610049544],
        [-0.636582927052255, 51.53795208236496],
        [-0.636442922775911, 51.53795674986909],
        [-0.636294511809994, 51.5379532267224],
        [-0.636150640008992, 51.537942562564915],
        [-0.636032955358583, 51.5379241098602],
        [-0.635912656702481, 51.537896634669096],
        [-0.635691066786737, 51.53783291294019],
        [-0.63561787787623, 51.53782127155673],
        [-0.635558780474534, 51.53782058436505],
        [-0.635440236244529, 51.53783089540232],
        [-0.635233228861714, 51.53785816138511],
        [-0.634995360258339, 51.53790485034956],
        [-0.634664111757307, 51.53798821861952],
        [-0.633782786043417, 51.538143412659885],
        [-0.633470918050224, 51.5382054224747],
        [-0.633331411908817, 51.538241564003435],
        [-0.633159736739744, 51.538292617008835],
        [-0.633031545987673, 51.5383360835773],
        [-0.63295855966797, 51.5383658060086],
        [-0.632725980969831, 51.53847639508324],
        [-0.632658975387797, 51.538498993434594],
        [-0.632535431097451, 51.538531723231856],
        [-0.632400516899559, 51.53855892519252],
        [-0.631618792864367, 51.53870986868576],
        [-0.631617351438631, 51.538709851876],
        [-0.631477761445166, 51.53874868782648],
        [-0.630712183663617, 51.5388899224329],
        [-0.630573320730189, 51.53890448744407],
        [-0.630384412307234, 51.53890498017787],
        [-0.629942178863077, 51.53884226873229],
        [-0.629295091735633, 51.53873490043212],
        [-0.628775051689267, 51.538670376432705],
        [-0.628112204442297, 51.538607777328636],
        [-0.627957125655995, 51.53858618170988],
        [-0.627576798647799, 51.53852688277364],
        [-0.626987811091057, 51.53840579405786],
        [-0.626508570648909, 51.538327350202756],
        [-0.625903442195476, 51.53826361579334],
        [-0.625523587362489, 51.53823668685726],
        [-0.625403077799819, 51.53821639198381],
        [-0.625268560493293, 51.538182444889344],
        [-0.625040237871618, 51.53810333772173],
        [-0.624883796434528, 51.53803136692207],
        [-0.624788035307535, 51.53800326865666],
        [-0.624723714156161, 51.53798453080529],
        [-0.624120137757223, 51.537869551014204],
        [-0.623893210627038, 51.53783991389965],
        [-0.623822690775958, 51.53783549003667],
        [-0.62355461873877, 51.53783144646222],
        [-0.622515951046102, 51.537895689446394],
        [-0.622351523529702, 51.53789735581645],
        [-0.622174286301279, 51.53789347634423],
        [-0.621849047035677, 51.53787257198821],
        [-0.621531476657656, 51.53783647043773],
        [-0.62129478762977, 51.53779592321441],
        [-0.62107942108369, 51.53776551728298],
        [-0.620810207275344, 51.537751562823544],
        [-0.620586710490539, 51.5377516331946],
        [-0.620478361766519, 51.53775845218461],
        [-0.620358264486821, 51.537772326529776],
        [-0.620223481447318, 51.53779502005379],
        [-0.620101507701917, 51.53782325925933],
        [-0.619919512454046, 51.53788136517251],
        [-0.619733627588178, 51.53792503786153],
        [-0.619583393640026, 51.537362170130955],
        [-0.619184431576727, 51.53739524218058],
        [-0.619008695008605, 51.53705597418095],
        [-0.618934997114344, 51.53682311329544],
        [-0.619336130082074, 51.5362892135252],
        [-0.619369471277922, 51.536235653868204],
        [-0.619395605701919, 51.53618200940436],
        [-0.619608892894399, 51.53556586950536],
        [-0.619612237151388, 51.53545530729295],
        [-0.619299553266108, 51.535448930681525],
        [-0.618911323514305, 51.53536613126674],
        [-0.61858838947031, 51.535269712129484],
        [-0.618238151375564, 51.53526558813713],
        [-0.618070778151526, 51.5349363082372],
        [-0.617926710009747, 51.534694524975755],
        [-0.617884507227091, 51.53461220066795],
        [-0.617879095965064, 51.53460044732741],
        [-0.617757238292246, 51.53462508864637],
        [-0.616845927977326, 51.534770810230036],
        [-0.616509012073125, 51.53399442523799],
        [-0.615451842190594, 51.534148307222516],
        [-0.614566477375832, 51.53429431725445],
        [-0.61430154272988, 51.53390273414915],
        [-0.61434017733758, 51.53372245114978],
        [-0.613812310723091, 51.53382322085708],
        [-0.613550194446083, 51.53314932032948],
        [-0.613393633973769, 51.532797681216294],
        [-0.612261537857632, 51.532950648906564],
        [-0.612003795761281, 51.532987165005196],
        [-0.611828394988745, 51.533018360359605],
        [-0.611583187340431, 51.53273760598281],
        [-0.611160500826784, 51.5322722126265],
        [-0.610779453374182, 51.531812705904635],
        [-0.610553979067604, 51.53149981167584],
        [-0.608910120489757, 51.53188857053464],
        [-0.608578623016556, 51.53197995508507],
        [-0.608443056782635, 51.5320287025872],
        [-0.608330494679539, 51.532079521192685],
        [-0.608062431093422, 51.53207634135231],
        [-0.607384325820795, 51.53209257318615],
        [-0.607125033958794, 51.53213265697399],
        [-0.60711053963146, 51.53213518250885],
        [-0.606426037192527, 51.53217201449166],
        [-0.606381660144103, 51.531878347783234],
        [-0.606131330909979, 51.53082240932342],
        [-0.605995807839327, 51.530350516833956],
        [-0.605985789147771, 51.53001769321323],
        [-0.604883510447033, 51.52957387387931],
        [-0.604126961661826, 51.529280727713164],
        [-0.604016848291437, 51.52925154235785],
        [-0.603638842505037, 51.52916701519552],
        [-0.602963784480144, 51.52899082833261],
        [-0.60268175862619, 51.52892632411951],
        [-0.602399568451665, 51.52886721247917],
        [-0.602112835517508, 51.528815239648516],
        [-0.599836599620727, 51.528436509311035],
        [-0.598837656480366, 51.52824564246558],
        [-0.597754974190461, 51.52805916148873],
        [-0.597137303699102, 51.52798703505726],
        [-0.596239571381478, 51.52792774050861],
        [-0.59646340278523, 51.526227328146234],
        [-0.596489478937016, 51.5258949349789],
        [-0.595509746682562, 51.52601899030529],
        [-0.595611624623882, 51.525753146525176],
        [-0.595657343073186, 51.52567276549433],
        [-0.595694360120511, 51.52559407870035],
        [-0.595695856410822, 51.52559229820393],
        [-0.594719589517299, 51.52565074656021],
        [-0.594818487954469, 51.52501349679744],
        [-0.595012154262119, 51.52438817226493],
        [-0.595040191169085, 51.52427340998379],
        [-0.594982553265875, 51.524272719742775],
        [-0.592968497828421, 51.524235993835525],
        [-0.590099414863969, 51.524160186735216],
        [-0.589841902913707, 51.52414360377718],
        [-0.589885535450163, 51.52291761403715],
        [-0.589877620051249, 51.52275386376333],
        [-0.589844096282091, 51.52267253245708],
        [-0.589587422822178, 51.52267574146723],
        [-0.589518364802807, 51.5227648316483],
        [-0.589411287702104, 51.52287144875882],
        [-0.589275780872515, 51.52296513506465],
        [-0.589196638893927, 51.52300734518979],
        [-0.589110431129875, 51.52304497426914],
        [-0.58899529397956, 51.52308585217467],
        [-0.588845658190544, 51.52312361740514],
        [-0.588718080350401, 51.523147260522705],
        [-0.588616772186946, 51.52316042908294],
        [-0.588430422555465, 51.52317347359693],
        [-0.588160972634348, 51.523170231345176],
        [-0.588005715912026, 51.5231566732283],
        [-0.587355460006074, 51.52306881620511],
        [-0.587283470393039, 51.52306615095596],
        [-0.587045554227689, 51.52306868107302],
        [-0.58682578553358, 51.52309031259219],
        [-0.585817207943289, 51.52307636112533],
        [-0.58291733060222, 51.52306654786068],
        [-0.582222369395792, 51.5230725388229],
        [-0.581204813783497, 51.52306922963859],
        [-0.581010124537283, 51.52307227026216],
        [-0.581032384933193, 51.52314447588151],
        [-0.58110459494673, 51.523371948821335],
        [-0.581152538098211, 51.52368455267592],
        [-0.58110477343484, 51.52475762531411],
        [-0.581043907327653, 51.5251390510974],
        [-0.580997106294734, 51.52534620128474],
        [-0.580941966291646, 51.52554335933734],
        [-0.580872024752082, 51.525752927184364],
        [-0.580755260043933, 51.52603116731742],
        [-0.580629496819347, 51.52627422949545],
        [-0.580511089431416, 51.52646612588609],
        [-0.580431194099152, 51.52657845895747],
        [-0.580295856270693, 51.526758460620286],
        [-0.580135516737094, 51.52695434523387],
        [-0.579837608674584, 51.52726276344157],
        [-0.579619569190021, 51.52755236535077],
        [-0.579526056988523, 51.52768521464952],
        [-0.579367306132098, 51.52792248084144],
        [-0.57927317694586, 51.52807510495912],
        [-0.579247168223258, 51.52812334703553],
        [-0.578995920216516, 51.52878481615754],
        [-0.578827017968564, 51.5293016111275],
        [-0.578673824784918, 51.5297304741394],
        [-0.578548080458343, 51.530111112473975],
        [-0.578381492968679, 51.53046068284926],
        [-0.577972392178925, 51.53109775679685],
        [-0.57751190187793, 51.53171802059988],
        [-0.576855058844762, 51.532670404895164],
        [-0.576546627444004, 51.53317561269609],
        [-0.576289725851672, 51.533646376016954],
        [-0.576170814870678, 51.533899407700716],
        [-0.575997529549838, 51.5339080951651],
        [-0.575901106718771, 51.533902428854766],
        [-0.575598839173411, 51.533886170842344],
        [-0.574359037224337, 51.53388190344358],
        [-0.573836859706266, 51.53388994474655],
        [-0.573190968454036, 51.53393514512385],
        [-0.572958647923632, 51.53394131177461],
        [-0.572850554995999, 51.533939997035304],
        [-0.572772868643363, 51.533934556051356],
        [-0.572604805985182, 51.53391452750911],
        [-0.572546024486763, 51.53390392113833],
        [-0.572428433456746, 51.53388360717084],
        [-0.572268139725723, 51.533845688589885],
        [-0.572048186273214, 51.53377916839862],
        [-0.571397095959304, 51.53362197470473],
        [-0.570782406693055, 51.53345353113163],
        [-0.570134179776079, 51.533297264461616],
        [-0.569962834321464, 51.53319806213227],
        [-0.569525264498956, 51.533128884616104],
        [-0.569292826721282, 51.533046920532854],
        [-0.569198355089817, 51.53302508681295],
        [-0.569009073903594, 51.53299220547478],
        [-0.568851133094899, 51.53297139577226],
        [-0.568544720121861, 51.53294967374576],
        [-0.568358494532875, 51.53295729283381],
        [-0.568142880777921, 51.532982537073764],
        [-0.567908813157204, 51.5329985636316],
        [-0.567395574571812, 51.532997693275924],
        [-0.56722000144163, 51.532987456534],
        [-0.567234618397837, 51.53252184705186],
        [-0.567308314481742, 51.531873521203664],
        [-0.567332545017852, 51.531560893832975],
        [-0.5675466539578, 51.530986218612796],
        [-0.567650177853392, 51.530765378902075],
        [-0.56770832318715, 51.530612324707114],
        [-0.567700350765256, 51.53054478701712],
        [-0.567689667938629, 51.530517680456974],
        [-0.567645469967654, 51.53045599495385],
        [-0.567919695626534, 51.53026241657953],
        [-0.568328798065782, 51.53018108567366],
        [-0.568880593869315, 51.53005473531934],
        [-0.56920115688147, 51.52990038498142],
        [-0.569456421670789, 51.529805484341665],
        [-0.569617314023608, 51.5297777722116],
        [-0.569950429857373, 51.52972877983692],
        [-0.570115447855772, 51.529707411745136],
        [-0.57030482368423, 51.529690836263946],
        [-0.570444864067273, 51.529684449819655],
        [-0.570593551032356, 51.529678168551506],
        [-0.571248262114887, 51.529671755912645],
        [-0.571956835118343, 51.52969476976303],
        [-0.572167826843955, 51.52967845437368],
        [-0.572651700569869, 51.529695132454876],
        [-0.572856196948675, 51.52970211612598],
        [-0.572968996583239, 51.52969089928984],
        [-0.573345622422334, 51.52963343444513],
        [-0.573765031010142, 51.52959087574721],
        [-0.574348855460008, 51.52949995806443],
        [-0.57475532013265, 51.5294563393447],
        [-0.575050174158881, 51.52943204543955],
        [-0.575053653669562, 51.529320586354444],
        [-0.575113468087154, 51.52929793348178],
        [-0.575034795287178, 51.52913961722738],
        [-0.574966164413954, 51.52902908071896],
        [-0.574788693788858, 51.52880302311868],
        [-0.574681323397714, 51.52868662061071],
        [-0.574586137254798, 51.52859554375715],
        [-0.574256619263805, 51.528345157842836],
        [-0.574179812613833, 51.52831185309122],
        [-0.573966807307791, 51.528254412817766],
        [-0.573597364662137, 51.528128529191335],
        [-0.573430699419718, 51.52806445767812],
        [-0.573147863276795, 51.52793512962474],
        [-0.573052830276576, 51.527885416777536],
        [-0.572851826689297, 51.527766974501446],
        [-0.572745771900887, 51.52770094164317],
        [-0.572702055177072, 51.527669836855374],
        [-0.572624484327493, 51.527614940857966],
        [-0.572526815960826, 51.52751124322156],
        [-0.57245503040009, 51.527409658842664],
        [-0.572409921949189, 51.52733087914794],
        [-0.572377754788294, 51.52725315611214],
        [-0.572317230533156, 51.52706808260963],
        [-0.572191079138295, 51.526400236514434],
        [-0.572079151561171, 51.52596905427058],
        [-0.571988805393959, 51.52567751137179],
        [-0.571914775139406, 51.52527916156354],
        [-0.571883813347187, 51.524748253553945],
        [-0.571863211929726, 51.52453129428684],
        [-0.571836635749598, 51.52441317487025],
        [-0.57179330276803, 51.52427776655439],
        [-0.571734035455373, 51.52414486185113],
        [-0.571652079271529, 51.523999991214005],
        [-0.571579056978811, 51.52389209671277],
        [-0.571395690285484, 51.5236713570728],
        [-0.571291137855743, 51.52355768320293],
        [-0.571081106168707, 51.52335999766712],
        [-0.570983962708512, 51.523285978797404],
        [-0.570786260310064, 51.52315498410941],
        [-0.570388573649878, 51.5229199420762],
        [-0.570129282440038, 51.52277650606904],
        [-0.569194500278952, 51.522293925484554],
        [-0.567556721699491, 51.521431383785625],
        [-0.567465923072617, 51.52147703383037],
        [-0.567310704611553, 51.52141669000079],
        [-0.567232276393551, 51.52138965522786],
        [-0.567143649567835, 51.521366092667314],
        [-0.567023409038103, 51.521339446280294],
        [-0.566901530323764, 51.521319074201905],
        [-0.566670317485315, 51.52129197102197],
        [-0.566378081851431, 51.52128030741745],
        [-0.566046407479669, 51.52128524595937],
        [-0.565765501109777, 51.521280013746804],
        [-0.565383171547998, 51.52129152478364],
        [-0.565327543464397, 51.521227000868684],
        [-0.565476962627901, 51.520921299410304],
        [-0.565037849978574, 51.52067584111212],
        [-0.565590524093305, 51.520288747372106],
        [-0.566431875688618, 51.51965879634779],
        [-0.566908080068268, 51.51927345959907],
        [-0.567678944384384, 51.518729861654556],
        [-0.568226116145196, 51.518286937589195],
        [-0.568987623514314, 51.517718938323725],
        [-0.56822020335877, 51.51663682110071],
        [-0.56669135007426, 51.514560765996116],
        [-0.566925870401173, 51.51415988705652],
        [-0.567336823939964, 51.51337180568634],
        [-0.567773837125719, 51.512625404546085],
        [-0.568090041162375, 51.51205467106143],
        [-0.568241710557582, 51.511905455423424],
        [-0.568704953606553, 51.51137877754782],
        [-0.568805552727066, 51.511249619830934],
        [-0.568767053002539, 51.51123656121149],
        [-0.567617551732521, 51.51085385580976],
        [-0.567287642292979, 51.51075900702003],
        [-0.567166129966627, 51.51072784903743],
        [-0.566864270910984, 51.510657620270514],
        [-0.566476321441219, 51.51057554821603],
        [-0.566112466754919, 51.51050635830211],
        [-0.56485900994728, 51.51031478542331],
        [-0.564023867407899, 51.51020205556282],
        [-0.563610223443611, 51.5101583253975],
        [-0.563259678733864, 51.51012435868845],
        [-0.563255357289717, 51.510124305760655],
        [-0.561819801118969, 51.50995025241505],
        [-0.560434927587198, 51.50976871054202],
        [-0.560433487118815, 51.50976869286484],
        [-0.559338713994278, 51.50966443280823],
        [-0.558634162986328, 51.50961531358035],
        [-0.558461789750311, 51.50959790892156],
        [-0.557545081837116, 51.50946794465434],
        [-0.556691495530902, 51.50939270238061],
        [-0.556461591011191, 51.50937188927974],
        [-0.555419119771627, 51.50925474800323],
        [-0.554673603158206, 51.509179922586114],
        [-0.553967596295807, 51.50913165652872],
        [-0.553011853522975, 51.50909739091091],
        [-0.552159482195355, 51.50907518391378],
        [-0.551654216318898, 51.50910401575751],
        [-0.551335565129266, 51.509109972309815],
        [-0.550406979560383, 51.50912817497412],
        [-0.5487026773388, 51.50920601486205],
        [-0.544991915777718, 51.509392042929534],
        [-0.54357078371074, 51.50944634398568],
        [-0.542488412134127, 51.50949674450541],
        [-0.542480690441947, 51.50928713259368],
        [-0.542605963372007, 51.50897396547586],
        [-0.542366995100283, 51.50896650024372],
        [-0.542305734909968, 51.5090799387079],
        [-0.542205123580191, 51.50920727547807],
        [-0.542049201052273, 51.50935190893331],
        [-0.541922654520291, 51.50943396260772],
        [-0.541818862045286, 51.509480330587664],
        [-0.541699511392808, 51.50951751296119],
        [-0.541635615090897, 51.5095329043909],
        [-0.5409065806408, 51.50957419439684],
        [-0.539986022501397, 51.50961129785679],
        [-0.539309902044636, 51.50957500520949],
        [-0.538764636119117, 51.50959249295347],
        [-0.537837622062763, 51.50960611966143],
        [-0.536186004659811, 51.50965745814639],
        [-0.534734115132923, 51.50977151548919],
        [-0.534396068796828, 51.50979786561766],
        [-0.53421304478377, 51.50979827641852],
        [-0.533612890868158, 51.509864510959666],
        [-0.532689960946453, 51.509885341742276],
        [-0.531449118929815, 51.50993365812409],
        [-0.529969066170904, 51.51002662211357],
        [-0.528855065161888, 51.51007380289887],
        [-0.528412460724373, 51.51012490160231],
        [-0.528105510321156, 51.50972269988184],
        [-0.528095861669996, 51.50970909064276],
        [-0.527740440085039, 51.50973790121196],
        [-0.527671596600001, 51.50968308446974],
        [-0.527670156155271, 51.50968306639028],
        [-0.527157847809777, 51.509527366016094],
        [-0.52698699514697, 51.50946317511995],
        [-0.526843453258814, 51.509401125377764],
        [-0.52673430821367, 51.50934490273339],
        [-0.526621393017782, 51.50927154761079],
        [-0.52653276250693, 51.509204791902356],
        [-0.526483797296931, 51.50915921625484],
        [-0.526428296985817, 51.50909287662439],
        [-0.526370582943698, 51.509005827287744],
        [-0.526325320439869, 51.508890159573745],
        [-0.526259234422439, 51.50848198640923],
        [-0.526182361095126, 51.50814021931734],
        [-0.526155515628981, 51.507989713647156],
        [-0.526149154741305, 51.5078295740156],
        [-0.526200457187971, 51.50744535590308],
        [-0.526899626917312, 51.506229411574665],
        [-0.526979112518622, 51.5060433736431],
        [-0.527061092612901, 51.5059140173384],
        [-0.527128254635294, 51.5058420244886],
        [-0.527178384781963, 51.50580668544593],
        [-0.52749393552366, 51.50562810699993],
        [-0.52792236451349, 51.504361099240185],
        [-0.528227628945425, 51.50360689390781],
        [-0.528344356295141, 51.50320371291021],
        [-0.52846477987349, 51.50273043958351],
        [-0.528710607188409, 51.502121159634825],
        [-0.528926241723666, 51.5015097020593],
        [-0.528541675480088, 51.50155073825613],
        [-0.528105638164315, 51.501579437560984],
        [-0.527967003510373, 51.501589387595764],
        [-0.527802514060655, 51.500881441255665],
        [-0.527783678765439, 51.500705858367326],
        [-0.527724380262677, 51.50017637695956],
        [-0.52771807814066, 51.499656552818585],
        [-0.527768922414782, 51.4992858160624],
        [-0.52784667229006, 51.4988848437167],
        [-0.527990998804669, 51.49838489418801],
        [-0.52822279016368, 51.49789773175127],
        [-0.528393232824643, 51.497570758306495],
        [-0.52853925760505, 51.4973756626199],
        [-0.528985762081178, 51.49679677468509],
        [-0.529043004790472, 51.49649535693358],
        [-0.529047662905781, 51.49635064201718],
        [-0.529151257944224, 51.496354638789136],
        [-0.529552501473839, 51.49597300801946],
        [-0.529933104204701, 51.4956954259262],
        [-0.530081932914375, 51.495547122550974],
        [-0.530486056926799, 51.49503064270677],
        [-0.530709828254655, 51.49479155769476],
        [-0.531169721299123, 51.49428746387141],
        [-0.531782440548457, 51.493778986912695],
        [-0.531939005221402, 51.493613692973476],
        [-0.531838055034341, 51.49339302130791],
        [-0.531165861579591, 51.49342147300177],
        [-0.530557255699267, 51.49344352380118],
        [-0.529849669657829, 51.49345264105346],
        [-0.529208927853002, 51.49344370878494],
        [-0.527765159375272, 51.49345526930661],
        [-0.525318308835156, 51.49343711948535],
        [-0.524729348109875, 51.4934306121911],
        [-0.523115157856911, 51.49341119689409],
        [-0.520997518566398, 51.493369226139556],
        [-0.519816430260369, 51.49336511734333],
        [-0.519004720402596, 51.493342281758984],
        [-0.518053542983571, 51.4933113839535],
        [-0.517977331954556, 51.49326276262034],
        [-0.51744712044266, 51.49326595319566],
        [-0.517350802682603, 51.49330430112881],
        [-0.516913124865713, 51.4932969691837],
        [-0.516049259931414, 51.493283344986736],
        [-0.514956428105038, 51.493311776339134],
        [-0.514163507760912, 51.49333140822738],
        [-0.513279762086514, 51.49339754191255],
        [-0.512170391049775, 51.493491380376184],
        [-0.511285527111679, 51.4935916550491],
        [-0.510625137348027, 51.49365520825609],
        [-0.509814352183932, 51.493780691323536],
        [-0.508828685313503, 51.49392372828339],
        [-0.508110428243855, 51.49403868613872],
        [-0.506555887456722, 51.494309349048315],
        [-0.506219822522408, 51.49441027767302],
        [-0.506034304319958, 51.49444478263013],
        [-0.505946673045685, 51.49443737188838],
        [-0.505867710885783, 51.49442917230044],
        [-0.505770793235482, 51.494573610572864],
        [-0.504413614779788, 51.49479910093183],
        [-0.503464995774973, 51.494953355942314],
        [-0.502477844796621, 51.495096320753106],
        [-0.501541086838016, 51.49523992109455],
        [-0.50099285614622, 51.49535251150206],
        [-0.500887477358402, 51.4953151960356],
        [-0.500732864382615, 51.4953734672539],
        [-0.500558044850609, 51.49481821461309],
        [-0.499590823676863, 51.49488048047545],
        [-0.498589808740273, 51.49491892616096],
        [-0.497001693694231, 51.494981313977696],
        [-0.496096481366624, 51.49499758638464],
        [-0.494921680756277, 51.4949762224737],
        [-0.493961553777031, 51.494954006609845],
        [-0.493662338728316, 51.494941172020006],
        [-0.493154656088654, 51.49491576722392],
        [-0.492592463284106, 51.494883365152155],
        [-0.491859065141868, 51.494844263003316],
        [-0.49114138911596, 51.49480895538583],
        [-0.490044309885314, 51.49474627918132]
      ]
    ]
  }
}
