{
  "type": "Feature",
  "properties": {
    "name": "Spelthorne",
    "level": 2,
    "center": [-0.4729, 51.4263]
  },
  "geometry": {
    "type": "MultiPolygon",
    "coordinates": [
      [
        [
          [-0.458640609771862, 51.45631543961192],
          [-0.458855757585238, 51.45603860049069],
          [-0.458879857022948, 51.4558356846171],
          [-0.458881436554027, 51.45536089562946],
          [-0.458949774469733, 51.4546558748496],
          [-0.458997600676258, 51.453875945415305],
          [-0.459066493537073, 51.45341103445084],
          [-0.459294272939914, 51.45271530475532],
          [-0.459538855024076, 51.45267535708114],
          [-0.459838483589532, 51.45223955842274],
          [-0.461320153647607, 51.45239122282939],
          [-0.461358611032742, 51.45150325758697],
          [-0.461411406865805, 51.450316927100346],
          [-0.461481812464047, 51.44899234979091],
          [-0.460800893044454, 51.44904095672163],
          [-0.460098756949614, 51.449078489704185],
          [-0.458851553898919, 51.449147516349385],
          [-0.457900624920047, 51.44922222898803],
          [-0.457687933682134, 51.449213133948575],
          [-0.457556617863592, 51.449180830225245],
          [-0.457461794987557, 51.44909055539342],
          [-0.457461263168791, 51.44889271243161],
          [-0.45753288002455, 51.44830464385298],
          [-0.457601150316726, 51.44785861331094],
          [-0.457619394343133, 51.447701483982776],
          [-0.457622647985284, 51.447562142362486],
          [-0.457615664038179, 51.44729946805826],
          [-0.457603988057381, 51.447176116435784],
          [-0.457522219884336, 51.446954722380305],
          [-0.457484544629813, 51.44670603199213],
          [-0.457406149882105, 51.44599998397249],
          [-0.457377590122379, 51.445651596279795],
          [-0.457314115333745, 51.445314439088364],
          [-0.457298636150323, 51.444663174700366],
          [-0.457301798867225, 51.44444110037621],
          [-0.457317694987891, 51.44422548851183],
          [-0.457436310903829, 51.4431389517879],
          [-0.457443909761881, 51.44299876803421],
          [-0.456289901353762, 51.44252764487358],
          [-0.455856455745982, 51.442366361431354],
          [-0.455574487886578, 51.44227901384939],
          [-0.45545719929286, 51.44221541897695],
          [-0.455391374937913, 51.44211923093496],
          [-0.455399893805057, 51.44195208415345],
          [-0.455647903568655, 51.44138253621725],
          [-0.455692633712681, 51.44125093717842],
          [-0.455732988108193, 51.44112107892432],
          [-0.455780312790308, 51.44086991476078],
          [-0.455835174787068, 51.440651222645755],
          [-0.455856653177835, 51.44044108292626],
          [-0.455853975902294, 51.44039248852884],
          [-0.455783384670982, 51.440309727016476],
          [-0.455797230017376, 51.44015523974388],
          [-0.455920896879336, 51.43998691277001],
          [-0.456006033709255, 51.43980908545487],
          [-0.456015684692026, 51.43965094588639],
          [-0.45620188737207, 51.439164211414486],
          [-0.456283875594404, 51.43890900745006],
          [-0.456361517953412, 51.438654645392766],
          [-0.456387610396632, 51.43843557383117],
          [-0.456444399930126, 51.438330211323084],
          [-0.456475301912596, 51.43822450773666],
          [-0.456467766933104, 51.43810660760326],
          [-0.456053433312853, 51.438147908968105],
          [-0.45433139651421, 51.43839677493596],
          [-0.454224363653911, 51.438413347702074],
          [-0.453791856148567, 51.43848137851317],
          [-0.453660495145764, 51.4384940327232],
          [-0.452108635439292, 51.43877298816317],
          [-0.450956016918072, 51.43898887662642],
          [-0.44959826113493, 51.43927130181397],
          [-0.448236882050411, 51.43957524344878],
          [-0.446288767456254, 51.43999639722555],
          [-0.446449336436444, 51.43950484353189],
          [-0.446667478660742, 51.438630977647136],
          [-0.446948408553256, 51.43781459252081],
          [-0.447022847277995, 51.43748645731471],
          [-0.447162539503632, 51.437058470468926],
          [-0.447311898170824, 51.436387817628415],
          [-0.447458159841499, 51.43593563727503],
          [-0.447529405391901, 51.435574187119144],
          [-0.447717105646834, 51.43500295517587],
          [-0.446968448986321, 51.43497597595611],
          [-0.445968680069205, 51.43492948467261],
          [-0.44517660900642, 51.434910013047556],
          [-0.444387137188213, 51.43485639982893],
          [-0.443436359576752, 51.43480783838539],
          [-0.442434180679239, 51.43474779730942],
          [-0.441252858989804, 51.4347096504782],
          [-0.439752475503255, 51.43461959674229],
          [-0.439906819003499, 51.434143260523896],
          [-0.439997129196534, 51.433519494767665],
          [-0.440127769113455, 51.43280993201749],
          [-0.440104955155083, 51.43250838453712],
          [-0.440043652841945, 51.4321964345161],
          [-0.440031971329324, 51.43203261817088],
          [-0.440026133656161, 51.43186618168339],
          [-0.440042606582959, 51.431509402927574],
          [-0.440043361108503, 51.43093839686618],
          [-0.439988423813456, 51.43065081070317],
          [-0.439983499013055, 51.4306264659038],
          [-0.439064641760289, 51.43040384336945],
          [-0.438159041441221, 51.43017239760865],
          [-0.436151551575025, 51.42968709059749],
          [-0.434792167048762, 51.42939112906066],
          [-0.433715144877002, 51.429168148778494],
          [-0.433436114262813, 51.42912486118537],
          [-0.432899253331892, 51.42904935778167],
          [-0.432639954233285, 51.42901802168888],
          [-0.432411949904426, 51.42899699427481],
          [-0.432189604892243, 51.42897873967013],
          [-0.431812947545902, 51.42897191298133],
          [-0.431471353090916, 51.42894936716852],
          [-0.431082956396413, 51.42890731140004],
          [-0.430646710773032, 51.4288763050893],
          [-0.429972860610967, 51.428810648451545],
          [-0.429748956327086, 51.42879596542958],
          [-0.42953456233437, 51.42879759525449],
          [-0.42942488613994, 51.4293950146665],
          [-0.427831579975629, 51.429252302371225],
          [-0.427833524028509, 51.42940519674764],
          [-0.427816140096919, 51.42953445253021],
          [-0.427653115128138, 51.43034427054533],
          [-0.427534458957224, 51.43069967413383],
          [-0.42748574830707, 51.4308195179991],
          [-0.427374658902949, 51.43082882103289],
          [-0.427076919011028, 51.430827530975655],
          [-0.426728389182015, 51.430839048068556],
          [-0.426347480335037, 51.43078808381015],
          [-0.42586156024408, 51.43077887344786],
          [-0.425641886091124, 51.43080830053618],
          [-0.424922949588264, 51.43092365143663],
          [-0.424337519113612, 51.4309634562118],
          [-0.424193140416304, 51.43097860400688],
          [-0.423498908719706, 51.43087756545721],
          [-0.423575146655957, 51.43104494445393],
          [-0.423579783595036, 51.43116100595366],
          [-0.423498424974874, 51.43118419260103],
          [-0.422940661274088, 51.43142308866791],
          [-0.422726638889027, 51.43153891071149],
          [-0.422421651307422, 51.431747927945],
          [-0.422072243497371, 51.43186822397775],
          [-0.421746677191394, 51.43196456046869],
          [-0.421428777048026, 51.43208887470345],
          [-0.421154031809787, 51.432171505153136],
          [-0.420880494078661, 51.43221908174569],
          [-0.420560018056574, 51.432209375727574],
          [-0.420322354093477, 51.43221786812319],
          [-0.420135650141619, 51.43225042531557],
          [-0.419994049345624, 51.432268302537565],
          [-0.419256002011848, 51.43235278539979],
          [-0.419078824105451, 51.43235939191356],
          [-0.418989256973708, 51.43232851184252],
          [-0.418987819025541, 51.43232849247917],
          [-0.418788553858869, 51.43226646104443],
          [-0.418632696038448, 51.43215555733454],
          [-0.418583919401328, 51.43210993979831],
          [-0.418554622434699, 51.4320834680642],
          [-0.41847526626634, 51.43200686542776],
          [-0.41835638238047, 51.43186678552433],
          [-0.417704759324455, 51.432031544929025],
          [-0.417294359805879, 51.43191810116829],
          [-0.417776270237595, 51.43121063064229],
          [-0.417900541957966, 51.431027969134476],
          [-0.416363779129841, 51.430622360691366],
          [-0.416144239440525, 51.430564543289925],
          [-0.416041894866498, 51.430695345102286],
          [-0.413806257686541, 51.430075236816705],
          [-0.414352549634545, 51.42929581290294],
          [-0.412452813228595, 51.42878182816207],
          [-0.413086203943426, 51.42785521833737],
          [-0.412817267600844, 51.427812011693],
          [-0.412639572276972, 51.427792520424404],
          [-0.412190663059818, 51.42775406877323],
          [-0.412038786270281, 51.4277367247247],
          [-0.411722466815163, 51.42769107513655],
          [-0.411565213204085, 51.42766286697676],
          [-0.411306464654388, 51.42757483383694],
          [-0.4111876539921, 51.427516572711795],
          [-0.410868606194079, 51.427342295345305],
          [-0.410789704345477, 51.4272117380292],
          [-0.410525874463979, 51.42685566656459],
          [-0.410467598687258, 51.426669636999954],
          [-0.410400703432644, 51.42656621870969],
          [-0.410326557343386, 51.426464500460725],
          [-0.410158764547593, 51.42628417897246],
          [-0.410055898744314, 51.42622253583099],
          [-0.409719861191544, 51.42604083033146],
          [-0.409511191833365, 51.425877937453905],
          [-0.409341376198817, 51.42575603641226],
          [-0.409006746856932, 51.42545115206495],
          [-0.40895120234609, 51.42526964828622],
          [-0.408849183090306, 51.42510100228068],
          [-0.408785076783082, 51.42495894927784],
          [-0.408752001245457, 51.42458620973008],
          [-0.408720836903448, 51.424406835365126],
          [-0.40863710411067, 51.42425012774766],
          [-0.408537213804571, 51.42410309243583],
          [-0.408521896944926, 51.4239643995719],
          [-0.408441541420518, 51.42383471524954],
          [-0.408257362509802, 51.42375397893222],
          [-0.407775868874371, 51.42357837889984],
          [-0.406954439517158, 51.42316884734515],
          [-0.406491617091278, 51.422911663949066],
          [-0.406345760994818, 51.42284583376898],
          [-0.405910476008173, 51.42266545900302],
          [-0.40536174717435, 51.42247994212393],
          [-0.404906075226474, 51.422596039452415],
          [-0.404315855686395, 51.422734582950135],
          [-0.404135991871346, 51.4227779957429],
          [-0.403871930408933, 51.422843642130644],
          [-0.403609274518625, 51.422910206314185],
          [-0.403346586551096, 51.422977668716776],
          [-0.403082522874786, 51.42304331327474],
          [-0.402818521158351, 51.42310715957195],
          [-0.402551768847382, 51.42316737076945],
          [-0.402283734998244, 51.42322306762478],
          [-0.40201016946716, 51.42327239367566],
          [-0.401759950797457, 51.42331214570736],
          [-0.401460694872191, 51.42335572426709],
          [-0.401160157932743, 51.42339478751975],
          [-0.400856902135598, 51.42342931661827],
          [-0.400553771473356, 51.42346024962007],
          [-0.400249359761463, 51.423486668078326],
          [-0.399943667085828, 51.42350857198758],
          [-0.399636662124644, 51.4235268601633],
          [-0.399432044381654, 51.42353755379215],
          [-0.399102256553424, 51.423549234564355],
          [-0.398772625706866, 51.423556420300635],
          [-0.398441714284502, 51.42355909135524],
          [-0.398112429122869, 51.423556388215445],
          [-0.398096614953405, 51.42355617199766],
          [-0.397781832143868, 51.42355006921787],
          [-0.397451392525517, 51.423539255201355],
          [-0.397122548012463, 51.4235239658403],
          [-0.396908652770376, 51.423512046917615],
          [-0.396650316386559, 51.42349592245951],
          [-0.39639207460361, 51.423477100990546],
          [-0.396133927465759, 51.42345558251366],
          [-0.3958773126636, 51.423431386715016],
          [-0.395622261723272, 51.423403614790914],
          [-0.395367337055564, 51.42337224706505],
          [-0.395113976361523, 51.423337303233666],
          [-0.394995218941652, 51.423319490028845],
          [-0.394862179695051, 51.423298783309704],
          [-0.394764924086324, 51.42328306294062],
          [-0.394511910914423, 51.42323823089522],
          [-0.394260430406543, 51.42319072158851],
          [-0.394011983267748, 51.423138757110124],
          [-0.393763631248966, 51.42308409569249],
          [-0.393518281181954, 51.423025877948064],
          [-0.393274495480172, 51.42296408418359],
          [-0.393240276123003, 51.42295552171713],
          [-0.393022273863679, 51.422896778764866],
          [-0.392807210484987, 51.42283627724992],
          [-0.392593679917308, 51.42277309865454],
          [-0.392579461389398, 51.42276840736891],
          [-0.39238311981235, 51.422707262713494],
          [-0.392174124123124, 51.42263785090496],
          [-0.391968067399276, 51.42256668059185],
          [-0.391763543592853, 51.42249283324683],
          [-0.39156202190496, 51.42241542980288],
          [-0.391363470800557, 51.42233536908761],
          [-0.391342222309824, 51.422326084927555],
          [-0.391260040513607, 51.42229078535008],
          [-0.391065961127066, 51.42220628934502],
          [-0.390874852370318, 51.4221191361084],
          [-0.389694976557716, 51.421559784406924],
          [-0.386641817805753, 51.42008080002807],
          [-0.386671549779566, 51.420053332885544],
          [-0.387025912214231, 51.41975156962477],
          [-0.387693765155329, 51.41932822462147],
          [-0.387395076520615, 51.41902916374144],
          [-0.387390922189614, 51.419024610369874],
          [-0.38722514724323, 51.418790324884824],
          [-0.386988512494615, 51.41824032951545],
          [-0.386876503262777, 51.41790876633169],
          [-0.386875065791378, 51.41790874654702],
          [-0.386761773846559, 51.41765450039531],
          [-0.386753438940294, 51.417564461541076],
          [-0.386720052677824, 51.417450697595875],
          [-0.386573107456527, 51.41680480024981],
          [-0.386510771736619, 51.41653325768193],
          [-0.38654963384555, 51.41649152634092],
          [-0.386492890805156, 51.415898117105385],
          [-0.386486587205754, 51.41575054775981],
          [-0.386438512240162, 51.41552326634305],
          [-0.386419399038631, 51.415371923491605],
          [-0.386434870070634, 51.415300193770236],
          [-0.386580038603662, 51.41505758703969],
          [-0.386594242157317, 51.41502181120804],
          [-0.386331540162558, 51.414641394480505],
          [-0.386280246912691, 51.4145462634079],
          [-0.386208902740012, 51.4143672227947],
          [-0.38615899553356, 51.414314377103736],
          [-0.386122796600381, 51.41428060512581],
          [-0.387565568896023, 51.41435082351554],
          [-0.38852250347942, 51.414373877186186],
          [-0.389005994961582, 51.41436523626063],
          [-0.389716652800589, 51.414357916163056],
          [-0.390292577678523, 51.41433794991422],
          [-0.39014644151319, 51.413463637303096],
          [-0.390038781664866, 51.41280388253388],
          [-0.389908378948313, 51.41221845572786],
          [-0.389771604444648, 51.41140542224392],
          [-0.389649977943542, 51.410693316471956],
          [-0.38929590901464, 51.41070283940908],
          [-0.389177090134336, 51.41031990974826],
          [-0.387855511193106, 51.41032332060477],
          [-0.387336966869579, 51.41034856069033],
          [-0.387054287111096, 51.41037254842464],
          [-0.386828938210714, 51.41040182105153],
          [-0.386635905047348, 51.41041175385376],
          [-0.386480905154238, 51.410403324991506],
          [-0.386240209684807, 51.41037842811886],
          [-0.3850805190801, 51.41023565470673],
          [-0.38430935140734, 51.41016657186553],
          [-0.38377756820389, 51.410118771207124],
          [-0.383811061798095, 51.40953649665561],
          [-0.383424729634773, 51.409482606737285],
          [-0.383350228770937, 51.40853822914575],
          [-0.384584591212925, 51.40888618743409],
          [-0.385136028062003, 51.4090286799459],
          [-0.385668266817427, 51.40914482602886],
          [-0.385696820627668, 51.40915061505303],
          [-0.386994482192298, 51.40937621713927],
          [-0.387355296732813, 51.40941985181971],
          [-0.388857617907688, 51.409509759330554],
          [-0.389457012655774, 51.409556667127305],
          [-0.390464814232273, 51.40964335428001],
          [-0.390740680933647, 51.409608473371954],
          [-0.390860727920853, 51.409588538880904],
          [-0.391190023579423, 51.409547196221936],
          [-0.391919697708744, 51.409364763644334],
          [-0.39217926210031, 51.40930267713715],
          [-0.392477535665725, 51.40924381886979],
          [-0.392668256431814, 51.40921765763058],
          [-0.393143066242899, 51.40912704590243],
          [-0.393244553537369, 51.409103257368876],
          [-0.393442062856394, 51.40904751156083],
          [-0.393566797289778, 51.409016847149886],
          [-0.394147048813308, 51.40883055394191],
          [-0.394937105581325, 51.40860666387341],
          [-0.39523494202198, 51.40851901562937],
          [-0.396276106911845, 51.40822751142507],
          [-0.396493634808516, 51.40817473236297],
          [-0.396825464540162, 51.40806056673704],
          [-0.39704674637688, 51.407982658087555],
          [-0.397054205198917, 51.40801603357866],
          [-0.39708115878185, 51.40856046844104],
          [-0.397119553796502, 51.408572684250785],
          [-0.397193500974409, 51.408596177669345],
          [-0.398033450386208, 51.40830190588934],
          [-0.398209392848814, 51.40824585736346],
          [-0.398930027344975, 51.40803268244514],
          [-0.399089098747399, 51.407965610738216],
          [-0.399163242819638, 51.40794234290812],
          [-0.399322588202188, 51.4079085480885],
          [-0.399680796429053, 51.40786218092906],
          [-0.399762840579608, 51.4078597040986],
          [-0.399829389987295, 51.40784802282263],
          [-0.399919813443295, 51.4078114875576],
          [-0.3999243133866, 51.40780615330093],
          [-0.399850899233015, 51.407602812375984],
          [-0.399821103504181, 51.40755024715927],
          [-0.399752009822107, 51.40747016686282],
          [-0.399631901417021, 51.40736870639086],
          [-0.399330250837154, 51.40707231987033],
          [-0.400254374638452, 51.40667216753273],
          [-0.400432247596911, 51.406601753572836],
          [-0.400810609186179, 51.40647202485879],
          [-0.402091330673251, 51.40607042863638],
          [-0.40238157495366, 51.40599345023738],
          [-0.402768135726352, 51.4059168845616],
          [-0.402970584419797, 51.405883672237],
          [-0.403416937588943, 51.4058241062888],
          [-0.404051491204872, 51.40572753326284],
          [-0.404466006150263, 51.40567382472034],
          [-0.404626056543637, 51.40566071579686],
          [-0.404866678323103, 51.405646005489196],
          [-0.405035006749682, 51.40564290078543],
          [-0.405160003067072, 51.4056455011416],
          [-0.405548486843884, 51.40567866491693],
          [-0.405683449125219, 51.405684098149436],
          [-0.405864805437255, 51.40567847163624],
          [-0.40604519389852, 51.40565934244259],
          [-0.40663150421823, 51.405544113633255],
          [-0.407151705350215, 51.40542798338821],
          [-0.407981378981311, 51.4052189327308],
          [-0.408158484629718, 51.40517007936832],
          [-0.408824603097179, 51.40495070753331],
          [-0.409344415690653, 51.40476261967816],
          [-0.409579561851321, 51.404656997843084],
          [-0.410173996881761, 51.40434851582435],
          [-0.410410137421007, 51.40421412876743],
          [-0.410635343756098, 51.40410477285762],
          [-0.410755864809411, 51.40402906897269],
          [-0.411043167006253, 51.403787460505626],
          [-0.411283763790086, 51.403565901687884],
          [-0.41130900415192, 51.40354286250138],
          [-0.411415682307592, 51.40345168247365],
          [-0.411536098066136, 51.4032545731984],
          [-0.41254782312808, 51.40185640795279],
          [-0.412652555499766, 51.40173822193885],
          [-0.412847777595261, 51.40153942661906],
          [-0.412933582856692, 51.401469545294596],
          [-0.413358317357762, 51.40132691468233],
          [-0.414027691429481, 51.40105270101959],
          [-0.414168129609702, 51.400982658831325],
          [-0.414632414260248, 51.4006939756495],
          [-0.41493881898973, 51.40043912684005],
          [-0.414986681133219, 51.400302184107304],
          [-0.415086140663273, 51.40012816933699],
          [-0.415158973747865, 51.40005901034182],
          [-0.415283940008323, 51.39997886560676],
          [-0.415398940542619, 51.39989588814662],
          [-0.415444634624281, 51.39986323256081],
          [-0.415561413191788, 51.39977038688589],
          [-0.415610935468327, 51.39966853831676],
          [-0.415669553199135, 51.39959469041352],
          [-0.415705521679866, 51.39951064420029],
          [-0.415703943893101, 51.399431486096944],
          [-0.415683398418938, 51.399318798156685],
          [-0.415702784248827, 51.39925700980152],
          [-0.415837331663786, 51.39914911627359],
          [-0.416063507454347, 51.39909372008664],
          [-0.416216968216425, 51.39906252067977],
          [-0.416397388493626, 51.39904157746904],
          [-0.416865956031572, 51.39896067785227],
          [-0.41704465002724, 51.39890643691146],
          [-0.417103615516994, 51.39886406784414],
          [-0.417140593013522, 51.398833991711726],
          [-0.417179534848741, 51.39878865431261],
          [-0.41719361497617, 51.398755571063184],
          [-0.417228236386141, 51.39866880834641],
          [-0.417187757369976, 51.39855045576271],
          [-0.41710784779891, 51.398116822036584],
          [-0.417115406936179, 51.39798113261157],
          [-0.417120722407417, 51.397868794201635],
          [-0.417132973958389, 51.3977637437256],
          [-0.417198389440015, 51.39765941129131],
          [-0.417307013275222, 51.39759433147234],
          [-0.417458845559394, 51.39756850415062],
          [-0.417986008837773, 51.3974137509737],
          [-0.418708311362734, 51.397186088852244],
          [-0.418733399741748, 51.39720890940235],
          [-0.418751458866392, 51.39722713869706],
          [-0.418783514572779, 51.39725634821273],
          [-0.418947696724763, 51.39716413872564],
          [-0.41921735708083, 51.39705626546602],
          [-0.419291937889546, 51.39701950161184],
          [-0.419584005297024, 51.39684538292957],
          [-0.419624411132698, 51.396799165184945],
          [-0.419641393700385, 51.39676522150485],
          [-0.419643314565942, 51.39670949196314],
          [-0.419621180969764, 51.39664264666671],
          [-0.419318512282826, 51.396540543035506],
          [-0.419220021498985, 51.396520329653264],
          [-0.419195440381558, 51.39652449449087],
          [-0.419124559416171, 51.396495660635146],
          [-0.419049615974249, 51.3964595776794],
          [-0.419034368688244, 51.39644318492186],
          [-0.418964913635528, 51.39637300324948],
          [-0.418940724384113, 51.39632411570559],
          [-0.418907934133119, 51.396232845880164],
          [-0.418864672256185, 51.39611175846726],
          [-0.418845442472591, 51.39591905274384],
          [-0.418826803810097, 51.395834268789386],
          [-0.418763086151628, 51.39572279742586],
          [-0.418714305727633, 51.395636707464035],
          [-0.418685950719279, 51.39554190027347],
          [-0.418792033307973, 51.395341892540216],
          [-0.418923410681803, 51.39524204626232],
          [-0.418948487068369, 51.39522349966319],
          [-0.419004077049917, 51.39519547261992],
          [-0.419093406279309, 51.39518948346502],
          [-0.419213198431601, 51.39521717858715],
          [-0.419316864651655, 51.395212281935876],
          [-0.419422792687444, 51.395141768139126],
          [-0.419508047652638, 51.39508716251083],
          [-0.419531055692158, 51.39504520657307],
          [-0.419542848206456, 51.39499500584017],
          [-0.419558234527266, 51.39484053690185],
          [-0.419588646764778, 51.39458375248927],
          [-0.41951998734507, 51.394448833546946],
          [-0.41959485450263, 51.39444534682651],
          [-0.419681215843061, 51.39444201506187],
          [-0.419825970195465, 51.39449612536915],
          [-0.420019737053553, 51.394462766714405],
          [-0.420143497660303, 51.39450040650661],
          [-0.420245453340788, 51.39441994634485],
          [-0.420297319764547, 51.394374782161734],
          [-0.420707776948619, 51.394101537192604],
          [-0.42131889165209, 51.39309358340913],
          [-0.420959643381814, 51.392881908402295],
          [-0.420668184457962, 51.39270531859235],
          [-0.420674117110197, 51.39270000285877],
          [-0.421077923889879, 51.39228547989169],
          [-0.421387011571979, 51.39240924858036],
          [-0.421496078269312, 51.392414314929475],
          [-0.421599645657943, 51.392412112851865],
          [-0.421671715581373, 51.392364522376795],
          [-0.42201457314066, 51.39213352994917],
          [-0.422377394928947, 51.39186504348696],
          [-0.422444996842351, 51.39182189038696],
          [-0.422697808259293, 51.39170119716349],
          [-0.423002184957128, 51.391585693572175],
          [-0.423082376474891, 51.39155260125755],
          [-0.423145512837487, 51.39151388390636],
          [-0.423183793096212, 51.391487421546636],
          [-0.423399356174413, 51.39140489328995],
          [-0.423693781913294, 51.391327921709674],
          [-0.423790146418959, 51.39128425547894],
          [-0.423974038777918, 51.39120309867623],
          [-0.424341966453459, 51.391162184653325],
          [-0.424366482602143, 51.39115981654387],
          [-0.424648424716237, 51.391111450668284],
          [-0.424698258937535, 51.391083344640776],
          [-0.424755430719698, 51.39105084098416],
          [-0.424883665239133, 51.39104177369238],
          [-0.424916801370546, 51.391039521330065],
          [-0.425079189637912, 51.39099853993719],
          [-0.425351733375116, 51.39088889718224],
          [-0.42565172038544, 51.390691496158354],
          [-0.425979575128878, 51.39051964763916],
          [-0.426135528823214, 51.390414731733124],
          [-0.42620854460252, 51.39033927624497],
          [-0.426345023506128, 51.39013158420967],
          [-0.426378243704655, 51.39004300472776],
          [-0.426399804990552, 51.39000102958976],
          [-0.426452541095668, 51.38997206253845],
          [-0.426660681375387, 51.38993798804478],
          [-0.426538378280078, 51.38893548247764],
          [-0.426543203864726, 51.38883662994035],
          [-0.426546192303823, 51.388749442964134],
          [-0.426853037013357, 51.387973914142144],
          [-0.427174401731512, 51.38715181841673],
          [-0.427263080287527, 51.38699653934941],
          [-0.427507286485076, 51.38666439686445],
          [-0.427626930795802, 51.38648615257943],
          [-0.427666743643859, 51.38641474688684],
          [-0.43005245183281, 51.3871724269787],
          [-0.430112096837084, 51.38710937940684],
          [-0.43019885997622, 51.387009825897636],
          [-0.429160691130479, 51.386688370888464],
          [-0.427888832162658, 51.386266652820076],
          [-0.427957949798329, 51.3862208191389],
          [-0.428052073106602, 51.386158235132015],
          [-0.428087688586551, 51.38612544068665],
          [-0.428149571522115, 51.38603904365133],
          [-0.428177737108915, 51.385971977795165],
          [-0.428193394879585, 51.385934419370614],
          [-0.428356037957804, 51.385759448831884],
          [-0.428822867389004, 51.38538892374998],
          [-0.428855085793716, 51.38537137075315],
          [-0.428895923219563, 51.38535393330606],
          [-0.429067276521803, 51.38530227564742],
          [-0.429086012613423, 51.38530072832236],
          [-0.429128830995578, 51.38530939556536],
          [-0.429209297175607, 51.38535183965989],
          [-0.429340665162087, 51.38533471630733],
          [-0.429420380311843, 51.38531510202508],
          [-0.429608395366463, 51.38523848792627],
          [-0.429796440555103, 51.38516097468208],
          [-0.43004786116075, 51.384995284602354],
          [-0.430090257267987, 51.384974270628156],
          [-0.430564516462337, 51.384806169150174],
          [-0.430848564847618, 51.38469486926934],
          [-0.430939808288879, 51.38463224438951],
          [-0.431030505834782, 51.38454353391607],
          [-0.431158275115904, 51.38446341293743],
          [-0.43150009313225, 51.38430162771725],
          [-0.431667253196035, 51.384246313149255],
          [-0.432089577985082, 51.384041540485505],
          [-0.432213488926477, 51.38399014269595],
          [-0.432407326095907, 51.38395316896473],
          [-0.432531414679274, 51.38393864241465],
          [-0.432898358083694, 51.383924666007175],
          [-0.433244429157171, 51.383890625911576],
          [-0.433339327924406, 51.3838891969557],
          [-0.43343544845142, 51.383894078996974],
          [-0.43399050241409, 51.383926676996346],
          [-0.434127089459322, 51.38392490526653],
          [-0.434428384037635, 51.383897457316586],
          [-0.43461836546032, 51.383889204374356],
          [-0.434831177063099, 51.383885752307144],
          [-0.435572135469658, 51.383902836416254],
          [-0.435722594107807, 51.38391563504481],
          [-0.435758443857233, 51.3839179118748],
          [-0.435618839062391, 51.38426136048841],
          [-0.435615751753673, 51.38426761403089],
          [-0.435761626597085, 51.384288444666986],
          [-0.435927305674596, 51.384318531813854],
          [-0.435941578332252, 51.384321419969986],
          [-0.436072660274231, 51.38435464233945],
          [-0.436231828537376, 51.38440712340371],
          [-0.436550959774491, 51.384530979680626],
          [-0.437055909499826, 51.3848110838364],
          [-0.437373788238001, 51.38505631958778],
          [-0.437513061039406, 51.385186768254115],
          [-0.437551538707666, 51.385238538180026],
          [-0.437703400687682, 51.38550584004717],
          [-0.437742550581714, 51.38558010005535],
          [-0.437764737955751, 51.38564604079312],
          [-0.437792394905314, 51.38576241228038],
          [-0.437832449041951, 51.38631688256789],
          [-0.437858394712978, 51.38644132444871],
          [-0.437911481536681, 51.38657062417938],
          [-0.437995225119158, 51.38668594435924],
          [-0.438137375810078, 51.386900959793195],
          [-0.438353646955935, 51.38713404802288],
          [-0.438496565645924, 51.38728432739341],
          [-0.438879052047273, 51.38765901153668],
          [-0.439303449989193, 51.388111587510316],
          [-0.439976877711891, 51.38872214604436],
          [-0.440251271996065, 51.388937119686474],
          [-0.440462089262365, 51.389077508781],
          [-0.44111899998397, 51.38945583505639],
          [-0.441323310690822, 51.38957635260811],
          [-0.441590620289405, 51.38970400188396],
          [-0.441849187087116, 51.38979286675237],
          [-0.441947673609527, 51.389813059701005],
          [-0.442092193354764, 51.3898320657352],
          [-0.442264497278559, 51.389837052785246],
          [-0.442436984262077, 51.38983664653554],
          [-0.442599902838921, 51.38982172499627],
          [-0.442777492559436, 51.38979800562275],
          [-0.442965104520277, 51.38973305375007],
          [-0.443036627369047, 51.38970073142646],
          [-0.443107079368851, 51.38965760388648],
          [-0.443161667412009, 51.389616064155014],
          [-0.443306202366324, 51.3894651113707],
          [-0.44334727740307, 51.38939821325066],
          [-0.443422640333537, 51.38925263666275],
          [-0.443454024528171, 51.38917481889647],
          [-0.44349441655043, 51.389000901361726],
          [-0.443544894922187, 51.38882621846185],
          [-0.443627402200696, 51.38830035542196],
          [-0.443640585076891, 51.3880811143216],
          [-0.443652853495135, 51.387888838464555],
          [-0.443661369004456, 51.387764855507015],
          [-0.443701950148897, 51.38767007407137],
          [-0.443783394744729, 51.3875569508461],
          [-0.443848827854692, 51.38749217435436],
          [-0.443919088457161, 51.38741217471043],
          [-0.444021196713313, 51.387325403717874],
          [-0.444160989994861, 51.387229241018886],
          [-0.444250325505362, 51.38718006868145],
          [-0.444322209031441, 51.38713695943707],
          [-0.444506442578563, 51.387044083731816],
          [-0.444802847377749, 51.38694909872557],
          [-0.445004262178778, 51.38690051321848],
          [-0.445120068301874, 51.38687597095316],
          [-0.445693965723782, 51.38677746951901],
          [-0.446047499394082, 51.386735395019436],
          [-0.446328232197904, 51.38672113061831],
          [-0.446414485122039, 51.386720475091266],
          [-0.446557986500204, 51.386726872762544],
          [-0.446784563651254, 51.38674156482433],
          [-0.44698207571238, 51.38676576315548],
          [-0.447210028931038, 51.38678227110998],
          [-0.447582958821438, 51.38684655987076],
          [-0.447831161811872, 51.38694426684551],
          [-0.448031191902087, 51.38702155222055],
          [-0.448073741237282, 51.3870383018627],
          [-0.448154530360629, 51.38707174405847],
          [-0.448540084634769, 51.387272882145076],
          [-0.449118997958759, 51.3876213552768],
          [-0.449621418698597, 51.38785191210822],
          [-0.449739136262936, 51.38789843092474],
          [-0.449985083451752, 51.38797811848988],
          [-0.45021931626012, 51.38802168088457],
          [-0.450455714372065, 51.38804368954269],
          [-0.450641033023688, 51.3880461385951],
          [-0.450801221390367, 51.38802667342638],
          [-0.451252000761725, 51.38791392847313],
          [-0.451690568211821, 51.3877371752758],
          [-0.451890990440342, 51.38763281321797],
          [-0.451986915882405, 51.38755854394485],
          [-0.45203788219958, 51.38749627010163],
          [-0.452104664072964, 51.38726334863162],
          [-0.452068216990821, 51.387108197042075],
          [-0.451955589363946, 51.38691067376098],
          [-0.451614441158532, 51.38654287132247],
          [-0.45077951971342, 51.38573151311321],
          [-0.450581229076349, 51.38551757010199],
          [-0.450364609272268, 51.385208064449216],
          [-0.450255060784334, 51.38491975712803],
          [-0.450222780021271, 51.38476915641735],
          [-0.450224418684932, 51.384720618819664],
          [-0.450273813304546, 51.38423657838937],
          [-0.450310331047265, 51.384091383306384],
          [-0.450358613237393, 51.383938250501544],
          [-0.450408433255614, 51.38382470493888],
          [-0.450464768440628, 51.383731029188944],
          [-0.450523217596627, 51.383659862388726],
          [-0.450579653554498, 51.383605754541385],
          [-0.450653417693272, 51.383549177946705],
          [-0.450832344256094, 51.38335730630301],
          [-0.450907199975861, 51.38326837130464],
          [-0.451009964857409, 51.38320408453154],
          [-0.451014425836431, 51.38319964726672],
          [-0.451076181705187, 51.383158198869644],
          [-0.451131918738096, 51.38312476409424],
          [-0.451222584935602, 51.38307830212639],
          [-0.451285473568458, 51.38304586100203],
          [-0.45151872871039, 51.38294732791633],
          [-0.451842637013751, 51.38284549739286],
          [-0.451978482741007, 51.38282301267208],
          [-0.45204037169403, 51.382820233328545],
          [-0.452196551458666, 51.38283398661749],
          [-0.452973343048942, 51.38306725673972],
          [-0.453393435020022, 51.38318161048348],
          [-0.453516274715832, 51.38320391433514],
          [-0.453819201350506, 51.38325557175347],
          [-0.454074045571982, 51.3832841130129],
          [-0.454349242959801, 51.383305728271935],
          [-0.45454188185843, 51.38330377301034],
          [-0.454763673971367, 51.383289612528294],
          [-0.455006333146309, 51.38325324576345],
          [-0.455166780201872, 51.38322568628355],
          [-0.455333578074887, 51.383180225502144],
          [-0.455630989710469, 51.38301149167679],
          [-0.45635402820983, 51.38253632877331],
          [-0.456831455632572, 51.38231331123695],
          [-0.457878892912498, 51.38184870568428],
          [-0.458561546365156, 51.38159061397773],
          [-0.458715407295558, 51.38154497826569],
          [-0.458861512291823, 51.38151632589765],
          [-0.458955483384512, 51.38149957705043],
          [-0.459548966873661, 51.381500187141285],
          [-0.459586344009306, 51.38149977929142],
          [-0.459581393366926, 51.381219151431274],
          [-0.459506687089353, 51.38104731371792],
          [-0.45943300159349, 51.38097350650157],
          [-0.45936816414059, 51.38093578516646],
          [-0.459301528271793, 51.3809088310239],
          [-0.459251676646297, 51.38089558614727],
          [-0.459207389588742, 51.38088780986218],
          [-0.458605338474521, 51.38084302250071],
          [-0.458455331618519, 51.380816769561875],
          [-0.45817896515418, 51.380744790994484],
          [-0.458085733328183, 51.38069680365455],
          [-0.458016510843981, 51.380618558046955],
          [-0.457990940863782, 51.38056696485308],
          [-0.458642241085419, 51.38021493922282],
          [-0.46002288416741, 51.37962520730882],
          [-0.460265240945024, 51.379511491254114],
          [-0.460393480069025, 51.37945832278088],
          [-0.460732673848799, 51.37932789339566],
          [-0.460871218142996, 51.37922450236497],
          [-0.460982671711337, 51.37915762416385],
          [-0.461048904930574, 51.37911083442754],
          [-0.461096284662463, 51.379069192467945],
          [-0.46117410911297, 51.378976693679235],
          [-0.461350318064038, 51.37864988607642],
          [-0.461464612085502, 51.37858394397151],
          [-0.461567646263638, 51.37855382350036],
          [-0.461781468265765, 51.37847659853007],
          [-0.46185984342188, 51.37845334798349],
          [-0.462036280394289, 51.378419694505695],
          [-0.462219145817774, 51.378408606126634],
          [-0.462665633057714, 51.37842076000822],
          [-0.462795917462928, 51.378435058748344],
          [-0.462897264632576, 51.378455272394866],
          [-0.463013990097642, 51.378488277038365],
          [-0.463104801557412, 51.37852274012588],
          [-0.463235942506551, 51.37859729864626],
          [-0.463312631764048, 51.378624382424874],
          [-0.463382943771345, 51.378670266542194],
          [-0.463454443343562, 51.37876652359132],
          [-0.46348653813331, 51.378837984388475],
          [-0.463501093556687, 51.37908996226301],
          [-0.463479088759398, 51.37914632576969],
          [-0.463390543766934, 51.37930163219844],
          [-0.46289990683082, 51.379749312508956],
          [-0.462845466566607, 51.37978726559963],
          [-0.462725516312875, 51.379850437120695],
          [-0.462494091598569, 51.37993822373162],
          [-0.462253033027387, 51.380013294105446],
          [-0.462217927468194, 51.38003171739528],
          [-0.462141549061142, 51.380081072348986],
          [-0.462044247848524, 51.38015443208781],
          [-0.461941853934087, 51.38025110512118],
          [-0.461811616211023, 51.3804067623406],
          [-0.461681990637641, 51.38062987041031],
          [-0.461413655082245, 51.381132618923196],
          [-0.461350261605292, 51.38130893663224],
          [-0.461269992232458, 51.38147424181716],
          [-0.461282045419013, 51.381629069265365],
          [-0.461330451337282, 51.38181404898214],
          [-0.461376396860782, 51.3819009792839],
          [-0.461455772396142, 51.38197665841477],
          [-0.461647662727136, 51.38208259039391],
          [-0.46181355704839, 51.38214951350664],
          [-0.461999953722045, 51.382205015383974],
          [-0.462094096380078, 51.382226034310854],
          [-0.462295761781979, 51.38225475894162],
          [-0.462663974039274, 51.38224520271424],
          [-0.462900635237141, 51.382215934915706],
          [-0.463029321904858, 51.382192444291036],
          [-0.463295825230745, 51.382130295298886],
          [-0.464093473363656, 51.381956409658585],
          [-0.464444129489233, 51.381870182444565],
          [-0.464594330909836, 51.38184787130491],
          [-0.464775863121943, 51.38183406362959],
          [-0.46733081322053, 51.381795572277134],
          [-0.467486964491894, 51.38181020403289],
          [-0.467606904771982, 51.38183335439627],
          [-0.467978938090758, 51.38188138270671],
          [-0.468109383994317, 51.38189118134035],
          [-0.46828750210421, 51.38189350986263],
          [-0.468982438691124, 51.38186842099263],
          [-0.4692324378469, 51.381869888763994],
          [-0.469527953177855, 51.38188543908701],
          [-0.469954543833666, 51.38189190943737],
          [-0.470113388584706, 51.38191196825187],
          [-0.470211813319099, 51.38193393576052],
          [-0.470406867087293, 51.38198863794377],
          [-0.470560204687326, 51.38204459377921],
          [-0.470615446870186, 51.38206869500811],
          [-0.47064920242593, 51.38209071729635],
          [-0.470721740444196, 51.38215640916103],
          [-0.470876870890172, 51.38233108738201],
          [-0.470966195224204, 51.3824968135557],
          [-0.471020419818881, 51.38255147540023],
          [-0.471020446170667, 51.382680066757],
          [-0.470976656050644, 51.38295915830839],
          [-0.470752016304504, 51.383317720343165],
          [-0.470373844866177, 51.383755209188664],
          [-0.470092054641225, 51.38423262547803],
          [-0.469907373771447, 51.3846852317945],
          [-0.46983235732252, 51.3849522270579],
          [-0.469821782990956, 51.38509686734089],
          [-0.469930579601895, 51.385411225219826],
          [-0.469998500086417, 51.38565850515139],
          [-0.470049910486942, 51.385754496381814],
          [-0.470136185519016, 51.38588241638121],
          [-0.470247869352619, 51.386024156730855],
          [-0.470353150509974, 51.386142433034045],
          [-0.470569880341191, 51.38636647645621],
          [-0.470704194274222, 51.386476138988584],
          [-0.470881306443216, 51.38659535238053],
          [-0.471296106466002, 51.38691370229754],
          [-0.471844871639061, 51.3873524984845],
          [-0.472260283655523, 51.38765286822676],
          [-0.472497950973446, 51.38780973790509],
          [-0.473071519576428, 51.38815173350981],
          [-0.474232748061159, 51.38880172879435],
          [-0.474634029330136, 51.38905244794035],
          [-0.474920768882189, 51.38924682083997],
          [-0.475186468944426, 51.38942563206744],
          [-0.475935087406293, 51.38986431308092],
          [-0.476475835070804, 51.39011414260899],
          [-0.476761264816946, 51.39021856956633],
          [-0.476904967252611, 51.39026270241701],
          [-0.477112992792094, 51.39031756293981],
          [-0.47738324453928, 51.390359743150505],
          [-0.477627065070335, 51.390375501154764],
          [-0.477736313724846, 51.39037512223527],
          [-0.477822724441451, 51.390369950258034],
          [-0.47798168612914, 51.39034413887109],
          [-0.478222564509986, 51.390275328274136],
          [-0.478379517410781, 51.39022341210543],
          [-0.478485917308439, 51.39017893241472],
          [-0.478667139177814, 51.39008866343753],
          [-0.478858083910191, 51.38996524829163],
          [-0.478887592986226, 51.38994225102081],
          [-0.479012836884165, 51.38980629235344],
          [-0.479067032309431, 51.389732358469914],
          [-0.47913538014285, 51.389621739168106],
          [-0.479331855682432, 51.389244807443546],
          [-0.479487397936225, 51.38897525370001],
          [-0.479582760009626, 51.38878675021374],
          [-0.479880508326772, 51.38838954967454],
          [-0.480174312139148, 51.38806783386396],
          [-0.480297657209395, 51.387902173868184],
          [-0.480637099105277, 51.38759094045681],
          [-0.481042650123169, 51.387279663810894],
          [-0.481313297375641, 51.38709253178603],
          [-0.481691857788085, 51.38685823818518],
          [-0.481841277227527, 51.38677294733676],
          [-0.481988664348093, 51.38670561491284],
          [-0.48207156165807, 51.38667611448186],
          [-0.482207999391715, 51.386635617352965],
          [-0.482390556380149, 51.38659122119528],
          [-0.482595830641172, 51.386555212188945],
          [-0.482614625225359, 51.38655185860118],
          [-0.482862937159853, 51.38651820497595],
          [-0.48319160815385, 51.38648828889732],
          [-0.483527233351248, 51.38650881979764],
          [-0.483754579985123, 51.3865441350333],
          [-0.484415836669845, 51.386713655924474],
          [-0.484523888485412, 51.38674922500441],
          [-0.484604674919308, 51.38678354209763],
          [-0.484679566553877, 51.38682227914104],
          [-0.484998355321258, 51.38700445313131],
          [-0.48510396157201, 51.38707056474504],
          [-0.485249774334859, 51.38718125933418],
          [-0.485327937400885, 51.38725151212669],
          [-0.485445137904617, 51.387358239517184],
          [-0.48580187730534, 51.38774053551071],
          [-0.485910947087322, 51.38787593326943],
          [-0.486155980971965, 51.3882028294092],
          [-0.48624467281877, 51.38834605673488],
          [-0.486393829703953, 51.38861685924579],
          [-0.48640540655104, 51.38870153815429],
          [-0.486421721039438, 51.38881685270995],
          [-0.486424084508001, 51.388919397535965],
          [-0.486413132240464, 51.389033460541754],
          [-0.486402583250801, 51.389091775372],
          [-0.486321638681748, 51.389366798667965],
          [-0.486261756401781, 51.38961331812328],
          [-0.486342537890798, 51.38982208822281],
          [-0.486526051516908, 51.3902713854948],
          [-0.486772121743851, 51.390915728044206],
          [-0.486801277661207, 51.39133875112054],
          [-0.486875755875881, 51.39208698797606],
          [-0.486822264796221, 51.39218341580753],
          [-0.486623603194114, 51.39249738468206],
          [-0.486474929271109, 51.392820991517944],
          [-0.486407389560868, 51.39299457289871],
          [-0.48638947750739, 51.39305818803151],
          [-0.48638419967359, 51.393130958873506],
          [-0.486391723012547, 51.39338194607461],
          [-0.486485071282645, 51.39408096797032],
          [-0.486559682390366, 51.3945639283444],
          [-0.486613369007748, 51.39472288938321],
          [-0.486660489871711, 51.3949501083524],
          [-0.486761422672074, 51.39524546591731],
          [-0.48689303536888, 51.39552593243905],
          [-0.486954222439926, 51.39563193459545],
          [-0.487039124463474, 51.39575982491336],
          [-0.487131300346222, 51.39588511135802],
          [-0.487501699710534, 51.39633502119675],
          [-0.48786302665453, 51.396755137564895],
          [-0.487990760109107, 51.39684850937028],
          [-0.488205981348134, 51.39699156937157],
          [-0.488609201248496, 51.397231475392395],
          [-0.488806190808046, 51.39736081036241],
          [-0.489620069356017, 51.3978335187208],
          [-0.490896629392984, 51.39861882521842],
          [-0.491082461216982, 51.39873812085394],
          [-0.491146904447087, 51.398789308639884],
          [-0.491322902532434, 51.39894534632744],
          [-0.49152461951072, 51.39910621113271],
          [-0.491611687697339, 51.39921254398602],
          [-0.49164176288965, 51.3992596920051],
          [-0.491763429508261, 51.399494163131465],
          [-0.491834814889986, 51.399683923788366],
          [-0.49186041920734, 51.39977957347553],
          [-0.491938011301304, 51.40021760584178],
          [-0.491946972950457, 51.400469510057334],
          [-0.491915959370243, 51.40062557959407],
          [-0.491861018914773, 51.400766053923164],
          [-0.491635083063273, 51.40116600726817],
          [-0.491467246918924, 51.40154782413286],
          [-0.491250587192542, 51.402189793187866],
          [-0.491185790372245, 51.402323845528635],
          [-0.491144979624252, 51.40247169543234],
          [-0.491141842168021, 51.40256697504029],
          [-0.491141124730595, 51.402807064322964],
          [-0.491155876554296, 51.40310130754464],
          [-0.49116964551531, 51.40325075959713],
          [-0.491208644644003, 51.4033762569474],
          [-0.491361893466448, 51.403656097231575],
          [-0.491493701818104, 51.40384483746711],
          [-0.491669174684552, 51.40406111706258],
          [-0.49184563815703, 51.404203671033116],
          [-0.492040773159006, 51.404390528067395],
          [-0.492256922350681, 51.40463790462485],
          [-0.492464534092053, 51.404795246409456],
          [-0.492664565156446, 51.4050082434743],
          [-0.492948617288599, 51.4053769911337],
          [-0.493030728447751, 51.405765621867964],
          [-0.493067537088035, 51.4062202139436],
          [-0.493094717846927, 51.40670525645848],
          [-0.493071880069245, 51.40722472613138],
          [-0.493018397875953, 51.40771412652553],
          [-0.492860295958059, 51.408280415359904],
          [-0.492698209380744, 51.408923987598676],
          [-0.492545636436035, 51.40940941442022],
          [-0.492488827995971, 51.40991225962682],
          [-0.492517495669687, 51.41030829543089],
          [-0.492666894404923, 51.41083717398234],
          [-0.492901337452495, 51.41135995232687],
          [-0.493149809489316, 51.411762412040446],
          [-0.493203224270758, 51.41188719450537],
          [-0.493306859065331, 51.41201532050075],
          [-0.493461235270851, 51.4121746731197],
          [-0.493486398783351, 51.41219657850586],
          [-0.493549218986477, 51.41225403853609],
          [-0.493642923019992, 51.412334376672796],
          [-0.494119148003456, 51.41267681521927],
          [-0.494383126908735, 51.4128267843303],
          [-0.494473732596544, 51.412870213027404],
          [-0.49456859161019, 51.4129154947895],
          [-0.494669082308536, 51.41296444580044],
          [-0.494861941955788, 51.413046956103],
          [-0.495511422034573, 51.41332507053947],
          [-0.495663307780672, 51.413385471543],
          [-0.496004689819526, 51.41349956181464],
          [-0.496318703271754, 51.41361509832401],
          [-0.496703211843259, 51.413729740021225],
          [-0.497290077474237, 51.413856867649805],
          [-0.497474121891844, 51.41390149237916],
          [-0.497965766517294, 51.41403818635085],
          [-0.498115519815018, 51.41407607575902],
          [-0.498537217084558, 51.41410935707149],
          [-0.498925706268619, 51.41414670762765],
          [-0.499206893374984, 51.414123332506115],
          [-0.499515126795487, 51.41410839626444],
          [-0.499772053354075, 51.41407931363708],
          [-0.500001525789945, 51.414010312320606],
          [-0.500249365338344, 51.41390737446734],
          [-0.5004273281582, 51.41378645617039],
          [-0.500740022928308, 51.41341547397143],
          [-0.500800672398762, 51.413275968279734],
          [-0.50082380553004, 51.413096415866896],
          [-0.500790500926501, 51.412883768573764],
          [-0.50067503319998, 51.412633200934096],
          [-0.500306390532817, 51.41199002090039],
          [-0.500154065570633, 51.41163556804622],
          [-0.500117468605772, 51.41152359349727],
          [-0.500102324233158, 51.41132736478444],
          [-0.500165263597709, 51.41116181066297],
          [-0.500293354389796, 51.41098270259715],
          [-0.500460340915574, 51.41080139448787],
          [-0.500644565715532, 51.410708432503775],
          [-0.500895109526863, 51.4106540869918],
          [-0.501168003242259, 51.41061981019854],
          [-0.50144628957775, 51.41064045553157],
          [-0.502099459818588, 51.41067398554903],
          [-0.502460263872696, 51.4106776977549],
          [-0.502749844616061, 51.41070477839577],
          [-0.503244172210994, 51.410802816119364],
          [-0.503379487392987, 51.41084231257962],
          [-0.50353850375454, 51.41090459261909],
          [-0.503696726423725, 51.41103520473526],
          [-0.503768445106133, 51.41112874245829],
          [-0.503787097648113, 51.41126206849907],
          [-0.503736697679871, 51.41139631133309],
          [-0.503560241209637, 51.41173577019171],
          [-0.503384018725187, 51.41202397493724],
          [-0.503092418101352, 51.412366458612254],
          [-0.502978945213393, 51.412494499912185],
          [-0.502699457279624, 51.41277419035866],
          [-0.502398142721265, 51.41301763148754],
          [-0.502137449335217, 51.413338026640375],
          [-0.501796151171275, 51.4138804026637],
          [-0.501707450461633, 51.41413015705879],
          [-0.501657031011135, 51.41439658721941],
          [-0.501642352126845, 51.41453758049746],
          [-0.501633423038215, 51.414678647291716],
          [-0.501655232848766, 51.41489114723391],
          [-0.501736512395706, 51.415044158356444],
          [-0.501882476340529, 51.41524205925303],
          [-0.502129181000562, 51.41548171361229],
          [-0.502681129505661, 51.41588623248421],
          [-0.50304791973451, 51.41610403900023],
          [-0.503618489718746, 51.416335237696714],
          [-0.50428320790484, 51.416634179274524],
          [-0.504695426633451, 51.41682648248583],
          [-0.505154941318595, 51.416979820972585],
          [-0.505384245058551, 51.417048390580895],
          [-0.505827481405794, 51.417171843831014],
          [-0.506370880418019, 51.417310960144135],
          [-0.506821835972142, 51.417374258890696],
          [-0.507041284720015, 51.417392342163076],
          [-0.50725944257258, 51.41740591236794],
          [-0.507685576179015, 51.4173924559772],
          [-0.508085332877567, 51.41734988645169],
          [-0.508552387497891, 51.4172722024366],
          [-0.509002628831194, 51.41718081398456],
          [-0.509455129336308, 51.41710833668676],
          [-0.509953420912304, 51.41699867175902],
          [-0.510390514483282, 51.41691340553654],
          [-0.510892774510203, 51.41690270366425],
          [-0.511218274273027, 51.41688795553446],
          [-0.51154151828191, 51.416898356622795],
          [-0.511969722883438, 51.41704227830319],
          [-0.51219983245442, 51.41713062815489],
          [-0.512428447055794, 51.41722075709395],
          [-0.512595962357258, 51.41737665405284],
          [-0.512851119842063, 51.41775667527903],
          [-0.512923123423164, 51.4179752057973],
          [-0.512965521985853, 51.41817537572152],
          [-0.51297535981878, 51.41840390819164],
          [-0.512945119920454, 51.41862653660002],
          [-0.512931656619586, 51.41881970289389],
          [-0.512875385772012, 51.41900243424687],
          [-0.512760237601721, 51.41922668270343],
          [-0.512710497051708, 51.41934115441859],
          [-0.512633988136037, 51.419571288611465],
          [-0.512528616970103, 51.41967156546376],
          [-0.51233397742798, 51.42004048163272],
          [-0.51178552882839, 51.420851827836664],
          [-0.511538589528492, 51.421192201835424],
          [-0.511302113689833, 51.421476055969705],
          [-0.511096767476174, 51.421775592269995],
          [-0.51086539359025, 51.42207929363186],
          [-0.510711116858082, 51.422312035069],
          [-0.510351648215431, 51.42301606835681],
          [-0.510183962671298, 51.42330708929939],
          [-0.510085219679957, 51.42351265941205],
          [-0.510022059779944, 51.42364134711511],
          [-0.50994350254164, 51.42384537528414],
          [-0.509848289452705, 51.424163395264166],
          [-0.509792142133005, 51.4246069065566],
          [-0.509719730517482, 51.42497557389071],
          [-0.509704395414442, 51.42509317948736],
          [-0.509681860032989, 51.425697183263935],
          [-0.509633203224606, 51.426219923300216],
          [-0.509644957881532, 51.42638913031301],
          [-0.509658325977197, 51.426552962389515],
          [-0.509688455657196, 51.426776357618124],
          [-0.50970332940226, 51.42702653605714],
          [-0.50990833895235, 51.42850659766627],
          [-0.510037277490697, 51.42900911493085],
          [-0.510205730235328, 51.42935836411092],
          [-0.510236112392137, 51.42944148062896],
          [-0.510308965458789, 51.429589882498675],
          [-0.510388984627751, 51.42978333750227],
          [-0.510699128771834, 51.430155069725075],
          [-0.510846793613616, 51.430347585698385],
          [-0.5109231926976, 51.43043128685117],
          [-0.511002526470515, 51.430513226763914],
          [-0.511202896314266, 51.43067763630405],
          [-0.511337406438301, 51.43078815353339],
          [-0.511459384416151, 51.43088592202187],
          [-0.511994953369748, 51.43122724240234],
          [-0.512800949401854, 51.431658320199475],
          [-0.513425686867447, 51.43195670294988],
          [-0.513724908020966, 51.43208998958327],
          [-0.513955038560951, 51.432180134879374],
          [-0.514192301838143, 51.43227216865483],
          [-0.515314027224573, 51.43268385213094],
          [-0.516113189300011, 51.43301680328581],
          [-0.516372082953666, 51.43319633300485],
          [-0.516844679864022, 51.43344061505952],
          [-0.517454446981217, 51.43375857019217],
          [-0.518227167075505, 51.43406509534226],
          [-0.518995759270464, 51.434366161843336],
          [-0.519762196741716, 51.434600651839766],
          [-0.52063759067059, 51.43484730248595],
          [-0.521434158214273, 51.43508485931346],
          [-0.522220661897857, 51.43523325853755],
          [-0.522743695636027, 51.435298300424954],
          [-0.522765209664864, 51.43530036997165],
          [-0.522787681551535, 51.43549578930917],
          [-0.522800323567009, 51.4355499032952],
          [-0.522849255763087, 51.435638645793226],
          [-0.522937916730233, 51.43570001215457],
          [-0.523074413635326, 51.435750290822895],
          [-0.523203575178893, 51.435804973165915],
          [-0.523273986568361, 51.43580765847635],
          [-0.523354986645947, 51.435794290685166],
          [-0.523461583595058, 51.43579023763198],
          [-0.523705990171892, 51.435885038171214],
          [-0.523757347646021, 51.435943236476945],
          [-0.52377980766797, 51.43596060491112],
          [-0.523805259901137, 51.43597441403262],
          [-0.523849639937768, 51.43598126748325],
          [-0.523899859519078, 51.43598549669709],
          [-0.524082196841464, 51.43595272147598],
          [-0.524201737501756, 51.435948830677454],
          [-0.524260933556943, 51.43594238177968],
          [-0.524433029635451, 51.4359148725871],
          [-0.524531856886916, 51.4359287056792],
          [-0.524591467973246, 51.43599869765765],
          [-0.524640558421273, 51.43603798289745],
          [-0.524694050291325, 51.43607462576164],
          [-0.52480759757184, 51.43612281513628],
          [-0.524798535026111, 51.436270177277265],
          [-0.524752398472516, 51.43640718126781],
          [-0.524760265261015, 51.43647562285503],
          [-0.524793199110545, 51.43661452092064],
          [-0.524815447771524, 51.43668314344523],
          [-0.524848169077414, 51.43673930829376],
          [-0.524888197172951, 51.436791968077216],
          [-0.525006399103733, 51.43687438710075],
          [-0.525159561208796, 51.43689879483785],
          [-0.525125220033396, 51.437026954876366],
          [-0.52506225953486, 51.437150258678294],
          [-0.525004519936277, 51.437200789301386],
          [-0.524933913987007, 51.437293422537685],
          [-0.525029260023657, 51.437326095532214],
          [-0.525171844296458, 51.43732159434983],
          [-0.525296243984436, 51.43734564011587],
          [-0.525290771655645, 51.437381541076164],
          [-0.525231653567517, 51.43756424343484],
          [-0.525136308484695, 51.43766555807376],
          [-0.524950143661073, 51.43781698710655],
          [-0.524652858541517, 51.43811269536318],
          [-0.524491786737227, 51.43833368124217],
          [-0.524094831014212, 51.43873064771016],
          [-0.524068690556109, 51.438827437090794],
          [-0.52408377687045, 51.43889507033048],
          [-0.524128284327264, 51.4389873534927],
          [-0.524130976895327, 51.43903774507887],
          [-0.524125010984496, 51.43908892692666],
          [-0.524097316242181, 51.43918929372366],
          [-0.524078443527355, 51.43932843907271],
          [-0.5241152777467, 51.43939095057759],
          [-0.524206582237005, 51.439504505340594],
          [-0.524260994598383, 51.439557346345126],
          [-0.524395621675281, 51.43966605071902],
          [-0.524539805485919, 51.439880086781045],
          [-0.524785317059284, 51.440030651911876],
          [-0.524942109441558, 51.44007668739266],
          [-0.525129028464082, 51.44008083712023],
          [-0.525376954368936, 51.440111831871356],
          [-0.525589551413282, 51.440167560707685],
          [-0.52560396322498, 51.44016684267924],
          [-0.525760910154341, 51.44016342056801],
          [-0.525957645613648, 51.440130823378645],
          [-0.526083346886799, 51.44015938083169],
          [-0.526185391119349, 51.440252386381694],
          [-0.526391163514547, 51.44052024957663],
          [-0.526491431635065, 51.440579061251256],
          [-0.526593493133736, 51.44058214224268],
          [-0.526702233264863, 51.44055653125102],
          [-0.526813221251545, 51.44050576956789],
          [-0.526911141210168, 51.440503402786426],
          [-0.527041845572922, 51.44055540239613],
          [-0.527167194559544, 51.44063970737352],
          [-0.52737380476455, 51.44074751388805],
          [-0.527728959781684, 51.44088955800539],
          [-0.530130532913119, 51.440977238680944],
          [-0.530232360554876, 51.4410324696892],
          [-0.530497229744087, 51.441163481948735],
          [-0.531436474635548, 51.44171299644826],
          [-0.531369609698663, 51.441868627340675],
          [-0.53108332470039, 51.44262939890559],
          [-0.530679153669516, 51.44361080655127],
          [-0.530640850782176, 51.44377308986434],
          [-0.530648349470517, 51.44389817882146],
          [-0.530766838066439, 51.44437626308601],
          [-0.530855033159834, 51.44449786685725],
          [-0.530905028758373, 51.44455424638753],
          [-0.530962303121736, 51.444608019350085],
          [-0.531099867162229, 51.4447158534969],
          [-0.531062628381498, 51.44488984042412],
          [-0.530911390593932, 51.44489424047958],
          [-0.530843582173419, 51.44489968564624],
          [-0.530674217914025, 51.444930835621975],
          [-0.530472111727381, 51.444995746322064],
          [-0.530241578363916, 51.445094471659054],
          [-0.530056328292166, 51.4451721823395],
          [-0.529720579964225, 51.44532084460819],
          [-0.529405569243448, 51.445495844080284],
          [-0.529082752476924, 51.44573459114204],
          [-0.528676172493959, 51.44607210246801],
          [-0.52826018158248, 51.446388811649626],
          [-0.5274720091151, 51.446957130899285],
          [-0.527138155529986, 51.447180446864046],
          [-0.526983469316526, 51.44729180863106],
          [-0.526836003838307, 51.447402361663634],
          [-0.526731808820471, 51.44750986118284],
          [-0.527229516057627, 51.44782994944746],
          [-0.528034699660076, 51.44838949754846],
          [-0.531322004054449, 51.450667134832855],
          [-0.533158454869474, 51.45192388358505],
          [-0.534297497161497, 51.452714173400274],
          [-0.534878787314849, 51.453124298689666],
          [-0.536069923240125, 51.453952992676484],
          [-0.53618962909882, 51.454035419182524],
          [-0.537054574018555, 51.454623529174455],
          [-0.538615868507289, 51.45571759604901],
          [-0.539589778268638, 51.456411357718416],
          [-0.540577011315194, 51.457094486224655],
          [-0.540580218047679, 51.457400268894176],
          [-0.540613315191876, 51.45785210102822],
          [-0.540549245090304, 51.45819121746256],
          [-0.540556027680736, 51.45833967702723],
          [-0.540517814467097, 51.458364380155686],
          [-0.540478305626336, 51.45838457092661],
          [-0.540383907025245, 51.458320448732216],
          [-0.539802713605741, 51.45853532484367],
          [-0.538472254531751, 51.45904390502531],
          [-0.536951429828143, 51.45960764568826],
          [-0.536601099998989, 51.45935418345246],
          [-0.536520350853231, 51.459403533074976],
          [-0.536343311427104, 51.45949304571435],
          [-0.536139941346002, 51.45964068003844],
          [-0.536077810870704, 51.459692959537705],
          [-0.535885089289815, 51.45991266569523],
          [-0.535301616920254, 51.46051236587645],
          [-0.535097779824907, 51.46076430447153],
          [-0.53483920318335, 51.46106231926379],
          [-0.534603619808535, 51.46136152074596],
          [-0.53322465321195, 51.462975504992706],
          [-0.532606367932474, 51.46371593890732],
          [-0.532534814123301, 51.4638373403637],
          [-0.532190074900191, 51.46448677440957],
          [-0.532071899721172, 51.464490690700735],
          [-0.531940353944143, 51.464776801230215],
          [-0.531758064192294, 51.46507396645355],
          [-0.531893737772488, 51.465108037653664],
          [-0.531759604779934, 51.46529519905972],
          [-0.531605663760357, 51.465561245516106],
          [-0.53147192284865, 51.46587070829054],
          [-0.531230961887035, 51.46624627120263],
          [-0.531031121912872, 51.46668619481058],
          [-0.530596989150486, 51.46742802572217],
          [-0.530461112037977, 51.46766911849492],
          [-0.530264891483244, 51.46804074417787],
          [-0.530064065937314, 51.46837634211304],
          [-0.529920602578737, 51.46871895343238],
          [-0.529792178880751, 51.46917595678098],
          [-0.529645857059592, 51.46929372147962],
          [-0.530377832937878, 51.46932088125651],
          [-0.529960434502899, 51.47016813092172],
          [-0.52965070674459, 51.47021820256929],
          [-0.529508477943338, 51.470253288171065],
          [-0.529204905188574, 51.47033580850441],
          [-0.528473686868284, 51.470553244520325],
          [-0.527811436548463, 51.47073017664824],
          [-0.527081652210374, 51.47090265987056],
          [-0.526847820584308, 51.47096536741775],
          [-0.526257578932658, 51.47114139675937],
          [-0.526077489758959, 51.471189491010904],
          [-0.525685762415779, 51.47128168510085],
          [-0.525079834723785, 51.4714080530234],
          [-0.524987055409869, 51.47142756867383],
          [-0.524646741622987, 51.471488033241876],
          [-0.524358907319072, 51.471528474629245],
          [-0.523991575329036, 51.47153374362183],
          [-0.523605155773357, 51.47155046129801],
          [-0.523547498073796, 51.47155243313774],
          [-0.523159842042308, 51.47156283909138],
          [-0.52277100776603, 51.47156513575262],
          [-0.522383961064215, 51.471556662756115],
          [-0.522260329284724, 51.47155060876338],
          [-0.521998818344052, 51.47153382462393],
          [-0.521737510880921, 51.4715107477804],
          [-0.5214792855295, 51.47148141452648],
          [-0.521221205765323, 51.471447586336055],
          [-0.520966208294172, 51.47140750176567],
          [-0.520712824892811, 51.471362041556326],
          [-0.520609808499355, 51.47134185801087],
          [-0.520358126677856, 51.47128832533401],
          [-0.520109527458032, 51.47122853633185],
          [-0.519865421105641, 51.47116340806405],
          [-0.519622900104804, 51.471093803097325],
          [-0.519384843014312, 51.471019757784084],
          [-0.519245222013689, 51.47097393215137],
          [-0.519151249880574, 51.47094127215212],
          [-0.518986072076758, 51.47088433260716],
          [-0.518728507885339, 51.47079025631672],
          [-0.518478315554354, 51.47069087714569],
          [-0.518236992567873, 51.47058441558027],
          [-0.518032916611026, 51.47048381943312],
          [-0.517868819626291, 51.47039361985554],
          [-0.517710654874326, 51.47029809958559],
          [-0.517559774229236, 51.47019997346026],
          [-0.51741335748811, 51.47009740736899],
          [-0.517272785621727, 51.46999221727198],
          [-0.517136619407218, 51.4698843849902],
          [-0.517004829706053, 51.469774809411476],
          [-0.516875977302538, 51.4696634723474],
          [-0.516833966684134, 51.46962697134574],
          [-0.516666128840727, 51.46947467508264],
          [-0.516505575476534, 51.469319773002454],
          [-0.516352335685859, 51.46916136626212],
          [-0.516212166134429, 51.46899952773389],
          [-0.516085095859754, 51.468833358591255],
          [-0.516034265828415, 51.46875807830341],
          [-0.515968002386568, 51.46862595046403],
          [-0.515913340061978, 51.46849127168648],
          [-0.515838296650313, 51.46836352884742],
          [-0.51579522788861, 51.46831532392152],
          [-0.515768845997355, 51.46828531502508],
          [-0.515661405084596, 51.46826866792303],
          [-0.513850781707364, 51.46798495395865],
          [-0.513737007332134, 51.46816336026394],
          [-0.513658764388199, 51.46831164263099],
          [-0.513583332324768, 51.46841769621804],
          [-0.513264010185257, 51.468541340292035],
          [-0.512871113670938, 51.46866944588463],
          [-0.51252863678915, 51.46875232843642],
          [-0.512125384985074, 51.468800267669145],
          [-0.511847340090778, 51.46884979459056],
          [-0.511611768056741, 51.468921441777404],
          [-0.511468273164576, 51.468995156622164],
          [-0.511384017953601, 51.469062429418145],
          [-0.511308637794646, 51.469166683745144],
          [-0.511182681185399, 51.46927659057712],
          [-0.51101597000682, 51.46926727985178],
          [-0.51040014107963, 51.46921089933239],
          [-0.510179004889435, 51.469192802844375],
          [-0.510003073812648, 51.46920135837408],
          [-0.50970154876096, 51.46917594478309],
          [-0.510153960310522, 51.46876804240524],
          [-0.510190562398657, 51.468572472675085],
          [-0.510261937934331, 51.46837015078131],
          [-0.510333142615227, 51.46821728498784],
          [-0.51035606504221, 51.468088085326805],
          [-0.510344623529336, 51.46795305365282],
          [-0.510319322772289, 51.467845722411894],
          [-0.510280338396137, 51.467760698374214],
          [-0.510277135580763, 51.46750527289596],
          [-0.509497174520386, 51.4673613740836],
          [-0.509408446775831, 51.46734495908532],
          [-0.509127717909645, 51.467211899201715],
          [-0.50878167412832, 51.46709509360938],
          [-0.508474758906285, 51.46705881730136],
          [-0.508325413721018, 51.46704702585951],
          [-0.508135363316267, 51.46704730574037],
          [-0.507890773285281, 51.46704239509422],
          [-0.507802958299772, 51.467042176855315],
          [-0.507738608722187, 51.467028768542534],
          [-0.507683893271092, 51.46702897144539],
          [-0.507385611505092, 51.466948739272084],
          [-0.507317531238865, 51.46691729838616],
          [-0.507150721676389, 51.467087829374954],
          [-0.507026640034491, 51.46718426702601],
          [-0.506916041845529, 51.467352815660355],
          [-0.506898039219099, 51.46737506749251],
          [-0.506878626783311, 51.46739640212727],
          [-0.50685780453739, 51.467416819563944],
          [-0.506835543151309, 51.46743721867096],
          [-0.50681328174508, 51.467457617773555],
          [-0.506789610526545, 51.46747709967622],
          [-0.506768934857082, 51.467493022750524],
          [-0.50674385380857, 51.46751158744785],
          [-0.506718772739459, 51.46753015213961],
          [-0.506690842732716, 51.46754778130156],
          [-0.506662912704232, 51.46756541045671],
          [-0.506635011987576, 51.467582140735914],
          [-0.506605672124062, 51.467598852679664],
          [-0.506574951781732, 51.46761374854877],
          [-0.506542792292104, 51.46762862608027],
          [-0.506510662117531, 51.46764260473374],
          [-0.506496065487036, 51.46764871351807],
          [-0.506466901551279, 51.467660032212166],
          [-0.506436327810187, 51.46767043369918],
          [-0.506405783393389, 51.467679936309125],
          [-0.506375268302729, 51.46768854004203],
          [-0.506343314071401, 51.46769712543505],
          [-0.506311389168223, 51.46770481195032],
          [-0.506279464254366, 51.467712498456805],
          [-0.506246129541375, 51.46771926775255],
          [-0.5062142632907, 51.467725156503306],
          [-0.506180928559001, 51.46773192578037],
          [-0.506160663363726, 51.467735264580085],
          [-0.506115786228942, 51.46774278603392],
          [-0.506069499293827, 51.46774939026636],
          [-0.506023241691459, 51.46775509561162],
          [-0.505975574293647, 51.467759883733336],
          [-0.505929346017234, 51.46776469017257],
          [-0.50588173729758, 51.46776768051841],
          [-0.505834099222393, 51.46777156971365],
          [-0.505805257897508, 51.46777300068501],
          [-0.505736032840632, 51.467776614761036],
          [-0.505665397995157, 51.467779311587236],
          [-0.505596260982321, 51.467780228974526],
          [-0.505525684836195, 51.467781127979116],
          [-0.505456606533763, 51.467780247546735],
          [-0.505386147820755, 51.46777755099287],
          [-0.50531712824801, 51.46777487274119],
          [-0.505246728275997, 51.467770378366495],
          [-0.505177826174758, 51.467764104558796],
          [-0.505108924093427, 51.46775783071071],
          [-0.505048686177701, 51.467750768040666],
          [-0.504734985232836, 51.4677458689397],
          [-0.504419992132263, 51.46773645630305],
          [-0.504365334602948, 51.467734859913854],
          [-0.504050429831279, 51.4677227496806],
          [-0.503737111329294, 51.467706162626435],
          [-0.503523210425131, 51.46768724659374],
          [-0.503399886473464, 51.46767218399359],
          [-0.503276650807144, 51.467654424660736],
          [-0.503154913170459, 51.46763488583434],
          [-0.503033205046264, 51.46761444801441],
          [-0.502911526441739, 51.4675931112011],
          [-0.502789818544425, 51.46757267312975],
          [-0.502759744015716, 51.46756779290314],
          [-0.502109560165947, 51.467462370780694],
          [-0.501440494126757, 51.467362099260406],
          [-0.500902949036055, 51.46724642015507],
          [-0.500349605828247, 51.46712963731105],
          [-0.499820057097574, 51.46698977593029],
          [-0.499375035368575, 51.46686268398342],
          [-0.498875011709906, 51.46670071495478],
          [-0.498510089117761, 51.46654586917004],
          [-0.498247721301007, 51.46642470842759],
          [-0.498117938035653, 51.46643113944108],
          [-0.497540167794547, 51.46618184129134],
          [-0.497261244036529, 51.46603888425169],
          [-0.497037973416363, 51.465911027763305],
          [-0.496985849563246, 51.465876188372796],
          [-0.497033626469678, 51.46573651862444],
          [-0.496622188949186, 51.465464168664354],
          [-0.496191651393181, 51.4651160356376],
          [-0.495880425109918, 51.46486115442959],
          [-0.495575017438053, 51.464604548486015],
          [-0.495386451538995, 51.46442857463598],
          [-0.495289502411392, 51.46431222714405],
          [-0.495204322827108, 51.46423200042141],
          [-0.494898932313736, 51.46393132973558],
          [-0.494538745572185, 51.46363355159952],
          [-0.4943107630785, 51.46338692857231],
          [-0.494035405539197, 51.46304887272923],
          [-0.493861863821399, 51.46272291504426],
          [-0.493698058013362, 51.46271361675231],
          [-0.493445154593824, 51.46269957643592],
          [-0.493439073292166, 51.46270939000321],
          [-0.493426910681017, 51.46272901713685],
          [-0.493413309090026, 51.4627486257791],
          [-0.493399737072777, 51.46276733555375],
          [-0.493392216782101, 51.46277713062831],
          [-0.493384726073911, 51.462786026836355],
          [-0.49337723536282, 51.46279492304392],
          [-0.493369774234832, 51.462802920385],
          [-0.493360874132954, 51.46281089923485],
          [-0.493350505470071, 51.462819758459155],
          [-0.493338697831379, 51.46282859919152],
          [-0.49332545121608, 51.462837421431516],
          [-0.493313673155231, 51.46284536329538],
          [-0.493304861797428, 51.46285064554302],
          [-0.493291674344534, 51.46285767004723],
          [-0.493278457299821, 51.46286559341597],
          [-0.493263830865547, 51.4628725994253],
          [-0.493249234015287, 51.46287870656683],
          [-0.493112017517794, 51.46293629338236],
          [-0.492854015431131, 51.46298962975838],
          [-0.492603574339875, 51.462988208751206],
          [-0.492209650195052, 51.46297235268765],
          [-0.491960595631175, 51.462841456611585],
          [-0.491557484141515, 51.4627112758104],
          [-0.490691068860601, 51.46244294110023],
          [-0.490661028568628, 51.46243715890625],
          [-0.49062529173089, 51.46242950487558],
          [-0.490589584544596, 51.46242095196828],
          [-0.490553907011791, 51.46241150018434],
          [-0.490518259134521, 51.46240114952376],
          [-0.490482611273336, 51.462390798852226],
          [-0.490448432026412, 51.46237956783071],
          [-0.490415721394588, 51.46236745646046],
          [-0.490383040423347, 51.46235444621531],
          [-0.490377343889585, 51.46235257437419],
          [-0.490350329826549, 51.46234233482658],
          [-0.490337557098967, 51.462336774881564],
          [-0.490323345420032, 51.46233119640699],
          [-0.490310572698783, 51.462325636458985],
          [-0.490297829625604, 51.46231917764392],
          [-0.490286525509814, 51.46231273735605],
          [-0.490283706892672, 51.462310902567516],
          [-0.490254200363554, 51.462288940686555],
          [-0.490227571767052, 51.46226701585666],
          [-0.490210749037979, 51.4622533105186],
          [-0.490184179776509, 51.462229587947164],
          [-0.490159049492512, 51.46220588389966],
          [-0.490111815141106, 51.462154018521154],
          [-0.490012006073936, 51.46203762945677],
          [-0.48994284606577, 51.461952209462424],
          [-0.489905803404206, 51.46189687826308],
          [-0.489876060093529, 51.461882107208226],
          [-0.489846287148588, 51.46186823501134],
          [-0.489816484567695, 51.46185526167241],
          [-0.489786652349159, 51.46184318719141],
          [-0.489753942269147, 51.461831075632304],
          [-0.489722641488881, 51.46181988146519],
          [-0.489708400386575, 51.46181520177991],
          [-0.489675631034024, 51.46180488792994],
          [-0.489642861696185, 51.461794574070716],
          [-0.489610062715309, 51.46178515906785],
          [-0.489575795152778, 51.461776624383916],
          [-0.489541497943969, 51.46176898855552],
          [-0.489505761810413, 51.461761334178725],
          [-0.489471405304004, 51.46175549606092],
          [-0.489435580209531, 51.46175053825945],
          [-0.489419811238178, 51.46174853659643],
          [-0.489391121508983, 51.46174546920907],
          [-0.489360963185655, 51.461743282140205],
          [-0.48933224380081, 51.461741113603985],
          [-0.489302055819736, 51.46173982538553],
          [-0.489273306775861, 51.46173855570044],
          [-0.489243089133596, 51.46173816633238],
          [-0.489214251096565, 51.46173959322955],
          [-0.489185413057909, 51.461741020119646],
          [-0.489155106415705, 51.46174332732564],
          [-0.489129086910081, 51.461746589018226],
          [-0.489107354540272, 51.461750805200246],
          [-0.489085622166589, 51.46175502137826],
          [-0.489063830452426, 51.46176103528338],
          [-0.489042038732682, 51.46176704918447],
          [-0.489021685943623, 51.461773081625786],
          [-0.489001333149329, 51.46177911406359],
          [-0.488979541413187, 51.46178512795314],
          [-0.488957779341854, 51.46179024297312],
          [-0.488943300962348, 51.461792754118676],
          [-0.488905591891355, 51.46180126059298],
          [-0.488867882806757, 51.46180976705519],
          [-0.488828912808498, 51.46181286176567],
          [-0.488818840246921, 51.461812731939084],
          [-0.488808767685418, 51.46181260211162],
          [-0.488798754470977, 51.46181067455228],
          [-0.488788711583699, 51.46180964585759],
          [-0.488778728044639, 51.461806819431004],
          [-0.488768714832742, 51.461804891869086],
          [-0.488758731295952, 51.46180206544079],
          [-0.48874020316287, 51.46179643112932],
          [-0.488730189954875, 51.46179450356407],
          [-0.488720206422724, 51.461791677132474],
          [-0.488713071089779, 51.46178978666159],
          [-0.488198408431811, 51.46168153643483],
          [-0.487577712914925, 51.46155842741227],
          [-0.487014399486895, 51.46144145104532],
          [-0.486836745328888, 51.4614157778636],
          [-0.486657593020981, 51.46139188356862],
          [-0.486633220477028, 51.46138887122369],
          [-0.486453979228781, 51.461367673212074],
          [-0.486273180340981, 51.4613500518082],
          [-0.486112437310802, 51.46133538684239],
          [-0.485862659715143, 51.461314176346086],
          [-0.485611294766328, 51.46129744105561],
          [-0.485494890994887, 51.46129144119054],
          [-0.485320900766988, 51.461285596498556],
          [-0.485146851101029, 51.46128154927818],
          [-0.484974180895101, 51.4612793181233],
          [-0.484850344493263, 51.46128041538244],
          [-0.483739194808228, 51.46127503551114],
          [-0.482180816318212, 51.461298923900266],
          [-0.482022938527688, 51.46137151669167],
          [-0.481292566851175, 51.46138723220086],
          [-0.481065931823352, 51.461362712692235],
          [-0.480324503000797, 51.46140795416917],
          [-0.479652648918755, 51.46143880640448],
          [-0.478915319975689, 51.46144722286502],
          [-0.478040660445381, 51.461429571282565],
          [-0.477947189884507, 51.461426558742],
          [-0.477855188148323, 51.46142266595233],
          [-0.477761837156645, 51.46141605780161],
          [-0.477669925119993, 51.461409468269444],
          [-0.477578102776427, 51.46140018206834],
          [-0.477483432507866, 51.46138995953787],
          [-0.477391670026483, 51.46137887545831],
          [-0.477301376409391, 51.46136691113857],
          [-0.47720973360113, 51.46135223145286],
          [-0.477120998598127, 51.46133669022925],
          [-0.477032323452951, 51.46131935120633],
          [-0.476943738076271, 51.4612993155185],
          [-0.4768966124228, 51.46128791194478],
          [-0.47682811227255, 51.46126993573804],
          [-0.476761081001235, 51.46125107932933],
          [-0.47669404978429, 51.46123222288127],
          [-0.476628517355385, 51.461211587368965],
          [-0.476564483719877, 51.46118917279484],
          [-0.476501948882781, 51.46116497916122],
          [-0.47644088293871, 51.461139905336005],
          [-0.476428112136712, 51.46113434376411],
          [-0.476387011647113, 51.461114925024354],
          [-0.476344502186631, 51.4610945886941],
          [-0.476304900507827, 51.46107339090275],
          [-0.476265298864776, 51.4610521930973],
          [-0.476225757085576, 51.461029197546466],
          [-0.476189093172963, 51.46100623940512],
          [-0.476152459211522, 51.46098238238593],
          [-0.476118733028116, 51.46095766391426],
          [-0.476100505828513, 51.46094303879744],
          [-0.476075293500384, 51.460922028051996],
          [-0.476051520105325, 51.46090103601419],
          [-0.476027776649044, 51.46087914510544],
          [-0.476005502042083, 51.460856374039835],
          [-0.475986105273611, 51.460833640398306],
          [-0.475977771008118, 51.46082453945489],
          [-0.475962571313254, 51.46080545741505],
          [-0.475948840456742, 51.46078549522213],
          [-0.475935109611729, 51.46076553302732],
          [-0.475922847603555, 51.46074469068014],
          [-0.475912024511205, 51.46072386704676],
          [-0.475901201428253, 51.460703043412124],
          [-0.475901231348152, 51.46070214454643],
          [-0.475895864690279, 51.46069038443006],
          [-0.476140625016866, 51.46064590722512],
          [-0.476298512371244, 51.460616486491965],
          [-0.476292996061418, 51.46060922072371],
          [-0.475877120667588, 51.460085841314516],
          [-0.475147193898605, 51.45961322805338],
          [-0.474476304816485, 51.45914047918294],
          [-0.473949555574984, 51.45879190218795],
          [-0.473912774555008, 51.45877253867715],
          [-0.473874554721988, 51.45875315641318],
          [-0.473834836175202, 51.45873555313279],
          [-0.47379511765854, 51.458717949838785],
          [-0.47375536921921, 51.458701245400256],
          [-0.473722695202072, 51.45868823014124],
          [-0.473680009223858, 51.458673285928306],
          [-0.473638762113799, 51.4586583604441],
          [-0.473594607394345, 51.45864429632447],
          [-0.47356040475346, 51.45863395888203],
          [-0.473520446770196, 51.45862354644636],
          [-0.473479020007915, 51.458614014119675],
          [-0.473439002142831, 51.45860539939412],
          [-0.473397545454269, 51.45859676590753],
          [-0.473356088781333, 51.45858813240621],
          [-0.473340381403663, 51.458584330702806],
          [-0.473091641732513, 51.45853252935242],
          [-0.472841373878792, 51.45848340532477],
          [-0.472589517854665, 51.45843875634793],
          [-0.472502228664517, 51.458423230219715],
          [-0.471465104765677, 51.4582289531757],
          [-0.4714622271139, 51.458228915633455],
          [-0.470614284092935, 51.458102744859104],
          [-0.469587602133597, 51.45798412514628],
          [-0.468972152392108, 51.45792212873086],
          [-0.468942117550446, 51.457916340681535],
          [-0.468912082716387, 51.45791055262447],
          [-0.46888057902988, 51.45790564462502],
          [-0.468850514164205, 51.45790075542031],
          [-0.468818950397019, 51.457897645140605],
          [-0.468791703075625, 51.457894591264285],
          [-0.468760109268679, 51.45789237983687],
          [-0.468728485416119, 51.457891067269045],
          [-0.468696831516121, 51.45789065356084],
          [-0.468665147566856, 51.45789113871221],
          [-0.468601779666895, 51.45789210898926],
          [-0.468570125768042, 51.45789169524686],
          [-0.468555737632445, 51.45789150717928],
          [-0.468351426123545, 51.45788883642922],
          [-0.467833362479924, 51.45788475910675],
          [-0.467401537395212, 51.457884505193455],
          [-0.467277799277537, 51.457882886059664],
          [-0.467154151410396, 51.4578785701934],
          [-0.467030563733614, 51.45787245646251],
          [-0.46690844499172, 51.45786546256705],
          [-0.466884045316132, 51.45786334467901],
          [-0.466760578072471, 51.45785363519604],
          [-0.466638609877312, 51.457842146685444],
          [-0.466516701930646, 51.45782886031488],
          [-0.466404895839831, 51.45781480682212],
          [-0.466301782884936, 51.45779906852929],
          [-0.466198760298265, 51.45778063354641],
          [-0.466097206707752, 51.45776131844974],
          [-0.465995653205039, 51.45774200326636],
          [-0.465918409028551, 51.45772750268856],
          [-0.465127386043096, 51.45757865358336],
          [-0.464513898105573, 51.457501369724476],
          [-0.463693014316607, 51.45742765740944],
          [-0.46362557168311, 51.457421377229586],
          [-0.46243909554104, 51.45730419193652],
          [-0.46167159497261, 51.45726983443663],
          [-0.461539709140333, 51.457253714066646],
          [-0.461409352772127, 51.45723491585662],
          [-0.461279026709223, 51.45721521863906],
          [-0.461150199945982, 51.4571937424529],
          [-0.461022902695023, 51.45716958843923],
          [-0.460895665986296, 51.457143636561426],
          [-0.46081704613566, 51.4571273160275],
          [-0.460692777857491, 51.457098705154856],
          [-0.460568600363802, 51.45706739756144],
          [-0.460444453254187, 51.45703519097525],
          [-0.460323274528235, 51.4570003254948],
          [-0.460202126205618, 51.45696456102819],
          [-0.460083946290006, 51.45692613767994],
          [-0.459967175134139, 51.45688863199595],
          [-0.459834849624186, 51.456842828323126],
          [-0.459702584833376, 51.45679522677803],
          [-0.459573288553286, 51.456744966341574],
          [-0.459452625195027, 51.45669481930674],
          [-0.45936043519973, 51.45665403927498],
          [-0.45927118337725, 51.456611499297814],
          [-0.459183400725766, 51.45656807931847],
          [-0.45909708724604, 51.45652377934026],
          [-0.459022193341968, 51.45648232731827],
          [-0.458640609771862, 51.45631543961192]
        ]
      ]
    ]
  }
}
