{
  "type": "Feature",
  "properties": {
    "name": "Spelthorne",
    "level": 2,
    "center": [-0.4729, 51.4263]
  },
  "geometry": {
    "type": "MultiPolygon",
    "coordinates": [
      [
        [
          [-0.458640609771862, 51.45631543961192],
          [-0.458855757585238, 51.45603860049069],
          [-0.459066493537073, 51.45341103445084],
          [-0.459294272939914, 51.45271530475532],
          [-0.459538855024076, 51.45267535708114],
          [-0.459838483589532, 51.45223955842274],
          [-0.461320153647607, 51.45239122282939],
          [-0.461411406865805, 51.450316927100346],
          [-0.461481812464047, 51.44899234979091],
          [-0.457556617863592, 51.449180830225245],
          [-0.457461794987557, 51.44909055539342],
          [-0.457619394343133, 51.447701483982776],
          [-0.457622647985284, 51.447562142362486],
          [-0.457377590122379, 51.445651596279795],
          [-0.457314115333745, 51.445314439088364],
          [-0.457436310903829, 51.4431389517879],
          [-0.457443909761881, 51.44299876803421],
          [-0.45545719929286, 51.44221541897695],
          [-0.455391374937913, 51.44211923093496],
          [-0.455780312790308, 51.44086991476078],
          [-0.455835174787068, 51.440651222645755],
          [-0.455783384670982, 51.440309727016476],
          [-0.455797230017376, 51.44015523974388],
          [-0.456475301912596, 51.43822450773666],
          [-0.456467766933104, 51.43810660760326],
          [-0.453791856148567, 51.43848137851317],
          [-0.453660495145764, 51.4384940327232],
          [-0.448236882050411, 51.43957524344878],
          [-0.446288767456254, 51.43999639722555],
          [-0.447529405391901, 51.435574187119144],
          [-0.447717105646834, 51.43500295517587],
          [-0.441252858989804, 51.4347096504782],
          [-0.439752475503255, 51.43461959674229],
          [-0.439997129196534, 51.433519494767665],
          [-0.440127769113455, 51.43280993201749],
          [-0.439988423813456, 51.43065081070317],
          [-0.439983499013055, 51.4306264659038],
          [-0.434792167048762, 51.42939112906066],
          [-0.433715144877002, 51.429168148778494],
          [-0.429748956327086, 51.42879596542958],
          [-0.42953456233437, 51.42879759525449],
          [-0.42942488613994, 51.4293950146665],
          [-0.427831579975629, 51.429252302371225],
          [-0.427534458957224, 51.43069967413383],
          [-0.42748574830707, 51.4308195179991],
          [-0.426347480335037, 51.43078808381015],
          [-0.42586156024408, 51.43077887344786],
          [-0.424193140416304, 51.43097860400688],
          [-0.423498908719706, 51.43087756545721],
          [-0.423575146655957, 51.43104494445393],
          [-0.423579783595036, 51.43116100595366],
          [-0.422726638889027, 51.43153891071149],
          [-0.422421651307422, 51.431747927945],
          [-0.421428777048026, 51.43208887470345],
          [-0.421154031809787, 51.432171505153136],
          [-0.419256002011848, 51.43235278539979],
          [-0.419078824105451, 51.43235939191356],
          [-0.41847526626634, 51.43200686542776],
          [-0.41835638238047, 51.43186678552433],
          [-0.417704759324455, 51.432031544929025],
          [-0.417294359805879, 51.43191810116829],
          [-0.417776270237595, 51.43121063064229],
          [-0.417900541957966, 51.431027969134476],
          [-0.416363779129841, 51.430622360691366],
          [-0.416144239440525, 51.430564543289925],
          [-0.416041894866498, 51.430695345102286],
          [-0.413806257686541, 51.430075236816705],
          [-0.414352549634545, 51.42929581290294],
          [-0.412452813228595, 51.42878182816207],
          [-0.413086203943426, 51.42785521833737],
          [-0.4111876539921, 51.427516572711795],
          [-0.410868606194079, 51.427342295345305],
          [-0.410326557343386, 51.426464500460725],
          [-0.410158764547593, 51.42628417897246],
          [-0.409341376198817, 51.42575603641226],
          [-0.409006746856932, 51.42545115206495],
          [-0.408521896944926, 51.4239643995719],
          [-0.408441541420518, 51.42383471524954],
          [-0.406345760994818, 51.42284583376898],
          [-0.405910476008173, 51.42266545900302],
          [-0.40536174717435, 51.42247994212393],
          [-0.40201016946716, 51.42327239367566],
          [-0.401759950797457, 51.42331214570736],
          [-0.398441714284502, 51.42355909135524],
          [-0.398112429122869, 51.423556388215445],
          [-0.394862179695051, 51.423298783309704],
          [-0.394764924086324, 51.42328306294062],
          [-0.391763543592853, 51.42249283324683],
          [-0.39156202190496, 51.42241542980288],
          [-0.389694976557716, 51.421559784406924],
          [-0.386641817805753, 51.42008080002807],
          [-0.387025912214231, 51.41975156962477],
          [-0.387693765155329, 51.41932822462147],
          [-0.387390922189614, 51.419024610369874],
          [-0.38722514724323, 51.418790324884824],
          [-0.386875065791378, 51.41790874654702],
          [-0.386761773846559, 51.41765450039531],
          [-0.386438512240162, 51.41552326634305],
          [-0.386419399038631, 51.415371923491605],
          [-0.386580038603662, 51.41505758703969],
          [-0.386594242157317, 51.41502181120804],
          [-0.38615899553356, 51.414314377103736],
          [-0.386122796600381, 51.41428060512581],
          [-0.389716652800589, 51.414357916163056],
          [-0.390292577678523, 51.41433794991422],
          [-0.389771604444648, 51.41140542224392],
          [-0.389649977943542, 51.410693316471956],
          [-0.38929590901464, 51.41070283940908],
          [-0.389177090134336, 51.41031990974826],
          [-0.386828938210714, 51.41040182105153],
          [-0.386635905047348, 51.41041175385376],
          [-0.38430935140734, 51.41016657186553],
          [-0.38377756820389, 51.410118771207124],
          [-0.383811061798095, 51.40953649665561],
          [-0.383424729634773, 51.409482606737285],
          [-0.383350228770937, 51.40853822914575],
          [-0.385696820627668, 51.40915061505303],
          [-0.386994482192298, 51.40937621713927],
          [-0.390860727920853, 51.409588538880904],
          [-0.391190023579423, 51.409547196221936],
          [-0.396825464540162, 51.40806056673704],
          [-0.39704674637688, 51.407982658087555],
          [-0.397119553796502, 51.408572684250785],
          [-0.397193500974409, 51.408596177669345],
          [-0.399762840579608, 51.4078597040986],
          [-0.399829389987295, 51.40784802282263],
          [-0.3999243133866, 51.40780615330093],
          [-0.399850899233015, 51.407602812375984],
          [-0.399631901417021, 51.40736870639086],
          [-0.399330250837154, 51.40707231987033],
          [-0.402091330673251, 51.40607042863638],
          [-0.40238157495366, 51.40599345023738],
          [-0.404051491204872, 51.40572753326284],
          [-0.404466006150263, 51.40567382472034],
          [-0.405864805437255, 51.40567847163624],
          [-0.40604519389852, 51.40565934244259],
          [-0.408824603097179, 51.40495070753331],
          [-0.409344415690653, 51.40476261967816],
          [-0.410410137421007, 51.40421412876743],
          [-0.410635343756098, 51.40410477285762],
          [-0.41130900415192, 51.40354286250138],
          [-0.411415682307592, 51.40345168247365],
          [-0.412847777595261, 51.40153942661906],
          [-0.412933582856692, 51.401469545294596],
          [-0.414632414260248, 51.4006939756495],
          [-0.41493881898973, 51.40043912684005],
          [-0.415444634624281, 51.39986323256081],
          [-0.415561413191788, 51.39977038688589],
          [-0.415702784248827, 51.39925700980152],
          [-0.415837331663786, 51.39914911627359],
          [-0.417103615516994, 51.39886406784414],
          [-0.417140593013522, 51.398833991711726],
          [-0.417132973958389, 51.3977637437256],
          [-0.417198389440015, 51.39765941129131],
          [-0.419291937889546, 51.39701950161184],
          [-0.419584005297024, 51.39684538292957],
          [-0.419643314565942, 51.39670949196314],
          [-0.419621180969764, 51.39664264666671],
          [-0.419034368688244, 51.39644318492186],
          [-0.418964913635528, 51.39637300324948],
          [-0.418714305727633, 51.395636707464035],
          [-0.418685950719279, 51.39554190027347],
          [-0.418923410681803, 51.39524204626232],
          [-0.418948487068369, 51.39522349966319],
          [-0.419422792687444, 51.395141768139126],
          [-0.419508047652638, 51.39508716251083],
          [-0.419588646764778, 51.39458375248927],
          [-0.41951998734507, 51.394448833546946],
          [-0.420019737053553, 51.394462766714405],
          [-0.420143497660303, 51.39450040650661],
          [-0.420297319764547, 51.394374782161734],
          [-0.420707776948619, 51.394101537192604],
          [-0.42131889165209, 51.39309358340913],
          [-0.420674117110197, 51.39270000285877],
          [-0.421077923889879, 51.39228547989169],
          [-0.421496078269312, 51.392414314929475],
          [-0.421599645657943, 51.392412112851865],
          [-0.423145512837487, 51.39151388390636],
          [-0.423183793096212, 51.391487421546636],
          [-0.425079189637912, 51.39099853993719],
          [-0.425351733375116, 51.39088889718224],
          [-0.425979575128878, 51.39051964763916],
          [-0.426135528823214, 51.390414731733124],
          [-0.426452541095668, 51.38997206253845],
          [-0.426660681375387, 51.38993798804478],
          [-0.426543203864726, 51.38883662994035],
          [-0.426546192303823, 51.388749442964134],
          [-0.426853037013357, 51.387973914142144],
          [-0.427174401731512, 51.38715181841673],
          [-0.427666743643859, 51.38641474688684],
          [-0.43005245183281, 51.3871724269787],
          [-0.430112096837084, 51.38710937940684],
          [-0.43019885997622, 51.387009825897636],
          [-0.429160691130479, 51.386688370888464],
          [-0.427888832162658, 51.386266652820076],
          [-0.428822867389004, 51.38538892374998],
          [-0.428855085793716, 51.38537137075315],
          [-0.429420380311843, 51.38531510202508],
          [-0.429608395366463, 51.38523848792627],
          [-0.432089577985082, 51.384041540485505],
          [-0.432213488926477, 51.38399014269595],
          [-0.435722594107807, 51.38391563504481],
          [-0.435758443857233, 51.3839179118748],
          [-0.435618839062391, 51.38426136048841],
          [-0.435615751753673, 51.38426761403089],
          [-0.436231828537376, 51.38440712340371],
          [-0.436550959774491, 51.384530979680626],
          [-0.437373788238001, 51.38505631958778],
          [-0.437513061039406, 51.385186768254115],
          [-0.437742550581714, 51.38558010005535],
          [-0.437764737955751, 51.38564604079312],
          [-0.437858394712978, 51.38644132444871],
          [-0.437911481536681, 51.38657062417938],
          [-0.439303449989193, 51.388111587510316],
          [-0.439976877711891, 51.38872214604436],
          [-0.441323310690822, 51.38957635260811],
          [-0.441590620289405, 51.38970400188396],
          [-0.442599902838921, 51.38982172499627],
          [-0.442777492559436, 51.38979800562275],
          [-0.44334727740307, 51.38939821325066],
          [-0.443422640333537, 51.38925263666275],
          [-0.443661369004456, 51.387764855507015],
          [-0.443701950148897, 51.38767007407137],
          [-0.444021196713313, 51.387325403717874],
          [-0.444160989994861, 51.387229241018886],
          [-0.444802847377749, 51.38694909872557],
          [-0.445004262178778, 51.38690051321848],
          [-0.445693965723782, 51.38677746951901],
          [-0.446047499394082, 51.386735395019436],
          [-0.447210028931038, 51.38678227110998],
          [-0.447582958821438, 51.38684655987076],
          [-0.449985083451752, 51.38797811848988],
          [-0.45021931626012, 51.38802168088457],
          [-0.450641033023688, 51.3880461385951],
          [-0.450801221390367, 51.38802667342638],
          [-0.451690568211821, 51.3877371752758],
          [-0.451890990440342, 51.38763281321797],
          [-0.452068216990821, 51.387108197042075],
          [-0.451955589363946, 51.38691067376098],
          [-0.450364609272268, 51.385208064449216],
          [-0.450255060784334, 51.38491975712803],
          [-0.450310331047265, 51.384091383306384],
          [-0.450358613237393, 51.383938250501544],
          [-0.450832344256094, 51.38335730630301],
          [-0.450907199975861, 51.38326837130464],
          [-0.451978482741007, 51.38282301267208],
          [-0.45204037169403, 51.382820233328545],
          [-0.453516274715832, 51.38320391433514],
          [-0.453819201350506, 51.38325557175347],
          [-0.455006333146309, 51.38325324576345],
          [-0.455166780201872, 51.38322568628355],
          [-0.456831455632572, 51.38231331123695],
          [-0.457878892912498, 51.38184870568428],
          [-0.458561546365156, 51.38159061397773],
          [-0.458715407295558, 51.38154497826569],
          [-0.459548966873661, 51.381500187141285],
          [-0.459586344009306, 51.38149977929142],
          [-0.45943300159349, 51.38097350650157],
          [-0.45936816414059, 51.38093578516646],
          [-0.458016510843981, 51.380618558046955],
          [-0.457990940863782, 51.38056696485308],
          [-0.460393480069025, 51.37945832278088],
          [-0.460732673848799, 51.37932789339566],
          [-0.46117410911297, 51.378976693679235],
          [-0.461350318064038, 51.37864988607642],
          [-0.462036280394289, 51.378419694505695],
          [-0.462219145817774, 51.378408606126634],
          [-0.462897264632576, 51.378455272394866],
          [-0.463013990097642, 51.378488277038365],
          [-0.46348653813331, 51.378837984388475],
          [-0.463501093556687, 51.37908996226301],
          [-0.463390543766934, 51.37930163219844],
          [-0.46289990683082, 51.379749312508956],
          [-0.461941853934087, 51.38025110512118],
          [-0.461811616211023, 51.3804067623406],
          [-0.461350261605292, 51.38130893663224],
          [-0.461269992232458, 51.38147424181716],
          [-0.461376396860782, 51.3819009792839],
          [-0.461455772396142, 51.38197665841477],
          [-0.462094096380078, 51.382226034310854],
          [-0.462295761781979, 51.38225475894162],
          [-0.464594330909836, 51.38184787130491],
          [-0.464775863121943, 51.38183406362959],
          [-0.46733081322053, 51.381795572277134],
          [-0.469527953177855, 51.38188543908701],
          [-0.469954543833666, 51.38189190943737],
          [-0.470560204687326, 51.38204459377921],
          [-0.470615446870186, 51.38206869500811],
          [-0.471020419818881, 51.38255147540023],
          [-0.471020446170667, 51.382680066757],
          [-0.470976656050644, 51.38295915830839],
          [-0.470092054641225, 51.38423262547803],
          [-0.469907373771447, 51.3846852317945],
          [-0.46983235732252, 51.3849522270579],
          [-0.469821782990956, 51.38509686734089],
          [-0.470049910486942, 51.385754496381814],
          [-0.470136185519016, 51.38588241638121],
          [-0.471844871639061, 51.3873524984845],
          [-0.472260283655523, 51.38765286822676],
          [-0.475935087406293, 51.38986431308092],
          [-0.476475835070804, 51.39011414260899],
          [-0.47738324453928, 51.390359743150505],
          [-0.477627065070335, 51.390375501154764],
          [-0.478485917308439, 51.39017893241472],
          [-0.478667139177814, 51.39008866343753],
          [-0.478887592986226, 51.38994225102081],
          [-0.479012836884165, 51.38980629235344],
          [-0.480174312139148, 51.38806783386396],
          [-0.480297657209395, 51.387902173868184],
          [-0.481988664348093, 51.38670561491284],
          [-0.48207156165807, 51.38667611448186],
          [-0.483527233351248, 51.38650881979764],
          [-0.483754579985123, 51.3865441350333],
          [-0.484523888485412, 51.38674922500441],
          [-0.484604674919308, 51.38678354209763],
          [-0.485327937400885, 51.38725151212669],
          [-0.485445137904617, 51.387358239517184],
          [-0.48624467281877, 51.38834605673488],
          [-0.486393829703953, 51.38861685924579],
          [-0.486321638681748, 51.389366798667965],
          [-0.486261756401781, 51.38961331812328],
          [-0.486801277661207, 51.39133875112054],
          [-0.486875755875881, 51.39208698797606],
          [-0.48638947750739, 51.39305818803151],
          [-0.48638419967359, 51.393130958873506],
          [-0.486761422672074, 51.39524546591731],
          [-0.48689303536888, 51.39552593243905],
          [-0.487501699710534, 51.39633502119675],
          [-0.48786302665453, 51.396755137564895],
          [-0.490896629392984, 51.39861882521842],
          [-0.491082461216982, 51.39873812085394],
          [-0.491763429508261, 51.399494163131465],
          [-0.491834814889986, 51.399683923788366],
          [-0.491938011301304, 51.40021760584178],
          [-0.491946972950457, 51.400469510057334],
          [-0.491250587192542, 51.402189793187866],
          [-0.491185790372245, 51.402323845528635],
          [-0.491155876554296, 51.40310130754464],
          [-0.49116964551531, 51.40325075959713],
          [-0.491493701818104, 51.40384483746711],
          [-0.491669174684552, 51.40406111706258],
          [-0.492664565156446, 51.4050082434743],
          [-0.492948617288599, 51.4053769911337],
          [-0.493094717846927, 51.40670525645848],
          [-0.493071880069245, 51.40722472613138],
          [-0.492545636436035, 51.40940941442022],
          [-0.492488827995971, 51.40991225962682],
          [-0.492517495669687, 51.41030829543089],
          [-0.492666894404923, 51.41083717398234],
          [-0.493149809489316, 51.411762412040446],
          [-0.493203224270758, 51.41188719450537],
          [-0.493642923019992, 51.412334376672796],
          [-0.494119148003456, 51.41267681521927],
          [-0.495511422034573, 51.41332507053947],
          [-0.495663307780672, 51.413385471543],
          [-0.497965766517294, 51.41403818635085],
          [-0.498115519815018, 51.41407607575902],
          [-0.499515126795487, 51.41410839626444],
          [-0.499772053354075, 51.41407931363708],
          [-0.500249365338344, 51.41390737446734],
          [-0.5004273281582, 51.41378645617039],
          [-0.500740022928308, 51.41341547397143],
          [-0.500800672398762, 51.413275968279734],
          [-0.50082380553004, 51.413096415866896],
          [-0.500790500926501, 51.412883768573764],
          [-0.500154065570633, 51.41163556804622],
          [-0.500117468605772, 51.41152359349727],
          [-0.500165263597709, 51.41116181066297],
          [-0.500293354389796, 51.41098270259715],
          [-0.500895109526863, 51.4106540869918],
          [-0.501168003242259, 51.41061981019854],
          [-0.502749844616061, 51.41070477839577],
          [-0.503244172210994, 51.410802816119364],
          [-0.50353850375454, 51.41090459261909],
          [-0.503696726423725, 51.41103520473526],
          [-0.503787097648113, 51.41126206849907],
          [-0.503736697679871, 51.41139631133309],
          [-0.503560241209637, 51.41173577019171],
          [-0.503384018725187, 51.41202397493724],
          [-0.502699457279624, 51.41277419035866],
          [-0.502398142721265, 51.41301763148754],
          [-0.501796151171275, 51.4138804026637],
          [-0.501707450461633, 51.41413015705879],
          [-0.501633423038215, 51.414678647291716],
          [-0.501655232848766, 51.41489114723391],
          [-0.502129181000562, 51.41548171361229],
          [-0.502681129505661, 51.41588623248421],
          [-0.50428320790484, 51.416634179274524],
          [-0.504695426633451, 51.41682648248583],
          [-0.506370880418019, 51.417310960144135],
          [-0.506821835972142, 51.417374258890696],
          [-0.507685576179015, 51.4173924559772],
          [-0.508085332877567, 51.41734988645169],
          [-0.510892774510203, 51.41690270366425],
          [-0.511218274273027, 51.41688795553446],
          [-0.512428447055794, 51.41722075709395],
          [-0.512595962357258, 51.41737665405284],
          [-0.512851119842063, 51.41775667527903],
          [-0.512923123423164, 51.4179752057973],
          [-0.512931656619586, 51.41881970289389],
          [-0.512875385772012, 51.41900243424687],
          [-0.512528616970103, 51.41967156546376],
          [-0.51233397742798, 51.42004048163272],
          [-0.51086539359025, 51.42207929363186],
          [-0.510711116858082, 51.422312035069],
          [-0.50994350254164, 51.42384537528414],
          [-0.509848289452705, 51.424163395264166],
          [-0.509644957881532, 51.42638913031301],
          [-0.509658325977197, 51.426552962389515],
          [-0.50970332940226, 51.42702653605714],
          [-0.50990833895235, 51.42850659766627],
          [-0.510308965458789, 51.429589882498675],
          [-0.510388984627751, 51.42978333750227],
          [-0.511459384416151, 51.43088592202187],
          [-0.511994953369748, 51.43122724240234],
          [-0.516844679864022, 51.43344061505952],
          [-0.517454446981217, 51.43375857019217],
          [-0.518995759270464, 51.434366161843336],
          [-0.519762196741716, 51.434600651839766],
          [-0.522743695636027, 51.435298300424954],
          [-0.522765209664864, 51.43530036997165],
          [-0.522800323567009, 51.4355499032952],
          [-0.522849255763087, 51.435638645793226],
          [-0.523074413635326, 51.435750290822895],
          [-0.523203575178893, 51.435804973165915],
          [-0.523805259901137, 51.43597441403262],
          [-0.523849639937768, 51.43598126748325],
          [-0.524433029635451, 51.4359148725871],
          [-0.524531856886916, 51.4359287056792],
          [-0.524694050291325, 51.43607462576164],
          [-0.52480759757184, 51.43612281513628],
          [-0.524760265261015, 51.43647562285503],
          [-0.524793199110545, 51.43661452092064],
          [-0.525006399103733, 51.43687438710075],
          [-0.525159561208796, 51.43689879483785],
          [-0.525004519936277, 51.437200789301386],
          [-0.524933913987007, 51.437293422537685],
          [-0.525171844296458, 51.43732159434983],
          [-0.525296243984436, 51.43734564011587],
          [-0.524491786737227, 51.43833368124217],
          [-0.524094831014212, 51.43873064771016],
          [-0.524097316242181, 51.43918929372366],
          [-0.524078443527355, 51.43932843907271],
          [-0.524539805485919, 51.439880086781045],
          [-0.524785317059284, 51.440030651911876],
          [-0.525957645613648, 51.440130823378645],
          [-0.526083346886799, 51.44015938083169],
          [-0.526391163514547, 51.44052024957663],
          [-0.526491431635065, 51.440579061251256],
          [-0.526813221251545, 51.44050576956789],
          [-0.526911141210168, 51.440503402786426],
          [-0.52737380476455, 51.44074751388805],
          [-0.527728959781684, 51.44088955800539],
          [-0.530130532913119, 51.440977238680944],
          [-0.530497229744087, 51.441163481948735],
          [-0.531436474635548, 51.44171299644826],
          [-0.530679153669516, 51.44361080655127],
          [-0.530640850782176, 51.44377308986434],
          [-0.530648349470517, 51.44389817882146],
          [-0.530766838066439, 51.44437626308601],
          [-0.531099867162229, 51.4447158534969],
          [-0.531062628381498, 51.44488984042412],
          [-0.529720579964225, 51.44532084460819],
          [-0.529405569243448, 51.445495844080284],
          [-0.526836003838307, 51.447402361663634],
          [-0.526731808820471, 51.44750986118284],
          [-0.539589778268638, 51.456411357718416],
          [-0.540577011315194, 51.457094486224655],
          [-0.540580218047679, 51.457400268894176],
          [-0.540613315191876, 51.45785210102822],
          [-0.540517814467097, 51.458364380155686],
          [-0.540478305626336, 51.45838457092661],
          [-0.536951429828143, 51.45960764568826],
          [-0.536601099998989, 51.45935418345246],
          [-0.535885089289815, 51.45991266569523],
          [-0.535301616920254, 51.46051236587645],
          [-0.53322465321195, 51.462975504992706],
          [-0.532606367932474, 51.46371593890732],
          [-0.532190074900191, 51.46448677440957],
          [-0.532071899721172, 51.464490690700735],
          [-0.531758064192294, 51.46507396645355],
          [-0.531893737772488, 51.465108037653664],
          [-0.530264891483244, 51.46804074417787],
          [-0.530064065937314, 51.46837634211304],
          [-0.529792178880751, 51.46917595678098],
          [-0.529645857059592, 51.46929372147962],
          [-0.530377832937878, 51.46932088125651],
          [-0.529960434502899, 51.47016813092172],
          [-0.525079834723785, 51.4714080530234],
          [-0.524987055409869, 51.47142756867383],
          [-0.523159842042308, 51.47156283909138],
          [-0.52277100776603, 51.47156513575262],
          [-0.520712824892811, 51.471362041556326],
          [-0.520609808499355, 51.47134185801087],
          [-0.518478315554354, 51.47069087714569],
          [-0.518236992567873, 51.47058441558027],
          [-0.516833966684134, 51.46962697134574],
          [-0.516666128840727, 51.46947467508264],
          [-0.51579522788861, 51.46831532392152],
          [-0.515768845997355, 51.46828531502508],
          [-0.515661405084596, 51.46826866792303],
          [-0.513850781707364, 51.46798495395865],
          [-0.513658764388199, 51.46831164263099],
          [-0.513583332324768, 51.46841769621804],
          [-0.511847340090778, 51.46884979459056],
          [-0.511611768056741, 51.468921441777404],
          [-0.511308637794646, 51.469166683745144],
          [-0.511182681185399, 51.46927659057712],
          [-0.510179004889435, 51.469192802844375],
          [-0.510003073812648, 51.46920135837408],
          [-0.50970154876096, 51.46917594478309],
          [-0.510153960310522, 51.46876804240524],
          [-0.510333142615227, 51.46821728498784],
          [-0.51035606504221, 51.468088085326805],
          [-0.510280338396137, 51.467760698374214],
          [-0.510277135580763, 51.46750527289596],
          [-0.509127717909645, 51.467211899201715],
          [-0.50878167412832, 51.46709509360938],
          [-0.507385611505092, 51.466948739272084],
          [-0.507317531238865, 51.46691729838616],
          [-0.506635011987576, 51.467582140735914],
          [-0.506605672124062, 51.467598852679664],
          [-0.505596260982321, 51.467780228974526],
          [-0.505525684836195, 51.467781127979116],
          [-0.503523210425131, 51.46768724659374],
          [-0.503399886473464, 51.46767218399359],
          [-0.499820057097574, 51.46698977593029],
          [-0.499375035368575, 51.46686268398342],
          [-0.497037973416363, 51.465911027763305],
          [-0.496985849563246, 51.465876188372796],
          [-0.497033626469678, 51.46573651862444],
          [-0.495880425109918, 51.46486115442959],
          [-0.495575017438053, 51.464604548486015],
          [-0.494035405539197, 51.46304887272923],
          [-0.493861863821399, 51.46272291504426],
          [-0.493698058013362, 51.46271361675231],
          [-0.493445154593824, 51.46269957643592],
          [-0.493249234015287, 51.46287870656683],
          [-0.493112017517794, 51.46293629338236],
          [-0.492603574339875, 51.462988208751206],
          [-0.492209650195052, 51.46297235268765],
          [-0.490323345420032, 51.46233119640699],
          [-0.490310572698783, 51.462325636458985],
          [-0.489642861696185, 51.461794574070716],
          [-0.489610062715309, 51.46178515906785],
          [-0.488818840246921, 51.461812731939084],
          [-0.488808767685418, 51.46181260211162],
          [-0.486112437310802, 51.46133538684239],
          [-0.485862659715143, 51.461314176346086],
          [-0.479652648918755, 51.46143880640448],
          [-0.478915319975689, 51.46144722286502],
          [-0.47720973360113, 51.46135223145286],
          [-0.477120998598127, 51.46133669022925],
          [-0.476152459211522, 51.46098238238593],
          [-0.476118733028116, 51.46095766391426],
          [-0.475901231348152, 51.46070214454643],
          [-0.475895864690279, 51.46069038443006],
          [-0.476292996061418, 51.46060922072371],
          [-0.475877120667588, 51.460085841314516],
          [-0.473594607394345, 51.45864429632447],
          [-0.47356040475346, 51.45863395888203],
          [-0.470614284092935, 51.458102744859104],
          [-0.469587602133597, 51.45798412514628],
          [-0.466884045316132, 51.45786334467901],
          [-0.466760578072471, 51.45785363519604],
          [-0.461409352772127, 51.45723491585662],
          [-0.461279026709223, 51.45721521863906],
          [-0.460083946290006, 51.45692613767994],
          [-0.459967175134139, 51.45688863199595],
          [-0.458640609771862, 51.45631543961192]
        ]
      ]
    ]
  }
}
