{
  "type": "Feature",
  "properties": {
    "name": "Tandridge",
    "level": 2,
    "center": [-0.0482, 51.2321]
  },
  "geometry": {
    "type": "MultiPolygon",
    "coordinates": [
      [
        [
          [-0.093690650939929, 51.13842643197372],
          [-0.104405279160179, 51.138972894978174],
          [-0.106163877893426, 51.13907063094723],
          [-0.109072528683057, 51.13953587669713],
          [-0.109169471310606, 51.139367471503576],
          [-0.111617343683474, 51.140055430760256],
          [-0.111765039047862, 51.14007939896324],
          [-0.111636375552654, 51.1403597096488],
          [-0.111644323727806, 51.14037512648175],
          [-0.11382366791555, 51.140638718874264],
          [-0.114964742712692, 51.14070208023811],
          [-0.114980091534175, 51.140711320836346],
          [-0.114574399631874, 51.14108969261352],
          [-0.114802947332085, 51.14116442299012],
          [-0.11725244910824, 51.14160587421879],
          [-0.117765443200598, 51.140592499214144],
          [-0.117829070819174, 51.140574637308156],
          [-0.118322384617982, 51.140536708974686],
          [-0.1186601596533, 51.14049178034763],
          [-0.118976650795759, 51.14079454653025],
          [-0.118990681436379, 51.14080106743086],
          [-0.120353705705907, 51.14075013416724],
          [-0.120982083444149, 51.14073055292038],
          [-0.124124553091622, 51.14030075515292],
          [-0.12452131143226, 51.14031701018953],
          [-0.125101505072833, 51.14088659002571],
          [-0.125132753248119, 51.140891587527825],
          [-0.125851555493733, 51.140792490436965],
          [-0.126522326735193, 51.14067912976846],
          [-0.126420919218284, 51.140500338842294],
          [-0.127560994310006, 51.14034142863468],
          [-0.127391310759597, 51.139553603235285],
          [-0.127402038464745, 51.139535788525365],
          [-0.129983331224424, 51.1395114355594],
          [-0.13102517471448, 51.13948312151897],
          [-0.131720966981629, 51.14147544522737],
          [-0.131743208806914, 51.14149108897226],
          [-0.134081939699117, 51.14184768063817],
          [-0.134523201693321, 51.14189518857408],
          [-0.135886986405067, 51.14186117323349],
          [-0.136175182996147, 51.141875658411934],
          [-0.137232970509296, 51.14205618559304],
          [-0.137571913862308, 51.14215960903151],
          [-0.136490337292245, 51.14562187623008],
          [-0.136331003577711, 51.146382865659554],
          [-0.13557697292138, 51.15338468802122],
          [-0.135583920616413, 51.15367348183232],
          [-0.135112888037542, 51.15375860396615],
          [-0.135093802973153, 51.153770890249284],
          [-0.13538170753659, 51.1544328856826],
          [-0.135030407482737, 51.15598131745874],
          [-0.134491414522558, 51.1572542593547],
          [-0.134192261981828, 51.15772163296935],
          [-0.134161342781328, 51.15774362287196],
          [-0.133864118840219, 51.1578441023354],
          [-0.133915062540578, 51.15803467233289],
          [-0.133898616169674, 51.15805239643191],
          [-0.13323997790669, 51.15839082465481],
          [-0.133127476928919, 51.158485256814316],
          [-0.132952261288115, 51.158822404507276],
          [-0.132959798206703, 51.15888367877515],
          [-0.133136061734655, 51.15922913193386],
          [-0.135984424537745, 51.15973770381559],
          [-0.140111792471419, 51.16002373102945],
          [-0.140462665356693, 51.16004729544712],
          [-0.140377342018701, 51.1603553046162],
          [-0.14035916271089, 51.160416169265254],
          [-0.135975986658198, 51.16072771793171],
          [-0.135861536511571, 51.16072859210385],
          [-0.129121511470613, 51.16245019591919],
          [-0.128656047067045, 51.16260732510376],
          [-0.12825391695985, 51.162789747445224],
          [-0.127738290543222, 51.16499830996687],
          [-0.127719427661591, 51.16504027589601],
          [-0.128479560940388, 51.169619160246256],
          [-0.128552453585649, 51.1700448023333],
          [-0.128979798087446, 51.174791017313694],
          [-0.129100167061335, 51.17496291267218],
          [-0.131208837979088, 51.17542469341926],
          [-0.132207037670899, 51.17554046047104],
          [-0.132199068632816, 51.17587937325082],
          [-0.132206739315625, 51.17590197849404],
          [-0.133056891266267, 51.17603515869674],
          [-0.133134191367375, 51.17599862138922],
          [-0.134935987044408, 51.17651568919167],
          [-0.134977574595467, 51.17654872752874],
          [-0.135119388758399, 51.17689902180132],
          [-0.135130889035122, 51.177358752497476],
          [-0.136374746311401, 51.177947842934316],
          [-0.136421417893913, 51.178103267956025],
          [-0.13627029920097, 51.178409323163535],
          [-0.136254967082368, 51.17847023190576],
          [-0.136364331194914, 51.178703097341234],
          [-0.136359462032069, 51.17871740870862],
          [-0.135892030374064, 51.17920368019467],
          [-0.135882525547884, 51.179261983825164],
          [-0.136236453184921, 51.1798521760573],
          [-0.136336970708078, 51.18005612261295],
          [-0.136067510219998, 51.18031622526566],
          [-0.136063708274745, 51.180339546719516],
          [-0.13659854712945, 51.180630453130334],
          [-0.136614872575323, 51.18065139737767],
          [-0.136483875867529, 51.18088402987724],
          [-0.136485612524153, 51.180911936149336],
          [-0.136720161084346, 51.181234029016274],
          [-0.136754894497071, 51.18125976308389],
          [-0.139418840058088, 51.182545922277704],
          [-0.139834191576589, 51.182891569791565],
          [-0.139952223079766, 51.18322978923652],
          [-0.14000766972045, 51.18330981044079],
          [-0.141597050682429, 51.18477757500089],
          [-0.141667019223104, 51.18485243052658],
          [-0.141095186258291, 51.18533706407508],
          [-0.140324244676558, 51.185968713368226],
          [-0.141223923270632, 51.18633464875398],
          [-0.141491445547658, 51.18644322109814],
          [-0.142824084054782, 51.186504862858015],
          [-0.143508334991236, 51.18653461377899],
          [-0.143283421155793, 51.18817948202332],
          [-0.143148346516357, 51.18826457040957],
          [-0.143237593800622, 51.189712081240074],
          [-0.142955539932469, 51.19039197827211],
          [-0.141870234875828, 51.190618449746836],
          [-0.141601902901762, 51.190671741191764],
          [-0.141606195398686, 51.19141913708352],
          [-0.141555362744534, 51.19147318712781],
          [-0.141454037899348, 51.19153722630888],
          [-0.1411979371988, 51.191570926319244],
          [-0.139466394207865, 51.192882462794124],
          [-0.139366332266334, 51.19298609029109],
          [-0.138663147812379, 51.19463233413249],
          [-0.138600378422022, 51.19480490246422],
          [-0.137890457265268, 51.19579993055767],
          [-0.137776225942094, 51.19597077947812],
          [-0.137584512495877, 51.19841925476294],
          [-0.137571311613345, 51.198498184066885],
          [-0.13703072705207, 51.20001300845452],
          [-0.137024068081109, 51.20056867793752],
          [-0.137386875955555, 51.20293156336181],
          [-0.137397830992811, 51.202979401574424],
          [-0.13790389391939, 51.20399109761394],
          [-0.138040599698227, 51.204186627361636],
          [-0.137795817730187, 51.20613963760505],
          [-0.13781139073221, 51.2063215471466],
          [-0.137749686558351, 51.206609244345394],
          [-0.137320764204969, 51.20659521770063],
          [-0.137308811209027, 51.206607617686466],
          [-0.137060069141211, 51.207237671538806],
          [-0.137046303675801, 51.207295008343074],
          [-0.136772882662428, 51.207507386487514],
          [-0.136747218889974, 51.20754025216839],
          [-0.136600183339679, 51.207920117679365],
          [-0.136580203330037, 51.20802501905569],
          [-0.136649171153082, 51.20848027189549],
          [-0.136639245159083, 51.20851338834641],
          [-0.135745968410454, 51.210320261179795],
          [-0.135672698377664, 51.210468379129075],
          [-0.135645069349958, 51.21062082200741],
          [-0.1356976114579, 51.2109508086936],
          [-0.135829809186348, 51.21097449988885],
          [-0.135919400960578, 51.211131509513194],
          [-0.135786864800149, 51.2113290442733],
          [-0.135783910493541, 51.211366768360655],
          [-0.135871360508821, 51.21196710563714],
          [-0.135853823556015, 51.212046864994825],
          [-0.144095566852458, 51.21072018023129],
          [-0.145502445156463, 51.21073350855729],
          [-0.144729773159005, 51.21253966349246],
          [-0.144565526865497, 51.21306405502673],
          [-0.144585420682773, 51.21538459877211],
          [-0.144733674558356, 51.21625658675419],
          [-0.1451314240963, 51.21626469548612],
          [-0.14537155448649, 51.21645376283757],
          [-0.145406992502908, 51.21649839123611],
          [-0.147365383964129, 51.21986588195753],
          [-0.147408825098567, 51.2199609978507],
          [-0.149361202615062, 51.22187776598914],
          [-0.149558406958195, 51.22206704383365],
          [-0.151046128019045, 51.22411132405948],
          [-0.151097024707792, 51.22419936175277],
          [-0.151507040674246, 51.224546681470684],
          [-0.151801251671523, 51.224817526125136],
          [-0.152193196610658, 51.22572392683695],
          [-0.152901509277153, 51.226312470424055],
          [-0.152720083454694, 51.22651554744372],
          [-0.152442281400863, 51.22676476545226],
          [-0.153167239557107, 51.227045106939784],
          [-0.153355804651807, 51.22712902171604],
          [-0.153810927443737, 51.228211779707266],
          [-0.153890298670015, 51.22841177971941],
          [-0.154156776116704, 51.22869656937889],
          [-0.154227148117781, 51.22879930173133],
          [-0.154235526187092, 51.22919872723692],
          [-0.154448659129007, 51.229886464255095],
          [-0.154959063537036, 51.23066252553353],
          [-0.154960812795391, 51.23069043170082],
          [-0.154401488956119, 51.23185430742042],
          [-0.154373745421522, 51.23190333169723],
          [-0.15367296056402, 51.23284284268807],
          [-0.153574684548934, 51.2330436360319],
          [-0.153660301593498, 51.23337413436146],
          [-0.153640217408771, 51.23341068902726],
          [-0.15271902349837, 51.23459492359407],
          [-0.152247220435976, 51.23503712617987],
          [-0.151474256203913, 51.23491519895137],
          [-0.151446659918535, 51.23492465519602],
          [-0.150844916729715, 51.23582074627932],
          [-0.150813412157304, 51.235856220513604],
          [-0.150421317720679, 51.23602448670189],
          [-0.150322355310425, 51.236027418318194],
          [-0.15022646433098, 51.23591798496127],
          [-0.150075775915081, 51.23581757724712],
          [-0.149847836515166, 51.235107115987034],
          [-0.149814073954866, 51.235020248365615],
          [-0.149514795435848, 51.23476730489032],
          [-0.149277500536101, 51.23454052201474],
          [-0.148030404913875, 51.2342042259785],
          [-0.148017520787763, 51.234204021973454],
          [-0.145410643848476, 51.23719248722851],
          [-0.145307597047736, 51.23729697174402],
          [-0.145251055473937, 51.237563169839895],
          [-0.145249570838007, 51.23770703566783],
          [-0.146023907605007, 51.23950713634427],
          [-0.146022992165003, 51.239565576863214],
          [-0.145480116384129, 51.24024044544856],
          [-0.145328543279559, 51.24058967178308],
          [-0.145337548159167, 51.24150620948069],
          [-0.145288262604014, 51.24159176161574],
          [-0.143223750990841, 51.243656197167084],
          [-0.143075926483173, 51.243875979901155],
          [-0.142981953929331, 51.24414607931198],
          [-0.142980693832972, 51.24424858047162],
          [-0.143109286494019, 51.24482707843626],
          [-0.143102748117174, 51.24488273176657],
          [-0.142879618617339, 51.245229020658016],
          [-0.142733970577103, 51.245786078124766],
          [-0.142810448745555, 51.24609305710398],
          [-0.142899818978069, 51.24622217765381],
          [-0.143854696733676, 51.24724006078662],
          [-0.144372982771915, 51.24792726044194],
          [-0.144567987326408, 51.24949155139469],
          [-0.144590510556695, 51.24957284628415],
          [-0.144898008036719, 51.250228821282],
          [-0.145056234763457, 51.250463351474366],
          [-0.145707110366816, 51.25106181653025],
          [-0.145742502013513, 51.25110824213608],
          [-0.145682383571443, 51.25132042498603],
          [-0.14566271848251, 51.251346193186855],
          [-0.145471292793026, 51.2515095306276],
          [-0.145342738107514, 51.25157044418816],
          [-0.144259403826848, 51.251783487561724],
          [-0.144199710981365, 51.2518068219688],
          [-0.143559441783018, 51.25251161286237],
          [-0.143152296269454, 51.252907141755514],
          [-0.142968342871954, 51.25331160806967],
          [-0.142949254407402, 51.25332299606642],
          [-0.142634247475805, 51.25324515158353],
          [-0.142581526793093, 51.25320204714664],
          [-0.141708356055613, 51.253319479914005],
          [-0.141700438398793, 51.253409284872326],
          [-0.141058614532548, 51.25340448427521],
          [-0.140955917037543, 51.2534280330327],
          [-0.14071598174578, 51.25330101503612],
          [-0.140631465601564, 51.25326459885605],
          [-0.140130668269032, 51.253423010449026],
          [-0.140109004699724, 51.253427162591144],
          [-0.139540746517291, 51.253374960546594],
          [-0.139447674520417, 51.253337508138415],
          [-0.138814277988025, 51.25365657999493],
          [-0.138795169782997, 51.25370393931431],
          [-0.138333033377387, 51.25372086771264],
          [-0.138220780331932, 51.25373257102961],
          [-0.137740126591503, 51.253959640432],
          [-0.137656912799737, 51.25403295837667],
          [-0.136898111214639, 51.25408562718216],
          [-0.136859115730528, 51.25409309994867],
          [-0.136695730537653, 51.25423528646607],
          [-0.136603957823354, 51.2543075680539],
          [-0.135175750526803, 51.254647232946624],
          [-0.135135678947152, 51.254716740250075],
          [-0.132180531635742, 51.254257695761545],
          [-0.131792857366644, 51.25416966595777],
          [-0.131816919298131, 51.255026192534174],
          [-0.131815476151091, 51.25520333334021],
          [-0.131670216364078, 51.25546361092457],
          [-0.131612163006449, 51.255587687377485],
          [-0.131565057983563, 51.256361239737956],
          [-0.131522636577273, 51.256559309221345],
          [-0.131212453571225, 51.256857420058616],
          [-0.131040858906377, 51.25702464727931],
          [-0.129744039189373, 51.25931603902021],
          [-0.129624703295789, 51.2598905875022],
          [-0.127608184119814, 51.26165244295601],
          [-0.12680209126184, 51.26173666078825],
          [-0.127025808091984, 51.26251005221316],
          [-0.127045374230333, 51.26276936654392],
          [-0.12681833442602, 51.26408861415479],
          [-0.126825058644125, 51.26409951355016],
          [-0.127227702867853, 51.2642795277941],
          [-0.127583078766534, 51.26431759246304],
          [-0.128465756870579, 51.264219305873006],
          [-0.128634953614833, 51.26414737045735],
          [-0.129758761156364, 51.2652777894013],
          [-0.130093812874155, 51.26560509843483],
          [-0.129897817097273, 51.26573686114753],
          [-0.129808739736966, 51.265847850407624],
          [-0.129837432698877, 51.26598860119281],
          [-0.129673768429765, 51.26652466969157],
          [-0.129850895408387, 51.26654009210176],
          [-0.13193155942822, 51.26885663927066],
          [-0.132036743525287, 51.26902018999994],
          [-0.132075480427579, 51.26954958765499],
          [-0.132022771005003, 51.26968273943306],
          [-0.130687654258961, 51.27128282639416],
          [-0.130376814426588, 51.271629480641025],
          [-0.130116782636632, 51.27213701908889],
          [-0.129977898999449, 51.27248552113521],
          [-0.130155625461216, 51.273969484619414],
          [-0.130248751850496, 51.27435946381926],
          [-0.130371082290041, 51.274595232329204],
          [-0.130436940112658, 51.27480941497928],
          [-0.130761312954408, 51.27508348234709],
          [-0.130900878803154, 51.275318626031044],
          [-0.131429040508433, 51.276611212508385],
          [-0.131494603018563, 51.27683257858261],
          [-0.131434703088837, 51.277389165664275],
          [-0.131403715598325, 51.27748129515329],
          [-0.130572124178685, 51.2792080943848],
          [-0.130479480297234, 51.27947639436972],
          [-0.130294074992048, 51.28068564211383],
          [-0.130247605204631, 51.281087770509345],
          [-0.130374360856855, 51.28325971824973],
          [-0.13042435323955, 51.28351141083808],
          [-0.130963840233375, 51.284597335928964],
          [-0.131056709823846, 51.28481733800909],
          [-0.129316676222967, 51.28486420078446],
          [-0.126797697834789, 51.28491656893916],
          [-0.126683864631535, 51.28535179043587],
          [-0.126746874753925, 51.28556502421447],
          [-0.127273278724766, 51.286336915208665],
          [-0.127336572862003, 51.28643774520484],
          [-0.124517210668708, 51.286749648831496],
          [-0.118252147482591, 51.28708082664],
          [-0.117775443424742, 51.28709474664193],
          [-0.117413675920315, 51.2880484510096],
          [-0.117097367242645, 51.28848760429984],
          [-0.116980706291333, 51.2893742070317],
          [-0.116868782687048, 51.28955046269451],
          [-0.11541998282507, 51.29102444275086],
          [-0.115533937929998, 51.2911135057134],
          [-0.115049836068308, 51.291411467716095],
          [-0.115116533471886, 51.29146379962177],
          [-0.114795831440234, 51.2914847168367],
          [-0.114594495822367, 51.291532734428294],
          [-0.114878628424778, 51.292403307822255],
          [-0.114822873091337, 51.29243388511491],
          [-0.114647819068298, 51.29243556385048],
          [-0.111052345193145, 51.292252633903026],
          [-0.106420027699656, 51.29433430790398],
          [-0.103002252379492, 51.29585904330767],
          [-0.100820142007437, 51.296355153441446],
          [-0.100699570985479, 51.296391866575],
          [-0.097829986013658, 51.29772927462138],
          [-0.094324308438626, 51.29935392827876],
          [-0.096325744532598, 51.29979835893263],
          [-0.096922719409349, 51.300105726400346],
          [-0.097244831000755, 51.30029531451615],
          [-0.097347637232683, 51.30068907418741],
          [-0.097374183476615, 51.3007758375783],
          [-0.097259728220593, 51.300942145278164],
          [-0.097377445104495, 51.3011140243305],
          [-0.096359354132942, 51.301380753624834],
          [-0.096030886577249, 51.30151840041541],
          [-0.095279917531093, 51.30132632822095],
          [-0.094779880638168, 51.30068599022901],
          [-0.094386953290793, 51.30061304831214],
          [-0.093666983096342, 51.300782086423155],
          [-0.091168057437296, 51.30147250001507],
          [-0.09095210624636, 51.30246090015503],
          [-0.090904874573646, 51.30266606830712],
          [-0.090958834740547, 51.30274878377966],
          [-0.090876529093596, 51.303177304152065],
          [-0.091040214170349, 51.30327799578292],
          [-0.091171800527968, 51.30339165331452],
          [-0.090864365944025, 51.303817402754696],
          [-0.090716696348651, 51.303953486217765],
          [-0.089705797826916, 51.30397476909778],
          [-0.089576927852376, 51.30434947069978],
          [-0.089496079689708, 51.304430886653854],
          [-0.089147011650557, 51.30451062376537],
          [-0.088858004730603, 51.30480267418013],
          [-0.088732143273282, 51.305104581243604],
          [-0.088639951386606, 51.30521728677002],
          [-0.088724214954977, 51.306852678783144],
          [-0.088825260395602, 51.30721854182738],
          [-0.08664963410094, 51.3088197293813],
          [-0.08657769504542, 51.308859022203244],
          [-0.082243328626323, 51.31054088721201],
          [-0.081931833150222, 51.31064730035453],
          [-0.081822524343133, 51.311583495183754],
          [-0.081721939416327, 51.31186243354684],
          [-0.081826099978072, 51.31235876305511],
          [-0.081893162661996, 51.312608971868066],
          [-0.083194208158291, 51.31430840147184],
          [-0.083467341455215, 51.314710370542166],
          [-0.084261572961892, 51.315452715244994],
          [-0.084802552950913, 51.31586715853415],
          [-0.084447821282387, 51.31608078769543],
          [-0.084173555603182, 51.31622288797714],
          [-0.083566609531899, 51.31632446838133],
          [-0.083643849316201, 51.316606319286194],
          [-0.082161317416497, 51.316919282831336],
          [-0.081897816678868, 51.31700939344288],
          [-0.081724012269849, 51.31684107160881],
          [-0.081637046627479, 51.31679288212937],
          [-0.081347624842798, 51.31678184356126],
          [-0.081337436473367, 51.31678527382455],
          [-0.081026507616811, 51.31715249291167],
          [-0.081103632448667, 51.317230198964474],
          [-0.080412877868278, 51.31768921582687],
          [-0.080193499243083, 51.31782231413114],
          [-0.079021951778956, 51.31810976093255],
          [-0.07882692086877, 51.318140734198074],
          [-0.078866632861307, 51.31963065312574],
          [-0.078869236586119, 51.319774586387844],
          [-0.076205937410134, 51.320006936114055],
          [-0.075866465755341, 51.320059812030365],
          [-0.075351097663361, 51.32020062589258],
          [-0.074863771270917, 51.320357187030524],
          [-0.073209933891682, 51.32057548923181],
          [-0.07292325669885, 51.32063552081444],
          [-0.071166245515947, 51.321157862855785],
          [-0.071016718634411, 51.32123274003068],
          [-0.070028377914336, 51.31889261706937],
          [-0.064125427235743, 51.31862523327109],
          [-0.064086442500409, 51.318596710578724],
          [-0.06242163700548, 51.319109672624464],
          [-0.062079132088489, 51.319200233055916],
          [-0.060855115566117, 51.3199803573791],
          [-0.06065783217661, 51.320064323579025],
          [-0.059929726499027, 51.32004147541487],
          [-0.059742564898934, 51.32005546219687],
          [-0.058755257040167, 51.32025763394042],
          [-0.058392616844861, 51.32038292082542],
          [-0.056484775176414, 51.32158511063206],
          [-0.05625181298242, 51.32166397933227],
          [-0.055927721515002, 51.321453561642976],
          [-0.055714235010953, 51.32134300218024],
          [-0.055020474267567, 51.321254144398026],
          [-0.054882563265831, 51.32125724985715],
          [-0.052588608743956, 51.322321653495806],
          [-0.052481289237132, 51.32238191940181],
          [-0.051762958180087, 51.32239874812325],
          [-0.051307337291613, 51.3224478316884],
          [-0.051293359481313, 51.32288015421629],
          [-0.051266888688921, 51.323438168684646],
          [-0.051012061544842, 51.323592209998125],
          [-0.05097520491897, 51.323649151830494],
          [-0.050826374443398, 51.32414757927682],
          [-0.050683790105353, 51.32432866388746],
          [-0.04999513224656, 51.32496560167158],
          [-0.049765646472373, 51.325266643071146],
          [-0.049238205370518, 51.325383773385205],
          [-0.048758144294669, 51.325364998882904],
          [-0.048187475710348, 51.32518104663082],
          [-0.047868981096826, 51.32524499201688],
          [-0.047823685116643, 51.32631349938158],
          [-0.04782828867387, 51.32650962358323],
          [-0.047986632907378, 51.32710849572114],
          [-0.048008109120196, 51.327211373541516],
          [-0.049070008869198, 51.32860767854592],
          [-0.048749515213047, 51.32871835484853],
          [-0.048944143011552, 51.328935628600966],
          [-0.049441470250031, 51.32939445721177],
          [-0.050660076907342, 51.33021061946363],
          [-0.051081071890236, 51.33084534092602],
          [-0.051099467153525, 51.331360053030735],
          [-0.05104219384382, 51.331593820516915],
          [-0.050608300591645, 51.33187348125783],
          [-0.050072436516451, 51.33205251819769],
          [-0.050101013911175, 51.33215731360584],
          [-0.05026147168196, 51.33263931586614],
          [-0.048665749430672, 51.33276022744571],
          [-0.048473583233338, 51.33278940056313],
          [-0.046889872275146, 51.33333765225871],
          [-0.046553518754332, 51.33348312376604],
          [-0.044980845466076, 51.33366911160795],
          [-0.044494879326399, 51.333720350282476],
          [-0.042882866037737, 51.3336493544286],
          [-0.041967303367325, 51.33381030788006],
          [-0.041305670548371, 51.334581632318105],
          [-0.041060059508508, 51.33495522987505],
          [-0.040678099850397, 51.33586702533065],
          [-0.040606573174645, 51.33602950124055],
          [-0.039989139604411, 51.336975125259784],
          [-0.039816183467686, 51.33722673248431],
          [-0.039469431191217, 51.33761482170601],
          [-0.039282510888613, 51.33778975389559],
          [-0.037966873027502, 51.33864363899913],
          [-0.037892492483636, 51.33870444465899],
          [-0.034629371608796, 51.338058898081144],
          [-0.034494822192797, 51.33808272522581],
          [-0.033330289426306, 51.33751375090936],
          [-0.032770699861369, 51.337437828230065],
          [-0.030867364884412, 51.337492254549794],
          [-0.030681163403667, 51.33751521097841],
          [-0.026180894633175, 51.33853046495994],
          [-0.025958510409346, 51.33855999863737],
          [-0.025470631743732, 51.3385194192906],
          [-0.025103543188045, 51.33860856699518],
          [-0.022871940770323, 51.338281437724795],
          [-0.022371223260004, 51.33820555880535],
          [-0.021203089464463, 51.33768948275303],
          [-0.020557414897724, 51.3371444388868],
          [-0.020510041708835, 51.33660948041322],
          [-0.020502012251738, 51.336595856181276],
          [-0.019515288604405, 51.335902079855835],
          [-0.019446017550476, 51.335810086928255],
          [-0.018773149359525, 51.334528992277185],
          [-0.018284586636948, 51.3341043983339],
          [-0.017814048650816, 51.3329957510906],
          [-0.017782289648862, 51.3329331649651],
          [-0.017358626191424, 51.33300334631148],
          [-0.017205783666415, 51.332985476642676],
          [-0.016216481060706, 51.33222325860202],
          [-0.015939801467314, 51.332014444872236],
          [-0.014485594200793, 51.32998444721804],
          [-0.014328271524033, 51.32980462512892],
          [-0.014307487892792, 51.32995355428676],
          [-0.014203150431297, 51.33030880342141],
          [-0.013947340649613, 51.33051490497265],
          [-0.013745613381544, 51.330698540656385],
          [-0.013684448501463, 51.33131711247183],
          [-0.01360364137421, 51.33152617712967],
          [-0.013320379562787, 51.33153666895687],
          [-0.011886507478427, 51.33289189283559],
          [-0.010918164115287, 51.332908758764866],
          [-0.01066340741276, 51.33308969544413],
          [-0.010855914359462, 51.333418502671684],
          [-0.010993465293256, 51.33355752628914],
          [-0.010456078202436, 51.33380022141271],
          [-0.010408347162963, 51.3338084053522],
          [-0.008734681577267, 51.33390053068499],
          [-0.008607156405452, 51.33389477025861],
          [-0.008102177500239, 51.333852928817194],
          [-0.00711841438422, 51.33369503985185],
          [-0.007209286459135, 51.333387221547575],
          [-0.005028869603894, 51.33232136675153],
          [-0.004663730186338, 51.33213439626493],
          [-0.002300669529474, 51.33068315255874],
          [-0.001676760111349, 51.33030739991984],
          [-0.000749148551262, 51.3293571739883],
          [-0.000503038966539, 51.32877830390127],
          [0.001084854056589, 51.32901558593102],
          [0.002294572351659, 51.329138803090686],
          [0.002935856016401, 51.327517140900596],
          [0.003184336240853, 51.32699397820036],
          [0.003724871572834, 51.32487399782702],
          [0.003753415629641, 51.324508377779935],
          [0.00448169708429, 51.322811450807556],
          [0.004870141293811, 51.322076335695364],
          [0.005471207156528, 51.31874927823466],
          [0.005545424123054, 51.318444030196275],
          [0.005654270902434, 51.318175961199564],
          [0.006030969571857, 51.317468922258],
          [0.00657813058004, 51.31573641077936],
          [0.006580373373444, 51.31565633104176],
          [0.010109600129728, 51.31612640741545],
          [0.010348426074812, 51.31614029396535],
          [0.00962490830593, 51.314034765821866],
          [0.009563149939447, 51.31393509958868],
          [0.009147336750342, 51.31217053317689],
          [0.009093319462288, 51.31191964450262],
          [0.008523595788544, 51.31103187663531],
          [0.008426450983312, 51.3108446814013],
          [0.008388820665013, 51.31050897319613],
          [0.008390982194059, 51.31036144410893],
          [0.008482176981404, 51.31005140556821],
          [0.009110752767861, 51.30874107184898],
          [0.009013668580686, 51.308456746938084],
          [0.00903972988706, 51.308298015468665],
          [0.009450933809889, 51.30700489868004],
          [0.009481019992267, 51.30690545459785],
          [0.010185416446564, 51.30582134568641],
          [0.010287867317193, 51.30563791928948],
          [0.010437400524908, 51.305153303733995],
          [0.010529753375987, 51.30493587546094],
          [0.010452899362896, 51.304720453577794],
          [0.010454312130013, 51.304687153623235],
          [0.01080705234045, 51.30405964954516],
          [0.010860540156682, 51.303904943157995],
          [0.010977682427304, 51.303073736530926],
          [0.011099432222326, 51.3029709186928],
          [0.011063371161528, 51.30244182487688],
          [0.011126267091034, 51.30197758253449],
          [0.011516909484997, 51.3008727726032],
          [0.01156685596087, 51.300702837785096],
          [0.012158319785247, 51.2995981727698],
          [0.012332149781058, 51.299177889649975],
          [0.013063120808703, 51.296640865306145],
          [0.013412374605784, 51.296263430097376],
          [0.014087213925723, 51.29431373537397],
          [0.014240856002048, 51.293826345365126],
          [0.014445418131287, 51.29276609587914],
          [0.014513364129818, 51.292549083976304],
          [0.014994722725078, 51.29181593094664],
          [0.015009188598042, 51.29178600382608],
          [0.018837809295475, 51.291699356334014],
          [0.019101045172631, 51.29168402443175],
          [0.019448866340639, 51.29232105207349],
          [0.019886028104038, 51.29319576775006],
          [0.020300248738847, 51.29469052657525],
          [0.020332666019517, 51.29477540492402],
          [0.020789462688805, 51.29541055262985],
          [0.020874011303611, 51.295571874646214],
          [0.020854383646709, 51.296593869443996],
          [0.020952862118384, 51.29677833391413],
          [0.02354619942531, 51.299642919692445],
          [0.023599099700244, 51.29970406015998],
          [0.024634939671932, 51.30188864732027],
          [0.024838906669027, 51.302154923321105],
          [0.027644012368823, 51.30440869830536],
          [0.027977587151282, 51.304685314958455],
          [0.029596957221389, 51.30542349549914],
          [0.030281530643162, 51.30555821942456],
          [0.031114403389257, 51.30638645938674],
          [0.031144466399308, 51.3064174149028],
          [0.032361660218346, 51.3069808661174],
          [0.032909236416012, 51.30752085907578],
          [0.036185099210087, 51.305939543126385],
          [0.036336666638866, 51.3058631607139],
          [0.036533432840919, 51.30573832659569],
          [0.036403092755502, 51.305678538927616],
          [0.036614632373168, 51.305498587638915],
          [0.038318450056156, 51.30441670233216],
          [0.038826195368962, 51.30392851004945],
          [0.040198032257365, 51.30328856009916],
          [0.040254341896697, 51.30332894873003],
          [0.040425601836368, 51.30321174713725],
          [0.040875309254843, 51.30290352701883],
          [0.040768982767393, 51.30283523147736],
          [0.040917422814751, 51.3027211249527],
          [0.041518975504878, 51.30298943411269],
          [0.041542946465419, 51.30298002264946],
          [0.042713634461434, 51.30117260094369],
          [0.042802844136261, 51.30098487960796],
          [0.043089380034262, 51.2995238372438],
          [0.043092899984473, 51.29905431681482],
          [0.044171277319651, 51.29862628970355],
          [0.044298364883277, 51.29858090194048],
          [0.044079459471493, 51.29836798163427],
          [0.043976435293211, 51.29824477117177],
          [0.04406888106852, 51.2981945923829],
          [0.044085682104873, 51.29818530556844],
          [0.044038809916416, 51.298131263787795],
          [0.043841128835934, 51.29791167702335],
          [0.043330187385028, 51.29661474402537],
          [0.043312942933313, 51.29658176915878],
          [0.042352855045784, 51.2925676471523],
          [0.042365303651693, 51.29246040761199],
          [0.042581012166698, 51.29221471976742],
          [0.04262474392059, 51.292036787151424],
          [0.044458625612442, 51.29092647060304],
          [0.044787980739293, 51.290721065655006],
          [0.046520512693344, 51.2887536193991],
          [0.046739942359055, 51.28859239932965],
          [0.047060909189039, 51.28761910009379],
          [0.047108892610623, 51.28750494451126],
          [0.048170872196116, 51.285652620252236],
          [0.048205193779621, 51.28552161577978],
          [0.048180982752447, 51.285138921287356],
          [0.048158992943527, 51.28506376157924],
          [0.047507011686315, 51.284076900259976],
          [0.047423899161651, 51.28388499601341],
          [0.047285873119211, 51.28278125167843],
          [0.047301301992872, 51.28270903666153],
          [0.046511241359091, 51.28006717144387],
          [0.046327707174483, 51.27955147449557],
          [0.045373842102518, 51.27796376416865],
          [0.045360502853713, 51.27792172938226],
          [0.045550341163144, 51.27741839308249],
          [0.045565446416973, 51.27730661400501],
          [0.045396201595708, 51.27666026505882],
          [0.04543970615245, 51.27644546780541],
          [0.046010246257906, 51.27576550773351],
          [0.046061446636651, 51.27565939293739],
          [0.046139092029958, 51.2754386026706],
          [0.046247366567678, 51.274907012445226],
          [0.046126578400618, 51.27486685571906],
          [0.046136323337763, 51.27460228616],
          [0.046421249540165, 51.27385177187035],
          [0.046351861777256, 51.273709993336496],
          [0.046618641500602, 51.27322869149876],
          [0.046938627404234, 51.2727833306741],
          [0.047977090205287, 51.27024797746851],
          [0.04803165857337, 51.27012111826799],
          [0.048677318017296, 51.26919881105871],
          [0.048795246642137, 51.26914278800562],
          [0.048949771048113, 51.26868502829866],
          [0.048974428119945, 51.26862704033319],
          [0.049561699929657, 51.268132926075154],
          [0.049610259577162, 51.26803225149441],
          [0.049603885936402, 51.26734168647049],
          [0.04955902535472, 51.26726782849236],
          [0.049845742845097, 51.26655954201658],
          [0.049851384930275, 51.266525269165285],
          [0.049658827617865, 51.26574173845683],
          [0.04967962592718, 51.265693710466586],
          [0.050405009619427, 51.264406673874305],
          [0.050437497341849, 51.26433146144142],
          [0.051306666205451, 51.26350594779386],
          [0.051342505189267, 51.263473843605205],
          [0.051803413235022, 51.262686956028446],
          [0.051930574087605, 51.262709907873095],
          [0.052389672548076, 51.26149677260107],
          [0.052408787711611, 51.26128239967754],
          [0.052651508091665, 51.261132453898924],
          [0.052676557905016, 51.26108345141796],
          [0.052756505158069, 51.26033651438529],
          [0.05278784346085, 51.25975320636814],
          [0.053038960210052, 51.25937378614725],
          [0.053067845386273, 51.25925007283164],
          [0.053008561786017, 51.25882033903382],
          [0.053036104643572, 51.25873082340983],
          [0.053606555981692, 51.25747705866766],
          [0.053546908539291, 51.25742504538472],
          [0.054246921405878, 51.25663485108278],
          [0.054266239067523, 51.25658594882874],
          [0.054320533019649, 51.25606788760207],
          [0.054296271770309, 51.25533087194576],
          [0.05383509710772, 51.25411589145917],
          [0.053843438862874, 51.25407797368192],
          [0.055043718879692, 51.25245611728934],
          [0.055130605379883, 51.25237994820151],
          [0.057049614444898, 51.25129133529461],
          [0.057099787253795, 51.251227501110705],
          [0.057276779886676, 51.250890742610565],
          [0.057298357549935, 51.250314798514616],
          [0.057320239986919, 51.25022717978855],
          [0.057821818908787, 51.24926508228955],
          [0.057935768483477, 51.249057134323635],
          [0.058233472986479, 51.247862097912886],
          [0.058242626918359, 51.24777830008702],
          [0.057491739775852, 51.244503584874714],
          [0.057431605503501, 51.24418358431171],
          [0.056336720003127, 51.243311599306935],
          [0.056267055139951, 51.243227387788465],
          [0.056160826868859, 51.24264469526864],
          [0.056147598643776, 51.2425729819624],
          [0.055743770142184, 51.2418066595461],
          [0.055621583187806, 51.241508432326185],
          [0.055596185646219, 51.240842481070054],
          [0.055392963243984, 51.24055826739473],
          [0.053630863705541, 51.23943537145649],
          [0.053557185945146, 51.23932514841909],
          [0.05347304287828, 51.23891563484928],
          [0.053476967833116, 51.23887509650472],
          [0.05386413640403, 51.23840065513872],
          [0.053930028510526, 51.23814319200875],
          [0.053276196009253, 51.237069183716045],
          [0.053076058929798, 51.23675703294466],
          [0.052363912135228, 51.23604557002812],
          [0.052246588330786, 51.235952299383406],
          [0.050304526412096, 51.234932334675094],
          [0.050041511777993, 51.23478405763789],
          [0.048854255455623, 51.234468503146836],
          [0.048788604777608, 51.23444177353258],
          [0.048053001590218, 51.233844909253804],
          [0.047918600964523, 51.23378610738915],
          [0.046112141205114, 51.23333207188112],
          [0.046058542791124, 51.23331861984269],
          [0.045734027674863, 51.23304280543037],
          [0.045715735205788, 51.23301794419185],
          [0.045489110585117, 51.232365400728064],
          [0.045135368183338, 51.231947103387284],
          [0.043870716123486, 51.230916991231396],
          [0.043809247920617, 51.2308874878367],
          [0.044000000142004, 51.230796022711814],
          [0.04403717122597, 51.23076209855671],
          [0.043718887473402, 51.23046458607716],
          [0.043715427599714, 51.23045115667438],
          [0.043846769662907, 51.23021503918024],
          [0.043906594452455, 51.23007819672222],
          [0.043835293426547, 51.22985910817683],
          [0.043863435910281, 51.22978307362664],
          [0.043403035181018, 51.229575276557284],
          [0.043038913812618, 51.22908340980196],
          [0.042310668876403, 51.22741978559465],
          [0.042301603084579, 51.22737677635969],
          [0.04334531810619, 51.22649430781037],
          [0.043471928089375, 51.22637788302717],
          [0.043624630645077, 51.22588058908683],
          [0.043685291243471, 51.22582736900461],
          [0.043716718703993, 51.225566915970454],
          [0.043656840322679, 51.22541147951269],
          [0.042943953328286, 51.224740441759636],
          [0.042868936578345, 51.224663510269146],
          [0.042359275583995, 51.22366516449394],
          [0.042345440283524, 51.22361144656184],
          [0.042512067551163, 51.22326679540961],
          [0.042566005205294, 51.22312645881625],
          [0.042511928068044, 51.22268133828615],
          [0.042313965385809, 51.222576874633354],
          [0.042842066318135, 51.22188956666526],
          [0.042950977734387, 51.22179413566174],
          [0.042864076317817, 51.221610392110456],
          [0.042844357985729, 51.2215531796292],
          [0.043130615280143, 51.22109672151345],
          [0.043223463508906, 51.22096200045905],
          [0.043081938152238, 51.220579560926886],
          [0.043038527394519, 51.22047239999054],
          [0.043171842458318, 51.22041071699785],
          [0.043166544045909, 51.220161696814934],
          [0.0421882701264, 51.21941344886818],
          [0.042130037977571, 51.21935960634666],
          [0.041489290710105, 51.21830958411903],
          [0.041449463682124, 51.21825092353725],
          [0.041533244279936, 51.217619935043494],
          [0.041523545316699, 51.21753017183705],
          [0.04122735708947, 51.2168554491853],
          [0.041148384339467, 51.21662390142024],
          [0.036365878601272, 51.21659570834325],
          [0.036279354036553, 51.21658192549215],
          [0.036049614261553, 51.216340407335295],
          [0.036183446778717, 51.21625803873398],
          [0.035525033236135, 51.21590706568869],
          [0.035374691237471, 51.215809855717296],
          [0.03509478160068, 51.2154370075737],
          [0.034991104118983, 51.21532639500001],
          [0.034490357685694, 51.2151084722648],
          [0.034420055663666, 51.21507282220804],
          [0.033612736300328, 51.214363797973434],
          [0.033598711374959, 51.21433796128668],
          [0.033930949487834, 51.21398145021149],
          [0.034027714413042, 51.21380529918968],
          [0.03416188357837, 51.213828148027616],
          [0.034259412763118, 51.21383184853117],
          [0.034709993015964, 51.21349666023975],
          [0.034720805318356, 51.21348208302896],
          [0.034352862559602, 51.213255555178826],
          [0.034337921598041, 51.21324142572846],
          [0.034613693745751, 51.21300100785657],
          [0.034634283473085, 51.21298086469487],
          [0.03459864410928, 51.21291943093714],
          [0.034493017971648, 51.21286191199339],
          [0.034556668702093, 51.21271421529622],
          [0.034545663625769, 51.212691923511],
          [0.034266984113444, 51.21273633889385],
          [0.034253711646753, 51.21272757637792],
          [0.034289432300315, 51.21253090248708],
          [0.034378875695793, 51.21238365680093],
          [0.034038381109552, 51.21206491960447],
          [0.034024000389761, 51.212030995219976],
          [0.034061157745265, 51.211801920696416],
          [0.034051272604454, 51.211740039082855],
          [0.034595619193885, 51.211681112584856],
          [0.034594708394072, 51.21166044393747],
          [0.033622134072715, 51.211358989451256],
          [0.033587645219365, 51.21132361582586],
          [0.033643725483384, 51.21106903144726],
          [0.033987674206308, 51.21088138954193],
          [0.033748402865675, 51.21061754945731],
          [0.033771383959084, 51.21055419725193],
          [0.03428881551273, 51.20975469562225],
          [0.034313825274768, 51.20967242218766],
          [0.035231221138912, 51.208787720428575],
          [0.03538974186223, 51.20848638660566],
          [0.036313537221414, 51.20820231428885],
          [0.03637918924738, 51.20816519866846],
          [0.0361972525103, 51.207967814924615],
          [0.036198167939109, 51.2079561077444],
          [0.036818034119495, 51.2076629306529],
          [0.036863974230321, 51.2076333524952],
          [0.03677649752241, 51.2074028488388],
          [0.036800503456919, 51.207362860580496],
          [0.037359643880691, 51.207023972578355],
          [0.037371567208677, 51.20700218112008],
          [0.03713854846631, 51.20662042683613],
          [0.037110301466711, 51.20656426099853],
          [0.037100732063993, 51.20612015995669],
          [0.037078326407058, 51.20606659039426],
          [0.036870166896212, 51.205891248028685],
          [0.036832462054785, 51.205847837340706],
          [0.036793810214189, 51.2053934505533],
          [0.036697117674667, 51.205181093742496],
          [0.036525467090991, 51.20511932984102],
          [0.03629159299993, 51.20504246067545],
          [0.036337780589939, 51.20492114700935],
          [0.036356341146961, 51.20488754888277],
          [0.036159986045063, 51.20475246954252],
          [0.036080319553079, 51.204731372662465],
          [0.035989770983883, 51.204366022692284],
          [0.035965901703719, 51.20427920326276],
          [0.035826676235453, 51.2042384579954],
          [0.035794097007724, 51.20421384366509],
          [0.036466422064654, 51.20345570238999],
          [0.036514549398917, 51.20337842190953],
          [0.037221651482928, 51.20305224744052],
          [0.037316581141426, 51.202997534259296],
          [0.037683311540493, 51.20228967263938],
          [0.037741527704753, 51.202214014588726],
          [0.038886343005083, 51.20126506579379],
          [0.039158176425963, 51.200872718316965],
          [0.038377327245501, 51.19988357396326],
          [0.038309119003039, 51.19976515169247],
          [0.038555762994534, 51.19883454767066],
          [0.038386790792849, 51.19883299488479],
          [0.038697019347015, 51.19862973784072],
          [0.038696833447922, 51.19846336551038],
          [0.039158499387569, 51.19838337428089],
          [0.039323611435567, 51.198459637401974],
          [0.039392748723207, 51.198339721118664],
          [0.039203562577098, 51.19823689784832],
          [0.039626860974581, 51.197903963025055],
          [0.039681930411367, 51.19782206354109],
          [0.040023202592599, 51.19786827476613],
          [0.040444690192245, 51.19788340831965],
          [0.040482557906847, 51.197736157495875],
          [0.040677433871922, 51.197611349522475],
          [0.04045520503798, 51.19721412502431],
          [0.040649638822353, 51.19717655958989],
          [0.040388828112349, 51.196975162029496],
          [0.040419392027797, 51.19666256222697],
          [0.040562065164327, 51.196425349421176],
          [0.04061951651086, 51.19630024015734],
          [0.040786849690431, 51.19632969738956],
          [0.040860108914039, 51.196303238360954],
          [0.040776088265846, 51.196183294616205],
          [0.040777123641117, 51.1961095316524],
          [0.041003848850354, 51.196155039850105],
          [0.041093951605176, 51.19615346803367],
          [0.041240870650139, 51.19591528093553],
          [0.041399305888547, 51.19584057044307],
          [0.041470386514738, 51.19540855196778],
          [0.041539197877503, 51.19518431786243],
          [0.041810733078135, 51.19507795538833],
          [0.042453353494372, 51.19417100766418],
          [0.042533798452562, 51.19404819392401],
          [0.042343511027273, 51.19385546212573],
          [0.042142616991871, 51.19394080771897],
          [0.042065113316138, 51.193709234363105],
          [0.042382958802473, 51.19364702857504],
          [0.042514212282677, 51.193605166791116],
          [0.042522594192977, 51.19353577214638],
          [0.042459231762038, 51.19342985817845],
          [0.042669259926023, 51.193356943138035],
          [0.042772186372922, 51.19309524004458],
          [0.04277472795501, 51.192990873517964],
          [0.04383486031511, 51.19262611695278],
          [0.044050804053159, 51.19262234437216],
          [0.044197580321073, 51.19244620939592],
          [0.044388772965397, 51.19240060016639],
          [0.044225460068644, 51.192267655076904],
          [0.044223154032142, 51.19221553427288],
          [0.0444761953552, 51.19214456228771],
          [0.044675844339131, 51.192031355047924],
          [0.044541691391838, 51.19194286720292],
          [0.044544865123178, 51.191852878764564],
          [0.045982180754484, 51.192088557796446],
          [0.046016786160863, 51.192158999683066],
          [0.04691364338593, 51.19176019735611],
          [0.046966111304087, 51.19168463498021],
          [0.04770221559449, 51.19185701561648],
          [0.047823042647246, 51.191741585173915],
          [0.047644737245445, 51.19152886677593],
          [0.047449718060046, 51.19139108501516],
          [0.047498365277345, 51.19126162943941],
          [0.047582531582707, 51.19119090799931],
          [0.047440195798412, 51.19040108905113],
          [0.047325076219409, 51.189999304323656],
          [0.047048989124154, 51.18984045727667],
          [0.046841990921472, 51.189787421173946],
          [0.046366226121017, 51.18919139395584],
          [0.046180909668607, 51.189013869866024],
          [0.045698832282112, 51.18879207179712],
          [0.04516722969064, 51.18861520472017],
          [0.046178237667437, 51.18788705557735],
          [0.046255014185143, 51.18784344419432],
          [0.046756050599558, 51.18784727027283],
          [0.046859119620028, 51.187783413225674],
          [0.046286316435828, 51.18738693610316],
          [0.046257078591904, 51.18734068230924],
          [0.047138379049915, 51.186431329579804],
          [0.047358811810689, 51.18633574039296],
          [0.047460628635843, 51.18611452178297],
          [0.047476625734658, 51.18602340939116],
          [0.047317911789148, 51.185670951289],
          [0.047360200704616, 51.18555959351421],
          [0.048806825368155, 51.184911930962585],
          [0.048914139156344, 51.18487947432461],
          [0.049367100517441, 51.18499384963474],
          [0.04943680927406, 51.18501691045731],
          [0.049656642693593, 51.18471448122414],
          [0.049688447935929, 51.18465726611942],
          [0.049520770049573, 51.184199746022685],
          [0.049493733826946, 51.18400956138487],
          [0.049750009931026, 51.18336744600952],
          [0.049811062269514, 51.18290501968179],
          [0.050201887991781, 51.18252225100389],
          [0.05024763538984, 51.18248907337902],
          [0.051411904491966, 51.18183373607315],
          [0.051404651548935, 51.181702560934845],
          [0.051768512285527, 51.18164761618803],
          [0.05179896934403, 51.18162459874895],
          [0.052008770224561, 51.181354717003],
          [0.052286391175935, 51.18122663878309],
          [0.052570045732556, 51.18071893629312],
          [0.052600168704018, 51.18062397800573],
          [0.052647539995734, 51.1804019113748],
          [0.052635947958955, 51.180237537150525],
          [0.052203587309884, 51.17949058348194],
          [0.05222618297364, 51.17929053555157],
          [0.051960331051349, 51.17923224569439],
          [0.051897897889733, 51.17921175680156],
          [0.05174649800369, 51.17873416923118],
          [0.051684737431447, 51.178696581133316],
          [0.051671031808359, 51.1782588470995],
          [0.051742755380536, 51.17806962894568],
          [0.051609155127249, 51.178025206740465],
          [0.051604587046225, 51.178018991530784],
          [0.051725421472991, 51.17796920782445],
          [0.051790306968643, 51.17794828454827],
          [0.051785587751231, 51.177777494331366],
          [0.05177744246872, 51.17775515389995],
          [0.051426468002849, 51.177326032488104],
          [0.051311403358164, 51.17721563370903],
          [0.051022012987307, 51.1771424658419],
          [0.050903480966699, 51.177179617826745],
          [0.050846474076406, 51.17682987789891],
          [0.050838050356282, 51.17680124696109],
          [0.050539872335746, 51.1764008752589],
          [0.050498831420317, 51.17628198351246],
          [0.049335522836225, 51.17582662142232],
          [0.04869703107413, 51.17559138777182],
          [0.048630171332336, 51.17505116035552],
          [0.048661322273229, 51.17488243960533],
          [0.048284349020114, 51.17444656892894],
          [0.048230569524073, 51.17433059730023],
          [0.047569719645962, 51.17420366903873],
          [0.047288805614738, 51.17406289375834],
          [0.047259370539562, 51.17394739498024],
          [0.047274130930125, 51.17382842474142],
          [0.046693523303072, 51.173477952094046],
          [0.046644915233953, 51.17341405058133],
          [0.046750655304493, 51.173378925232306],
          [0.046730873105996, 51.173287539415945],
          [0.046441972217431, 51.17296613602731],
          [0.046319897734611, 51.17279380099416],
          [0.04635459259146, 51.17212319117448],
          [0.046359514944462, 51.17210511840964],
          [0.046185702355815, 51.17189501699733],
          [0.046175731503003, 51.17183133877879],
          [0.046428920364537, 51.171540022551966],
          [0.046561614224774, 51.171467553138875],
          [0.046270878476655, 51.170845804258356],
          [0.046188995226682, 51.17070873933725],
          [0.046313292298626, 51.16928292077693],
          [0.046250671815568, 51.169193183571295],
          [0.047005435628569, 51.168955144621464],
          [0.047028461657904, 51.168925963005094],
          [0.046763294290737, 51.16865540709656],
          [0.046684028631586, 51.16844814869736],
          [0.047072432036607, 51.16775426139577],
          [0.047086563293801, 51.16771804075092],
          [0.046944697483318, 51.167647677385816],
          [0.04700687822697, 51.16724278848571],
          [0.047034063910502, 51.16711370810251],
          [0.046388077374357, 51.166221181584035],
          [0.046391689201454, 51.166205829734196],
          [0.04666248656611, 51.165537384042565],
          [0.046795486381847, 51.165536855513096],
          [0.046752616589551, 51.16511761705677],
          [0.046880802803681, 51.1650083533336],
          [0.046944750002445, 51.16486963631204],
          [0.048501533741281, 51.1644628641706],
          [0.048624004671583, 51.164418450697845],
          [0.047480036665942, 51.16135556499656],
          [0.047513650585051, 51.16124255987556],
          [0.048876826372043, 51.158857038880974],
          [0.048900797690462, 51.15881704832133],
          [0.05035373794075, 51.15778253640549],
          [0.050406446888723, 51.15774563909439],
          [0.051459150806145, 51.15729729912566],
          [0.051494032946244, 51.157245425279115],
          [0.051218031370438, 51.155568510578036],
          [0.051206270148188, 51.15549677008076],
          [0.051351717302288, 51.15464884481958],
          [0.051433951378929, 51.15437490413578],
          [0.051292747032781, 51.15425417183198],
          [0.051166759582302, 51.154218609293274],
          [0.050932798734383, 51.153618359200486],
          [0.050840976462287, 51.153514747137386],
          [0.050883044145296, 51.15323791376028],
          [0.050902684531621, 51.153197099306595],
          [0.05114972630135, 51.15299581284328],
          [0.051184087767133, 51.15293225679921],
          [0.051189574213631, 51.15179809932878],
          [0.051223132575207, 51.1516841945777],
          [0.051553577088697, 51.15139690683218],
          [0.052414113425038, 51.15074597881498],
          [0.054745566548665, 51.15034350959406],
          [0.054758417496557, 51.15031090788269],
          [0.054728445105904, 51.14995799711803],
          [0.054684401035743, 51.14983556245049],
          [0.054807840449403, 51.149556399648944],
          [0.054805174471703, 51.149528567204335],
          [0.054371384676639, 51.14867912437218],
          [0.054385952522053, 51.14852418339842],
          [0.05408662973027, 51.1481589158828],
          [0.053788124092843, 51.14787637174441],
          [0.053157920142476, 51.14756187810263],
          [0.053076265219327, 51.14746168693518],
          [0.051998013215877, 51.145168425165],
          [0.05185141673161, 51.14492547911745],
          [0.050947031473319, 51.14471380981507],
          [0.050917862026519, 51.144700831302906],
          [0.050604446016049, 51.14420989468563],
          [0.050566660724447, 51.14416379180734],
          [0.050264144858932, 51.14408006103369],
          [0.049890705208054, 51.14391213582423],
          [0.050032273395455, 51.143202778648224],
          [0.050051144909374, 51.14308013854859],
          [0.049941535220517, 51.14273581626334],
          [0.050016363117994, 51.14264996745891],
          [0.04735957595248, 51.14244468879449],
          [0.047326560666379, 51.142441669362995],
          [0.047038093924434, 51.14215803283572],
          [0.046906070706056, 51.142114477811624],
          [0.046539030821595, 51.14228457820119],
          [0.045783731175692, 51.142209656805626],
          [0.04574047803653, 51.142201420079786],
          [0.044995125919148, 51.14176928867395],
          [0.04496909492727, 51.14176254920093],
          [0.043017901627733, 51.141638365857446],
          [0.042944888793258, 51.14163604385034],
          [0.04269922683573, 51.141382228429386],
          [0.042412337943011, 51.14123075600449],
          [0.04195839452687, 51.141148749394816],
          [0.041707975194362, 51.14101372571428],
          [0.041258468519622, 51.14119424153148],
          [0.041205296870434, 51.1411879748756],
          [0.038662401401644, 51.14044991275423],
          [0.03836779504654, 51.14028507509418],
          [0.035520100341024, 51.1402528293902],
          [0.035235653266293, 51.140383684548034],
          [0.035120589946721, 51.14033532451853],
          [0.035078712355586, 51.140195758670146],
          [0.034122178813075, 51.140062210528434],
          [0.034011475447063, 51.14004794788387],
          [0.033412609414744, 51.140148292964724],
          [0.033238059041598, 51.140145032098665],
          [0.031989167765298, 51.13986456263411],
          [0.031595802841069, 51.13979405407051],
          [0.031470696358272, 51.139940118869845],
          [0.030338939851734, 51.13985275137952],
          [0.030206732109509, 51.13983705987143],
          [0.030061719591177, 51.13992051604882],
          [0.030080990232974, 51.139968745035034],
          [0.029328056694598, 51.14001148903359],
          [0.029152196607566, 51.14001094289698],
          [0.025355489473621, 51.13959111621196],
          [0.025270620038696, 51.13957909598418],
          [0.023429666259843, 51.13909564693906],
          [0.023289220438431, 51.13905490906186],
          [0.0217945529094, 51.13923274141011],
          [0.021686965614136, 51.1393551104891],
          [0.021006813383675, 51.139296717886914],
          [0.020979751131029, 51.13929898415159],
          [0.020950837176167, 51.13952071734491],
          [0.020926812326572, 51.13955980337769],
          [0.020134383221395, 51.13994221550712],
          [0.020028910982937, 51.139949433114175],
          [0.019868764144558, 51.13994860161839],
          [0.019250477902728, 51.13986664728633],
          [0.01847392839417, 51.139532013189296],
          [0.018488382731154, 51.139437334770484],
          [0.017141833968908, 51.139144003718144],
          [0.016931477272103, 51.13910626253382],
          [0.016165042811645, 51.139232791615974],
          [0.015634006873372, 51.139250038321094],
          [0.013162285651419, 51.13898594016198],
          [0.012565506367912, 51.13893775484976],
          [0.007252615339978, 51.13898588928465],
          [0.007036137812033, 51.138971617838834],
          [0.004468585234625, 51.13939786292884],
          [0.004407588749349, 51.13940880087322],
          [0.001283419370504, 51.13959270320087],
          [0.001070030622084, 51.13958376380592],
          [-0.001252951994051, 51.13898856189847],
          [-0.001435655793822, 51.138928731284686],
          [-0.002882252809686, 51.13823487986203],
          [-0.003014419169573, 51.138153499240694],
          [-0.004324840833943, 51.13796452432459],
          [-0.00534162858279, 51.13822019035863],
          [-0.005444822004567, 51.13794855510893],
          [-0.005491616451843, 51.13792417196403],
          [-0.006308746870535, 51.13773755367992],
          [-0.006589047923556, 51.137568761346984],
          [-0.006798391259229, 51.13775309357854],
          [-0.006799123126291, 51.1377692939184],
          [-0.006387791874587, 51.13792686015243],
          [-0.006308062509894, 51.13798575597524],
          [-0.006302543278324, 51.138313016525515],
          [-0.006263309328372, 51.13839418640112],
          [-0.006766398913125, 51.13912671834256],
          [-0.006800756419045, 51.13915878025568],
          [-0.006826159489824, 51.139166407767],
          [-0.007683274042434, 51.13888153548391],
          [-0.007639856455584, 51.13869463544062],
          [-0.007651903126111, 51.138680451432464],
          [-0.009487853779051, 51.13823776619727],
          [-0.009897319385817, 51.13822315014172],
          [-0.010224933254835, 51.13838340812142],
          [-0.010238483854116, 51.138400725842125],
          [-0.010175544632325, 51.13873420439952],
          [-0.010196276305397, 51.13875074496722],
          [-0.011336852555944, 51.13908760552826],
          [-0.011490125105315, 51.13888066849731],
          [-0.011516571234558, 51.13886403091933],
          [-0.012206795794237, 51.13886946822544],
          [-0.012395779947485, 51.13889606238918],
          [-0.012479024528652, 51.139221234403],
          [-0.012511841891412, 51.139255966455394],
          [-0.012536937296452, 51.13927078210892],
          [-0.013337010408078, 51.13934822674439],
          [-0.013372153505719, 51.13959523903106],
          [-0.014420369501869, 51.139686783383205],
          [-0.014345683513608, 51.140028158726516],
          [-0.014356379120497, 51.1400454275022],
          [-0.01617000968671, 51.14039006818719],
          [-0.016487657947306, 51.14051686456717],
          [-0.016569861779554, 51.140566822226006],
          [-0.016684509662017, 51.14072704778177],
          [-0.016677242581951, 51.140996722400374],
          [-0.016693614972243, 51.141014986551035],
          [-0.017970597717263, 51.141140055894056],
          [-0.018325735411909, 51.141192838616576],
          [-0.018720301542525, 51.140792128771324],
          [-0.018748059415342, 51.14077820978767],
          [-0.020344790070173, 51.1410147915931],
          [-0.020356410692882, 51.141010491661206],
          [-0.020043473961142, 51.13930276861921],
          [-0.020055517025924, 51.13928858326708],
          [-0.021100041277433, 51.139399791407314],
          [-0.021226479672022, 51.13938484347648],
          [-0.023914049852557, 51.138747693885854],
          [-0.024594614595542, 51.138577526384864],
          [-0.02973272734292, 51.138768518531634],
          [-0.029804113739011, 51.13877062042244],
          [-0.031038046565274, 51.13866369533816],
          [-0.031229502566077, 51.138666018998414],
          [-0.032969730717342, 51.13922590448554],
          [-0.033241277882226, 51.13926104841734],
          [-0.035602480465518, 51.13927015465684],
          [-0.035672072575632, 51.13938194123947],
          [-0.03715627392825, 51.13920541125751],
          [-0.037381903668362, 51.139210996640486],
          [-0.038451218030585, 51.13931167536953],
          [-0.038592491125999, 51.13945254180931],
          [-0.041464355031824, 51.13958970619255],
          [-0.041850857622536, 51.139577292381716],
          [-0.043412724596888, 51.13945684240297],
          [-0.044556452301262, 51.13938693794047],
          [-0.046292212873023, 51.13897347643272],
          [-0.046449891783193, 51.13913259431112],
          [-0.048541688382171, 51.13854697797975],
          [-0.048908507964564, 51.13845866830931],
          [-0.051712950667829, 51.13802337887276],
          [-0.053017256837541, 51.13783915260156],
          [-0.053973017424587, 51.137580763294125],
          [-0.05489924679962, 51.137378533044775],
          [-0.055609567862277, 51.13704140336037],
          [-0.056325882799017, 51.136765523661126],
          [-0.061776105097723, 51.140390355337956],
          [-0.063203682027295, 51.14125757937977],
          [-0.064579466869829, 51.14110858234439],
          [-0.064972331722038, 51.14104673379812],
          [-0.066811243498573, 51.14110412462592],
          [-0.067079896031432, 51.1411067663571],
          [-0.07461965395017, 51.14192900849141],
          [-0.076312790629277, 51.14229591523398],
          [-0.080531817727431, 51.1422222358759],
          [-0.081065823282319, 51.14220401822724],
          [-0.082104436712158, 51.14256639518934],
          [-0.083644840951627, 51.14268787173324],
          [-0.085169857914784, 51.14276680752781],
          [-0.08567393108096, 51.14264285711565],
          [-0.086189106195997, 51.142388683524125],
          [-0.093690650939929, 51.13842643197372]
        ]
      ]
    ]
  }
}
