{
  "type": "Feature",
  "properties": {
    "name": "Thurrock",
    "level": 2,
    "center": [0.372, 51.503]
  },
  "geometry": {
    "type": "Polygon",
    "coordinates": [
      [
        [0.21052540122597, 51.4902424911959],
        [0.210947474573376, 51.49033165697958],
        [0.211171808400609, 51.490412859741994],
        [0.211304383704315, 51.490473310258544],
        [0.211352783196593, 51.49055063632985],
        [0.211403878864609, 51.49068366799081],
        [0.211411567051812, 51.490902052338576],
        [0.211475503075136, 51.49091343658637],
        [0.211563119533761, 51.490937863598816],
        [0.211804732536745, 51.49098906241583],
        [0.211851484667563, 51.49100256921856],
        [0.211888683947608, 51.49102704779264],
        [0.211903902927571, 51.49104384734145],
        [0.211961924428319, 51.49126038279981],
        [0.211989646425869, 51.49138666078585],
        [0.21202685492865, 51.49167912987094],
        [0.212059153870168, 51.49216773845514],
        [0.212124326928358, 51.49241291641274],
        [0.212250100670058, 51.49251126471593],
        [0.212300686556339, 51.49257416038337],
        [0.212326847839078, 51.492638416188605],
        [0.212343669996246, 51.492747813087696],
        [0.212378597851528, 51.492814601359065],
        [0.212410781276741, 51.492854462476984],
        [0.212450117834919, 51.49289328931167],
        [0.212732940064206, 51.4931109780292],
        [0.212785703054801, 51.49321879728597],
        [0.212809726524042, 51.49329838138992],
        [0.212817180962353, 51.49333331331169],
        [0.212831956813757, 51.49381685655158],
        [0.212819123381312, 51.49390882710305],
        [0.212822782096787, 51.49395462222779],
        [0.212847067162717, 51.494039597166775],
        [0.212882083832106, 51.49410818220621],
        [0.212864708264437, 51.49425509563097],
        [0.212836918717312, 51.49430598075901],
        [0.212824396367179, 51.4943448868813],
        [0.212821818987105, 51.49438090742243],
        [0.212831104662568, 51.49442389845616],
        [0.21287375364314, 51.49450133242853],
        [0.213045899132383, 51.49502147451747],
        [0.213175661241856, 51.495023521749125],
        [0.213317420180624, 51.495005557832606],
        [0.213393620388048, 51.49500232080182],
        [0.213515137944226, 51.49501261696992],
        [0.213672656548332, 51.49531990079599],
        [0.21383598626323, 51.49553894354034],
        [0.213980687387406, 51.49581949003931],
        [0.214128186870193, 51.49603883129202],
        [0.214248004309884, 51.49607343985399],
        [0.214312516693285, 51.49606682576639],
        [0.214396346721436, 51.49613179061328],
        [0.214728489472912, 51.49632606071128],
        [0.21493205044766, 51.49645351299221],
        [0.214993987522326, 51.49648291908112],
        [0.215106958152158, 51.49652485049669],
        [0.215285881337616, 51.49656013997648],
        [0.215290199626136, 51.49656005838968],
        [0.215382931538873, 51.496600573321864],
        [0.215458740537761, 51.496618925498694],
        [0.215539784427283, 51.49662638714069],
        [0.2155786054975, 51.49662475429473],
        [0.215704580918395, 51.49654863142009],
        [0.215926474486871, 51.49645990413757],
        [0.216266787140183, 51.49652541596052],
        [0.216997142367679, 51.496582653263594],
        [0.217097989114789, 51.496612221841005],
        [0.217146493226063, 51.496631988526886],
        [0.217298679332166, 51.496710047514924],
        [0.217517341627525, 51.496792244894806],
        [0.217600785092273, 51.49681944428567],
        [0.217774433311267, 51.49686472202638],
        [0.217922390094375, 51.49691498197683],
        [0.218174118223704, 51.49702533020506],
        [0.218351911947284, 51.49709660831208],
        [0.21881620014107, 51.49719304119709],
        [0.219442405831107, 51.49727111941618],
        [0.219507966748273, 51.497286065780344],
        [0.219569514945759, 51.49730738315407],
        [0.219596123512364, 51.49732126822553],
        [0.219607599019411, 51.49740918219889],
        [0.219639879366331, 51.497450838131584],
        [0.220087510087232, 51.49753049468462],
        [0.221052527529332, 51.49773164767878],
        [0.221430935635125, 51.4977802356149],
        [0.221625440272033, 51.49780982448467],
        [0.221756912053964, 51.49781722566464],
        [0.221915121843005, 51.49781152984724],
        [0.222287589933957, 51.497767599861454],
        [0.222599562562027, 51.497783269821674],
        [0.222945688945867, 51.49779019776759],
        [0.223317729304204, 51.49782631017104],
        [0.223462856221057, 51.4978478392894],
        [0.223465735145255, 51.49784778469657],
        [0.223578064475955, 51.49790590754658],
        [0.2235952867248, 51.49784532794564],
        [0.223600432282184, 51.497832640185976],
        [0.223771533715114, 51.497677413825485],
        [0.223998207990871, 51.49753911910836],
        [0.224260985677227, 51.49731380640108],
        [0.224269578596849, 51.49731274409601],
        [0.224332130935039, 51.49732504694832],
        [0.224576543496376, 51.49740314556344],
        [0.22500429206016, 51.497488556392845],
        [0.225364563032271, 51.49757884355573],
        [0.225698366442592, 51.49771729486708],
        [0.225878270436937, 51.497802011070675],
        [0.225879709895236, 51.497801983744644],
        [0.226327376493316, 51.49800032332048],
        [0.22689140496866, 51.498309762964375],
        [0.227285870168416, 51.498539685485014],
        [0.227574111203634, 51.49871856614307],
        [0.227632566935573, 51.49873544157174],
        [0.227726915742685, 51.49872015957482],
        [0.227835817049182, 51.49882600636183],
        [0.227879227404934, 51.49885935491259],
        [0.228252476953159, 51.49897906355872],
        [0.22862045263774, 51.49910876355566],
        [0.228919758223291, 51.49918940705285],
        [0.229422560724405, 51.49927697235235],
        [0.229719544317463, 51.499309995116974],
        [0.229936924982543, 51.499365214925064],
        [0.229546658636329, 51.49993020176899],
        [0.22914005809471, 51.500455928577345],
        [0.228701522240045, 51.50100654194018],
        [0.22834813001302, 51.50156003199379],
        [0.228044005854917, 51.50203074855873],
        [0.227782143372158, 51.50248177606555],
        [0.227647411664328, 51.50279189582583],
        [0.227601395989348, 51.50303018478874],
        [0.227521692288534, 51.50322774596637],
        [0.227439183492825, 51.50336780527424],
        [0.227405953255258, 51.50342509230361],
        [0.227034187783492, 51.50389799013424],
        [0.226720202481049, 51.504285255465454],
        [0.226586004559582, 51.50448834723498],
        [0.226572530848466, 51.50474400371616],
        [0.22648942654045, 51.504990190751876],
        [0.226366924078504, 51.50522633418107],
        [0.226186870579611, 51.5054347925543],
        [0.226003520156416, 51.50575302755065],
        [0.226034460297923, 51.505796505789526],
        [0.226040613297051, 51.505804482663095],
        [0.225992374877678, 51.505879140813875],
        [0.226367976108577, 51.505927766536466],
        [0.226514593592552, 51.50651132485851],
        [0.22652371385179, 51.50652104396138],
        [0.226532790308676, 51.50652986459748],
        [0.226541866769099, 51.50653868523284],
        [0.226547932346878, 51.50654486514465],
        [0.22655844854664, 51.506553658441106],
        [0.226568964750473, 51.50656245173655],
        [0.226580876885003, 51.506570319227116],
        [0.226592789023641, 51.50657818671644],
        [0.226604657358613, 51.50658515573855],
        [0.226617965431733, 51.50659209742101],
        [0.226622372251576, 51.50659381233756],
        [0.22663266943527, 51.50659811329744],
        [0.22664431873855, 51.5066005899859],
        [0.226654572117011, 51.50660399247794],
        [0.226666221422922, 51.50660646916419],
        [0.226676430995065, 51.506608973188385],
        [0.226688080303373, 51.50661144987241],
        [0.226711335113766, 51.50661550477114],
        [0.22672298442554, 51.50661798145168],
        [0.226727347441492, 51.506618797898334],
        [0.226776824173691, 51.50662864992626],
        [0.226826257114447, 51.506637603467276],
        [0.226877129809993, 51.50664652964559],
        [0.226926475160152, 51.506653686212374],
        [0.226977216446294, 51.506659916949715],
        [0.227027913929408, 51.50666524919923],
        [0.227078611423706, 51.50667058142671],
        [0.227130661029331, 51.50667408935621],
        [0.22718266682296, 51.50667669879697],
        [0.227233189064869, 51.50667843709505],
        [0.227285107225299, 51.5066792495592],
        [0.227290866171767, 51.50667914017258],
        [0.22844242014862, 51.50677057317401],
        [0.228928233238758, 51.5068036067588],
        [0.229458583383101, 51.50680431613801],
        [0.229962623319013, 51.506797429777805],
        [0.230413472128884, 51.50676367475607],
        [0.23076396905309, 51.50671114325834],
        [0.231044453811302, 51.50670041122421],
        [0.23158322136269, 51.506696454334],
        [0.231842021970265, 51.5066843344581],
        [0.23201294543249, 51.50664331059558],
        [0.232014385163348, 51.50664328319093],
        [0.23218069124711, 51.50662572873256],
        [0.232478891030959, 51.50662364901971],
        [0.233166355056876, 51.50665462432849],
        [0.233413515587592, 51.50666970161508],
        [0.233739233905756, 51.5067588230307],
        [0.234051644217946, 51.5068410027025],
        [0.234311642670074, 51.506882812478814],
        [0.234602755375005, 51.506942014729155],
        [0.234832377168148, 51.506952027470916],
        [0.23497250405977, 51.50692957219309],
        [0.235084715586929, 51.506925634815026],
        [0.235422845411203, 51.50694436969392],
        [0.235878605981203, 51.50698154460957],
        [0.237238693120646, 51.50709319601572],
        [0.239066025698548, 51.5072408756768],
        [0.239818643285279, 51.50727776233963],
        [0.239868005737897, 51.507314590030894],
        [0.239977117612779, 51.507394342032626],
        [0.239952480024598, 51.50750902370209],
        [0.240014800602292, 51.50754560380339],
        [0.239936686594268, 51.50759835603751],
        [0.239970814403071, 51.50770651935578],
        [0.240502555202957, 51.50776470742461],
        [0.240731579978432, 51.50779180674064],
        [0.241082426659648, 51.50783456342988],
        [0.241410502404419, 51.50788315013002],
        [0.241767065301634, 51.507924896215066],
        [0.241891253567226, 51.507959393251014],
        [0.241847903577242, 51.50807443309585],
        [0.241828777217572, 51.50812515953848],
        [0.241985138442178, 51.50811047920476],
        [0.241989413631318, 51.5081094981657],
        [0.242002471106624, 51.508375441212436],
        [0.2420139406758, 51.50860903982262],
        [0.241897676930159, 51.50911756834036],
        [0.241817815520056, 51.509575039990445],
        [0.241628834466836, 51.51004089263509],
        [0.241413885630258, 51.51041821064313],
        [0.241474248079408, 51.51062029848588],
        [0.241183528917677, 51.51054042170899],
        [0.240889006845739, 51.51052986292905],
        [0.240652210939955, 51.51052089830689],
        [0.240646319291153, 51.510518312985106],
        [0.240641867487451, 51.51051570015101],
        [0.240634580085436, 51.51051404079734],
        [0.240628688438502, 51.51051145547464],
        [0.240622884971556, 51.510510667065105],
        [0.240615597571004, 51.51050900771023],
        [0.240608354260341, 51.51050824681163],
        [0.240602550794124, 51.51050745840108],
        [0.240595307483899, 51.51050669750167],
        [0.240588064173905, 51.51050593660182],
        [0.240580864952967, 51.510506074158265],
        [0.240573665731971, 51.51050621171428],
        [0.240567950443709, 51.51050722021552],
        [0.240560795310908, 51.51050825622751],
        [0.240553640177769, 51.510509292239064],
        [0.240547924888652, 51.51051030073937],
        [0.240540813842928, 51.51051223520692],
        [0.240533702796591, 51.51051416967405],
        [0.240528031594202, 51.51051607663018],
        [0.240522360391333, 51.51051798358602],
        [0.240518217207916, 51.510521659944736],
        [0.24051259009145, 51.5105244653569],
        [0.240508402819225, 51.51052724325848],
        [0.24050425963385, 51.510530919616706],
        [0.240500116447813, 51.51053459597478],
        [0.240497413106405, 51.510538244822506],
        [0.240493269919163, 51.51054192118036],
        [0.240490566576787, 51.51054557002794],
        [0.240487907321056, 51.510550117332244],
        [0.240485203977781, 51.5105537661797],
        [0.24047569818612, 51.510565638688504],
        [0.240471731341824, 51.51057290887288],
        [0.240467764496299, 51.51058017905715],
        [0.240463797649541, 51.51058744924127],
        [0.240461314735276, 51.510595590372304],
        [0.240458831820167, 51.51060373150328],
        [0.240456348904218, 51.510611872634186],
        [0.240453821900915, 51.51061911530823],
        [0.240450339999744, 51.510636268516954],
        [0.240448165685765, 51.51065069884542],
        [0.240446035456983, 51.51066602763064],
        [0.240445345076781, 51.510681328906166],
        [0.240444610609825, 51.51069573172486],
        [0.240445360079793, 51.51071100549066],
        [0.240445756858278, 51.51071909160196],
        [0.240443729802271, 51.510765893884894],
        [0.240278881267513, 51.51075465456095],
        [0.240344116938315, 51.510938663862],
        [0.240344104239824, 51.511173381160404],
        [0.240274316415418, 51.51139594199422],
        [0.240263520825474, 51.51188087038499],
        [0.240246185034903, 51.51211501929084],
        [0.240219033710423, 51.51226662020128],
        [0.24014094259361, 51.51255498834319],
        [0.240110396309586, 51.512637408059135],
        [0.24000926499439, 51.51283808493595],
        [0.239946276141532, 51.51305242192952],
        [0.239965744828448, 51.513243600682266],
        [0.240148219801511, 51.51332015259751],
        [0.240279445023963, 51.5133509197871],
        [0.240420705874229, 51.51338059579901],
        [0.240799571563064, 51.51343540846877],
        [0.240894258475426, 51.513602667282676],
        [0.241114426472878, 51.513742347634086],
        [0.240958285811, 51.51396745835662],
        [0.240613070801364, 51.5143634511651],
        [0.240406909411586, 51.51465606491926],
        [0.240089543140673, 51.51491483065055],
        [0.239510561429187, 51.51568759479092],
        [0.23936414751634, 51.51602313115925],
        [0.23852007155528, 51.51723980940269],
        [0.238136350014071, 51.51779210795983],
        [0.237148121414594, 51.51933347512467],
        [0.2378822159075, 51.51937072889934],
        [0.239882226126909, 51.51938470555551],
        [0.240167399892391, 51.51935048092743],
        [0.240323006308171, 51.51931963016411],
        [0.240444005497993, 51.51928854105537],
        [0.241033744094625, 51.51908662167961],
        [0.24318909391088, 51.518477956600286],
        [0.243908628790798, 51.51833649064081],
        [0.244194348994311, 51.51843084538991],
        [0.244772605478063, 51.51869945993129],
        [0.244827214676555, 51.518725393571515],
        [0.24487785712807, 51.5187585975096],
        [0.244912570166224, 51.518790307763155],
        [0.244938775203479, 51.51882487877164],
        [0.24496185305306, 51.51888379070315],
        [0.244958187588474, 51.51895580476569],
        [0.244925587380624, 51.51902567482849],
        [0.244504274013721, 51.519515763242445],
        [0.24420054874101, 51.51975899069938],
        [0.244411745430319, 51.52000855110172],
        [0.244637760263081, 51.52014901239536],
        [0.244495275132717, 51.52030012374826],
        [0.244415015779149, 51.52036820788577],
        [0.244271583826646, 51.520470774960245],
        [0.24384640088847, 51.52064797901534],
        [0.243620418494932, 51.52071345488789],
        [0.243469395184427, 51.52074961811989],
        [0.243269582628389, 51.52079031162064],
        [0.243075221296342, 51.520824605426554],
        [0.242913497873222, 51.5208483824201],
        [0.242750113366776, 51.52086769446518],
        [0.242439919693178, 51.52089161215823],
        [0.242166524397214, 51.52093101284961],
        [0.24174119238246, 51.521017382924065],
        [0.241151224517352, 51.52115635918217],
        [0.240696716480079, 51.52120641178387],
        [0.240645153829121, 51.521418731924264],
        [0.240623338150798, 51.52176717695038],
        [0.240629394294324, 51.5218318106776],
        [0.240667165685523, 51.52195519210241],
        [0.240697352571444, 51.52201217039826],
        [0.240767924933713, 51.522098953173746],
        [0.240797450373323, 51.522142454617224],
        [0.240904355312236, 51.52235264617401],
        [0.241010454282087, 51.52260512002437],
        [0.241071416228814, 51.52267230171577],
        [0.241136992179049, 51.52271601346404],
        [0.241237266137192, 51.52276175996815],
        [0.241496338359649, 51.52292947376297],
        [0.241977395239834, 51.523272803053445],
        [0.242319825178038, 51.52358190981138],
        [0.2427098280968, 51.524037590673665],
        [0.242747396940061, 51.524098024476025],
        [0.242786776190393, 51.52419529484977],
        [0.242828132093131, 51.524391450152],
        [0.244741424458845, 51.52383954677446],
        [0.245809555878935, 51.52351513452092],
        [0.24598276428518, 51.52369527433764],
        [0.246201936393585, 51.52401842128011],
        [0.246318907392978, 51.5240224759672],
        [0.246355179354271, 51.52402717699883],
        [0.246419479733296, 51.52404483061638],
        [0.246474052109588, 51.52406986492769],
        [0.246511297116076, 51.52409433183311],
        [0.246633064408952, 51.52422509538124],
        [0.24666587545018, 51.524276626124504],
        [0.247041764696303, 51.52503023094151],
        [0.247062056519574, 51.525090994423884],
        [0.247071489597227, 51.525165455431285],
        [0.247065035142918, 51.525239321547666],
        [0.247044000666161, 51.5253098698237],
        [0.246976605744032, 51.52543436492897],
        [0.246798168323704, 51.52561674385457],
        [0.246341112030118, 51.52617227231437],
        [0.246258362772372, 51.52624849897512],
        [0.246230326979025, 51.52629400083857],
        [0.246217604151748, 51.52632841783585],
        [0.246213921360736, 51.52637075537151],
        [0.246220763195432, 51.52642188431035],
        [0.246233922252596, 51.52645490629855],
        [0.246255634933757, 51.526485965861944],
        [0.246296779735923, 51.52653104199793],
        [0.24639582300284, 51.52661008175094],
        [0.246842151791991, 51.52686142891917],
        [0.24740260815473, 51.52708810502381],
        [0.248263006848248, 51.52755004082505],
        [0.2488543415388, 51.5274083052175],
        [0.248935023690067, 51.527933746779055],
        [0.248936853431547, 51.52867293464785],
        [0.249290282976849, 51.52873540284261],
        [0.249772110183821, 51.52877022668954],
        [0.250670748769189, 51.52880784211792],
        [0.250824052840975, 51.52881749023152],
        [0.250889735563434, 51.52862917562302],
        [0.250944337780986, 51.52845006661727],
        [0.251024068882786, 51.52825428790146],
        [0.251150223674546, 51.527976681196236],
        [0.251398142126466, 51.52750788425929],
        [0.251425483436787, 51.52718541053863],
        [0.251475160755495, 51.52684811922292],
        [0.251491222719268, 51.526560035331336],
        [0.251464186417985, 51.52636270867347],
        [0.251473889639921, 51.52615028792105],
        [0.251508233740306, 51.52596976886041],
        [0.251639143927338, 51.5257010631643],
        [0.251822701560034, 51.52544753382103],
        [0.252041909889352, 51.52518612519382],
        [0.252163512484579, 51.525079471371974],
        [0.252227857686031, 51.52498111140924],
        [0.252304874457786, 51.52478898096408],
        [0.252375462598666, 51.52452503000682],
        [0.252456124482072, 51.524027067763676],
        [0.252447830406519, 51.52380060369897],
        [0.252406875539464, 51.52355498233455],
        [0.252442764507067, 51.52334745424734],
        [0.252509405178193, 51.52306199576902],
        [0.252588872058356, 51.522715138526095],
        [0.252629718307563, 51.52237441883432],
        [0.252737214258953, 51.52209896699862],
        [0.252923804963552, 51.521732065664885],
        [0.253108420346587, 51.52135441035003],
        [0.253258181941578, 51.52100080616535],
        [0.253355167217073, 51.520687785023476],
        [0.253391446336497, 51.520429888236244],
        [0.25339431508092, 51.52019601520112],
        [0.253406957137565, 51.52001411374591],
        [0.25347286306628, 51.51985996638499],
        [0.253476651157597, 51.519849101997316],
        [0.253558173097826, 51.51963170352298],
        [0.253657549133713, 51.51936719828208],
        [0.253689525989507, 51.51908060641617],
        [0.253745124874846, 51.5184842013805],
        [0.253806349723103, 51.51788499023202],
        [0.254047683286469, 51.51789743853083],
        [0.254389773011229, 51.51784859564985],
        [0.254538296952855, 51.51782055995144],
        [0.254678135968941, 51.517791791742575],
        [0.254792828103435, 51.517750017371704],
        [0.254837203633014, 51.51774376834074],
        [0.25492932297773, 51.517741097763576],
        [0.255091097717595, 51.51774787927519],
        [0.255289381829631, 51.517735073132776],
        [0.255576524805961, 51.51768278696439],
        [0.255698441155102, 51.51767054965884],
        [0.255782141946765, 51.51767253684238],
        [0.255883523015932, 51.51768227756198],
        [0.255959160736477, 51.517696110629934],
        [0.256016166580279, 51.51771210068685],
        [0.256129226796372, 51.51775399132745],
        [0.256388843404715, 51.51781554458334],
        [0.256455485832245, 51.51782235600722],
        [0.256524741912744, 51.51782372129873],
        [0.256579242083533, 51.5178181760879],
        [0.256674304683223, 51.517787569189665],
        [0.256714270960892, 51.51777960569411],
        [0.256766024194873, 51.51777681115839],
        [0.256842613757569, 51.5177807330363],
        [0.257190670979685, 51.51782349575996],
        [0.257318906727881, 51.51785160365783],
        [0.257382758073702, 51.51786026688181],
        [0.257479553082907, 51.51786469870105],
        [0.257672432162721, 51.517859186977695],
        [0.257897454832781, 51.51783327144171],
        [0.258005325854269, 51.517828496564626],
        [0.258064501557018, 51.517830055040754],
        [0.258296555391712, 51.51785886068972],
        [0.258579757873959, 51.517843514355825],
        [0.258623955109074, 51.517833670118875],
        [0.258777853722534, 51.51776865418118],
        [0.258856701075666, 51.51775994104514],
        [0.258900080562531, 51.51776270266507],
        [0.25901949894673, 51.51778738134804],
        [0.259262628877679, 51.51780697871519],
        [0.259437142454834, 51.51780901230853],
        [0.259460672537362, 51.517818451262784],
        [0.259484736297285, 51.51783867153988],
        [0.259475956171847, 51.51792337498698],
        [0.259433360017437, 51.5179655635273],
        [0.2594202046053, 51.517990997412866],
        [0.259417129615497, 51.518016237080424],
        [0.259447248057011, 51.51807141344242],
        [0.259525422425836, 51.51813645549203],
        [0.259754770619331, 51.518256139783894],
        [0.259950141960607, 51.51830093714367],
        [0.260109617384601, 51.5183194469672],
        [0.26017741769455, 51.51834961579004],
        [0.260225696364567, 51.51836397341192],
        [0.26027501473883, 51.51837021726699],
        [0.26035709887753, 51.51836863514867],
        [0.260514616974881, 51.518347612910524],
        [0.260855695114948, 51.51824930907675],
        [0.261375921137734, 51.51807200850008],
        [0.261490712330073, 51.518003246593715],
        [0.261571371304115, 51.51797291346777],
        [0.261639781887691, 51.51795720532301],
        [0.261758727993949, 51.51794322038709],
        [0.261971366777997, 51.51792922677379],
        [0.26227985063301, 51.51792957126961],
        [0.262705023571253, 51.51792856281862],
        [0.263654850796987, 51.51786886436203],
        [0.263753063278003, 51.51819251564077],
        [0.263840591090503, 51.51864946969279],
        [0.263908508893268, 51.52028039031189],
        [0.263917925887261, 51.52044118342041],
        [0.263966559899582, 51.520840433529074],
        [0.264007440269117, 51.52108335490829],
        [0.264041042610176, 51.52120860834122],
        [0.264138803356308, 51.52146482035585],
        [0.26422827782765, 51.52164115448376],
        [0.264297395320615, 51.52175582982542],
        [0.264981254964473, 51.522900024411285],
        [0.265660829931489, 51.52294085555798],
        [0.26661009492726, 51.522954887460344],
        [0.266676821696338, 51.5233115196467],
        [0.266731240196445, 51.52382666667182],
        [0.26672347716544, 51.524512084095065],
        [0.266344720841273, 51.52454908104427],
        [0.265815418163083, 51.52457369734984],
        [0.265706716474416, 51.524591085564296],
        [0.265642752095986, 51.5246094080147],
        [0.265537096197429, 51.524659112058046],
        [0.2654954046724, 51.52469049367101],
        [0.265455733168353, 51.524733527157444],
        [0.26538393500397, 51.52485542037705],
        [0.265358595191257, 51.52495483293368],
        [0.265356771921903, 51.525005228993116],
        [0.26543876468777, 51.52572758221622],
        [0.265474509122632, 51.52740588583412],
        [0.265478144937322, 51.52782758748732],
        [0.265434347278447, 51.528629710092076],
        [0.265439368667699, 51.52957297900433],
        [0.265319280445864, 51.532149095065805],
        [0.265985213395416, 51.53220277894875],
        [0.266092569269818, 51.5322159928225],
        [0.266441012653562, 51.53226411716167],
        [0.26717498573759, 51.532381229048816],
        [0.267640994261634, 51.53247384076691],
        [0.26886071942866, 51.53276140933673],
        [0.269199790499722, 51.53285287323824],
        [0.269377723866955, 51.53289349618014],
        [0.269652932414985, 51.53294752455443],
        [0.270678124412043, 51.53309225278999],
        [0.272105149712011, 51.533198612000184],
        [0.272441464119104, 51.53320558572965],
        [0.272624455989088, 51.533202939326905],
        [0.272933542867857, 51.533184359510756],
        [0.273109966722004, 51.533165652221754],
        [0.273436436805761, 51.53311975514296],
        [0.273584997705713, 51.53309169491909],
        [0.273898688718571, 51.53302086384575],
        [0.274058773157753, 51.53299257959778],
        [0.274283680754472, 51.53296303814404],
        [0.274497601405772, 51.53294450093959],
        [0.274642914564579, 51.53293808557267],
        [0.274931510915954, 51.532942380391844],
        [0.275045804645464, 51.53295005571434],
        [0.275347672759201, 51.53298916480829],
        [0.275397188115717, 51.53299899579562],
        [0.275749462257677, 51.53309468120463],
        [0.276196274551839, 51.53317773923284],
        [0.27631210867333, 51.53292728398324],
        [0.277397356794941, 51.53314812788281],
        [0.278376967775892, 51.53333234400782],
        [0.279526569136422, 51.533513248196265],
        [0.280740769141891, 51.53377472144145],
        [0.281733912992179, 51.5339406604796],
        [0.282469079568516, 51.53399380336369],
        [0.283447291936956, 51.53409167157741],
        [0.284012614200254, 51.53412203167467],
        [0.284645687049034, 51.53418074629366],
        [0.285490792287713, 51.534211944015276],
        [0.285927818360724, 51.53427177396959],
        [0.286638730160034, 51.53432986001325],
        [0.286915903252385, 51.5344224797507],
        [0.287046904209011, 51.53444690438294],
        [0.287272126889264, 51.53448118233789],
        [0.287495548937945, 51.53450830056064],
        [0.287628890907642, 51.534521887255906],
        [0.288047148817331, 51.53455239842761],
        [0.288317388915503, 51.534564212886224],
        [0.288919631101527, 51.53455425970868],
        [0.289839786816059, 51.534557881645966],
        [0.290496492795326, 51.53448390579645],
        [0.290411562772075, 51.53465912988032],
        [0.290872995081965, 51.53468788853839],
        [0.291345594852186, 51.53473801048434],
        [0.291957749272417, 51.53478180624542],
        [0.29287490584101, 51.53486909820339],
        [0.293978661116901, 51.534939243905725],
        [0.294875933236828, 51.535061082707074],
        [0.295495704512649, 51.53511280473633],
        [0.297726662602013, 51.53531732706349],
        [0.297699193396058, 51.53563082297493],
        [0.297580536554647, 51.5360234453639],
        [0.297388932790673, 51.53671426673263],
        [0.297177038671725, 51.537660887302835],
        [0.297485034600633, 51.537706114812345],
        [0.298920925579303, 51.5378983083943],
        [0.300830550586521, 51.53813335178602],
        [0.300763950796429, 51.538499775678936],
        [0.300694612059914, 51.538754739547876],
        [0.301048584280091, 51.538796357981035],
        [0.302634503499302, 51.53890282693627],
        [0.303650793533934, 51.53895211681794],
        [0.304517300233546, 51.5390052403027],
        [0.305706228424667, 51.53910327986902],
        [0.305707669105988, 51.53910325154736],
        [0.306325111235939, 51.53913607714843],
        [0.306356870993317, 51.53907969573618],
        [0.30659391484073, 51.5390903224282],
        [0.306796609648665, 51.5391061207413],
        [0.307477001612495, 51.5391574868827],
        [0.309141091585461, 51.5392407467304],
        [0.309287252192711, 51.53927923708977],
        [0.309745798810081, 51.53927830158705],
        [0.31001179442223, 51.53929104914422],
        [0.310481806803743, 51.539345641866184],
        [0.310498675748064, 51.539650174031635],
        [0.311447776980978, 51.53971061238789],
        [0.31193330753208, 51.539729820594104],
        [0.312312682472934, 51.539760112731805],
        [0.313013970869446, 51.539796645977624],
        [0.313271963939261, 51.53982213425687],
        [0.313856785318763, 51.539865456018546],
        [0.314413386416065, 51.539921022710274],
        [0.315210475705614, 51.53994126349728],
        [0.315245106321248, 51.53988482293772],
        [0.315781748436973, 51.539916495868944],
        [0.316392114314982, 51.539979984678865],
        [0.316861573295582, 51.53999499337749],
        [0.316889051342238, 51.54008168327308],
        [0.317459243652577, 51.54012077955301],
        [0.319740911506711, 51.54032298385474],
        [0.320584384263626, 51.54040432292278],
        [0.321505086273853, 51.54050121418242],
        [0.322412984670032, 51.54051651484056],
        [0.323506575652486, 51.54055331059742],
        [0.32469015777276, 51.540629680669824],
        [0.32525647331288, 51.54064903118796],
        [0.326051541412099, 51.54065754743824],
        [0.326480643654608, 51.540644540185085],
        [0.326992167083897, 51.54066406983674],
        [0.327348461050725, 51.54069387204081],
        [0.327839998767769, 51.54071739180345],
        [0.329118668903432, 51.54073517357532],
        [0.32960190284741, 51.54073726746706],
        [0.330093964616717, 51.540742781220935],
        [0.330599589627416, 51.54075971440199],
        [0.331193850039918, 51.540761394116025],
        [0.331561902409565, 51.54079544636705],
        [0.33149000978673, 51.54071503845975],
        [0.331462440744648, 51.540655332841844],
        [0.331382988092346, 51.54039881076124],
        [0.331379399484664, 51.54018754468395],
        [0.331400911375795, 51.54004412708312],
        [0.332756954239732, 51.54027796363125],
        [0.333995716410207, 51.540502427490345],
        [0.33401556363443, 51.54066480736637],
        [0.333815272831962, 51.54097815505988],
        [0.333814061288222, 51.541067210697435],
        [0.333829050540558, 51.54110648200692],
        [0.333827640251926, 51.541135287937166],
        [0.333813217529491, 51.5411634534825],
        [0.333793966934303, 51.541181822698725],
        [0.33373465202248, 51.5412063849458],
        [0.333600465572647, 51.5412333361602],
        [0.333304780289012, 51.5412608022249],
        [0.333464433711782, 51.54164702649407],
        [0.333874010441234, 51.54249232076253],
        [0.333688333824084, 51.54275321741962],
        [0.33345975237894, 51.543105797462914],
        [0.333041756534166, 51.54381557285931],
        [0.33290156458181, 51.544007216001674],
        [0.332547095101721, 51.54446481901715],
        [0.331862892672702, 51.545328269276304],
        [0.33141683768586, 51.54594147095152],
        [0.330679404282082, 51.54593364382008],
        [0.330172619990673, 51.545895150232674],
        [0.329426302994111, 51.54582633882199],
        [0.329018142259514, 51.545798471860834],
        [0.328871476306688, 51.54583555769841],
        [0.329069930869177, 51.54613468366088],
        [0.329439396050219, 51.54656261129752],
        [0.329100208390601, 51.54695335111122],
        [0.329005145262032, 51.54704067289247],
        [0.328927280932099, 51.547125854490744],
        [0.328866248424567, 51.54720170877251],
        [0.328822323168925, 51.547273626137866],
        [0.328784528523544, 51.547352616221666],
        [0.32876166620373, 51.54741332368987],
        [0.328701007870949, 51.54769421239888],
        [0.328628299248443, 51.54785213526731],
        [0.328605409217051, 51.54788406543162],
        [0.328525349066964, 51.54798277993],
        [0.328405152869509, 51.548114666150916],
        [0.328281110700677, 51.54822774314278],
        [0.328060302902301, 51.54839490040817],
        [0.328017789316596, 51.54843801161254],
        [0.327976101313198, 51.548497293933615],
        [0.327950447211686, 51.54855985524335],
        [0.327939753070894, 51.54863291131926],
        [0.327940494855624, 51.54870394181469],
        [0.327956563691437, 51.548792654247066],
        [0.327974869213625, 51.549009923117296],
        [0.32797314196988, 51.54908909637038],
        [0.327964818896123, 51.54943459524502],
        [0.327916131949912, 51.55048685067485],
        [0.327860969507647, 51.550875546435755],
        [0.327825777240052, 51.55094908865203],
        [0.327787630098916, 51.55099301239038],
        [0.327516600322877, 51.55116566163124],
        [0.327045754896837, 51.55143670161311],
        [0.326754289465093, 51.551576480131985],
        [0.326633659936379, 51.55164362292677],
        [0.326403725037148, 51.55180196480113],
        [0.32624842308121, 51.55192465250548],
        [0.325977937544519, 51.55216473522513],
        [0.325711609385937, 51.55237325916143],
        [0.325576249670871, 51.552491054009955],
        [0.325488373925652, 51.552578230238524],
        [0.325427007841971, 51.552647794048134],
        [0.325378794698668, 51.552720694299964],
        [0.325296962217836, 51.55286980266152],
        [0.325129054909421, 51.553056589393066],
        [0.324814253142104, 51.55305023870655],
        [0.324460520622732, 51.55307253711645],
        [0.324195699373074, 51.55305620127268],
        [0.323176991617863, 51.552881232343424],
        [0.322604552025186, 51.552772960747575],
        [0.322530003424706, 51.552753752805934],
        [0.322467670173069, 51.55274779254013],
        [0.322397056503569, 51.55274919062547],
        [0.322335592827189, 51.552760299872126],
        [0.322277468961179, 51.55278033601764],
        [0.322225612835121, 51.55281014040685],
        [0.322191049822359, 51.55283960242199],
        [0.322173596905671, 51.55286512848108],
        [0.322055272084922, 51.55328924498664],
        [0.322061773253656, 51.55364344249346],
        [0.322048670369553, 51.55398094126294],
        [0.322070814055043, 51.55401917302898],
        [0.322081657498184, 51.55406212501459],
        [0.322082412993409, 51.55410527669921],
        [0.32205242443034, 51.55416792238961],
        [0.322025066010011, 51.55419724172229],
        [0.321976181940617, 51.55422878575907],
        [0.321860570753256, 51.55428143529585],
        [0.321467138368346, 51.55440253462921],
        [0.321100697133043, 51.55448712635001],
        [0.320669607892049, 51.55460537088134],
        [0.320000218483741, 51.554831747181076],
        [0.319548831236367, 51.55497646882216],
        [0.319098882254935, 51.55512116026606],
        [0.318997610113274, 51.555143846398195],
        [0.318930834669421, 51.55516405188015],
        [0.318868656903268, 51.55518956226199],
        [0.318802703941385, 51.55522593888984],
        [0.318738694744295, 51.55527216940507],
        [0.318694724846804, 51.55531530586081],
        [0.31866189419002, 51.55537890611623],
        [0.318589044604543, 51.55596039734447],
        [0.318492631228214, 51.55653246185606],
        [0.318407057345092, 51.556778763905456],
        [0.318174438816314, 51.55691376025369],
        [0.31772965355993, 51.55713208711088],
        [0.316878187640883, 51.55752391716788],
        [0.316472264518893, 51.55768391614011],
        [0.316164018003081, 51.55769360001641],
        [0.315605455818953, 51.55766056148801],
        [0.315382209540374, 51.55775309990814],
        [0.315323365125308, 51.557787535601],
        [0.31526655513961, 51.557833622055846],
        [0.315221640232036, 51.55788666814135],
        [0.315160863642561, 51.55799668337929],
        [0.31513358210807, 51.5580844542477],
        [0.315092879738943, 51.55844767683303],
        [0.315015280791439, 51.55893663070064],
        [0.315024285864203, 51.55900030352581],
        [0.315015930778313, 51.55903464193904],
        [0.315001262888093, 51.55905831329224],
        [0.314968131830439, 51.559087744823216],
        [0.314910589818628, 51.559119456675376],
        [0.314873754717648, 51.55913277381391],
        [0.3147918284812, 51.559138886994866],
        [0.314747223057835, 51.55925487799822],
        [0.314735405111169, 51.55950511750173],
        [0.314695774968739, 51.55986112425964],
        [0.314636411310753, 51.56014107958391],
        [0.314606211971857, 51.56045553224442],
        [0.31458366272762, 51.56055130329017],
        [0.314563450707864, 51.560778326462476],
        [0.314460837692281, 51.561257880934136],
        [0.31438497711579, 51.56152557128649],
        [0.314370025909357, 51.5616005084004],
        [0.31431466168687, 51.56173199957975],
        [0.314278810825223, 51.561878393919095],
        [0.314188843820761, 51.56206722374611],
        [0.314147426669917, 51.56210401289629],
        [0.3141140832241, 51.562157729518624],
        [0.31410856413259, 51.56219111259517],
        [0.314123334346283, 51.56225467172915],
        [0.314134017235244, 51.56226615192797],
        [0.314209125616578, 51.56229614586207],
        [0.314217564429061, 51.56232026056239],
        [0.314148040128196, 51.56242864910785],
        [0.31413927325047, 51.562454901830584],
        [0.314122141292828, 51.56257214914671],
        [0.314134165695181, 51.562638460350456],
        [0.314115345715849, 51.562722466759446],
        [0.313685316595731, 51.563744462970206],
        [0.313525096016461, 51.56382856005818],
        [0.313474653648559, 51.56391498857136],
        [0.313431937048567, 51.56418202450118],
        [0.313336514300199, 51.564519346039184],
        [0.31329461594725, 51.56494464296354],
        [0.313223241821383, 51.56513040734972],
        [0.313170743480133, 51.565318497399254],
        [0.31310267167614, 51.56545563425802],
        [0.313075199737175, 51.56553981103716],
        [0.313048001325798, 51.56562937822825],
        [0.313006988289995, 51.56581634242469],
        [0.312980080996577, 51.56594007733677],
        [0.33802431634739, 51.56760105579926],
        [0.347495967306265, 51.567678100327235],
        [0.379203167901989, 51.56573352933652],
        [0.385757281185317, 51.56570833629946],
        [0.39177971323462, 51.567209861049356],
        [0.393502835435304, 51.55765277549952],
        [0.402279195425235, 51.558506680245074],
        [0.417366668163964, 51.557131029267055],
        [0.418649237227801, 51.55661446138411],
        [0.421052190065538, 51.55296401323473],
        [0.418217517174688, 51.550815559154316],
        [0.423808661042928, 51.55198168435165],
        [0.424419630551277, 51.552809921818756],
        [0.426589923568512, 51.551873815779686],
        [0.424908159082121, 51.55006139218267],
        [0.424795984149539, 51.54808790351762],
        [0.426418564409975, 51.54843745840692],
        [0.427660332041598, 51.54512923933985],
        [0.430369451735003, 51.54600303198903],
        [0.429904812005775, 51.54881404641667],
        [0.430970096837117, 51.54972097120709],
        [0.435319886323891, 51.54951832100463],
        [0.436525148630116, 51.54653721598015],
        [0.439033012100595, 51.54642123867412],
        [0.439906248120581, 51.54511164753623],
        [0.443770705761143, 51.54641165325034],
        [0.442901935812545, 51.547372242990235],
        [0.444190252872614, 51.54769973599642],
        [0.443440136971013, 51.548963626757846],
        [0.445796520337489, 51.54930212189626],
        [0.445983509096556, 51.55117421203436],
        [0.450075626464432, 51.55116794401199],
        [0.457696443719467, 51.55277208228263],
        [0.459127369058773, 51.55226185047352],
        [0.46158787979142, 51.55369502447439],
        [0.465226549864344, 51.54986121748726],
        [0.466734382429812, 51.54672323907199],
        [0.469811760028267, 51.547109938018295],
        [0.474306717844722, 51.54640005550196],
        [0.481638606340616, 51.54860408932474],
        [0.484812562544736, 51.547873183450236],
        [0.48546379186472, 51.54584848209037],
        [0.487912829567349, 51.54500064866267],
        [0.487026788067869, 51.54322077919061],
        [0.490417590036544, 51.54403916357107],
        [0.491559165199393, 51.5435769426016],
        [0.490114867877226, 51.54137457670252],
        [0.491367950499932, 51.54023549028382],
        [0.500232392956721, 51.53801255135179],
        [0.503663724470745, 51.538915124475075],
        [0.506030919243085, 51.53853270979401],
        [0.513720931845253, 51.53108440633366],
        [0.51733259260468, 51.529824303000204],
        [0.51573419212621, 51.52926054562736],
        [0.520294973077322, 51.52464433752203],
        [0.520530787838136, 51.51857772474992],
        [0.524527415240048, 51.515802717307665],
        [0.527877967986353, 51.51571074361964],
        [0.535425986877789, 51.51930431932895],
        [0.539831948570321, 51.51972968405907],
        [0.544062629720518, 51.51827636224296],
        [0.547799318263817, 51.515854234984886],
        [0.550786607896961, 51.511738636148685],
        [0.550426202890673, 51.502320437525306],
        [0.538685517643362, 51.503135551932836],
        [0.523015618461543, 51.50203757034782],
        [0.507601631254569, 51.49952365897869],
        [0.493725203767265, 51.499277340569826],
        [0.475278285757694, 51.4959701996328],
        [0.469233809514515, 51.49396444356105],
        [0.458638070341284, 51.486483446249046],
        [0.45447913941849, 51.48157120348638],
        [0.446754281553487, 51.46262185168527],
        [0.442024264020793, 51.4564107662644],
        [0.438843985796268, 51.45508122095558],
        [0.423810996461688, 51.451596099732534],
        [0.408847303866873, 51.44883609795093],
        [0.358871775401596, 51.448290504306],
        [0.339973340144562, 51.44987534190008],
        [0.332840952671705, 51.452827001801715],
        [0.325873929263533, 51.46272936247066],
        [0.320950039481479, 51.46749351635588],
        [0.313384806274922, 51.47010718770784],
        [0.303265043790567, 51.469251571281106],
        [0.290310149214743, 51.46042415084185],
        [0.285435354274614, 51.45805698462804],
        [0.280896222056543, 51.45735940398487],
        [0.275004577682306, 51.45780035531612],
        [0.245199730442401, 51.470191931335286],
        [0.223675837927059, 51.48227242903466],
        [0.222103967184702, 51.48294343349086],
        [0.220267318481616, 51.48370936108041],
        [0.219942148073262, 51.48383512552622],
        [0.218983632713609, 51.484206695886215],
        [0.218623656478946, 51.48432771957299],
        [0.217434520585011, 51.48481515415774],
        [0.217176752964022, 51.48490546258697],
        [0.216941050483658, 51.48497556862432],
        [0.216702207661, 51.48504033776132],
        [0.216303931423292, 51.4851440923724],
        [0.216095744294288, 51.485187596867604],
        [0.214175468758096, 51.48556920886543],
        [0.213816913412019, 51.48563083704327],
        [0.213580856667517, 51.485664071692646],
        [0.212560836285899, 51.485778651314],
        [0.211517180560016, 51.48585140082146],
        [0.211055752271511, 51.48587089530898],
        [0.2103070304104, 51.48587691924789],
        [0.210344291803467, 51.48730250366644],
        [0.210386881718809, 51.48818301279131],
        [0.210422019999048, 51.48956457116909],
        [0.210440129540982, 51.490028267394315],
        [0.21052540122597, 51.4902424911959]
      ]
    ]
  }
}
