{
  "type": "Feature",
  "properties": {
    "name": "Thurrock",
    "level": 2,
    "center": [0.372, 51.503]
  },
  "geometry": {
    "type": "Polygon",
    "coordinates": [
      [
        [0.21052540122597, 51.4902424911959],
        [0.211171808400609, 51.490412859741994],
        [0.211304383704315, 51.490473310258544],
        [0.211403878864609, 51.49068366799081],
        [0.211411567051812, 51.490902052338576],
        [0.211888683947608, 51.49102704779264],
        [0.211903902927571, 51.49104384734145],
        [0.212059153870168, 51.49216773845514],
        [0.212124326928358, 51.49241291641274],
        [0.212785703054801, 51.49321879728597],
        [0.212809726524042, 51.49329838138992],
        [0.21287375364314, 51.49450133242853],
        [0.213045899132383, 51.49502147451747],
        [0.213393620388048, 51.49500232080182],
        [0.213515137944226, 51.49501261696992],
        [0.213980687387406, 51.49581949003931],
        [0.214128186870193, 51.49603883129202],
        [0.21493205044766, 51.49645351299221],
        [0.214993987522326, 51.49648291908112],
        [0.215458740537761, 51.496618925498694],
        [0.215539784427283, 51.49662638714069],
        [0.215704580918395, 51.49654863142009],
        [0.215926474486871, 51.49645990413757],
        [0.216266787140183, 51.49652541596052],
        [0.216997142367679, 51.496582653263594],
        [0.219607599019411, 51.49740918219889],
        [0.219639879366331, 51.497450838131584],
        [0.221430935635125, 51.4977802356149],
        [0.221625440272033, 51.49780982448467],
        [0.223465735145255, 51.49784778469657],
        [0.223578064475955, 51.49790590754658],
        [0.224260985677227, 51.49731380640108],
        [0.224269578596849, 51.49731274409601],
        [0.225364563032271, 51.49757884355573],
        [0.225698366442592, 51.49771729486708],
        [0.227835817049182, 51.49882600636183],
        [0.227879227404934, 51.49885935491259],
        [0.229719544317463, 51.499309995116974],
        [0.229936924982543, 51.499365214925064],
        [0.22914005809471, 51.500455928577345],
        [0.228701522240045, 51.50100654194018],
        [0.228044005854917, 51.50203074855873],
        [0.227782143372158, 51.50248177606555],
        [0.227439183492825, 51.50336780527424],
        [0.227405953255258, 51.50342509230361],
        [0.226720202481049, 51.504285255465454],
        [0.226586004559582, 51.50448834723498],
        [0.226572530848466, 51.50474400371616],
        [0.22648942654045, 51.504990190751876],
        [0.226040613297051, 51.505804482663095],
        [0.225992374877678, 51.505879140813875],
        [0.226367976108577, 51.505927766536466],
        [0.226592789023641, 51.50657818671644],
        [0.226604657358613, 51.50658515573855],
        [0.22844242014862, 51.50677057317401],
        [0.228928233238758, 51.5068036067588],
        [0.233166355056876, 51.50665462432849],
        [0.233413515587592, 51.50666970161508],
        [0.234311642670074, 51.506882812478814],
        [0.234602755375005, 51.506942014729155],
        [0.239066025698548, 51.5072408756768],
        [0.239818643285279, 51.50727776233963],
        [0.239868005737897, 51.507314590030894],
        [0.239977117612779, 51.507394342032626],
        [0.239936686594268, 51.50759835603751],
        [0.239970814403071, 51.50770651935578],
        [0.241767065301634, 51.507924896215066],
        [0.241891253567226, 51.507959393251014],
        [0.241847903577242, 51.50807443309585],
        [0.241828777217572, 51.50812515953848],
        [0.241985138442178, 51.50811047920476],
        [0.241989413631318, 51.5081094981657],
        [0.242002471106624, 51.508375441212436],
        [0.2420139406758, 51.50860903982262],
        [0.241897676930159, 51.50911756834036],
        [0.241817815520056, 51.509575039990445],
        [0.241413885630258, 51.51041821064313],
        [0.241474248079408, 51.51062029848588],
        [0.240580864952967, 51.510506074158265],
        [0.240573665731971, 51.51050621171428],
        [0.240443729802271, 51.510765893884894],
        [0.240278881267513, 51.51075465456095],
        [0.240263520825474, 51.51188087038499],
        [0.240246185034903, 51.51211501929084],
        [0.239946276141532, 51.51305242192952],
        [0.239965744828448, 51.513243600682266],
        [0.240420705874229, 51.51338059579901],
        [0.240799571563064, 51.51343540846877],
        [0.240894258475426, 51.513602667282676],
        [0.241114426472878, 51.513742347634086],
        [0.240089543140673, 51.51491483065055],
        [0.239510561429187, 51.51568759479092],
        [0.238136350014071, 51.51779210795983],
        [0.237148121414594, 51.51933347512467],
        [0.239882226126909, 51.51938470555551],
        [0.240167399892391, 51.51935048092743],
        [0.24318909391088, 51.518477956600286],
        [0.243908628790798, 51.51833649064081],
        [0.244827214676555, 51.518725393571515],
        [0.24487785712807, 51.5187585975096],
        [0.244958187588474, 51.51895580476569],
        [0.244925587380624, 51.51902567482849],
        [0.244504274013721, 51.519515763242445],
        [0.24420054874101, 51.51975899069938],
        [0.244411745430319, 51.52000855110172],
        [0.244637760263081, 51.52014901239536],
        [0.244495275132717, 51.52030012374826],
        [0.244415015779149, 51.52036820788577],
        [0.24384640088847, 51.52064797901534],
        [0.243620418494932, 51.52071345488789],
        [0.241151224517352, 51.52115635918217],
        [0.240696716480079, 51.52120641178387],
        [0.240629394294324, 51.5218318106776],
        [0.240667165685523, 51.52195519210241],
        [0.241010454282087, 51.52260512002437],
        [0.241071416228814, 51.52267230171577],
        [0.241496338359649, 51.52292947376297],
        [0.241977395239834, 51.523272803053445],
        [0.242786776190393, 51.52419529484977],
        [0.242828132093131, 51.524391450152],
        [0.244741424458845, 51.52383954677446],
        [0.245809555878935, 51.52351513452092],
        [0.24598276428518, 51.52369527433764],
        [0.246201936393585, 51.52401842128011],
        [0.246511297116076, 51.52409433183311],
        [0.246633064408952, 51.52422509538124],
        [0.247041764696303, 51.52503023094151],
        [0.247062056519574, 51.525090994423884],
        [0.247044000666161, 51.5253098698237],
        [0.246976605744032, 51.52543436492897],
        [0.246341112030118, 51.52617227231437],
        [0.246258362772372, 51.52624849897512],
        [0.246233922252596, 51.52645490629855],
        [0.246255634933757, 51.526485965861944],
        [0.248263006848248, 51.52755004082505],
        [0.2488543415388, 51.5274083052175],
        [0.248935023690067, 51.527933746779055],
        [0.248936853431547, 51.52867293464785],
        [0.250670748769189, 51.52880784211792],
        [0.250824052840975, 51.52881749023152],
        [0.251150223674546, 51.527976681196236],
        [0.251398142126466, 51.52750788425929],
        [0.251473889639921, 51.52615028792105],
        [0.251508233740306, 51.52596976886041],
        [0.252227857686031, 51.52498111140924],
        [0.252304874457786, 51.52478898096408],
        [0.252588872058356, 51.522715138526095],
        [0.252629718307563, 51.52237441883432],
        [0.253258181941578, 51.52100080616535],
        [0.253355167217073, 51.520687785023476],
        [0.253745124874846, 51.5184842013805],
        [0.253806349723103, 51.51788499023202],
        [0.255576524805961, 51.51768278696439],
        [0.255698441155102, 51.51767054965884],
        [0.257382758073702, 51.51786026688181],
        [0.257479553082907, 51.51786469870105],
        [0.258856701075666, 51.51775994104514],
        [0.258900080562531, 51.51776270266507],
        [0.259437142454834, 51.51780901230853],
        [0.259460672537362, 51.517818451262784],
        [0.259447248057011, 51.51807141344242],
        [0.259525422425836, 51.51813645549203],
        [0.260225696364567, 51.51836397341192],
        [0.26027501473883, 51.51837021726699],
        [0.261571371304115, 51.51797291346777],
        [0.261639781887691, 51.51795720532301],
        [0.262705023571253, 51.51792856281862],
        [0.263654850796987, 51.51786886436203],
        [0.264138803356308, 51.52146482035585],
        [0.26422827782765, 51.52164115448376],
        [0.264297395320615, 51.52175582982542],
        [0.264981254964473, 51.522900024411285],
        [0.26661009492726, 51.522954887460344],
        [0.266676821696338, 51.5233115196467],
        [0.266731240196445, 51.52382666667182],
        [0.26672347716544, 51.524512084095065],
        [0.265815418163083, 51.52457369734984],
        [0.265706716474416, 51.524591085564296],
        [0.26538393500397, 51.52485542037705],
        [0.265358595191257, 51.52495483293368],
        [0.265439368667699, 51.52957297900433],
        [0.265319280445864, 51.532149095065805],
        [0.266441012653562, 51.53226411716167],
        [0.26717498573759, 51.532381229048816],
        [0.269652932414985, 51.53294752455443],
        [0.270678124412043, 51.53309225278999],
        [0.272441464119104, 51.53320558572965],
        [0.272624455989088, 51.533202939326905],
        [0.274642914564579, 51.53293808557267],
        [0.274931510915954, 51.532942380391844],
        [0.276196274551839, 51.53317773923284],
        [0.27631210867333, 51.53292728398324],
        [0.280740769141891, 51.53377472144145],
        [0.281733912992179, 51.5339406604796],
        [0.287495548937945, 51.53450830056064],
        [0.287628890907642, 51.534521887255906],
        [0.289839786816059, 51.534557881645966],
        [0.290496492795326, 51.53448390579645],
        [0.290411562772075, 51.53465912988032],
        [0.295495704512649, 51.53511280473633],
        [0.297726662602013, 51.53531732706349],
        [0.297388932790673, 51.53671426673263],
        [0.297177038671725, 51.537660887302835],
        [0.298920925579303, 51.5378983083943],
        [0.300830550586521, 51.53813335178602],
        [0.300763950796429, 51.538499775678936],
        [0.300694612059914, 51.538754739547876],
        [0.309745798810081, 51.53927830158705],
        [0.31001179442223, 51.53929104914422],
        [0.310481806803743, 51.539345641866184],
        [0.310498675748064, 51.539650174031635],
        [0.316392114314982, 51.539979984678865],
        [0.316861573295582, 51.53999499337749],
        [0.320584384263626, 51.54040432292278],
        [0.321505086273853, 51.54050121418242],
        [0.331193850039918, 51.540761394116025],
        [0.331561902409565, 51.54079544636705],
        [0.331379399484664, 51.54018754468395],
        [0.331400911375795, 51.54004412708312],
        [0.332756954239732, 51.54027796363125],
        [0.333995716410207, 51.540502427490345],
        [0.333827640251926, 51.541135287937166],
        [0.333813217529491, 51.5411634534825],
        [0.333600465572647, 51.5412333361602],
        [0.333304780289012, 51.5412608022249],
        [0.333464433711782, 51.54164702649407],
        [0.333874010441234, 51.54249232076253],
        [0.331862892672702, 51.545328269276304],
        [0.33141683768586, 51.54594147095152],
        [0.329018142259514, 51.545798471860834],
        [0.328871476306688, 51.54583555769841],
        [0.329069930869177, 51.54613468366088],
        [0.329439396050219, 51.54656261129752],
        [0.328927280932099, 51.547125854490744],
        [0.328866248424567, 51.54720170877251],
        [0.328628299248443, 51.54785213526731],
        [0.328605409217051, 51.54788406543162],
        [0.327976101313198, 51.548497293933615],
        [0.327950447211686, 51.54855985524335],
        [0.327825777240052, 51.55094908865203],
        [0.327787630098916, 51.55099301239038],
        [0.326633659936379, 51.55164362292677],
        [0.326403725037148, 51.55180196480113],
        [0.325296962217836, 51.55286980266152],
        [0.325129054909421, 51.553056589393066],
        [0.322335592827189, 51.552760299872126],
        [0.322277468961179, 51.55278033601764],
        [0.322173596905671, 51.55286512848108],
        [0.322055272084922, 51.55328924498664],
        [0.32205242443034, 51.55416792238961],
        [0.322025066010011, 51.55419724172229],
        [0.318930834669421, 51.55516405188015],
        [0.318868656903268, 51.55518956226199],
        [0.318694724846804, 51.55531530586081],
        [0.31866189419002, 51.55537890611623],
        [0.318492631228214, 51.55653246185606],
        [0.318407057345092, 51.556778763905456],
        [0.316878187640883, 51.55752391716788],
        [0.316472264518893, 51.55768391614011],
        [0.316164018003081, 51.55769360001641],
        [0.315605455818953, 51.55766056148801],
        [0.31526655513961, 51.557833622055846],
        [0.315221640232036, 51.55788666814135],
        [0.315024285864203, 51.55900030352581],
        [0.315015930778313, 51.55903464193904],
        [0.3147918284812, 51.559138886994866],
        [0.314747223057835, 51.55925487799822],
        [0.31458366272762, 51.56055130329017],
        [0.314563450707864, 51.560778326462476],
        [0.314147426669917, 51.56210401289629],
        [0.3141140832241, 51.562157729518624],
        [0.314134165695181, 51.562638460350456],
        [0.314115345715849, 51.562722466759446],
        [0.313685316595731, 51.563744462970206],
        [0.313525096016461, 51.56382856005818],
        [0.313474653648559, 51.56391498857136],
        [0.313006988289995, 51.56581634242469],
        [0.312980080996577, 51.56594007733677],
        [0.33802431634739, 51.56760105579926],
        [0.347495967306265, 51.567678100327235],
        [0.379203167901989, 51.56573352933652],
        [0.385757281185317, 51.56570833629946],
        [0.39177971323462, 51.567209861049356],
        [0.393502835435304, 51.55765277549952],
        [0.402279195425235, 51.558506680245074],
        [0.417366668163964, 51.557131029267055],
        [0.418649237227801, 51.55661446138411],
        [0.421052190065538, 51.55296401323473],
        [0.418217517174688, 51.550815559154316],
        [0.423808661042928, 51.55198168435165],
        [0.424419630551277, 51.552809921818756],
        [0.426589923568512, 51.551873815779686],
        [0.424908159082121, 51.55006139218267],
        [0.424795984149539, 51.54808790351762],
        [0.426418564409975, 51.54843745840692],
        [0.427660332041598, 51.54512923933985],
        [0.430369451735003, 51.54600303198903],
        [0.429904812005775, 51.54881404641667],
        [0.430970096837117, 51.54972097120709],
        [0.435319886323891, 51.54951832100463],
        [0.436525148630116, 51.54653721598015],
        [0.439033012100595, 51.54642123867412],
        [0.439906248120581, 51.54511164753623],
        [0.443770705761143, 51.54641165325034],
        [0.442901935812545, 51.547372242990235],
        [0.444190252872614, 51.54769973599642],
        [0.443440136971013, 51.548963626757846],
        [0.445796520337489, 51.54930212189626],
        [0.445983509096556, 51.55117421203436],
        [0.450075626464432, 51.55116794401199],
        [0.457696443719467, 51.55277208228263],
        [0.459127369058773, 51.55226185047352],
        [0.46158787979142, 51.55369502447439],
        [0.465226549864344, 51.54986121748726],
        [0.466734382429812, 51.54672323907199],
        [0.469811760028267, 51.547109938018295],
        [0.474306717844722, 51.54640005550196],
        [0.481638606340616, 51.54860408932474],
        [0.484812562544736, 51.547873183450236],
        [0.48546379186472, 51.54584848209037],
        [0.487912829567349, 51.54500064866267],
        [0.487026788067869, 51.54322077919061],
        [0.490417590036544, 51.54403916357107],
        [0.491559165199393, 51.5435769426016],
        [0.490114867877226, 51.54137457670252],
        [0.491367950499932, 51.54023549028382],
        [0.500232392956721, 51.53801255135179],
        [0.503663724470745, 51.538915124475075],
        [0.506030919243085, 51.53853270979401],
        [0.513720931845253, 51.53108440633366],
        [0.51733259260468, 51.529824303000204],
        [0.51573419212621, 51.52926054562736],
        [0.520294973077322, 51.52464433752203],
        [0.520530787838136, 51.51857772474992],
        [0.524527415240048, 51.515802717307665],
        [0.527877967986353, 51.51571074361964],
        [0.535425986877789, 51.51930431932895],
        [0.539831948570321, 51.51972968405907],
        [0.544062629720518, 51.51827636224296],
        [0.547799318263817, 51.515854234984886],
        [0.550786607896961, 51.511738636148685],
        [0.550426202890673, 51.502320437525306],
        [0.538685517643362, 51.503135551932836],
        [0.523015618461543, 51.50203757034782],
        [0.507601631254569, 51.49952365897869],
        [0.493725203767265, 51.499277340569826],
        [0.475278285757694, 51.4959701996328],
        [0.469233809514515, 51.49396444356105],
        [0.458638070341284, 51.486483446249046],
        [0.45447913941849, 51.48157120348638],
        [0.446754281553487, 51.46262185168527],
        [0.442024264020793, 51.4564107662644],
        [0.438843985796268, 51.45508122095558],
        [0.423810996461688, 51.451596099732534],
        [0.408847303866873, 51.44883609795093],
        [0.358871775401596, 51.448290504306],
        [0.339973340144562, 51.44987534190008],
        [0.332840952671705, 51.452827001801715],
        [0.325873929263533, 51.46272936247066],
        [0.320950039481479, 51.46749351635588],
        [0.313384806274922, 51.47010718770784],
        [0.303265043790567, 51.469251571281106],
        [0.290310149214743, 51.46042415084185],
        [0.285435354274614, 51.45805698462804],
        [0.280896222056543, 51.45735940398487],
        [0.275004577682306, 51.45780035531612],
        [0.245199730442401, 51.470191931335286],
        [0.223675837927059, 51.48227242903466],
        [0.217176752964022, 51.48490546258697],
        [0.216941050483658, 51.48497556862432],
        [0.214175468758096, 51.48556920886543],
        [0.213816913412019, 51.48563083704327],
        [0.211055752271511, 51.48587089530898],
        [0.2103070304104, 51.48587691924789],
        [0.21052540122597, 51.4902424911959]
      ]
    ]
  }
}
