{
  "type": "Feature",
  "properties": {
    "name": "Barking and Dagenham",
    "level": 2,
    "londonBorough": true
  },
  "geometry": {
    "type": "Polygon",
    "coordinates": [
      [
        [0.099706264112953, 51.511899006946145],
        [0.099731817124605, 51.51358290093295],
        [0.099797705393905, 51.51448279965995],
        [0.099079494106488, 51.51466112427781],
        [0.097067212945471, 51.51562877730497],
        [0.096365808422169, 51.51585984201874],
        [0.095022364860626, 51.51686226412064],
        [0.094878240491553, 51.51705098933001],
        [0.094576408019493, 51.51788641464155],
        [0.09456182169205, 51.51813397677786],
        [0.095029603501836, 51.52019216364873],
        [0.095049078957948, 51.520302426999685],
        [0.094819610426144, 51.52064195667163],
        [0.094785128588016, 51.52067584585543],
        [0.092568533902398, 51.52238267676492],
        [0.092485038443308, 51.52247948989398],
        [0.092427929174197, 51.52274309788042],
        [0.092351309075893, 51.52292701818098],
        [0.092409073686431, 51.52352670514274],
        [0.092423981662301, 51.52375755352918],
        [0.092827227813874, 51.52481780126547],
        [0.092858558542686, 51.52502947169837],
        [0.092591861620071, 51.5256898035528],
        [0.092512062295309, 51.52574158680161],
        [0.092106186478349, 51.52591339501783],
        [0.091877234922971, 51.52595075194674],
        [0.0905630697785, 51.52590134181066],
        [0.090458903087747, 51.52592478110248],
        [0.089401460677243, 51.526475995377076],
        [0.089229095285429, 51.526489857125085],
        [0.088480041587658, 51.52644024805271],
        [0.088086996030478, 51.526388793114194],
        [0.085960767588366, 51.52579443571116],
        [0.085592170603792, 51.52580458771291],
        [0.08513339106643, 51.52589188106024],
        [0.084829521015652, 51.52599350539549],
        [0.083163128956085, 51.52681807412884],
        [0.082875216921052, 51.526922107712366],
        [0.080696918490098, 51.52752461646969],
        [0.080553923596646, 51.52758200888819],
        [0.07824357554259, 51.52924346213293],
        [0.077918885475919, 51.52933194802908],
        [0.076830932909749, 51.52940787123481],
        [0.076498054501103, 51.52947491555872],
        [0.075571729621132, 51.52968105817775],
        [0.075507474550016, 51.52969478504424],
        [0.075459137735415, 51.529868301089145],
        [0.075386402165352, 51.52988577504511],
        [0.072810171859816, 51.52928745038928],
        [0.072712917299062, 51.52927298211293],
        [0.072566873026695, 51.53078724278272],
        [0.072508558030508, 51.531185752332455],
        [0.071973952087081, 51.53284356626308],
        [0.071916816453367, 51.53295068982662],
        [0.071724439252106, 51.53290552704727],
        [0.069478682242641, 51.53625809349711],
        [0.06945705575237, 51.53628994960036],
        [0.067993924938907, 51.536141294926786],
        [0.067931572735791, 51.536197249826785],
        [0.068113584785495, 51.53633162963215],
        [0.068238631691433, 51.53644992740748],
        [0.06825595123469, 51.536990984230904],
        [0.068887849183326, 51.53718847205377],
        [0.066965744452871, 51.539609026443856],
        [0.066834818198059, 51.53987032378728],
        [0.06666721033001, 51.54053154403714],
        [0.06664905007641, 51.54086279609157],
        [0.067048528408562, 51.54216779522542],
        [0.06722399642692, 51.54250732572963],
        [0.06828562614882, 51.544292551610745],
        [0.068327194945008, 51.54441411964485],
        [0.071635334402328, 51.54361294579562],
        [0.071787649049933, 51.54356888927987],
        [0.071838428218557, 51.54363903494942],
        [0.07193873772702, 51.54381531917251],
        [0.074907796812644, 51.54390042880301],
        [0.075541821367888, 51.544015110657384],
        [0.076741477676319, 51.54457930516901],
        [0.076794829374968, 51.544610734464634],
        [0.07681282684835, 51.544594228925895],
        [0.077034273345511, 51.54438977035294],
        [0.077382805251885, 51.544537374376],
        [0.077473952694726, 51.54457532821753],
        [0.07777016850446, 51.54420767492505],
        [0.077909378564092, 51.54403434723163],
        [0.07812042841815, 51.5442032690184],
        [0.078230547267002, 51.544277756381106],
        [0.081217620133209, 51.545104287841546],
        [0.081399150309507, 51.54513164234998],
        [0.08167721122731, 51.54528318189533],
        [0.081708411929639, 51.54533478607166],
        [0.081601444327082, 51.545550711296265],
        [0.081652328404063, 51.545591174926386],
        [0.081941861444784, 51.545614813469236],
        [0.082154190548286, 51.54565331076046],
        [0.085698531683835, 51.5472764848579],
        [0.085989099645527, 51.54738552607593],
        [0.090175775658282, 51.547943193386914],
        [0.090390839294749, 51.54794655544905],
        [0.090742612964551, 51.54816330647491],
        [0.090845802361215, 51.54821182669055],
        [0.091379451971571, 51.54827425598732],
        [0.091490999643822, 51.548284857113],
        [0.091578007410514, 51.54832647099511],
        [0.091605433665783, 51.54838983046237],
        [0.091490850894964, 51.5486904324205],
        [0.091521655472129, 51.548795997558045],
        [0.092008687569379, 51.549414107328644],
        [0.092596594988723, 51.54965272059294],
        [0.092225452834942, 51.54879423870958],
        [0.092238167421299, 51.548631243305],
        [0.093325277025225, 51.54601384522767],
        [0.093502272545335, 51.54584791790302],
        [0.097094204580365, 51.54717943497969],
        [0.0974926826655, 51.54731349697556],
        [0.099574045127786, 51.54834909876425],
        [0.099739180175204, 51.548427077866116],
        [0.104013229616862, 51.54974707301934],
        [0.104225149478736, 51.54980712051457],
        [0.105076641241977, 51.55022349632846],
        [0.105266096612127, 51.55032800958371],
        [0.107308828050975, 51.55192531702455],
        [0.107384991204248, 51.551981502509776],
        [0.10826985104376, 51.55205732975341],
        [0.108401932363518, 51.552698837501495],
        [0.111105237914919, 51.552482056515416],
        [0.111911262512037, 51.55266179252959],
        [0.112353872231008, 51.55299914574201],
        [0.112358614555102, 51.55350625216317],
        [0.112358864338883, 51.5535116433229],
        [0.114716035974258, 51.55531718908871],
        [0.114727983806929, 51.555325966479614],
        [0.114181395936946, 51.555609198011545],
        [0.114160233466395, 51.55561947142462],
        [0.114104704637039, 51.55582190996793],
        [0.112724725161562, 51.55651942841775],
        [0.113140183852019, 51.556830289433876],
        [0.113328691636732, 51.557317898451416],
        [0.117152164451544, 51.55689284714454],
        [0.117133314520567, 51.557387789323016],
        [0.118077731218581, 51.55734556254405],
        [0.118937664434195, 51.557348019367794],
        [0.120487754542182, 51.558541229608025],
        [0.117821379240635, 51.55903183725754],
        [0.117479781051489, 51.559163002652035],
        [0.11869971103898, 51.560950321481506],
        [0.119751068992103, 51.56249247346344],
        [0.118873360029812, 51.56273044965631],
        [0.119033186978317, 51.56306479146066],
        [0.11995248270744, 51.56328649196156],
        [0.124730343152379, 51.5641973587195],
        [0.126439955436299, 51.565151992125585],
        [0.126649563547717, 51.56528398364304],
        [0.127452402351053, 51.56603830986573],
        [0.127621665009383, 51.56614045585089],
        [0.128763756844985, 51.56646506127785],
        [0.129302525283882, 51.56647686716562],
        [0.129637800690583, 51.56741412311874],
        [0.129729932968404, 51.56771820480202],
        [0.129600887911923, 51.56838421329044],
        [0.129615277559383, 51.568630353864236],
        [0.130443830482806, 51.57027177905564],
        [0.130457759888844, 51.57032278487878],
        [0.130424715330128, 51.57063453451553],
        [0.13038673822321, 51.57068648283768],
        [0.130026206147318, 51.570753280118154],
        [0.129989334309948, 51.57079801403157],
        [0.129908413592012, 51.57147483945774],
        [0.129902744570699, 51.57153879097454],
        [0.130780306517793, 51.57169641749493],
        [0.131558565000432, 51.57182886330476],
        [0.130853930491466, 51.573270612209136],
        [0.130886845589913, 51.573357244208495],
        [0.13058192285635, 51.573255767752],
        [0.130074276479188, 51.573077935444864],
        [0.129426584060139, 51.57394850050611],
        [0.129418478299654, 51.57396033819978],
        [0.129193885625119, 51.57604084135814],
        [0.12917237981687, 51.5763218055415],
        [0.129820230768826, 51.576503391948606],
        [0.131611196520708, 51.5770868730288],
        [0.131384945345581, 51.57734098170077],
        [0.130974130155104, 51.57864789638693],
        [0.131075610922671, 51.57868831926986],
        [0.130854632254882, 51.57908621506817],
        [0.130682823402808, 51.57905426327939],
        [0.13079967271849, 51.57936149207397],
        [0.133532596990137, 51.579961108273004],
        [0.133462389548651, 51.580218678332656],
        [0.132588815245955, 51.581259732393704],
        [0.132535010163862, 51.58131286822822],
        [0.129225848533479, 51.58151055168105],
        [0.127754680485285, 51.5816271655253],
        [0.127744282066249, 51.58189893497868],
        [0.12777398677209, 51.582133106968584],
        [0.127973874058881, 51.582364192796554],
        [0.128057454292262, 51.58285547941576],
        [0.127630852454939, 51.58388928729492],
        [0.127220125603683, 51.58393450335033],
        [0.127356043197865, 51.584433834260594],
        [0.126374616531949, 51.58672498707382],
        [0.130186242506757, 51.58738516680963],
        [0.13100383936338, 51.587519601483905],
        [0.1297322338749, 51.589592132216225],
        [0.129555966378281, 51.59005216217688],
        [0.137449807295085, 51.5938600554439],
        [0.137560286930685, 51.59387602858067],
        [0.145631614971563, 51.598847403474785],
        [0.146563321720423, 51.59943647632379],
        [0.148121668929963, 51.59898350438169],
        [0.148179760710605, 51.59895995915725],
        [0.147657756115328, 51.59680226049456],
        [0.147657586548507, 51.59679866649718],
        [0.148085123923037, 51.596771057386185],
        [0.148152801716444, 51.59676712073603],
        [0.148070625364857, 51.596402619929],
        [0.148059637531281, 51.59635336091491],
        [0.149767773460233, 51.59705679027417],
        [0.149814872366956, 51.59707571152984],
        [0.150835611487418, 51.59578992864649],
        [0.151130829612861, 51.59543739705039],
        [0.150703330301722, 51.59256215398531],
        [0.150572251096784, 51.591284886245965],
        [0.150925131750315, 51.590503242416474],
        [0.151081458327152, 51.590114587299176],
        [0.151153520852133, 51.589500858971114],
        [0.151199243351967, 51.589124123164446],
        [0.150944083353642, 51.584180978838],
        [0.15092829501808, 51.583755010814656],
        [0.15079161574942, 51.5834283806605],
        [0.150625626920456, 51.5830618200583],
        [0.149992406827049, 51.58258241872247],
        [0.149659767805672, 51.58235470105179],
        [0.148383225712534, 51.58075218714659],
        [0.147448327669365, 51.58079178279393],
        [0.147157716247569, 51.57722966743615],
        [0.147032234420654, 51.576374052682056],
        [0.146983595504843, 51.57567890166654],
        [0.148035947047188, 51.57577564760824],
        [0.148111022807525, 51.57562319445074],
        [0.148183433037891, 51.575322409160776],
        [0.148204898881516, 51.575196117219484],
        [0.147915680137325, 51.573133072269634],
        [0.147896172800469, 51.57311724237104],
        [0.148960892009399, 51.57323263809889],
        [0.149185821674401, 51.57194344911671],
        [0.149262634629533, 51.57146092796174],
        [0.14912748234644, 51.57144092168094],
        [0.149261260142881, 51.57048343709668],
        [0.149290313999163, 51.5702733728938],
        [0.149473385295875, 51.57014681790144],
        [0.149658913698, 51.57010295125963],
        [0.149701917295687, 51.56988273927263],
        [0.149752298598317, 51.569696564683014],
        [0.148169632732117, 51.56955109274124],
        [0.146642272511841, 51.56941537896839],
        [0.146748584571679, 51.568884657931484],
        [0.146760467457253, 51.56876933282783],
        [0.146939713151045, 51.56877594502825],
        [0.147112514375427, 51.5687682864308],
        [0.147371326397921, 51.568564809157934],
        [0.148749143020537, 51.56862051849362],
        [0.148924832083345, 51.5684599268883],
        [0.149329975948752, 51.56811617520661],
        [0.149800792653226, 51.56809405998498],
        [0.149864950750029, 51.56807759662332],
        [0.150240570218791, 51.56784229622797],
        [0.150359344357832, 51.56782123450077],
        [0.150755695666698, 51.56778069606887],
        [0.150836517887623, 51.56778101299668],
        [0.151259036731624, 51.56805024455798],
        [0.151436582517633, 51.56799033435757],
        [0.155097268780042, 51.56554545299802],
        [0.155217767473242, 51.56546949850829],
        [0.156195083696642, 51.56508283608568],
        [0.156316812236382, 51.56503293697287],
        [0.159461802679851, 51.563225090459284],
        [0.159767942046243, 51.563078267918264],
        [0.159974244951426, 51.56280378618848],
        [0.160060829287873, 51.56262143650096],
        [0.160579159955681, 51.56223329446232],
        [0.160677407720896, 51.56208400289767],
        [0.161778100426879, 51.561654552938016],
        [0.161869584048071, 51.56160610451987],
        [0.166073890088596, 51.563154456846036],
        [0.166340538756763, 51.563270037200255],
        [0.168493505557373, 51.56357828452426],
        [0.168597012771907, 51.563600651914186],
        [0.17057980198488, 51.56436434576205],
        [0.171227966932592, 51.56461314402629],
        [0.173042774515412, 51.56496893315068],
        [0.173388027763451, 51.565098329488315],
        [0.176015221170755, 51.564728586770656],
        [0.176272798921817, 51.56471391691558],
        [0.178086070794681, 51.56491587927477],
        [0.178632636274713, 51.56493990363902],
        [0.18328816044513, 51.564653717290234],
        [0.183480561210493, 51.564633949495715],
        [0.185133875352293, 51.565501552552846],
        [0.185153090516347, 51.56551108679055],
        [0.185121249350467, 51.564786856624146],
        [0.185146701285598, 51.564745914770924],
        [0.184064349437969, 51.56395941109963],
        [0.18398346732559, 51.563867391230254],
        [0.18364637764472, 51.563035532849185],
        [0.183593726485796, 51.56293039726619],
        [0.182767736236017, 51.56165079855147],
        [0.182618766480826, 51.56131184202272],
        [0.183407541041239, 51.56073061524734],
        [0.183580107747406, 51.5605682300207],
        [0.184156800943748, 51.5603488606239],
        [0.184539840405158, 51.56021313090765],
        [0.18470936371243, 51.55995727499501],
        [0.184766393761747, 51.5598527951573],
        [0.18482133527034, 51.559223171687385],
        [0.184803123277067, 51.55896361745165],
        [0.184582403352879, 51.55872312226056],
        [0.184549228026302, 51.558693164339736],
        [0.184446048208114, 51.55807547814708],
        [0.184401576048953, 51.557960298441216],
        [0.184402254913589, 51.557673413802284],
        [0.184407696535999, 51.55763644178102],
        [0.184675936850057, 51.55742371183809],
        [0.184777968374113, 51.5572950124586],
        [0.184872994802923, 51.5568696792576],
        [0.185019172494024, 51.556819294561855],
        [0.18474588207472, 51.556505138122894],
        [0.184742092683411, 51.556426071571416],
        [0.185669070993051, 51.5563827251615],
        [0.185870318879737, 51.556337608341614],
        [0.18634113722288, 51.55595742961955],
        [0.186454609918386, 51.55588696904411],
        [0.186829393412743, 51.555820630338985],
        [0.186891044584848, 51.55578261034588],
        [0.18746149700081, 51.55522430953024],
        [0.187573802035882, 51.555129588889216],
        [0.187609545181098, 51.555032698747],
        [0.187707534865102, 51.554850114885234],
        [0.187488329295252, 51.554641071824584],
        [0.187531857721534, 51.55452605080222],
        [0.187955477815139, 51.55442552411708],
        [0.188038591114186, 51.55435382960912],
        [0.187827110286045, 51.55415543452629],
        [0.18788402171741, 51.55407883306909],
        [0.188223852757239, 51.55400594735848],
        [0.188506517159284, 51.553854090678215],
        [0.18853524153384, 51.55373125185193],
        [0.188613529169754, 51.553619179055026],
        [0.189506123659082, 51.55319154871593],
        [0.18966574740656, 51.55312112281205],
        [0.190179685403467, 51.55267897167214],
        [0.190189877153824, 51.55265090349966],
        [0.189807138822545, 51.55210049100566],
        [0.189707980062099, 51.55198813256952],
        [0.189618987687724, 51.55151676886494],
        [0.189581292450813, 51.551452723818876],
        [0.189372122127681, 51.551422454988646],
        [0.189205885619494, 51.55138508954647],
        [0.188215968835772, 51.55068592866063],
        [0.187461202686489, 51.55019730432193],
        [0.187237344677083, 51.5496502157678],
        [0.187220145340342, 51.549502154149685],
        [0.185869915073089, 51.54733306264784],
        [0.185784306023046, 51.54723213918929],
        [0.18506684477775, 51.54703866997625],
        [0.184927361902111, 51.54698731091625],
        [0.182772334862972, 51.54589882687753],
        [0.182564657252936, 51.54583884184655],
        [0.180536490070153, 51.54426414064556],
        [0.180364616493816, 51.544108161823104],
        [0.179828647141326, 51.54321434019762],
        [0.179809013166336, 51.54319582004524],
        [0.179631311833355, 51.54258580873506],
        [0.17960352483754, 51.54233632338036],
        [0.179665766967824, 51.54149613229086],
        [0.179658982759607, 51.541354171045185],
        [0.179247586133115, 51.54035011736312],
        [0.179246641713095, 51.540330350598246],
        [0.178189101155511, 51.53962606794707],
        [0.178117195717263, 51.539569848853866],
        [0.176830515950095, 51.53932125081434],
        [0.176479318364653, 51.539214457860425],
        [0.174515970930915, 51.53811147633688],
        [0.173919445724811, 51.53760724258443],
        [0.172406071478238, 51.535655052771936],
        [0.172354563222503, 51.535602948851256],
        [0.171925676786716, 51.53480243277851],
        [0.171917532342687, 51.53478279928569],
        [0.171909225562302, 51.534305431892726],
        [0.171908955246416, 51.53426946543085],
        [0.170805151878911, 51.532678377951115],
        [0.170762249802566, 51.53262521477242],
        [0.168537449355329, 51.53098740156979],
        [0.168481757328472, 51.530938071190754],
        [0.168046738898389, 51.53079503306395],
        [0.167974902713575, 51.530739705862],
        [0.167469643451357, 51.529998139764864],
        [0.167461416475199, 51.52997670891926],
        [0.16690253723261, 51.5297451275374],
        [0.166817782087048, 51.52969093760457],
        [0.166448597224065, 51.52908174619811],
        [0.166446900768611, 51.52907638181419],
        [0.165537307559666, 51.528532924220684],
        [0.165450296466838, 51.528431112779465],
        [0.165195893024897, 51.52790073402887],
        [0.165113997341658, 51.527754762861484],
        [0.16445610668745, 51.52707625371948],
        [0.164443730834909, 51.52705849637885],
        [0.164448128886302, 51.52687765859724],
        [0.164476698877991, 51.526780907669604],
        [0.163998167239181, 51.5261143736791],
        [0.16398281761406, 51.526064296837674],
        [0.164043583087965, 51.52564320873814],
        [0.164017724770721, 51.52558433293054],
        [0.163114241003416, 51.5241639395749],
        [0.162939423211132, 51.52388208980276],
        [0.162259084629183, 51.52227142199202],
        [0.162237423814192, 51.522209770541835],
        [0.162299997569373, 51.52149188510952],
        [0.162238067124796, 51.52131047163403],
        [0.159735049725855, 51.516058891736876],
        [0.159654973913397, 51.51592007754713],
        [0.1590473997847, 51.51410571104591],
        [0.158936858285489, 51.51384065768971],
        [0.158906479972614, 51.513198226236184],
        [0.158914167189635, 51.513055997254334],
        [0.157873408821792, 51.508844002940506],
        [0.15787416184569, 51.50876844887655],
        [0.154669571301323, 51.50908367064556],
        [0.153259547497171, 51.509254355069324],
        [0.151104910818228, 51.50967969252035],
        [0.149939297404926, 51.509899810424336],
        [0.148093458024827, 51.51036529398427],
        [0.146859271888594, 51.51072153004742],
        [0.139042276613454, 51.51376636807937],
        [0.137990149323839, 51.51407422437532],
        [0.133594449163792, 51.51500410241444],
        [0.132695881313066, 51.51520659849384],
        [0.130527091475601, 51.515431271166364],
        [0.129002239416999, 51.515525509982304],
        [0.125280660613949, 51.515431140802455],
        [0.125269139733626, 51.51543134958411],
        [0.123862199905474, 51.515241009781235],
        [0.123372329128921, 51.51515185848958],
        [0.121103473275164, 51.51458859816069],
        [0.120767369766353, 51.51448946057255],
        [0.117692114225022, 51.51341193658205],
        [0.116588580533363, 51.513142289696766],
        [0.108917063944437, 51.511650098709374],
        [0.108187969717265, 51.511559790360195],
        [0.107179487727829, 51.511505073465955],
        [0.106617347450192, 51.51150348207943],
        [0.099706264112953, 51.511899006946145]
      ]
    ]
  }
}
