{
  "type": "Feature",
  "properties": {
    "name": "Barking and Dagenham",
    "level": 2,
    "londonBorough": true,
    "center": [0.134, 51.521]
  },
  "geometry": {
    "type": "Polygon",
    "coordinates": [
      [
        [0.099706264112953, 51.511899006946145],
        [0.099731817124605, 51.51358290093295],
        [0.099797705393905, 51.51448279965995],
        [0.099079494106488, 51.51466112427781],
        [0.09858973502531, 51.51491809039821],
        [0.098083886375229, 51.515201421374],
        [0.097615965611452, 51.51546338831789],
        [0.097067212945471, 51.51562877730497],
        [0.096365808422169, 51.51585984201874],
        [0.095821628602431, 51.51615643810739],
        [0.095571511419722, 51.51632817346127],
        [0.09547975992439, 51.516401755193165],
        [0.095251575831053, 51.51661176694271],
        [0.095127774439837, 51.51674077698723],
        [0.095022364860626, 51.51686226412064],
        [0.094878240491553, 51.51705098933001],
        [0.094729893912681, 51.517430436861304],
        [0.094623382467658, 51.517685036536676],
        [0.094576408019493, 51.51788641464155],
        [0.09456182169205, 51.51813397677786],
        [0.094576111284035, 51.51825692274537],
        [0.094609580278526, 51.518420892986],
        [0.094661813853124, 51.51858542735448],
        [0.094893399725262, 51.51983128811304],
        [0.094941273996915, 51.51999500092721],
        [0.095013427312551, 51.52015378363318],
        [0.095029603501836, 51.52019216364873],
        [0.095049078957948, 51.520302426999685],
        [0.09501456561963, 51.520429841771644],
        [0.094893101040809, 51.52057859380403],
        [0.094819610426144, 51.52064195667163],
        [0.094785128588016, 51.52067584585543],
        [0.094722624062722, 51.52072732181817],
        [0.09461057453388, 51.52079856744986],
        [0.09436421276037, 51.520958542224975],
        [0.093858731871481, 51.52134616379318],
        [0.093051731469568, 51.52198017091414],
        [0.092568533902398, 51.52238267676492],
        [0.092485038443308, 51.52247948989398],
        [0.092427929174197, 51.52274309788042],
        [0.092351309075893, 51.52292701818098],
        [0.092362753695569, 51.52301943961358],
        [0.092392435802171, 51.52325811794718],
        [0.092409073686431, 51.52352670514274],
        [0.092423981662301, 51.52375755352918],
        [0.092515680364756, 51.52390249980274],
        [0.092567003943059, 51.52398431765891],
        [0.09273519011887, 51.52453976820976],
        [0.092827227813874, 51.52481780126547],
        [0.092858558542686, 51.52502947169837],
        [0.092848607590687, 51.52518972065446],
        [0.092736394237468, 51.52554064256069],
        [0.092591861620071, 51.5256898035528],
        [0.092512062295309, 51.52574158680161],
        [0.092353860995981, 51.52581275421969],
        [0.092232617109493, 51.52587247083522],
        [0.092106186478349, 51.52591339501783],
        [0.091877234922971, 51.52595075194674],
        [0.091665485397921, 51.52595452839579],
        [0.091279643117206, 51.52590295570337],
        [0.091159095812434, 51.52588352238655],
        [0.091007105263363, 51.52587004518364],
        [0.090878656330738, 51.525866939437954],
        [0.090776547537747, 51.525872356785534],
        [0.09067608500319, 51.525882241084666],
        [0.0905630697785, 51.52590134181066],
        [0.090458903087747, 51.52592478110248],
        [0.090372227761193, 51.52595240494648],
        [0.090273205375792, 51.525993737927564],
        [0.090188711039916, 51.52603750975128],
        [0.090127058436829, 51.526076378079814],
        [0.089932386676378, 51.526232724142794],
        [0.089849908114227, 51.526289049674226],
        [0.08964329962631, 51.5264051404681],
        [0.089531311176727, 51.526446703815076],
        [0.089401460677243, 51.526475995377076],
        [0.089229095285429, 51.526489857125085],
        [0.08915986938759, 51.5264892916535],
        [0.08881649751037, 51.52648371674119],
        [0.088815057017939, 51.52648374239523],
        [0.088480041587658, 51.52644024805271],
        [0.088086996030478, 51.526388793114194],
        [0.087563406902355, 51.52625692696947],
        [0.086979612742511, 51.526069475356415],
        [0.086814290977682, 51.526016661760536],
        [0.086680742274847, 51.5259650812145],
        [0.086460685800207, 51.525881766220515],
        [0.086325820641696, 51.525832906522545],
        [0.086148809495891, 51.525808177499904],
        [0.085960767588366, 51.52579443571116],
        [0.085592170603792, 51.52580458771291],
        [0.08513339106643, 51.52589188106024],
        [0.084829521015652, 51.52599350539549],
        [0.084565322477808, 51.52611151010729],
        [0.084097709198622, 51.5263527325955],
        [0.083601809622073, 51.52663762093029],
        [0.083163128956085, 51.52681807412884],
        [0.082875216921052, 51.526922107712366],
        [0.082578168407716, 51.52701551149429],
        [0.081950361790969, 51.52719032527789],
        [0.081640596771175, 51.527257873382965],
        [0.081345236071863, 51.527325165054194],
        [0.081026778653746, 51.52742344114508],
        [0.080923013098218, 51.52745585754097],
        [0.080696918490098, 51.52752461646969],
        [0.080553923596646, 51.52758200888819],
        [0.080476947234458, 51.52763283446649],
        [0.080363090185545, 51.52769690400474],
        [0.080135327159951, 51.52785561897546],
        [0.079888500613683, 51.52803895197699],
        [0.079554151911626, 51.52829487898614],
        [0.079291098404022, 51.52850187954516],
        [0.078854758264288, 51.52889270524258],
        [0.078428895804293, 51.52916553854345],
        [0.07824357554259, 51.52924346213293],
        [0.077918885475919, 51.52933194802908],
        [0.077795894645193, 51.52935391089416],
        [0.07770439219531, 51.529370819474934],
        [0.077236199126758, 51.52937911209106],
        [0.076830932909749, 51.52940787123481],
        [0.076498054501103, 51.52947491555872],
        [0.076256382645165, 51.529550236488454],
        [0.076202375715176, 51.52956737942903],
        [0.076143464860909, 51.52960349391637],
        [0.076066398394854, 51.52965251957394],
        [0.075661670305137, 51.529661481085654],
        [0.075571729621132, 51.52968105817775],
        [0.075507474550016, 51.52969478504424],
        [0.075471040520786, 51.52971791161038],
        [0.075487387965555, 51.52982373674959],
        [0.075489564228191, 51.52983988518378],
        [0.075459137735415, 51.529868301089145],
        [0.075386402165352, 51.52988577504511],
        [0.075298034433681, 51.52987654730416],
        [0.075096635705544, 51.52975960775628],
        [0.074784004111701, 51.52970128981385],
        [0.074692061121329, 51.529676837194465],
        [0.074608179146717, 51.52967112668971],
        [0.074552894230977, 51.52969188856741],
        [0.074496914816526, 51.52969737503529],
        [0.074443203870107, 51.52968933223852],
        [0.074254506428638, 51.52962972019055],
        [0.074103528782902, 51.529638684975176],
        [0.073384992790362, 51.52943646219931],
        [0.073165718593801, 51.529370194721075],
        [0.073159874556334, 51.52936849946681],
        [0.073022662259892, 51.5293313565654],
        [0.072926276681846, 51.52930428326567],
        [0.072810171859816, 51.52928745038928],
        [0.072712917299062, 51.52927298211293],
        [0.072716179398573, 51.529566987169034],
        [0.07267938247916, 51.52999479269046],
        [0.072603010606592, 51.53047185828015],
        [0.072566873026695, 51.53078724278272],
        [0.072508558030508, 51.531185752332455],
        [0.072365858766272, 51.53169456491177],
        [0.072206835229822, 51.53225672281264],
        [0.071973952087081, 51.53284356626308],
        [0.071916816453367, 51.53295068982662],
        [0.071724439252106, 51.53290552704727],
        [0.071711215336339, 51.53293183955059],
        [0.071670510776354, 51.533019788028916],
        [0.071458841611074, 51.533343667744155],
        [0.071361962729943, 51.53349645655884],
        [0.071200659676957, 51.53375469862629],
        [0.070421424310075, 51.53491682771419],
        [0.070202996089265, 51.53521924170142],
        [0.070173255910357, 51.53526293169885],
        [0.069789157194813, 51.53579128837314],
        [0.069642748801397, 51.53602858199413],
        [0.069569388063684, 51.536127897121325],
        [0.069478682242641, 51.53625809349711],
        [0.06945705575237, 51.53628994960036],
        [0.069372970570239, 51.536343590880705],
        [0.069172696373793, 51.536347123915604],
        [0.068860585485308, 51.536237522246445],
        [0.068781599622252, 51.5362128364178],
        [0.068705236274836, 51.53621418319924],
        [0.068622198499567, 51.53622733818509],
        [0.068457196955348, 51.53624553558457],
        [0.068300147655765, 51.53624830489339],
        [0.068195431006597, 51.53622856873634],
        [0.068120727226935, 51.53620290769098],
        [0.068062865279547, 51.53616705766561],
        [0.068049531334922, 51.536159199296165],
        [0.06804235763074, 51.53609637667517],
        [0.067993924938907, 51.536141294926786],
        [0.067931572735791, 51.536197249826785],
        [0.068003420282398, 51.53625533516866],
        [0.068057163498525, 51.536295754203174],
        [0.068113584785495, 51.53633162963215],
        [0.068238631691433, 51.53644992740748],
        [0.068283818261788, 51.536651467040876],
        [0.068290417794736, 51.5367970328632],
        [0.06825595123469, 51.536990984230904],
        [0.068887849183326, 51.53718847205377],
        [0.06882150013782, 51.53725169209294],
        [0.068587949217549, 51.53753908190529],
        [0.068468868771469, 51.53767966981687],
        [0.068241866042946, 51.5379525550608],
        [0.067937114315462, 51.53835540649359],
        [0.067626812751443, 51.53873137672729],
        [0.06740012567331, 51.539011448846566],
        [0.0673047596015, 51.53913453136303],
        [0.067174494559833, 51.539314882968085],
        [0.066965744452871, 51.539609026443856],
        [0.066834818198059, 51.53987032378728],
        [0.066779462203262, 51.54008082953741],
        [0.06675272841673, 51.54019101175957],
        [0.066726890180215, 51.54032096218052],
        [0.06666721033001, 51.54053154403714],
        [0.06664905007641, 51.54086279609157],
        [0.066670340085984, 51.54101439797093],
        [0.066696930292327, 51.541187488990786],
        [0.066707595805016, 51.541263739198904],
        [0.066715028976332, 51.5413004783884],
        [0.066731417768053, 51.54137572848616],
        [0.066749247602423, 51.54145095319181],
        [0.066771359746373, 51.54152520317288],
        [0.066796394660718, 51.541600300924806],
        [0.066824230212565, 51.541673550781965],
        [0.06685498856263, 51.541747648405774],
        [0.067048528408562, 51.54216779522542],
        [0.06722399642692, 51.54250732572963],
        [0.067362795611059, 51.54273779105486],
        [0.067699928983571, 51.5432075638229],
        [0.067950310440056, 51.543608721783684],
        [0.068159083454283, 51.54398273536891],
        [0.068269463227508, 51.544254167899346],
        [0.068282458760374, 51.54428631255397],
        [0.06828562614882, 51.544292551610745],
        [0.068327194945008, 51.54441411964485],
        [0.069114787259623, 51.544258145414226],
        [0.069103913060136, 51.544177402750094],
        [0.069367072000333, 51.54412869642522],
        [0.069455765820372, 51.54411274342294],
        [0.069547300935359, 51.544095840954476],
        [0.069597371276774, 51.54408686414491],
        [0.069637435690343, 51.544079862392536],
        [0.069714519242854, 51.544062315488354],
        [0.070351441897795, 51.54392337949145],
        [0.070853594990537, 51.54380210685065],
        [0.071031306615673, 51.54377738696996],
        [0.07111439813647, 51.54376512870039],
        [0.071635334402328, 51.54361294579562],
        [0.071787649049933, 51.54356888927987],
        [0.071821229694666, 51.543609662719675],
        [0.071838428218557, 51.54363903494942],
        [0.07193873772702, 51.54381531917251],
        [0.071977687032946, 51.54381553049021],
        [0.072248972771802, 51.54381883191066],
        [0.072696067191497, 51.54381902645143],
        [0.072697613571471, 51.543757848605956],
        [0.072941559815519, 51.54376253075628],
        [0.073048483584227, 51.54376693614115],
        [0.073220458959108, 51.54377468811305],
        [0.073212373003524, 51.543818895370826],
        [0.07331048721087, 51.54381985912351],
        [0.07343746334652, 51.54382121192279],
        [0.073803204958477, 51.54380845179939],
        [0.074241560304216, 51.54383847093409],
        [0.074458658334777, 51.543855315210024],
        [0.074907796812644, 51.54390042880301],
        [0.075541821367888, 51.544015110657384],
        [0.075805618939435, 51.54413903889489],
        [0.076212114914834, 51.54429281482557],
        [0.076619841003655, 51.5444735457689],
        [0.076708423830067, 51.544550214331636],
        [0.076741477676319, 51.54457930516901],
        [0.076794829374968, 51.544610734464634],
        [0.07681282684835, 51.544594228925895],
        [0.077034273345511, 51.54438977035294],
        [0.077382805251885, 51.544537374376],
        [0.077473952694726, 51.54457532821753],
        [0.077479430478197, 51.544568936296805],
        [0.07761328777088, 51.544404696504685],
        [0.07777016850446, 51.54420767492505],
        [0.077909378564092, 51.54403434723163],
        [0.078069311480314, 51.54412593780829],
        [0.078084786554963, 51.54414904476635],
        [0.07812042841815, 51.5442032690184],
        [0.078230547267002, 51.544277756381106],
        [0.078426475262563, 51.54433633494338],
        [0.078537347617634, 51.544364046472225],
        [0.078773708181365, 51.54442370657798],
        [0.079599349486083, 51.544628495224536],
        [0.080110316615337, 51.54479569328346],
        [0.080763040309791, 51.54500353989004],
        [0.0811784237481, 51.54509868833025],
        [0.081217620133209, 51.545104287841546],
        [0.081399150309507, 51.54513164234998],
        [0.08149347145777, 51.54517583169398],
        [0.081500840945926, 51.545179298022965],
        [0.081577459081617, 51.545214808688705],
        [0.081592198084278, 51.54522174133531],
        [0.08167721122731, 51.54528318189533],
        [0.081708411929639, 51.54533478607166],
        [0.081616123968886, 51.54542994818427],
        [0.081583875345983, 51.54548177901003],
        [0.081601444327082, 51.545550711296265],
        [0.081652328404063, 51.545591174926386],
        [0.081682960682768, 51.54559872480361],
        [0.081700458987208, 51.54560291065186],
        [0.081794786920477, 51.545615625072344],
        [0.081941861444784, 51.545614813469236],
        [0.082154190548286, 51.54565331076046],
        [0.082322209851102, 51.545732162248356],
        [0.082490393855498, 51.54581460766795],
        [0.082734332093052, 51.54594516793384],
        [0.082826343718663, 51.546033461619984],
        [0.082943972212032, 51.546082631622944],
        [0.083150781528898, 51.54615809534667],
        [0.083266723287512, 51.54620189934171],
        [0.083363643348162, 51.54623974613216],
        [0.083935288486113, 51.54644002243566],
        [0.084119703877716, 51.546498796088635],
        [0.084314573508372, 51.54659695173945],
        [0.084869464227868, 51.54684068635213],
        [0.085190945670323, 51.54699504306132],
        [0.085698531683835, 51.5472764848579],
        [0.085989099645527, 51.54738552607593],
        [0.086259042980002, 51.54745356679036],
        [0.086668491686653, 51.54751283056051],
        [0.087653783882554, 51.54764278113433],
        [0.088010860387305, 51.54769218096496],
        [0.08821970449653, 51.54771724027698],
        [0.088473183756543, 51.54774060530564],
        [0.088969148788075, 51.547799220050784],
        [0.089537708613765, 51.54786823021414],
        [0.089734819069047, 51.54788899946889],
        [0.089933617945896, 51.54791513395738],
        [0.09009601716827, 51.547933823181474],
        [0.090175775658282, 51.547943193386914],
        [0.090390839294749, 51.54794655544905],
        [0.090488509761743, 51.547969095370085],
        [0.09053627487873, 51.54800421513485],
        [0.090636211881281, 51.54810764921391],
        [0.090742612964551, 51.54816330647491],
        [0.090845802361215, 51.54821182669055],
        [0.091379451971571, 51.54827425598732],
        [0.091490999643822, 51.548284857113],
        [0.091578007410514, 51.54832647099511],
        [0.091605433665783, 51.54838983046237],
        [0.091591929863869, 51.54844132986133],
        [0.091490850894964, 51.5486904324205],
        [0.091521655472129, 51.548795997558045],
        [0.091588531356764, 51.54890181882997],
        [0.091639925288699, 51.549016009575666],
        [0.091686006666141, 51.54910871244468],
        [0.09183981076804, 51.54925435018889],
        [0.092008687569379, 51.549414107328644],
        [0.092596594988723, 51.54965272059294],
        [0.09253218572175, 51.54953786314518],
        [0.092421361741811, 51.549291640247674],
        [0.092253335562753, 51.548898956501866],
        [0.092225452834942, 51.54879423870958],
        [0.092238167421299, 51.548631243305],
        [0.092295641074641, 51.54846924814301],
        [0.092326931195279, 51.54839674811443],
        [0.092595359350874, 51.54770851160205],
        [0.092837144614919, 51.54709988583729],
        [0.092872919191283, 51.546999428119975],
        [0.093003501743932, 51.54663918705575],
        [0.093153600376223, 51.54629568380215],
        [0.09323247608437, 51.546097335208565],
        [0.093289914167541, 51.546091813894144],
        [0.093325277025225, 51.54601384522767],
        [0.093502272545335, 51.54584791790302],
        [0.093831555708504, 51.54598322708075],
        [0.094136834095347, 51.54609828055176],
        [0.094375242036955, 51.5461704626757],
        [0.095069555351521, 51.546402667293634],
        [0.095632316548431, 51.54659675064099],
        [0.096355841474128, 51.54686799396023],
        [0.096425185508214, 51.546901826448966],
        [0.096578124684567, 51.54699711412989],
        [0.097094204580365, 51.54717943497969],
        [0.0974926826655, 51.54731349697556],
        [0.097816022380562, 51.54747587960288],
        [0.097960396462949, 51.547541642592904],
        [0.098141585223905, 51.54762383318492],
        [0.098426915838458, 51.547743728753005],
        [0.098845018839405, 51.547959269189285],
        [0.099460137618542, 51.54828728886188],
        [0.099574045127786, 51.54834909876425],
        [0.099739180175204, 51.548427077866116],
        [0.100014672871788, 51.548521066723225],
        [0.100272913908307, 51.54861626308479],
        [0.100713828971477, 51.548763043589744],
        [0.101314395603262, 51.54893124322523],
        [0.102224858003681, 51.5492197853556],
        [0.102515444253732, 51.54935936095867],
        [0.102631578020919, 51.549406739616444],
        [0.103191340934942, 51.54953429439423],
        [0.103629133256991, 51.54964424972094],
        [0.104013229616862, 51.54974707301934],
        [0.104225149478736, 51.54980712051457],
        [0.104434985573763, 51.54991576589721],
        [0.104573363083931, 51.54997623275142],
        [0.104781427747772, 51.55007771509611],
        [0.105076641241977, 51.55022349632846],
        [0.105266096612127, 51.55032800958371],
        [0.105428708779716, 51.55044469489182],
        [0.105735572951641, 51.55068648789066],
        [0.106009393562176, 51.55086862183799],
        [0.106182294416216, 51.55095814313756],
        [0.106572017016264, 51.551307258695054],
        [0.107190968338359, 51.551809628986604],
        [0.107308828050975, 51.55192531702455],
        [0.107384991204248, 51.551981502509776],
        [0.107429184835915, 51.55200139195343],
        [0.107573574548733, 51.55203566831232],
        [0.107759068077832, 51.55208539295001],
        [0.108000788232806, 51.552072056931536],
        [0.108087099017099, 51.552066908863466],
        [0.108124572361776, 51.55206623546506],
        [0.10826985104376, 51.55205732975341],
        [0.108401932363518, 51.552698837501495],
        [0.109814989246386, 51.552592497978694],
        [0.111105237914919, 51.552482056515416],
        [0.111911262512037, 51.55266179252959],
        [0.112353872231008, 51.55299914574201],
        [0.112327181109858, 51.55348163841959],
        [0.112358614555102, 51.55350625216317],
        [0.112358864338883, 51.5535116433229],
        [0.112710150031747, 51.55377689892635],
        [0.114716035974258, 51.55531718908871],
        [0.114727983806929, 51.555325966479614],
        [0.114181395936946, 51.555609198011545],
        [0.114160233466395, 51.55561947142462],
        [0.114105812684664, 51.55581469579094],
        [0.114104704637039, 51.55582190996793],
        [0.112724725161562, 51.55651942841775],
        [0.113140183852019, 51.556830289433876],
        [0.113328691636732, 51.557317898451416],
        [0.117152164451544, 51.55689284714454],
        [0.117133314520567, 51.557387789323016],
        [0.117996048073204, 51.55738840397012],
        [0.118077731218581, 51.55734556254405],
        [0.118937664434195, 51.557348019367794],
        [0.120487754542182, 51.558541229608025],
        [0.118908205671717, 51.55879368874312],
        [0.118237618761051, 51.558923603648616],
        [0.117821379240635, 51.55903183725754],
        [0.117479781051489, 51.559163002652035],
        [0.11869971103898, 51.560950321481506],
        [0.119751068992103, 51.56249247346344],
        [0.118873360029812, 51.56273044965631],
        [0.119033186978317, 51.56306479146066],
        [0.119310646199376, 51.56313621820356],
        [0.119500982043046, 51.5631957291287],
        [0.119639816770451, 51.56323368832305],
        [0.11995248270744, 51.56328649196156],
        [0.124730343152379, 51.5641973587195],
        [0.124989544718805, 51.56434104487872],
        [0.125320311063558, 51.56450321817365],
        [0.12550970459965, 51.56460410321023],
        [0.125699710909629, 51.56474904139046],
        [0.125979253196881, 51.56492652935765],
        [0.126439955436299, 51.565151992125585],
        [0.126649563547717, 51.56528398364304],
        [0.126879240801026, 51.56547496322647],
        [0.127067881518702, 51.5656522979356],
        [0.127288377626626, 51.56589380266993],
        [0.127452402351053, 51.56603830986573],
        [0.127621665009383, 51.56614045585089],
        [0.127956611069539, 51.5662989489116],
        [0.128209552367529, 51.56636990019505],
        [0.128451898809512, 51.56643025182518],
        [0.128605728148814, 51.56644904366395],
        [0.128763756844985, 51.56646506127785],
        [0.129302525283882, 51.56647686716562],
        [0.129316620067847, 51.56653146724215],
        [0.129344221952851, 51.56662808818135],
        [0.129379495076223, 51.56664183642759],
        [0.129494776020592, 51.56685467122566],
        [0.129637800690583, 51.56741412311874],
        [0.129729932968404, 51.56771820480202],
        [0.129724907877531, 51.56776505840279],
        [0.12971830107577, 51.567839818289194],
        [0.129677134013676, 51.56810135576049],
        [0.129653267833714, 51.568177328201386],
        [0.129600887911923, 51.56838421329044],
        [0.129615277559383, 51.568630353864236],
        [0.129686303239478, 51.568822409090416],
        [0.129808254449462, 51.56902343188754],
        [0.130048421894781, 51.56934550930889],
        [0.130207892966841, 51.56966995067555],
        [0.130367996525435, 51.57000786948674],
        [0.130443830482806, 51.57027177905564],
        [0.130457759888844, 51.57032278487878],
        [0.130437018026384, 51.57052729724185],
        [0.130424715330128, 51.57063453451553],
        [0.13038673822321, 51.57068648283768],
        [0.130358447357907, 51.5706986871149],
        [0.130303223413116, 51.570721272442995],
        [0.130090402732499, 51.5706756761724],
        [0.130026206147318, 51.570753280118154],
        [0.129989334309948, 51.57079801403157],
        [0.129977268802197, 51.570941217989684],
        [0.129994769162017, 51.571161222961685],
        [0.129989212590897, 51.57125844566427],
        [0.129926512666228, 51.571306346258226],
        [0.129908413592012, 51.57147483945774],
        [0.129902744570699, 51.57153879097454],
        [0.130780306517793, 51.57169641749493],
        [0.131558565000432, 51.57182886330476],
        [0.131555933447849, 51.571834306770654],
        [0.131216054036648, 51.57258957802895],
        [0.131177151612314, 51.572621759319325],
        [0.131029303466359, 51.57294728484563],
        [0.130905908172708, 51.57320941673602],
        [0.130853930491466, 51.573270612209136],
        [0.130886845589913, 51.573357244208495],
        [0.130839164603109, 51.5733868869785],
        [0.13058192285635, 51.573255767752],
        [0.130074276479188, 51.573077935444864],
        [0.130058107598661, 51.57310250943039],
        [0.129803140940529, 51.57348303519982],
        [0.12962977274222, 51.57366423866592],
        [0.129426584060139, 51.57394850050611],
        [0.129418478299654, 51.57396033819978],
        [0.129371271322475, 51.57415453921543],
        [0.129366679386716, 51.57417980227087],
        [0.129349823474397, 51.57431320097786],
        [0.129356962934446, 51.5744659482772],
        [0.129347037124778, 51.574469725513566],
        [0.129307249877378, 51.57448303742365],
        [0.12927182936603, 51.57477504552451],
        [0.129284847837485, 51.575146210096854],
        [0.129278140202139, 51.575620250033495],
        [0.129237959452366, 51.57574867631546],
        [0.129193885625119, 51.57604084135814],
        [0.12917237981687, 51.5763218055415],
        [0.129820230768826, 51.576503391948606],
        [0.131611196520708, 51.5770868730288],
        [0.131384945345581, 51.57734098170077],
        [0.131381783664265, 51.57739679421699],
        [0.131374119026035, 51.577572292174544],
        [0.13129705397769, 51.57777602900853],
        [0.131180412441052, 51.5780901962226],
        [0.131088604880848, 51.57834905645895],
        [0.130974130155104, 51.57864789638693],
        [0.131075610922671, 51.57868831926986],
        [0.130854632254882, 51.57908621506817],
        [0.130821127328529, 51.579079629315245],
        [0.130682823402808, 51.57905426327939],
        [0.13079967271849, 51.57936149207397],
        [0.1308302515676, 51.57936723169618],
        [0.133532596990137, 51.579961108273004],
        [0.133462389548651, 51.580218678332656],
        [0.133350507593045, 51.58041855313428],
        [0.133185926607651, 51.580664349653915],
        [0.133029805708644, 51.58062851895453],
        [0.133023952901186, 51.58062682679871],
        [0.133010541155778, 51.58064865321026],
        [0.132879781769558, 51.580846172860994],
        [0.132860937817741, 51.58087529219798],
        [0.132938424785, 51.58089636557574],
        [0.132759020693665, 51.58107228743077],
        [0.132613680681412, 51.58123589931636],
        [0.132588815245955, 51.581259732393704],
        [0.132535010163862, 51.58131286822822],
        [0.132143240594085, 51.58133077894734],
        [0.131725637481527, 51.58135185550715],
        [0.129225848533479, 51.58151055168105],
        [0.127754680485285, 51.5816271655253],
        [0.127744282066249, 51.58189893497868],
        [0.12777398677209, 51.582133106968584],
        [0.127953784377678, 51.58224315507222],
        [0.127973874058881, 51.582364192796554],
        [0.128057454292262, 51.58285547941576],
        [0.128003051801188, 51.58298865936301],
        [0.127630852454939, 51.58388928729492],
        [0.127220125603683, 51.58393450335033],
        [0.127356043197865, 51.584433834260594],
        [0.126374616531949, 51.58672498707382],
        [0.126466953866859, 51.586754788392284],
        [0.128505733683318, 51.58707303800239],
        [0.129485650818159, 51.58725220029945],
        [0.129713056709353, 51.58729933191168],
        [0.129877852424502, 51.587335009675634],
        [0.130186242506757, 51.58738516680963],
        [0.13100383936338, 51.587519601483905],
        [0.130616403742958, 51.58809407866373],
        [0.130437133994321, 51.58836621640398],
        [0.130197085949051, 51.588697010703655],
        [0.130012924355959, 51.58898812129046],
        [0.129842472013875, 51.58935632028169],
        [0.1297322338749, 51.589592132216225],
        [0.129555966378281, 51.59005216217688],
        [0.130553313030729, 51.59050977448275],
        [0.132083987554787, 51.59125714786077],
        [0.133175126777598, 51.59177418462984],
        [0.135721449911145, 51.592995846392846],
        [0.136750303960439, 51.593506789669604],
        [0.137387455591098, 51.59379284627506],
        [0.137449807295085, 51.5938600554439],
        [0.137560286930685, 51.59387602858067],
        [0.137666338301969, 51.59395143437598],
        [0.138814328709136, 51.59466162695886],
        [0.140550786696668, 51.59572618145782],
        [0.141246141010775, 51.59614334906061],
        [0.141898989300255, 51.59657747535554],
        [0.141940694394949, 51.596604591665404],
        [0.142810619865895, 51.59714086503757],
        [0.145631614971563, 51.598847403474785],
        [0.146563321720423, 51.59943647632379],
        [0.14755929413552, 51.599152968626726],
        [0.148022458743341, 51.599023089871395],
        [0.148121668929963, 51.59898350438169],
        [0.148179760710605, 51.59895995915725],
        [0.148112895307111, 51.59867521367361],
        [0.148131992859762, 51.5985903322559],
        [0.14798892468976, 51.59815950042945],
        [0.147921302065264, 51.597766855673214],
        [0.147773788506792, 51.597211105687954],
        [0.147657756115328, 51.59680226049456],
        [0.147657586548507, 51.59679866649718],
        [0.148085123923037, 51.596771057386185],
        [0.148152801716444, 51.59676712073603],
        [0.148070625364857, 51.596402619929],
        [0.148059637531281, 51.59635336091491],
        [0.149767773460233, 51.59705679027417],
        [0.149814872366956, 51.59707571152984],
        [0.150067505860806, 51.596738351304936],
        [0.150478484399099, 51.59623801788449],
        [0.150835611487418, 51.59578992864649],
        [0.151130829612861, 51.59543739705039],
        [0.150975813436862, 51.59472351566457],
        [0.150857327655031, 51.59377425346328],
        [0.150742890334994, 51.59339955423979],
        [0.150703330301722, 51.59256215398531],
        [0.150572251096784, 51.591284886245965],
        [0.150725530274249, 51.5909844166159],
        [0.150925131750315, 51.590503242416474],
        [0.151081458327152, 51.590114587299176],
        [0.151147377686051, 51.5897986321283],
        [0.151153520852133, 51.589500858971114],
        [0.151199243351967, 51.589124123164446],
        [0.151197800937549, 51.58912414960703],
        [0.151153914778694, 51.588409129888845],
        [0.151109987885935, 51.58769321155808],
        [0.151065162434555, 51.586591519812416],
        [0.150987627908201, 51.58522514072971],
        [0.150944083353642, 51.584180978838],
        [0.15092829501808, 51.583755010814656],
        [0.15079161574942, 51.5834283806605],
        [0.150625626920456, 51.5830618200583],
        [0.150434021891698, 51.582886375484826],
        [0.149992406827049, 51.58258241872247],
        [0.149659767805672, 51.58235470105179],
        [0.149008165877729, 51.58157707116976],
        [0.148543042802293, 51.58095789323104],
        [0.148383225712534, 51.58075218714659],
        [0.147448327669365, 51.58079178279393],
        [0.147317722224537, 51.57952169559587],
        [0.147232402032843, 51.57792614014895],
        [0.147188743073458, 51.577520465619024],
        [0.147157716247569, 51.57722966743615],
        [0.147032234420654, 51.576374052682056],
        [0.146983595504843, 51.57567890166654],
        [0.148035947047188, 51.57577564760824],
        [0.148111022807525, 51.57562319445074],
        [0.148183433037891, 51.575322409160776],
        [0.148204898881516, 51.575196117219484],
        [0.148184250833795, 51.575064301377836],
        [0.148089230122425, 51.5746101070281],
        [0.14801748350849, 51.57437401109919],
        [0.148019457100832, 51.57392613442397],
        [0.148036093332593, 51.57369741318236],
        [0.148035434146039, 51.57331613125609],
        [0.147915680137325, 51.573133072269634],
        [0.147896172800469, 51.57311724237104],
        [0.148960892009399, 51.57323263809889],
        [0.149185821674401, 51.57194344911671],
        [0.149262634629533, 51.57146092796174],
        [0.14912748234644, 51.57144092168094],
        [0.149261260142881, 51.57048343709668],
        [0.149290313999163, 51.5702733728938],
        [0.149473385295875, 51.57014681790144],
        [0.149658913698, 51.57010295125963],
        [0.149701917295687, 51.56988273927263],
        [0.149752298598317, 51.569696564683014],
        [0.148169632732117, 51.56955109274124],
        [0.146642272511841, 51.56941537896839],
        [0.146712173643303, 51.56921446015202],
        [0.146822147749613, 51.56900651308903],
        [0.146759433986779, 51.568961797386734],
        [0.146748584571679, 51.568884657931484],
        [0.146760467457253, 51.56876933282783],
        [0.146939713151045, 51.56877594502825],
        [0.147112514375427, 51.5687682864308],
        [0.147238630528009, 51.568719215888905],
        [0.147308390321422, 51.56866847882497],
        [0.147371326397921, 51.568564809157934],
        [0.148749143020537, 51.56862051849362],
        [0.148924832083345, 51.5684599268883],
        [0.149329975948752, 51.56811617520661],
        [0.149421400368885, 51.568096514745164],
        [0.149577575667261, 51.56810354554988],
        [0.149762119735876, 51.568100164274774],
        [0.149800792653226, 51.56809405998498],
        [0.149864950750029, 51.56807759662332],
        [0.149919907200325, 51.5680496112113],
        [0.149957350643226, 51.56801745029994],
        [0.149990638720997, 51.56795838714505],
        [0.150058189403396, 51.567891501865255],
        [0.150240570218791, 51.56784229622797],
        [0.150359344357832, 51.56782123450077],
        [0.150578743357376, 51.56779203327426],
        [0.150755695666698, 51.56778069606887],
        [0.150836517887623, 51.56778101299668],
        [0.150909114052534, 51.567821048971766],
        [0.150982007238167, 51.5678673744131],
        [0.151136190859041, 51.568015626524826],
        [0.15119776223488, 51.5680360803137],
        [0.151259036731624, 51.56805024455798],
        [0.151436582517633, 51.56799033435757],
        [0.151762455152953, 51.567832380003956],
        [0.152358939824666, 51.56747701472557],
        [0.15257862601999, 51.56730122187369],
        [0.153175562612481, 51.5669251605943],
        [0.153638203290734, 51.566608216093236],
        [0.154054788434945, 51.56629391385708],
        [0.154275609265311, 51.56614237744233],
        [0.154653011161285, 51.5658845478466],
        [0.154784152685599, 51.56578951347494],
        [0.155097268780042, 51.56554545299802],
        [0.155217767473242, 51.56546949850829],
        [0.155460842778066, 51.56533104017626],
        [0.155583419453786, 51.56526853632918],
        [0.155817173103033, 51.5652075866254],
        [0.155942380798676, 51.56517021390341],
        [0.156195083696642, 51.56508283608568],
        [0.156316812236382, 51.56503293697287],
        [0.156523585670529, 51.56488974791187],
        [0.1566927901834, 51.56474545053922],
        [0.157075810099918, 51.564515387345985],
        [0.157651100779661, 51.56420175098233],
        [0.157912430014352, 51.56402248409613],
        [0.15798259615103, 51.56398072585102],
        [0.158184809868392, 51.56401567526237],
        [0.158473824345417, 51.563842192774636],
        [0.158694825982808, 51.56366456532459],
        [0.158902139054424, 51.56353305267107],
        [0.159141506513052, 51.56340814396946],
        [0.159461802679851, 51.563225090459284],
        [0.159767942046243, 51.563078267918264],
        [0.159933978501473, 51.56286747721975],
        [0.159974244951426, 51.56280378618848],
        [0.160060829287873, 51.56262143650096],
        [0.160196402617443, 51.56252901213526],
        [0.160479768144872, 51.56238890197507],
        [0.160529485429995, 51.562311547477236],
        [0.160579159955681, 51.56223329446232],
        [0.160677407720896, 51.56208400289767],
        [0.16071009480649, 51.562073508793496],
        [0.160972989887238, 51.561988630588175],
        [0.161330812805057, 51.561897506583435],
        [0.161477580072281, 51.56182825579279],
        [0.161652197532931, 51.561737808185164],
        [0.161778100426879, 51.561654552938016],
        [0.161869584048071, 51.56160610451987],
        [0.162410589779751, 51.561787680961146],
        [0.162726233736107, 51.56190236635178],
        [0.162995784194701, 51.561988224433875],
        [0.163388856594752, 51.56212306325229],
        [0.163808860360834, 51.56227808753448],
        [0.164382415801991, 51.56250671656232],
        [0.164878668129194, 51.56268730879924],
        [0.165292745033794, 51.56283884006169],
        [0.16565216288954, 51.562963501123086],
        [0.165783760732447, 51.56306089213137],
        [0.166073890088596, 51.563154456846036],
        [0.166340538756763, 51.563270037200255],
        [0.166553786054855, 51.56332455266965],
        [0.166719792499872, 51.56335655889658],
        [0.167160352268075, 51.56342755841452],
        [0.167556756976738, 51.563449911563694],
        [0.167797556126852, 51.563476937275496],
        [0.167938244878907, 51.56349232323248],
        [0.1683210467981, 51.563532011531606],
        [0.168493505557373, 51.56357828452426],
        [0.168597012771907, 51.563600651914186],
        [0.168802256027842, 51.56366880050596],
        [0.168979052862933, 51.56374556819692],
        [0.169154250057268, 51.56384934367273],
        [0.169418283871091, 51.56397036113677],
        [0.169647237274289, 51.564051559064666],
        [0.169912017725374, 51.564127597498945],
        [0.170027829799856, 51.56416592313476],
        [0.170136562383466, 51.56420707745817],
        [0.170353100000348, 51.56430019435488],
        [0.17057980198488, 51.56436434576205],
        [0.171227966932592, 51.56461314402629],
        [0.171431049173659, 51.5646660402528],
        [0.171867360690168, 51.56476857572601],
        [0.172099148373303, 51.56481824155075],
        [0.172546452358255, 51.56484862837952],
        [0.172853876274126, 51.56488070497311],
        [0.173042774515412, 51.56496893315068],
        [0.173388027763451, 51.565098329488315],
        [0.17379091345972, 51.565074678184665],
        [0.174625296203472, 51.56493151708912],
        [0.175391848190844, 51.56481838483365],
        [0.175553421805897, 51.5647875109993],
        [0.176015221170755, 51.564728586770656],
        [0.176272798921817, 51.56471391691558],
        [0.176734752482858, 51.56477908807709],
        [0.176936382285804, 51.56480142612924],
        [0.177419403847483, 51.564854512992106],
        [0.178086070794681, 51.56491587927477],
        [0.178632636274713, 51.56493990363902],
        [0.17902056165757, 51.56493539710055],
        [0.179465874611756, 51.564893851854436],
        [0.18017353817763, 51.564877106283156],
        [0.180311784745454, 51.56484126365376],
        [0.180510728041521, 51.564837566268366],
        [0.181106312675535, 51.564740163981945],
        [0.181380133333487, 51.564733274475635],
        [0.181446253213874, 51.56475812429765],
        [0.181562291321768, 51.56480093082942],
        [0.181831529297488, 51.56478872978157],
        [0.181874003434734, 51.5647717527598],
        [0.182643975917386, 51.564730452055464],
        [0.183094533100317, 51.564678004012926],
        [0.18328816044513, 51.564653717290234],
        [0.183480561210493, 51.564633949495715],
        [0.183618376301832, 51.56470962222036],
        [0.183810521816464, 51.564804967022006],
        [0.184281099217896, 51.56504980486109],
        [0.185133875352293, 51.565501552552846],
        [0.185153090516347, 51.56551108679055],
        [0.185084522206301, 51.56522459289396],
        [0.1850638759797, 51.565004652751895],
        [0.185074047108704, 51.56488575777392],
        [0.185079575031064, 51.56485058272431],
        [0.185103800831232, 51.56481416014015],
        [0.185121249350467, 51.564786856624146],
        [0.185146701285598, 51.564745914770924],
        [0.185011206786034, 51.56465850990781],
        [0.184766016058345, 51.56444994577389],
        [0.184617569040456, 51.564333105282614],
        [0.184450209789083, 51.56421301961019],
        [0.184180711815873, 51.56403907967169],
        [0.184064349437969, 51.56395941109963],
        [0.18398346732559, 51.563867391230254],
        [0.18394396082691, 51.56376560824439],
        [0.183833726637483, 51.5634825870892],
        [0.18364637764472, 51.563035532849185],
        [0.183593726485796, 51.56293039726619],
        [0.183542690391256, 51.56288908079782],
        [0.183510243388922, 51.562814144805586],
        [0.183439175996667, 51.56274622257696],
        [0.183442166239932, 51.5627182891057],
        [0.183359114365769, 51.562611021358435],
        [0.183178724401364, 51.56227894527572],
        [0.182767736236017, 51.56165079855147],
        [0.182618766480826, 51.56131184202272],
        [0.182698027759646, 51.56127979170404],
        [0.182767822365454, 51.56117057899119],
        [0.182852526508847, 51.561101556626795],
        [0.182941597915606, 51.561033352220484],
        [0.18313307938607, 51.560934464936146],
        [0.183407541041239, 51.56073061524734],
        [0.183580107747406, 51.5605682300207],
        [0.184145441385437, 51.56035266925258],
        [0.184156800943748, 51.5603488606239],
        [0.184539840405158, 51.56021313090765],
        [0.184562579756658, 51.56017583679084],
        [0.184603711242656, 51.560070753805306],
        [0.18470936371243, 51.55995727499501],
        [0.184766393761747, 51.5598527951573],
        [0.184760088320678, 51.55981154547165],
        [0.184711826264138, 51.55967755148884],
        [0.184703474059044, 51.559563497825295],
        [0.184740323443079, 51.55945939380512],
        [0.184719623952132, 51.559388735765324],
        [0.184757549816961, 51.55930709381668],
        [0.18482133527034, 51.559223171687385],
        [0.184803123277067, 51.55896361745165],
        [0.1847738817749, 51.558865240658804],
        [0.184582403352879, 51.55872312226056],
        [0.184549228026302, 51.558693164339736],
        [0.184580610609476, 51.55853520504215],
        [0.184582480362145, 51.558483910968164],
        [0.184547152192552, 51.5584090288765],
        [0.184570597807175, 51.55829618163228],
        [0.184514292457712, 51.55817492732544],
        [0.184446048208114, 51.55807547814708],
        [0.184401576048953, 51.557960298441216],
        [0.184450236999144, 51.55789194595912],
        [0.184417146464823, 51.55780353288118],
        [0.184407700558106, 51.557756945933356],
        [0.184402254913589, 51.557673413802284],
        [0.184407696535999, 51.55763644178102],
        [0.184510676564852, 51.557527509262144],
        [0.184675936850057, 51.55742371183809],
        [0.184777968374113, 51.5572950124586],
        [0.184828649539222, 51.557208636472446],
        [0.184777639198136, 51.55713764364554],
        [0.184752766205828, 51.55704008475753],
        [0.184872994802923, 51.5568696792576],
        [0.185019172494024, 51.556819294561855],
        [0.18501351055869, 51.55673127004189],
        [0.18493337192867, 51.55665452481073],
        [0.184792311672475, 51.55663107268974],
        [0.184734614434382, 51.55663124792995],
        [0.18474588207472, 51.556505138122894],
        [0.184742092683411, 51.556426071571416],
        [0.184927099333581, 51.5563731652746],
        [0.185448094457018, 51.55640752559877],
        [0.185669070993051, 51.5563827251615],
        [0.185870318879737, 51.556337608341614],
        [0.185955459886339, 51.55624789188142],
        [0.186228812589374, 51.55614207797528],
        [0.18634113722288, 51.55595742961955],
        [0.186454609918386, 51.55588696904411],
        [0.186829393412743, 51.555820630338985],
        [0.186891044584848, 51.55578261034588],
        [0.186943918397868, 51.55574205609195],
        [0.186960020977404, 51.55562664730846],
        [0.187002263834103, 51.555544924060044],
        [0.187176700809743, 51.55548231906576],
        [0.187367953007806, 51.555349255966924],
        [0.18746149700081, 51.55522430953024],
        [0.187573802035882, 51.555129588889216],
        [0.187609545181098, 51.555032698747],
        [0.187707534865102, 51.554850114885234],
        [0.18765918983424, 51.554774577139284],
        [0.18755401250528, 51.55471718561103],
        [0.187488329295252, 51.554641071824584],
        [0.187531857721534, 51.55452605080222],
        [0.187613616821069, 51.55445618042718],
        [0.187790851485557, 51.554451975903625],
        [0.187955477815139, 51.55442552411708],
        [0.188038591114186, 51.55435382960912],
        [0.187980649752021, 51.554258686682125],
        [0.187882273206238, 51.554222751474505],
        [0.187827110286045, 51.55415543452629],
        [0.18788402171741, 51.55407883306909],
        [0.188028875206779, 51.554031167070946],
        [0.188223852757239, 51.55400594735848],
        [0.188506517159284, 51.553854090678215],
        [0.18853524153384, 51.55373125185193],
        [0.188613529169754, 51.553619179055026],
        [0.188762204320189, 51.55353097294326],
        [0.188918412586376, 51.553479496818504],
        [0.188990190762227, 51.55344218599606],
        [0.189057386226087, 51.55339956492631],
        [0.189171124762388, 51.55330481592572],
        [0.189237353205066, 51.55327210494728],
        [0.189309475962335, 51.55324198178573],
        [0.189506123659082, 51.55319154871593],
        [0.18966574740656, 51.55312112281205],
        [0.189930095825583, 51.552828416485916],
        [0.190073907310659, 51.55275918448142],
        [0.190179685403467, 51.55267897167214],
        [0.190189877153824, 51.55265090349966],
        [0.190123425128716, 51.55261887056063],
        [0.19006587948628, 51.55259206702834],
        [0.189989804649451, 51.55250985361002],
        [0.189995059421728, 51.552409035396416],
        [0.189979748776817, 51.5523005075316],
        [0.189909266810262, 51.55221459250313],
        [0.189807138822545, 51.55210049100566],
        [0.189707980062099, 51.55198813256952],
        [0.189676350877096, 51.551780088440935],
        [0.189647569931765, 51.55163134406265],
        [0.189618987687724, 51.55151676886494],
        [0.189581292450813, 51.551452723818876],
        [0.189372122127681, 51.551422454988646],
        [0.189205885619494, 51.55138508954647],
        [0.189122565348439, 51.55130211150443],
        [0.188902731589555, 51.55113984568703],
        [0.18846892680696, 51.55087725424542],
        [0.188215968835772, 51.55068592866063],
        [0.187461202686489, 51.55019730432193],
        [0.187462503027442, 51.550074077797255],
        [0.18744040599561, 51.55000434548833],
        [0.187412372058481, 51.549931126734684],
        [0.187278606956051, 51.549728583628024],
        [0.187237344677083, 51.5496502157678],
        [0.187220145340342, 51.549502154149685],
        [0.187181038299648, 51.54946871042058],
        [0.18704188520547, 51.5493642897617],
        [0.186925996127837, 51.54914342723966],
        [0.186815312461678, 51.548910776835406],
        [0.186744884924638, 51.548825758210626],
        [0.186739589740858, 51.548775496862326],
        [0.186694843863269, 51.54868460373742],
        [0.186683157261763, 51.548591295764055],
        [0.186568196064667, 51.54835962415025],
        [0.186485073540535, 51.54819030904795],
        [0.186347895118111, 51.547946461319555],
        [0.186283731741529, 51.547901793575114],
        [0.186160241568571, 51.54776290706903],
        [0.186035890695217, 51.547606050738395],
        [0.186012207191099, 51.54756332632835],
        [0.185995020219971, 51.54753576872426],
        [0.185869915073089, 51.54733306264784],
        [0.185784306023046, 51.54723213918929],
        [0.185564702479241, 51.54716428805872],
        [0.185414508389269, 51.54713021559116],
        [0.18533286209995, 51.54711195236709],
        [0.18506684477775, 51.54703866997625],
        [0.184927361902111, 51.54698731091625],
        [0.184457616107022, 51.54675595009426],
        [0.184175319167826, 51.54661372378889],
        [0.183844523233329, 51.546452615432976],
        [0.183654134108934, 51.54639231044496],
        [0.183555756299381, 51.546325795981794],
        [0.183191885592931, 51.54613652431034],
        [0.182879119939589, 51.54599036556234],
        [0.182772334862972, 51.54589882687753],
        [0.182564657252936, 51.54583884184655],
        [0.18256928220772, 51.54578479859678],
        [0.182417589853424, 51.5457192751755],
        [0.181766137073411, 51.5453069305147],
        [0.181670947239145, 51.54524665020443],
        [0.181536187996897, 51.54508278848648],
        [0.181368805262731, 51.54487007253794],
        [0.181211680130787, 51.54472101496025],
        [0.181070103062959, 51.54462562527169],
        [0.180836803098664, 51.54445190424851],
        [0.180536490070153, 51.54426414064556],
        [0.180364616493816, 51.544108161823104],
        [0.180230103661178, 51.54391911402826],
        [0.180079245442904, 51.54375015417388],
        [0.180020508099618, 51.54348685557943],
        [0.180016552508237, 51.54346444693022],
        [0.179999246297085, 51.54337394062212],
        [0.179828647141326, 51.54321434019762],
        [0.179809013166336, 51.54319582004524],
        [0.179809370661354, 51.5430222510915],
        [0.179809403770921, 51.54287206961346],
        [0.179736221969412, 51.542819472357195],
        [0.179666509150722, 51.54268857265956],
        [0.179631311833355, 51.54258580873506],
        [0.17960352483754, 51.54233632338036],
        [0.179617572164065, 51.54202670773923],
        [0.179617596105998, 51.54199703083321],
        [0.179685905229633, 51.54191752355921],
        [0.17971657917072, 51.54183511846585],
        [0.179726861047237, 51.54180884808472],
        [0.17970054340148, 51.541740991345016],
        [0.179638933613833, 51.541689078280605],
        [0.179624100316159, 51.541620108833456],
        [0.179621886555648, 51.54160396280785],
        [0.179665766967824, 51.54149613229086],
        [0.179658982759607, 51.541354171045185],
        [0.179596691573313, 51.54122762981734],
        [0.179534897040826, 51.541081295018095],
        [0.179479000346296, 51.54087729624228],
        [0.179387445060011, 51.540711730029614],
        [0.179276963477402, 51.54057259470076],
        [0.179259268164629, 51.540534254129064],
        [0.179258157500279, 51.54045064108675],
        [0.179249603761312, 51.5403923463605],
        [0.179247586133115, 51.54035011736312],
        [0.179246641713095, 51.540330350598246],
        [0.17919987209202, 51.54028715446206],
        [0.179037816616903, 51.5402155242955],
        [0.178908189769429, 51.540158579391964],
        [0.178779856930977, 51.54006833669743],
        [0.17873657054085, 51.54003766569432],
        [0.178627937979581, 51.539937164754],
        [0.178460281350908, 51.53977840701115],
        [0.178275740239767, 51.53965863192543],
        [0.178189101155511, 51.53962606794707],
        [0.178117195717263, 51.539569848853866],
        [0.178063027236462, 51.539552868981865],
        [0.177940754104056, 51.53952906008475],
        [0.17790168034375, 51.53952618844919],
        [0.177809382023361, 51.53952610359562],
        [0.177666440493625, 51.53952246246659],
        [0.177418747971332, 51.539529758618215],
        [0.177256715307806, 51.53948870134357],
        [0.176970978285307, 51.539363608299176],
        [0.176830515950095, 51.53932125081434],
        [0.176479318364653, 51.539214457860425],
        [0.176331164585047, 51.539131774602176],
        [0.176144693051907, 51.53903181632919],
        [0.175790884925716, 51.538870213284206],
        [0.175446993468638, 51.53870482811656],
        [0.175007182379028, 51.53849355844571],
        [0.174881743492073, 51.53840325788298],
        [0.174721367930913, 51.53827583490671],
        [0.174515970930915, 51.53811147633688],
        [0.173919445724811, 51.53760724258443],
        [0.173781498433138, 51.537405661164584],
        [0.173390987387551, 51.53683645510067],
        [0.173110795883855, 51.53646394622782],
        [0.17256657337757, 51.53590657806451],
        [0.172406071478238, 51.535655052771936],
        [0.172354563222503, 51.535602948851256],
        [0.172333295815077, 51.535519709088184],
        [0.172261020063282, 51.53536457179617],
        [0.172229839235322, 51.535285112756654],
        [0.172115912636136, 51.53513344459418],
        [0.172057159107189, 51.535080575432545],
        [0.171999119185161, 51.53501240515532],
        [0.17196622800966, 51.534897006254],
        [0.171925676786716, 51.53480243277851],
        [0.171917532342687, 51.53478279928569],
        [0.171876924898786, 51.534656751802174],
        [0.171867755756007, 51.53452472645009],
        [0.171910407816733, 51.53439084223489],
        [0.171909225562302, 51.534305431892726],
        [0.171908955246416, 51.53426946543085],
        [0.171873339184258, 51.534217966308624],
        [0.171821704884737, 51.53416316663182],
        [0.171784450101559, 51.53404694918438],
        [0.171713076859889, 51.53391067985927],
        [0.171644727132909, 51.53380762811881],
        [0.171621877169335, 51.53378197187014],
        [0.171527652458426, 51.53371087416622],
        [0.171426510852625, 51.53361562370089],
        [0.171380028361895, 51.53351756269407],
        [0.171338453376079, 51.53340142508426],
        [0.171218400444829, 51.53327235164144],
        [0.171137060932514, 51.533108388571335],
        [0.171124295979213, 51.53308254554506],
        [0.17103446782768, 51.53298258889327],
        [0.170805151878911, 51.532678377951115],
        [0.170762249802566, 51.53262521477242],
        [0.170602004630079, 51.532530158177636],
        [0.170489782911865, 51.53247468058673],
        [0.170442529493778, 51.53245127427861],
        [0.17035912021604, 51.532395263386796],
        [0.170221541643003, 51.53229169326748],
        [0.170115370090432, 51.53221182263473],
        [0.169813760183017, 51.531963803856925],
        [0.169621643415099, 51.53183516265826],
        [0.16955760473357, 51.531792282185364],
        [0.169410830947686, 51.53167719049153],
        [0.16924095412377, 51.53153105087293],
        [0.168891069122545, 51.531328886926204],
        [0.168744267297443, 51.53124347138977],
        [0.168663914277152, 51.53119099994507],
        [0.168628774112303, 51.531149383208735],
        [0.168604315821506, 51.53112015897319],
        [0.168566069760198, 51.531043527464995],
        [0.168537449355329, 51.53098740156979],
        [0.168481757328472, 51.530938071190754],
        [0.168372038920093, 51.53087445174088],
        [0.168231024017698, 51.53085008007826],
        [0.168137803754626, 51.53083022046538],
        [0.168046738898389, 51.53079503306395],
        [0.167974902713575, 51.530739705862],
        [0.167914036138468, 51.53067248513236],
        [0.167870957711735, 51.530585151283006],
        [0.167856989180284, 51.530503574383275],
        [0.167815938358278, 51.530398217303684],
        [0.16773833013388, 51.53031242089745],
        [0.167693748018221, 51.53028446769351],
        [0.167548306981017, 51.53019722696082],
        [0.167498240466127, 51.53011451855356],
        [0.167485926704301, 51.53003740746221],
        [0.167469643451357, 51.529998139764864],
        [0.167461416475199, 51.52997670891926],
        [0.167437599772663, 51.52996096188792],
        [0.167403315277647, 51.529937314711255],
        [0.167310257443634, 51.52989047285158],
        [0.167234069790875, 51.52986490207237],
        [0.167134449758454, 51.52983167063048],
        [0.167097839216041, 51.52981975707065],
        [0.166979364561084, 51.529784176010715],
        [0.16690253723261, 51.5297451275374],
        [0.166817782087048, 51.52969093760457],
        [0.166773916337205, 51.52964768294931],
        [0.166724577156838, 51.529580248654064],
        [0.166630060160258, 51.529472281728225],
        [0.166560212928014, 51.529398031913566],
        [0.166508590570147, 51.52934322971708],
        [0.166469089640036, 51.52930079360983],
        [0.166448597224065, 51.52908174619811],
        [0.166446900768611, 51.52907638181419],
        [0.166364857791773, 51.529018544316415],
        [0.166233870982271, 51.52893193428666],
        [0.166218015766398, 51.5289016513797],
        [0.166092299048231, 51.52886530390938],
        [0.166058698494121, 51.528856032300475],
        [0.165983944171367, 51.52879985850541],
        [0.16591030338651, 51.528645641858326],
        [0.16584779847992, 51.52860452964155],
        [0.165708445592571, 51.52858462073409],
        [0.165660525740956, 51.528577411993254],
        [0.165537307559666, 51.528532924220684],
        [0.165450296466838, 51.528431112779465],
        [0.165391702437022, 51.528290107304045],
        [0.165299585063204, 51.52811105137892],
        [0.165195893024897, 51.52790073402887],
        [0.165113997341658, 51.527754762861484],
        [0.164985879695352, 51.5276069470048],
        [0.164926325519178, 51.527506426919196],
        [0.164891745805274, 51.52747648946346],
        [0.164707187769663, 51.52729374362584],
        [0.16445610668745, 51.52707625371948],
        [0.164443730834909, 51.52705849637885],
        [0.164443347287192, 51.52705040987731],
        [0.164414436266132, 51.52698799335039],
        [0.164448128886302, 51.52687765859724],
        [0.164476698877991, 51.526780907669604],
        [0.164450336439626, 51.526741825569744],
        [0.164358618024126, 51.52660143087554],
        [0.164048648920113, 51.52620606876404],
        [0.163998167239181, 51.5261143736791],
        [0.16398281761406, 51.526064296837674],
        [0.163979332128891, 51.526021195385496],
        [0.163984693928984, 51.525951851378345],
        [0.164003565022875, 51.525863373089],
        [0.164051576668646, 51.525750975657225],
        [0.164056477896865, 51.525702323736986],
        [0.164043583087965, 51.52564320873814],
        [0.164017724770721, 51.52558433293054],
        [0.163957672393906, 51.52550360585677],
        [0.163855550740088, 51.52541735992415],
        [0.163791739577555, 51.52537896859436],
        [0.163741778586159, 51.52532863098297],
        [0.163708079937824, 51.525256410451604],
        [0.163700188451434, 51.52521159169912],
        [0.163709488366872, 51.52513408146476],
        [0.163680350713453, 51.52500602099842],
        [0.163518973617382, 51.524794967778305],
        [0.163419688444402, 51.524525214635766],
        [0.163114241003416, 51.5241639395749],
        [0.162939423211132, 51.52388208980276],
        [0.162812499738197, 51.52351572287298],
        [0.162718826152648, 51.52312086476581],
        [0.162676318657276, 51.52304520922773],
        [0.162560631853107, 51.522885470802954],
        [0.162314978991112, 51.52235582373538],
        [0.162259084629183, 51.52227142199202],
        [0.162237423814192, 51.522209770541835],
        [0.162231606218018, 51.52214782699548],
        [0.162243873863357, 51.52207206071459],
        [0.162330149815993, 51.52182406540112],
        [0.162338607206238, 51.5217591608008],
        [0.162336599565546, 51.521686355564235],
        [0.162299997569373, 51.52149188510952],
        [0.162238067124796, 51.52131047163403],
        [0.161820958376666, 51.52041707529623],
        [0.161695471595147, 51.52014150861953],
        [0.161483145795434, 51.51964541837851],
        [0.161338594069961, 51.51933243262709],
        [0.161316163968696, 51.51922403223779],
        [0.161187280518307, 51.518876584626184],
        [0.161045686646956, 51.51871732212916],
        [0.160995553944565, 51.51860223784633],
        [0.16097647932196, 51.51853424348752],
        [0.160951680600679, 51.518436678116906],
        [0.160786682487407, 51.51814834918404],
        [0.160649602280632, 51.517871196410866],
        [0.16055133980894, 51.51768325708856],
        [0.16048846655953, 51.517603479510804],
        [0.160423637485312, 51.517482370710596],
        [0.160318680832135, 51.517274770190426],
        [0.160269646104102, 51.51712189529936],
        [0.16018478956944, 51.51703442891498],
        [0.160140336466415, 51.51691744107298],
        [0.159904539437623, 51.51644246388871],
        [0.159809753402234, 51.51623647417017],
        [0.159832274520584, 51.51616411640646],
        [0.159735049725855, 51.516058891736876],
        [0.159654973913397, 51.51592007754713],
        [0.159491323753425, 51.51547704452663],
        [0.159146951025555, 51.51450406120745],
        [0.159201328178354, 51.514465289961564],
        [0.159179925722861, 51.514378453118205],
        [0.159139897204685, 51.51435490933465],
        [0.1590473997847, 51.51410571104591],
        [0.158936858285489, 51.51384065768971],
        [0.15893437120164, 51.5136356658871],
        [0.158912842227702, 51.51354613345649],
        [0.158931251409373, 51.51344777219281],
        [0.158952073181014, 51.51333947434405],
        [0.158906479972614, 51.513198226236184],
        [0.158914167189635, 51.513055997254334],
        [0.158830181893358, 51.51277336841983],
        [0.158775507196357, 51.512500991415806],
        [0.15870546073641, 51.512238789508366],
        [0.158692874530275, 51.51218596321033],
        [0.158562439426715, 51.51165238859124],
        [0.158379295365697, 51.51091834343679],
        [0.158265182351123, 51.5104555117749],
        [0.158144926004961, 51.50995412365764],
        [0.15801835701916, 51.50941058502417],
        [0.157873408821792, 51.508844002940506],
        [0.15787416184569, 51.50876844887655],
        [0.15640482340833, 51.50887281615289],
        [0.154669571301323, 51.50908367064556],
        [0.153259547497171, 51.509254355069324],
        [0.15261176735457, 51.50936157217094],
        [0.151104910818228, 51.50967969252035],
        [0.149939297404926, 51.509899810424336],
        [0.14919870467694, 51.51008694802215],
        [0.148093458024827, 51.51036529398427],
        [0.146859271888594, 51.51072153004742],
        [0.144539384979888, 51.51158952181255],
        [0.143450732505269, 51.51200780862321],
        [0.142331806731956, 51.51248778962254],
        [0.140872189928375, 51.51304862042185],
        [0.139924945080152, 51.51341033527238],
        [0.139042276613454, 51.51376636807937],
        [0.137990149323839, 51.51407422437532],
        [0.136846652647012, 51.51437024671921],
        [0.13592608006119, 51.51459475153859],
        [0.133594449163792, 51.51500410241444],
        [0.132695881313066, 51.51520659849384],
        [0.131793081322445, 51.51528776123267],
        [0.130527091475601, 51.515431271166364],
        [0.129002239416999, 51.515525509982304],
        [0.128806552091675, 51.51553265942595],
        [0.128229025945488, 51.51554224206159],
        [0.127714110609972, 51.515534498829716],
        [0.127008012257851, 51.5155068395774],
        [0.126295568319145, 51.51546670116271],
        [0.125280660613949, 51.515431140802455],
        [0.125269139733626, 51.51543134958411],
        [0.125211200715371, 51.51542520527519],
        [0.124396381393472, 51.5153221621138],
        [0.123862199905474, 51.515241009781235],
        [0.123372329128921, 51.51515185848958],
        [0.122935743933459, 51.51506174059236],
        [0.122236955453035, 51.514881042281864],
        [0.121821558785216, 51.5147815440025],
        [0.121582335466909, 51.51472022430975],
        [0.121103473275164, 51.51458859816069],
        [0.120767369766353, 51.51448946057255],
        [0.120438134253296, 51.514383003589366],
        [0.119979670015018, 51.51422492488015],
        [0.119304721768596, 51.51396733925771],
        [0.118296800474391, 51.513584469439216],
        [0.117692114225022, 51.51341193658205],
        [0.116588580533363, 51.513142289696766],
        [0.116068855421826, 51.51309231603601],
        [0.115141839777734, 51.512961556993396],
        [0.114487287732663, 51.51283217333306],
        [0.113771134706758, 51.51267961575513],
        [0.112425327354951, 51.512374728066575],
        [0.112011455609117, 51.512276067082944],
        [0.111181280258221, 51.51205720178214],
        [0.110229445871011, 51.511825232071374],
        [0.109788444223711, 51.51176302272789],
        [0.108917063944437, 51.511650098709374],
        [0.108187969717265, 51.511559790360195],
        [0.107980929127332, 51.511539231498645],
        [0.107662842577108, 51.51151707094778],
        [0.107179487727829, 51.511505073465955],
        [0.106617347450192, 51.51150348207943],
        [0.106119644887151, 51.51152411207782],
        [0.105751418008099, 51.51153971732951],
        [0.104642954048877, 51.51159828468025],
        [0.103479062821978, 51.511642547941854],
        [0.102403969405115, 51.51173736602268],
        [0.100878779353393, 51.51191667707114],
        [0.099706264112953, 51.511899006946145]
      ]
    ]
  }
}
