{
  "type": "Feature",
  "properties": {
    "name": "Barnet",
    "level": 2,
    "londonBorough": true,
    "center": [-0.215, 51.616]
  },
  "geometry": {
    "type": "Polygon",
    "coordinates": [
      [
        [-0.19989636163062, 51.670166852124574],
        [-0.19970028257558, 51.66985990950101],
        [-0.199530406337348, 51.66936632999188],
        [-0.19937535061947, 51.669009659205464],
        [-0.199228651815896, 51.66873404633653],
        [-0.199138017932372, 51.66850335487462],
        [-0.199029896078027, 51.66820315502102],
        [-0.198879485289434, 51.66820354605209],
        [-0.198734677184818, 51.668208518934165],
        [-0.198620504066623, 51.668206767753794],
        [-0.197384976412267, 51.6681842133076],
        [-0.196960828910746, 51.668158818641075],
        [-0.196638971725181, 51.66814308618941],
        [-0.196184130476779, 51.668526363775555],
        [-0.195650001683843, 51.66843003495734],
        [-0.194877074401142, 51.66830215761822],
        [-0.195318891256638, 51.667628235867994],
        [-0.195346657321772, 51.66751176354389],
        [-0.195631659685109, 51.6670719264902],
        [-0.196071740661311, 51.66636830087859],
        [-0.196673289912396, 51.665494502288304],
        [-0.196689828781149, 51.66547857023085],
        [-0.195777003081885, 51.66530628673571],
        [-0.195160683286735, 51.66520509579409],
        [-0.193851996707933, 51.664988046258514],
        [-0.192555885316917, 51.664745997327366],
        [-0.192274309856108, 51.66466343091989],
        [-0.191849892209608, 51.664500432160615],
        [-0.191553805306693, 51.66434660189017],
        [-0.19124395827811, 51.66410263653197],
        [-0.191091785369614, 51.66389347117516],
        [-0.191031905879793, 51.6639447038204],
        [-0.190969673005277, 51.66398241182337],
        [-0.190357582094667, 51.66471933741909],
        [-0.189414046351103, 51.665826126748335],
        [-0.189492382934263, 51.66585610961756],
        [-0.188978371333506, 51.66648933088787],
        [-0.187815358746808, 51.667875978294965],
        [-0.185829267457645, 51.66850624465862],
        [-0.184990325242816, 51.66854723563424],
        [-0.18496812705778, 51.668487543781104],
        [-0.182110401323698, 51.668600707859],
        [-0.183200240378182, 51.66691534075404],
        [-0.184001950984074, 51.66574346183909],
        [-0.185231123679558, 51.66386060256745],
        [-0.185707566628301, 51.66315487894725],
        [-0.185891041472782, 51.66283309320233],
        [-0.183913485667312, 51.662423055091686],
        [-0.183676348910584, 51.662387015547004],
        [-0.182630782345454, 51.6621019712631],
        [-0.182294151243258, 51.66202302478055],
        [-0.180498560193448, 51.661656210221594],
        [-0.179035567320714, 51.66132509949158],
        [-0.176507524685984, 51.6607643207444],
        [-0.175553908231448, 51.660567865567614],
        [-0.172478538061274, 51.659885192318704],
        [-0.165041673375437, 51.65822434879876],
        [-0.163504252697715, 51.65816614449871],
        [-0.163286237986644, 51.65808719961243],
        [-0.162779439465831, 51.657963271328164],
        [-0.161401521146653, 51.65721512896308],
        [-0.160975680014699, 51.656984552902735],
        [-0.160515276355349, 51.65675073617315],
        [-0.158300254413333, 51.65625471332199],
        [-0.157979552626974, 51.656319822976364],
        [-0.157851257265978, 51.65620360835457],
        [-0.157825870095001, 51.65618792320093],
        [-0.157731933624331, 51.65615137959286],
        [-0.155556901355409, 51.65570449031968],
        [-0.154912290555057, 51.655557680754846],
        [-0.154787615676634, 51.655530543304415],
        [-0.154713353975554, 51.65518766919659],
        [-0.154722740682425, 51.65502775386688],
        [-0.154401922211252, 51.65495347133651],
        [-0.154196482979103, 51.654850427794095],
        [-0.153880888573409, 51.6546476361133],
        [-0.15378191438413, 51.65466406464252],
        [-0.153697739720304, 51.654458616071],
        [-0.153609766495064, 51.65402650182264],
        [-0.153507367896061, 51.653629230595094],
        [-0.153544443429561, 51.653428386127075],
        [-0.153490249949547, 51.65330344023722],
        [-0.153801610851372, 51.65325438218349],
        [-0.153986367962597, 51.65322581381038],
        [-0.154230743883915, 51.652975173315134],
        [-0.15405094905391, 51.65256139900931],
        [-0.153796103006971, 51.65264281931219],
        [-0.15350193661576, 51.652695744635274],
        [-0.153448697766626, 51.652618472902866],
        [-0.153355734173831, 51.652451552667486],
        [-0.153090092277949, 51.652051713619684],
        [-0.152890424585894, 51.65184264928055],
        [-0.152564536131524, 51.651467039690885],
        [-0.152512396462524, 51.651362807889384],
        [-0.152498405312853, 51.6513158277879],
        [-0.152401849006832, 51.65073970043441],
        [-0.152358331841862, 51.650352346665585],
        [-0.152347444683093, 51.65015794159836],
        [-0.152329977693911, 51.650054255257906],
        [-0.152270522141307, 51.64984559746751],
        [-0.151818434672734, 51.64990772336798],
        [-0.15101943884562, 51.650075890046736],
        [-0.149919598848194, 51.648792449391834],
        [-0.1517285932217, 51.648171693436666],
        [-0.15227393333469, 51.647984243905924],
        [-0.152383340550364, 51.64763976167689],
        [-0.151386367263302, 51.64731023833239],
        [-0.151068296311576, 51.64720541565329],
        [-0.151273818006337, 51.646985642438864],
        [-0.151385610738916, 51.64686690558516],
        [-0.151309252143185, 51.646825237995365],
        [-0.152168136267356, 51.645822626550036],
        [-0.151599812383733, 51.64565181973221],
        [-0.151751804190564, 51.645361962203104],
        [-0.151330165589324, 51.64528068831006],
        [-0.151118304932229, 51.6452656624832],
        [-0.15081526056486, 51.64525369642637],
        [-0.150338113086831, 51.64525787094075],
        [-0.149243612806599, 51.645301772003414],
        [-0.149174444505816, 51.645261115553836],
        [-0.149158025935297, 51.64523837596408],
        [-0.149126564820696, 51.645052638363076],
        [-0.149123607432812, 51.644912311637164],
        [-0.149132422856342, 51.64483781438476],
        [-0.14917724182142, 51.644695543062575],
        [-0.14917984018829, 51.64463173858397],
        [-0.149047991221685, 51.644178245954635],
        [-0.148881510140323, 51.64386538651097],
        [-0.14857989839119, 51.64310887333335],
        [-0.148505345674318, 51.642952130647174],
        [-0.148157771329209, 51.64240171476259],
        [-0.147920785388459, 51.64208144715446],
        [-0.145102536006854, 51.64264663790643],
        [-0.143944239860221, 51.64099802503529],
        [-0.143051962355323, 51.640197987096926],
        [-0.142607683516709, 51.63978810333778],
        [-0.142143743831979, 51.63936441822527],
        [-0.142319259376619, 51.639313241388955],
        [-0.142089697315315, 51.63909559154971],
        [-0.142054203495851, 51.63904467283532],
        [-0.14176530804759, 51.63879371101422],
        [-0.141383032022484, 51.638458540804116],
        [-0.141080326395269, 51.63819207164513],
        [-0.140826077076336, 51.637977625290794],
        [-0.140437864681474, 51.637681924148794],
        [-0.13988740838416, 51.63732520117247],
        [-0.138437896105173, 51.63651449870493],
        [-0.138331938345556, 51.636455267674215],
        [-0.138129654373096, 51.63634864809932],
        [-0.137684689600235, 51.636133867880766],
        [-0.136204662574939, 51.63547012761253],
        [-0.135495131210464, 51.635188192332905],
        [-0.135283752524821, 51.63509221414017],
        [-0.134744196115343, 51.63482376457358],
        [-0.134534148156367, 51.63469543370237],
        [-0.134334425488805, 51.634526800964416],
        [-0.134292350246522, 51.63446048822116],
        [-0.134265164546107, 51.63441869141301],
        [-0.134532256457301, 51.63424848404234],
        [-0.134255888184548, 51.63408133099513],
        [-0.134436676751225, 51.63397179951754],
        [-0.134278995260066, 51.633870378041294],
        [-0.134004647335945, 51.63404136874842],
        [-0.134003240127618, 51.63404044714804],
        [-0.13392239671051, 51.63396812267908],
        [-0.133841516663437, 51.633896696804634],
        [-0.133687942266161, 51.63376566505725],
        [-0.133871840369738, 51.63365078846548],
        [-0.133638578997725, 51.63348971449121],
        [-0.13329522779104, 51.633264842478894],
        [-0.132985698445332, 51.63313133002262],
        [-0.132581269188603, 51.63298641572095],
        [-0.132086790273515, 51.632817586461115],
        [-0.132043985634022, 51.63280431613378],
        [-0.131356817685536, 51.63257756447726],
        [-0.130834437409363, 51.632490116197374],
        [-0.130347605806352, 51.632416720228115],
        [-0.129642357093787, 51.63234883517562],
        [-0.129177448344765, 51.63226948893238],
        [-0.129147234627761, 51.63226630976593],
        [-0.129315863280227, 51.63182027824366],
        [-0.129555842981142, 51.63146620604521],
        [-0.129803509417846, 51.630960284984226],
        [-0.13020560939522, 51.631020643822296],
        [-0.130445805498544, 51.630731318236904],
        [-0.130710395098494, 51.63041090731872],
        [-0.130792158278401, 51.63014423692145],
        [-0.13114717627327, 51.62966250309654],
        [-0.130656919559834, 51.62946226143891],
        [-0.130466793363358, 51.629377403492285],
        [-0.130553719128747, 51.629301453423366],
        [-0.130850394617428, 51.629325061162284],
        [-0.131140409677718, 51.629018542607746],
        [-0.131180906380927, 51.62894724839497],
        [-0.131168978483617, 51.628885910489075],
        [-0.131133168710068, 51.628808006168676],
        [-0.131108249161627, 51.628781531638644],
        [-0.131395415568678, 51.62854420826797],
        [-0.131305667617327, 51.62851310496987],
        [-0.131511865628525, 51.62831226039083],
        [-0.131756632914662, 51.62805178043551],
        [-0.131968233233346, 51.62786001339276],
        [-0.132097132801356, 51.627746962162014],
        [-0.132207441345861, 51.62759404863701],
        [-0.132300717837914, 51.62743367016021],
        [-0.132419466735471, 51.627286286129845],
        [-0.132571603690137, 51.627099866703254],
        [-0.132700605467317, 51.626949048537554],
        [-0.132855674576707, 51.62683191654626],
        [-0.133069788390175, 51.626684250074796],
        [-0.133103698017997, 51.62666770383886],
        [-0.133144974459136, 51.626647677796605],
        [-0.133184880787229, 51.626625831481306],
        [-0.133224787077053, 51.626603985151974],
        [-0.13326328636248, 51.6265812172007],
        [-0.133300341756522, 51.62655842627819],
        [-0.133335990147215, 51.626534713736454],
        [-0.133370231534522, 51.626510079576796],
        [-0.133404509769175, 51.62648454675728],
        [-0.133419427770375, 51.62647309388272],
        [-0.133435863381705, 51.6264598666638],
        [-0.133453779716381, 51.62644576374929],
        [-0.133470215307757, 51.6264325365253],
        [-0.133485280806641, 51.62641748904417],
        [-0.133488279152098, 51.62641483900747],
        [-0.133501827026055, 51.62640156586717],
        [-0.133509304442793, 51.62639539009888],
        [-0.133515374892044, 51.626388292725174],
        [-0.133521408457289, 51.626382094000604],
        [-0.133527478902839, 51.62637499662624],
        [-0.133532105499469, 51.626367876296264],
        [-0.133536732094627, 51.626360755966104],
        [-0.133539914841755, 51.62635361268059],
        [-0.133541506214935, 51.626350041037796],
        [-0.133544725842102, 51.62634199910265],
        [-0.133546464740625, 51.62633483286182],
        [-0.133548240520061, 51.62632676797148],
        [-0.133548535571904, 51.62631957877555],
        [-0.133548867505081, 51.62631149093012],
        [-0.133549162556665, 51.62630430173417],
        [-0.13354805064481, 51.6262961909337],
        [-0.133557081063141, 51.62604095151604],
        [-0.133584244793621, 51.625977537627186],
        [-0.133780385264234, 51.62552834009926],
        [-0.134057087398023, 51.62491136637606],
        [-0.134064768020513, 51.62479458777529],
        [-0.134120444644054, 51.62456436904999],
        [-0.134123848373553, 51.62455183384408],
        [-0.13418070917874, 51.624539249027954],
        [-0.134236126163932, 51.62452664123793],
        [-0.134324000781764, 51.62446239355958],
        [-0.134349939840979, 51.62439356461114],
        [-0.134366097964903, 51.624281416890454],
        [-0.134305072228712, 51.624184228805966],
        [-0.13423186984186, 51.624102134177136],
        [-0.134206158743901, 51.62398932103654],
        [-0.134221997337776, 51.623955401790305],
        [-0.134279914258881, 51.62384661545159],
        [-0.134492644773594, 51.62352087569101],
        [-0.134549043000681, 51.623413863558184],
        [-0.134744106432481, 51.6230608655196],
        [-0.134867103839637, 51.62277416492339],
        [-0.134964058808353, 51.622594059570886],
        [-0.135069993506892, 51.62233586323985],
        [-0.135350399909291, 51.62229715412939],
        [-0.135438400116973, 51.622335420549476],
        [-0.135571826012173, 51.62239329231269],
        [-0.135468709193782, 51.62173701062114],
        [-0.135461999377586, 51.62168924452843],
        [-0.13617016098005, 51.621223894810086],
        [-0.136678847683324, 51.62086688015147],
        [-0.137231609130139, 51.620491678736244],
        [-0.137573540750503, 51.62022013922581],
        [-0.138331007974343, 51.619643154323526],
        [-0.138530045103851, 51.619509626711434],
        [-0.139368778300486, 51.61881702309084],
        [-0.139482535808266, 51.61871991009941],
        [-0.139832498408463, 51.61853391881065],
        [-0.139751940195458, 51.6184903781565],
        [-0.139927088326478, 51.61834028338893],
        [-0.140639548433553, 51.617731996585164],
        [-0.140776262002546, 51.61767391311595],
        [-0.140911627731973, 51.617684150093815],
        [-0.140995171614375, 51.61768996932128],
        [-0.141012898496596, 51.61768035844831],
        [-0.14107196356905, 51.617648921288165],
        [-0.141291389104263, 51.61754628593876],
        [-0.141317694056687, 51.61739742923625],
        [-0.141352401475729, 51.61736111008706],
        [-0.141380331585527, 51.617313892788914],
        [-0.141446381734335, 51.61725289124305],
        [-0.141558063208482, 51.61717103041137],
        [-0.141661181145294, 51.61705126598947],
        [-0.141741544000625, 51.616958118354596],
        [-0.141830959554823, 51.61682015215262],
        [-0.14189880727616, 51.61660900636238],
        [-0.141963889527205, 51.616430189262246],
        [-0.142053413401049, 51.61639563677148],
        [-0.142120917102075, 51.61636972806919],
        [-0.14202559487035, 51.61622793853319],
        [-0.142083030315062, 51.61620097126038],
        [-0.142066772235017, 51.61617463608935],
        [-0.142057328121885, 51.616158300361874],
        [-0.142711060942432, 51.61596092182624],
        [-0.142731833332361, 51.6159828321498],
        [-0.14279615550853, 51.615964066615945],
        [-0.143167578898511, 51.61585304163838],
        [-0.143756357991273, 51.615689700080154],
        [-0.143944404747229, 51.615647711690556],
        [-0.144141222222295, 51.61560316395524],
        [-0.144536065494914, 51.615484411808815],
        [-0.143836657498005, 51.614783640512385],
        [-0.14295028922901, 51.61388657144372],
        [-0.142880940714809, 51.613816233118804],
        [-0.142096946666525, 51.61303048371658],
        [-0.141417160350755, 51.61234619411326],
        [-0.140845301306799, 51.61184885263316],
        [-0.140271754219398, 51.61135777616991],
        [-0.139624891550654, 51.610823270701516],
        [-0.138785572324254, 51.610192189402895],
        [-0.141137762849712, 51.60953345256222],
        [-0.14282266976605, 51.609051154513516],
        [-0.143450610371986, 51.60884617028251],
        [-0.143452558213619, 51.60823202211464],
        [-0.143428414734622, 51.60790341866145],
        [-0.143414381676671, 51.60778719509778],
        [-0.143406368572515, 51.60773581183114],
        [-0.143302819934099, 51.607335811834574],
        [-0.143161909514039, 51.6065773241879],
        [-0.143103464523839, 51.60634619482652],
        [-0.142947219460653, 51.60592827522602],
        [-0.142917779105564, 51.60587115747616],
        [-0.142825068559549, 51.60573660346787],
        [-0.142657774215498, 51.60544799881693],
        [-0.142406617997078, 51.60512659342946],
        [-0.142323218355444, 51.60504703984775],
        [-0.142214746333914, 51.604909538155695],
        [-0.142090557812415, 51.60459104078153],
        [-0.142039825042895, 51.6042773029594],
        [-0.142025256015808, 51.603785189190646],
        [-0.142037216414163, 51.60370444709583],
        [-0.142114727935346, 51.60346827518134],
        [-0.142140861607119, 51.60328794199398],
        [-0.142179543984894, 51.60322470836436],
        [-0.142240582554887, 51.60317981332709],
        [-0.142508105993884, 51.602958338501374],
        [-0.143064131577045, 51.60253190522381],
        [-0.143111960495716, 51.60249219618242],
        [-0.143154126926435, 51.60244969982845],
        [-0.143189591037738, 51.602394508099984],
        [-0.14325767928019, 51.602212140641996],
        [-0.14346201270918, 51.60194650062594],
        [-0.143579493550915, 51.60175682108103],
        [-0.143822859086901, 51.601489999301116],
        [-0.143883755903836, 51.601377658321695],
        [-0.143911160150997, 51.60134302139562],
        [-0.144026819476387, 51.60123334479171],
        [-0.144199343593993, 51.60111017937148],
        [-0.144489130535194, 51.60055453551448],
        [-0.144523559163038, 51.600418395582125],
        [-0.144523179485566, 51.600215161754726],
        [-0.144495022734983, 51.60012659129553],
        [-0.145094557410568, 51.599906761875665],
        [-0.146682810867835, 51.59930598154393],
        [-0.147000660650047, 51.59919499829088],
        [-0.147503068778608, 51.59901948439041],
        [-0.147412715298927, 51.598862490115145],
        [-0.147766634795859, 51.59875207412483],
        [-0.148794994238289, 51.59838971893381],
        [-0.151374587513591, 51.597445711182864],
        [-0.151385948611508, 51.597450386312396],
        [-0.151549226928488, 51.5975896420092],
        [-0.15162349749268, 51.59768073543228],
        [-0.152061421780936, 51.59827483329444],
        [-0.152923482496493, 51.599056351495975],
        [-0.153030478718628, 51.59923068880912],
        [-0.153120316890322, 51.599543238573474],
        [-0.15321687624837, 51.59983251383241],
        [-0.153437367968972, 51.60069745209576],
        [-0.15346355881133, 51.60087051765286],
        [-0.15346747802123, 51.600987480126264],
        [-0.15343424538354, 51.60134395440073],
        [-0.153423715609681, 51.60167470794867],
        [-0.153385226045955, 51.602089549871486],
        [-0.153312243433706, 51.602678301025676],
        [-0.153583667911858, 51.60300000165043],
        [-0.154005356385481, 51.60342657790664],
        [-0.154447920304262, 51.60390833423377],
        [-0.154575538344787, 51.604073102546266],
        [-0.154643738975657, 51.60413622210604],
        [-0.154794608865795, 51.604261789317036],
        [-0.155187329931603, 51.60454852409655],
        [-0.155268957775783, 51.60460106347654],
        [-0.155413102180506, 51.60467886464092],
        [-0.156141325715731, 51.60509676114543],
        [-0.156152215911042, 51.605113118466654],
        [-0.156162377972411, 51.60514744907194],
        [-0.156160120728498, 51.605203166255244],
        [-0.156137645621692, 51.60529453528875],
        [-0.155987208922689, 51.605443243698204],
        [-0.156367634145431, 51.60535659823239],
        [-0.156395637373269, 51.60534265029084],
        [-0.156570450253412, 51.60512688148839],
        [-0.156773724820678, 51.604921450972014],
        [-0.15727441491734, 51.60414697699068],
        [-0.158735425248707, 51.60208637440065],
        [-0.158693804572532, 51.60204435662149],
        [-0.159929679766704, 51.60022749722567],
        [-0.161730703054997, 51.59767850666335],
        [-0.161768672474349, 51.597596371572095],
        [-0.161782647318313, 51.59753634159172],
        [-0.161786521447308, 51.59747615341683],
        [-0.161773987299042, 51.59739322734689],
        [-0.161779491972456, 51.59714962044116],
        [-0.161760296001813, 51.59701713201478],
        [-0.161715716426011, 51.59683388876748],
        [-0.161489306521785, 51.5962908004237],
        [-0.161107938921514, 51.59529476616251],
        [-0.161025848655749, 51.59511093486896],
        [-0.160970765270169, 51.59483040908032],
        [-0.160691096173551, 51.59442676538396],
        [-0.160484534023659, 51.594214905085586],
        [-0.16039615890226, 51.59407953360037],
        [-0.160265789221834, 51.59384009150364],
        [-0.160229819851675, 51.59372982073281],
        [-0.16022971317712, 51.593589538045656],
        [-0.16019980587815, 51.59347216838623],
        [-0.160169743790361, 51.59339436273186],
        [-0.159851484576899, 51.59276710102776],
        [-0.159811261234548, 51.59265496492793],
        [-0.159775303811567, 51.5925087246737],
        [-0.159675421835125, 51.59226526365467],
        [-0.158863962409698, 51.592374833286264],
        [-0.158813387961439, 51.59226882910484],
        [-0.158692865838599, 51.59207180376969],
        [-0.158689264302602, 51.59205376251296],
        [-0.158693723308035, 51.591979195741374],
        [-0.158706573754927, 51.59194702479011],
        [-0.158743199023662, 51.59189814130865],
        [-0.159070434507582, 51.59173152020524],
        [-0.159171874780485, 51.5916863509406],
        [-0.159351063222938, 51.59157495812144],
        [-0.159480803089257, 51.59157969048498],
        [-0.159601295202798, 51.59099168006317],
        [-0.159747105846468, 51.59052726205127],
        [-0.15980182406104, 51.59038783892023],
        [-0.15984677957901, 51.59020420004136],
        [-0.159834650100211, 51.590111388368136],
        [-0.159768212705827, 51.58971917820343],
        [-0.16016922213509, 51.58969129421845],
        [-0.160149837019423, 51.58934927994284],
        [-0.160139740348409, 51.589206142836325],
        [-0.160145295428484, 51.58906864652095],
        [-0.160148272642787, 51.58899495568376],
        [-0.160075739062589, 51.58900371019655],
        [-0.160080381596498, 51.58863869236585],
        [-0.16008836937485, 51.58844098523192],
        [-0.16010347107202, 51.58821011781016],
        [-0.160103616301117, 51.58820652313475],
        [-0.16009621407414, 51.58810389395096],
        [-0.160273117826902, 51.58797717689219],
        [-0.158640535375365, 51.587974953850704],
        [-0.158632831023512, 51.58780847389453],
        [-0.158623342294433, 51.587579019255955],
        [-0.15862637291208, 51.58757546985254],
        [-0.158625802328984, 51.58755387918094],
        [-0.158654618730944, 51.58755523053928],
        [-0.158696418867526, 51.58755678559565],
        [-0.158697763231217, 51.587523534870584],
        [-0.158703711279873, 51.58741212264035],
        [-0.158713957352485, 51.587158698182584],
        [-0.158704989928172, 51.58663070455835],
        [-0.157671913083878, 51.5865830184617],
        [-0.157429991713314, 51.586568429652694],
        [-0.157311575350337, 51.58639121891322],
        [-0.15718638327513, 51.586203110786414],
        [-0.157182273670271, 51.586197650824346],
        [-0.157368368145341, 51.58620057278548],
        [-0.157922033196176, 51.58621645831525],
        [-0.157922905540975, 51.586194890281824],
        [-0.157966111834566, 51.58573335979805],
        [-0.159204231606132, 51.58477891101532],
        [-0.159580635286418, 51.58450155423022],
        [-0.159642928649739, 51.58446026688675],
        [-0.159884737858144, 51.58458455654498],
        [-0.160054140165872, 51.584678934889205],
        [-0.160270239842071, 51.584796525989475],
        [-0.160541502221855, 51.58497792799674],
        [-0.160856288687605, 51.585189686303444],
        [-0.161109528007128, 51.58535281975052],
        [-0.161223454693222, 51.585355504039924],
        [-0.161350925881486, 51.585272972780295],
        [-0.161423679469167, 51.58522285599449],
        [-0.161918850950259, 51.58486372320956],
        [-0.162062159318909, 51.58474636893446],
        [-0.162289606054201, 51.58461864193607],
        [-0.162505974828315, 51.584515020486826],
        [-0.162683205250416, 51.584451251636594],
        [-0.163216713468272, 51.584357988896706],
        [-0.163562653553673, 51.584262688039715],
        [-0.163576680349754, 51.584272799152075],
        [-0.163578050419444, 51.58427461906731],
        [-0.163634230134478, 51.584313266157345],
        [-0.163682449835387, 51.58429873361666],
        [-0.163695613832662, 51.58429444340344],
        [-0.163746277129665, 51.58432670945636],
        [-0.163809972837549, 51.584286341101894],
        [-0.164310480861218, 51.58397314297763],
        [-0.164490114871939, 51.58395706863611],
        [-0.16462943042373, 51.58393856500762],
        [-0.164869099900595, 51.5837579691595],
        [-0.16505027034542, 51.583596241417496],
        [-0.165014605676983, 51.58358579215685],
        [-0.164908046248553, 51.583543660246924],
        [-0.165203959372638, 51.58343588222754],
        [-0.165746663894841, 51.58322135469972],
        [-0.165772271320079, 51.582943890356916],
        [-0.166133717193487, 51.582463051179914],
        [-0.16636318070828, 51.582177081969256],
        [-0.166372342006182, 51.58216463577543],
        [-0.166215633067695, 51.582041689264166],
        [-0.166896056810713, 51.58195520172969],
        [-0.16690204366592, 51.581949899815406],
        [-0.166957584747596, 51.58189681306313],
        [-0.167014138254107, 51.58181856343008],
        [-0.167061530543425, 51.58175276001881],
        [-0.167146695461247, 51.581537373752],
        [-0.167219781480164, 51.58129931782678],
        [-0.167216879791022, 51.58112032410821],
        [-0.167233584474706, 51.580705136923406],
        [-0.167221261175569, 51.580616819115264],
        [-0.167216684663483, 51.58058707277856],
        [-0.167135981286117, 51.58058401389404],
        [-0.167086975064484, 51.58058234926003],
        [-0.167076113271077, 51.57966855343324],
        [-0.167015713524767, 51.57966311385652],
        [-0.166854553577419, 51.57879013366006],
        [-0.166838378575756, 51.57865409596625],
        [-0.167052366181554, 51.57853694048345],
        [-0.167208803123824, 51.578415288860214],
        [-0.167323230298264, 51.578297477172065],
        [-0.167360879723521, 51.57825849863261],
        [-0.167167391818688, 51.57822490275391],
        [-0.167084277966562, 51.578210116059104],
        [-0.167376569173647, 51.577868474085655],
        [-0.167452662414385, 51.577770746114766],
        [-0.167634098998858, 51.57749391603046],
        [-0.167756782444006, 51.57735015491636],
        [-0.168088445173212, 51.576926395937654],
        [-0.168284918373162, 51.57699330875901],
        [-0.169345605479955, 51.577426207437476],
        [-0.169354909423489, 51.57741016628307],
        [-0.169459854191131, 51.57713303940191],
        [-0.169566524936352, 51.576920684518264],
        [-0.169622710317672, 51.5767794811894],
        [-0.169687263972873, 51.5765736631757],
        [-0.16975343804968, 51.57639934374628],
        [-0.169590966359037, 51.57634825078451],
        [-0.169553317046768, 51.575776646992956],
        [-0.169634840638479, 51.57579500411533],
        [-0.169586542420862, 51.57545254006917],
        [-0.169506635277609, 51.5748910679011],
        [-0.169471995112292, 51.57471157902877],
        [-0.169459819116998, 51.5745117580684],
        [-0.169484208209073, 51.57422797902427],
        [-0.169481696449605, 51.574003130112054],
        [-0.169484005158266, 51.57398158439088],
        [-0.169947215505707, 51.57383863617704],
        [-0.170586660978044, 51.5736912398019],
        [-0.170958319246282, 51.57363588497266],
        [-0.171181501114876, 51.57361238620398],
        [-0.171239847165939, 51.57302159633059],
        [-0.1712852480622, 51.572429705410194],
        [-0.171358438422831, 51.57240386880238],
        [-0.171696988037216, 51.57223828859537],
        [-0.171811063295814, 51.572128560240195],
        [-0.171843007199388, 51.572051723352345],
        [-0.172090769142844, 51.57191889867847],
        [-0.172296131582678, 51.57190770960452],
        [-0.172694594361147, 51.571687306882204],
        [-0.173073656945289, 51.57148278708715],
        [-0.173149944223896, 51.57141563259846],
        [-0.173223455085178, 51.571345737122506],
        [-0.173295523585994, 51.57127581914809],
        [-0.173307565001893, 51.571263417249355],
        [-0.173376785003326, 51.57119255564495],
        [-0.17344315655252, 51.57112075042353],
        [-0.173461326616118, 51.57109945151592],
        [-0.173506679658586, 51.57104800159003],
        [-0.173548102441424, 51.57098659884572],
        [-0.173651818855192, 51.57077509349323],
        [-0.173743523209864, 51.57043121297912],
        [-0.173739549561052, 51.57024231095397],
        [-0.173730919520401, 51.56991755136317],
        [-0.173853497239973, 51.569919459007764],
        [-0.17385150539412, 51.56971709922955],
        [-0.173995600690083, 51.569614130622284],
        [-0.174106095452106, 51.56952142988533],
        [-0.174261364189797, 51.569391657643784],
        [-0.174351380848709, 51.5693058319743],
        [-0.174406861550967, 51.56925364002926],
        [-0.174887838984383, 51.5694220856629],
        [-0.17515736328331, 51.56942987434266],
        [-0.175192739452922, 51.56955541868725],
        [-0.175933556849132, 51.56979354485647],
        [-0.175924623008542, 51.56987253899752],
        [-0.175992980098117, 51.569895183288615],
        [-0.176514277084413, 51.57006604735791],
        [-0.176953769559053, 51.570189777049244],
        [-0.17738632833833, 51.57019829484722],
        [-0.177678001681254, 51.57026577146533],
        [-0.177695019443524, 51.570273229650496],
        [-0.178078315803453, 51.57043115268922],
        [-0.178101293015209, 51.57025346021653],
        [-0.178100246130529, 51.57024355233933],
        [-0.17809919924625, 51.570233644462114],
        [-0.178099594466303, 51.57022375897491],
        [-0.178099953757064, 51.57021477216837],
        [-0.178101791080023, 51.570204909071165],
        [-0.178105070505161, 51.570195068363894],
        [-0.178106907826113, 51.57018520526657],
        [-0.178111593422248, 51.57017628562967],
        [-0.17811487284306, 51.57016644492203],
        [-0.178119558435622, 51.57015752528474],
        [-0.17812565019941, 51.57014952671762],
        [-0.178131777889376, 51.57014062946948],
        [-0.178137905576913, 51.57013173222097],
        [-0.178145475362797, 51.570122857361554],
        [-0.1781530451457, 51.57011398250163],
        [-0.17816202109815, 51.570106028711116],
        [-0.178170997047448, 51.57009807491988],
        [-0.178179937066264, 51.57009101980862],
        [-0.178190355108998, 51.57008308840486],
        [-0.178200737221195, 51.570076055680815],
        [-0.17821111933018, 51.570069022955835],
        [-0.178222907608425, 51.5700629112991],
        [-0.178233253784757, 51.57005677725282],
        [-0.178245006130882, 51.57005156427456],
        [-0.178258200572778, 51.57004637368316],
        [-0.178271395011689, 51.57004118309021],
        [-0.17828455352242, 51.570036891176535],
        [-0.178299118203837, 51.57003352032969],
        [-0.178313718807751, 51.57002925080022],
        [-0.178328283484645, 51.57002587994969],
        [-0.178342848159423, 51.570022509097335],
        [-0.178357412832085, 51.570019138243154],
        [-0.178370571328537, 51.57001484631966],
        [-0.178385135996771, 51.570011475462],
        [-0.178388020191663, 51.57001152023491],
        [-0.178437590338172, 51.5699988011507],
        [-0.178487124536305, 51.569986980726135],
        [-0.178538064885481, 51.56997608134587],
        [-0.178588933372567, 51.56996697930511],
        [-0.178639801839838, 51.56995787724209],
        [-0.178692076465951, 51.56994969622049],
        [-0.178744315157831, 51.569942413856424],
        [-0.178796517918596, 51.56993603014995],
        [-0.178848648837416, 51.569931443782274],
        [-0.178902221841494, 51.5699268797714],
        [-0.17895572301181, 51.569924113098224],
        [-0.179007782081145, 51.5699213240218],
        [-0.179061211420262, 51.56992035466272],
        [-0.179087205041644, 51.56991985878515],
        [-0.179724586338883, 51.5697858695274],
        [-0.180181135420416, 51.56969942991363],
        [-0.180515406216346, 51.569675837774504],
        [-0.180752411025585, 51.56966692305951],
        [-0.180974564410603, 51.569668568506344],
        [-0.18083377104629, 51.569436180914515],
        [-0.180918703168645, 51.56940512498631],
        [-0.181710893309067, 51.56900735022865],
        [-0.181828159044014, 51.568961507612805],
        [-0.181890016556919, 51.56893009346008],
        [-0.182000063545406, 51.568848169298526],
        [-0.182132055528805, 51.56872252232981],
        [-0.182210635459019, 51.56866978535069],
        [-0.183493211802833, 51.56802331138662],
        [-0.183567472144471, 51.568006476167405],
        [-0.183718876740627, 51.56797285022689],
        [-0.183481789946379, 51.56776685168523],
        [-0.183811365964061, 51.56749858476706],
        [-0.18400810625654, 51.56741350432402],
        [-0.184194833117602, 51.56736243965472],
        [-0.184750623846097, 51.567246943967945],
        [-0.185241424569928, 51.56716910781864],
        [-0.185681849622081, 51.56705182350471],
        [-0.186114847808489, 51.566939818171385],
        [-0.18616754688948, 51.56692084954612],
        [-0.186220317456424, 51.56690008352625],
        [-0.186271645970969, 51.566879295193516],
        [-0.186321568197631, 51.566857585864526],
        [-0.186371526138648, 51.56683497782846],
        [-0.186421519790981, 51.566811471085224],
        [-0.186470071390037, 51.566787942033955],
        [-0.186484741724901, 51.566781874097046],
        [-0.186564254679566, 51.5667417379849],
        [-0.186643767494621, 51.566701601817215],
        [-0.186721945435503, 51.56665874725452],
        [-0.18677655073447, 51.5666281177205],
        [-0.187016767787897, 51.566465470379235],
        [-0.187192855692356, 51.566210109566796],
        [-0.187277670298913, 51.56618174497548],
        [-0.187391061912248, 51.5661241469083],
        [-0.18744671496578, 51.5661034248689],
        [-0.187529801335704, 51.56608222730513],
        [-0.187728639095987, 51.566052925829],
        [-0.187813274422782, 51.56602905427422],
        [-0.187918561849709, 51.56599381149234],
        [-0.188093408361954, 51.56591468081996],
        [-0.188414965178648, 51.56581083783608],
        [-0.188384777770119, 51.565771704551025],
        [-0.188701216822694, 51.56557875722208],
        [-0.189149618708971, 51.56555060767742],
        [-0.189187573955968, 51.565539503315925],
        [-0.189252091496271, 51.565513521795644],
        [-0.189311198131013, 51.565478464366166],
        [-0.189364929537484, 51.565433432348236],
        [-0.189422901343491, 51.565354294695815],
        [-0.189495949109295, 51.565295172862335],
        [-0.189643335851263, 51.56525338420137],
        [-0.189847365288125, 51.56505690101172],
        [-0.189900317461103, 51.564958801695454],
        [-0.189935187831903, 51.56480736839584],
        [-0.189997112334425, 51.56470131429788],
        [-0.190018783872395, 51.56462791107441],
        [-0.190021445923634, 51.56452453977488],
        [-0.190143027842581, 51.563969786816706],
        [-0.1901603860478, 51.56375064047428],
        [-0.190144565736708, 51.56349501285691],
        [-0.190371184010459, 51.56276562897522],
        [-0.190405159040841, 51.56263666264872],
        [-0.190514993951407, 51.56237757740205],
        [-0.190618673465373, 51.56205545045739],
        [-0.190663025544187, 51.56191945015938],
        [-0.190766365507806, 51.56182392587437],
        [-0.190960062400148, 51.5617055151672],
        [-0.191140297865784, 51.561635455488805],
        [-0.191406472730676, 51.56158110801117],
        [-0.191746996842032, 51.561580061540674],
        [-0.192319961895784, 51.561538532578524],
        [-0.192980477080546, 51.56118091811063],
        [-0.193615739666425, 51.56095060300628],
        [-0.193788777132693, 51.56084355971838],
        [-0.193852733253177, 51.5608679243877],
        [-0.193982194335329, 51.560913979745564],
        [-0.194110285141547, 51.56088537711729],
        [-0.194279779110752, 51.56083133361564],
        [-0.194301691188439, 51.56082447691821],
        [-0.194402707354709, 51.560787364177024],
        [-0.194481775751597, 51.56075800677319],
        [-0.194568978529781, 51.56070539429126],
        [-0.194612784310378, 51.56065571098424],
        [-0.194612089179243, 51.56056397801639],
        [-0.194851962599241, 51.56048134170527],
        [-0.195077738812581, 51.56046323319075],
        [-0.195348336392945, 51.56047908541009],
        [-0.195594762490161, 51.560522441671694],
        [-0.195958066248582, 51.56060176548708],
        [-0.196124802598348, 51.56065378699662],
        [-0.196243904352693, 51.56067000574421],
        [-0.196594625165939, 51.560739242526786],
        [-0.196649268086013, 51.56067084103951],
        [-0.196750748336052, 51.560694881584844],
        [-0.196813062167842, 51.560614907819236],
        [-0.196919578747521, 51.56062104086088],
        [-0.196918670119451, 51.56060753833271],
        [-0.1969037055802, 51.56040228217591],
        [-0.196922497969656, 51.56003658118563],
        [-0.19694454248005, 51.55988045255918],
        [-0.196932063978417, 51.55986767147775],
        [-0.196842601823776, 51.559868095185216],
        [-0.196817434356167, 51.559592541644626],
        [-0.196766319448964, 51.55938942759391],
        [-0.196680231290023, 51.559231637151456],
        [-0.196817748355821, 51.55918339323144],
        [-0.197034257953021, 51.55910758735469],
        [-0.197346705121835, 51.5590134717977],
        [-0.197564207915816, 51.5589125015485],
        [-0.19762322851468, 51.55887923713282],
        [-0.197984631747114, 51.55911589216635],
        [-0.198229591651072, 51.55894070563075],
        [-0.19823103341417, 51.558940727770015],
        [-0.198479123530127, 51.558759294121195],
        [-0.198500061296429, 51.558448479307785],
        [-0.198498974835022, 51.558256924966244],
        [-0.198507604002681, 51.55822108793948],
        [-0.198533228638345, 51.558156736236526],
        [-0.198580301698515, 51.55809721001286],
        [-0.198638979530447, 51.55803606345555],
        [-0.198791255812807, 51.55790621318607],
        [-0.198906693088866, 51.55783244923142],
        [-0.199052264244449, 51.55776274463975],
        [-0.199126196502171, 51.557717119021994],
        [-0.199498052077574, 51.55725072587808],
        [-0.199624079753714, 51.557054827382984],
        [-0.199660219886497, 51.55697984592986],
        [-0.199673634308743, 51.55693239214761],
        [-0.199675657054798, 51.556881166622844],
        [-0.199669207043772, 51.55682531490495],
        [-0.199604077829419, 51.556648064927],
        [-0.199517523374554, 51.55650195946572],
        [-0.199501855654623, 51.556460354095464],
        [-0.199484915038428, 51.55634139472103],
        [-0.199464084010102, 51.55628442306505],
        [-0.199410001416561, 51.556192770085886],
        [-0.199991565131813, 51.55618730550319],
        [-0.200169210755673, 51.556181937492795],
        [-0.200551409741525, 51.556147333908505],
        [-0.200981798484411, 51.55606131216806],
        [-0.201338270394925, 51.5559840473829],
        [-0.201648808723016, 51.5559375508325],
        [-0.20185015794144, 51.55591635730224],
        [-0.202790630772944, 51.5557716013936],
        [-0.203347701315917, 51.55569200754055],
        [-0.20367672950757, 51.555652083427994],
        [-0.203948895095434, 51.55562747427075],
        [-0.204082094459763, 51.55561512532149],
        [-0.204310771496079, 51.555559275595996],
        [-0.204789297881028, 51.55542272010627],
        [-0.20497583774365, 51.555411186254226],
        [-0.205104578579327, 51.55536549615063],
        [-0.20534657312958, 51.55533772450395],
        [-0.205779077944158, 51.55530747032855],
        [-0.205815225390851, 51.555305325369076],
        [-0.205837383048014, 51.5554387513311],
        [-0.205877512670835, 51.555555366583526],
        [-0.205865366655926, 51.55593735674802],
        [-0.205903383183999, 51.556071025177886],
        [-0.205897953685129, 51.55613568724526],
        [-0.205893824397841, 51.55620396614223],
        [-0.205966107122616, 51.55641998908533],
        [-0.205992234342441, 51.55641589238213],
        [-0.206089534731311, 51.55639939530108],
        [-0.206215598107905, 51.55638513634368],
        [-0.206335859301051, 51.55637168779126],
        [-0.206496000495786, 51.55633456930407],
        [-0.206991404851594, 51.55620905366964],
        [-0.207522742531926, 51.556086782618365],
        [-0.208038324931439, 51.55596157084182],
        [-0.208333987097701, 51.555889650792665],
        [-0.20884510469996, 51.55573109554204],
        [-0.208856320321014, 51.55573935988778],
        [-0.209237124392178, 51.55603382749551],
        [-0.209538534572271, 51.556329780046056],
        [-0.209566450793489, 51.55635358619156],
        [-0.21002693150238, 51.55674998145461],
        [-0.210031115481941, 51.55675364222975],
        [-0.210844587553253, 51.55646300641218],
        [-0.211246836002029, 51.55632166455621],
        [-0.21169767985052, 51.55615498412882],
        [-0.212129397269109, 51.55592416474167],
        [-0.212511705933384, 51.555702482687515],
        [-0.213000241130026, 51.55542036996708],
        [-0.213285276802626, 51.55528802679446],
        [-0.213501320597123, 51.55518610577257],
        [-0.213736757207661, 51.555399212396445],
        [-0.214287841541192, 51.55587700217905],
        [-0.214855253435605, 51.55634334761197],
        [-0.215373167409898, 51.556747789299415],
        [-0.215500599086676, 51.556845945705014],
        [-0.216176059453217, 51.557390362817145],
        [-0.216511210841277, 51.55763645282334],
        [-0.216759438284633, 51.557818274310506],
        [-0.216942929629468, 51.55799551458718],
        [-0.217172875672047, 51.55820223596161],
        [-0.217769251447042, 51.55866720840599],
        [-0.218319748082384, 51.5591251864323],
        [-0.218650214107063, 51.5594179592226],
        [-0.219022255569664, 51.5597913940426],
        [-0.21932393223766, 51.560119697288755],
        [-0.220312737321804, 51.56128751825277],
        [-0.22058773917451, 51.56159742878509],
        [-0.220662688310359, 51.56167320183895],
        [-0.221206438425123, 51.56223177772708],
        [-0.221553196085387, 51.56255176597531],
        [-0.221954970634603, 51.56294092866076],
        [-0.222389841096564, 51.56329552113984],
        [-0.222675092223807, 51.56352824763914],
        [-0.223431000739951, 51.564123297735904],
        [-0.224107550755145, 51.564718940257876],
        [-0.224620090064891, 51.565154731438355],
        [-0.225071669052083, 51.565488884032774],
        [-0.225186272888965, 51.565584137791504],
        [-0.225489886104528, 51.565864794317335],
        [-0.225705377483022, 51.56603710879887],
        [-0.225942255841239, 51.56621604084612],
        [-0.226426531968429, 51.56656327164952],
        [-0.226720581099512, 51.56679342323563],
        [-0.226893755747861, 51.5669039480952],
        [-0.227188036534751, 51.56705407019552],
        [-0.227738341752521, 51.567373517493294],
        [-0.228031011604521, 51.56752810927158],
        [-0.228397972054411, 51.567701806580246],
        [-0.228637918447404, 51.567839414622085],
        [-0.228819055637174, 51.56796804143163],
        [-0.228937650492693, 51.568072343979544],
        [-0.229382959656216, 51.568532277477374],
        [-0.229807438156235, 51.56893434406505],
        [-0.230169030779199, 51.56920956802861],
        [-0.230546828075866, 51.569550679178306],
        [-0.230919722875539, 51.56983236579912],
        [-0.231328944162153, 51.57018204115697],
        [-0.231881610371648, 51.57062829584541],
        [-0.232235542761312, 51.57095285558165],
        [-0.233442488672184, 51.57197996946653],
        [-0.233755892433044, 51.57186149215689],
        [-0.233875322965286, 51.57179584725162],
        [-0.234047487495316, 51.571747181988194],
        [-0.234196326695921, 51.57177909637394],
        [-0.234269321589742, 51.571794582442315],
        [-0.234357101241105, 51.57183816710871],
        [-0.234406643790949, 51.57178855552198],
        [-0.234453072682919, 51.57178206020484],
        [-0.234506747368582, 51.57177477464834],
        [-0.234586277137999, 51.57177057573046],
        [-0.234666671979645, 51.57181854522631],
        [-0.23471593999188, 51.57196226425016],
        [-0.234971359478827, 51.57207401404608],
        [-0.234998065228317, 51.5720924003538],
        [-0.235009011133448, 51.572107851926845],
        [-0.23506911164899, 51.57215821359837],
        [-0.23510307844805, 51.572212678360785],
        [-0.235169957442288, 51.57223706419999],
        [-0.235238278722212, 51.572261471690226],
        [-0.235346444738323, 51.57226309828345],
        [-0.235492595522663, 51.57225270668517],
        [-0.23552587082933, 51.57225050932004],
        [-0.235644982995492, 51.57226758716368],
        [-0.235693964256504, 51.57230699054973],
        [-0.235687828207704, 51.572353658349634],
        [-0.235598774250925, 51.57238019561509],
        [-0.235408451699452, 51.57241330317511],
        [-0.23537289878917, 51.57243704782196],
        [-0.235354443662494, 51.57246644495597],
        [-0.235350132296656, 51.57250324862784],
        [-0.235363301606259, 51.57253581900376],
        [-0.23538128484001, 51.57255587252077],
        [-0.235401058334879, 51.5725669606372],
        [-0.23557879979797, 51.57256064087746],
        [-0.235619251644345, 51.572559450618776],
        [-0.235752458115483, 51.57254796484062],
        [-0.235812111168473, 51.57253537317179],
        [-0.23583725523644, 51.57251956500035],
        [-0.235889124710992, 51.57248437548653],
        [-0.235915625608196, 51.57243351765767],
        [-0.235858025503844, 51.572393085567484],
        [-0.235842458548807, 51.572347889959175],
        [-0.235868159184093, 51.5723177024401],
        [-0.235887221119498, 51.5723098959111],
        [-0.235921938667174, 51.57230772011449],
        [-0.236014170881705, 51.572310905027756],
        [-0.236156548745667, 51.5723607044142],
        [-0.2363601075494, 51.572433004678835],
        [-0.236485545896377, 51.57243578903188],
        [-0.236554598560395, 51.57244132287502],
        [-0.23662688346156, 51.57243791293018],
        [-0.237053816892091, 51.57236879202456],
        [-0.237179568024618, 51.572363487250556],
        [-0.237202539217078, 51.572366530012374],
        [-0.237389523120527, 51.572419695634764],
        [-0.23752747191974, 51.57247212451582],
        [-0.237566099077964, 51.57248079772873],
        [-0.237594908764047, 51.57248212963542],
        [-0.237664587282777, 51.572471486055356],
        [-0.237736403111451, 51.572442889899484],
        [-0.237761720247215, 51.57242258776049],
        [-0.237778523061245, 51.572398560833136],
        [-0.237783544820305, 51.57238065161253],
        [-0.237776924560777, 51.57236526526183],
        [-0.237761650996183, 51.57234974896551],
        [-0.237667003539804, 51.57229707142031],
        [-0.237644901288691, 51.57227156100978],
        [-0.237649593107986, 51.572224871428894],
        [-0.237721547893472, 51.57211804422244],
        [-0.23775418016856, 51.57209515424322],
        [-0.237777603078761, 51.5720865136659],
        [-0.237954577896991, 51.57209996189937],
        [-0.238093499363309, 51.572127226240696],
        [-0.238126670227065, 51.57212772426535],
        [-0.238147069672974, 51.572122635147096],
        [-0.238175375108576, 51.57209968009031],
        [-0.238184862293197, 51.57207824096756],
        [-0.238185904692683, 51.57205127967113],
        [-0.23817924959513, 51.57203679205134],
        [-0.238138745950952, 51.5720020131503],
        [-0.237884205092035, 51.57190467119089],
        [-0.23784060886511, 51.57187524113602],
        [-0.237831312770195, 51.57185441921617],
        [-0.237836508209585, 51.5718320164422],
        [-0.237851694793318, 51.571812461391865],
        [-0.237903249148586, 51.57178535934913],
        [-0.237944047775483, 51.57177518118372],
        [-0.238014993584202, 51.57176905258761],
        [-0.238087103589063, 51.571770135280886],
        [-0.238132976015987, 51.571778017860545],
        [-0.238169986775302, 51.571791162767795],
        [-0.238381974118391, 51.57190674918135],
        [-0.23844393724796, 51.571946346288335],
        [-0.238491617374375, 51.571982132038904],
        [-0.238701869598543, 51.572142653389974],
        [-0.238866475194402, 51.572252132360916],
        [-0.239056968341686, 51.57221452560904],
        [-0.239209040183531, 51.57208821738227],
        [-0.239437812327655, 51.572068269766056],
        [-0.239651556044569, 51.57210115091889],
        [-0.239748566115708, 51.572092714560114],
        [-0.239806462870935, 51.57208818760607],
        [-0.239903820016652, 51.57207076401157],
        [-0.239995600863844, 51.57208562903262],
        [-0.240075011048951, 51.57212189000921],
        [-0.240061078373853, 51.5721837280192],
        [-0.239972100008367, 51.57228310746077],
        [-0.239905395130889, 51.57232886702937],
        [-0.239903119796996, 51.57235041445415],
        [-0.239916882451753, 51.57236770626883],
        [-0.239939472005319, 51.572380634313944],
        [-0.239969480949616, 51.57238827824326],
        [-0.240016935405157, 51.57239258688217],
        [-0.240080462564971, 51.57239174115884],
        [-0.240138429089011, 51.572385416622986],
        [-0.240331493894773, 51.57235593945203],
        [-0.240462523580344, 51.57228866335507],
        [-0.240521615568065, 51.57221581239245],
        [-0.240561735203282, 51.57218584005004],
        [-0.240584741247948, 51.572187983440024],
        [-0.24064799053337, 51.57219432709483],
        [-0.240625251378191, 51.57229739777493],
        [-0.240687390497587, 51.57233250016288],
        [-0.240718460093246, 51.572350051344785],
        [-0.240785079805494, 51.57234385621529],
        [-0.240869159849948, 51.57229655815026],
        [-0.240956203413717, 51.57213510208251],
        [-0.241108433733694, 51.57211670154435],
        [-0.24120617742075, 51.57216402731146],
        [-0.241270472842469, 51.5722180455622],
        [-0.241343927460766, 51.572296480280926],
        [-0.241370086651279, 51.572403880815344],
        [-0.241376069306611, 51.57247321126963],
        [-0.241354045487866, 51.572595176651845],
        [-0.241361276788206, 51.57263215349717],
        [-0.241374762607186, 51.57265663483666],
        [-0.24139439889197, 51.57267131680234],
        [-0.241411393512619, 51.572679664559764],
        [-0.241497462120948, 51.57273041203621],
        [-0.241742052270902, 51.57274936388176],
        [-0.242015542686449, 51.57280471740192],
        [-0.242141606600903, 51.57279131891114],
        [-0.242216949534831, 51.57278345517303],
        [-0.242373563900319, 51.57280108789257],
        [-0.242492104566381, 51.57279566942487],
        [-0.242559660569775, 51.57276520807183],
        [-0.242592290918215, 51.572742316730846],
        [-0.242604383359005, 51.57272811012654],
        [-0.242606553458994, 51.57270925877456],
        [-0.242601512393204, 51.572690299431585],
        [-0.242583283278052, 51.572676537974615],
        [-0.242482063319843, 51.57264444823723],
        [-0.242455250201005, 51.572628759738656],
        [-0.24243458732029, 51.57260327180498],
        [-0.242418597787689, 51.572568861550714],
        [-0.242418611438155, 51.57253109405266],
        [-0.24249678261229, 51.572487303255635],
        [-0.242616730015758, 51.572482804965254],
        [-0.2427917805606, 51.57250880629923],
        [-0.242867976018433, 51.572516241837896],
        [-0.242918488634244, 51.57251609893634],
        [-0.242969243820395, 51.5725096650282],
        [-0.243004203798432, 51.572501196149354],
        [-0.243209844609627, 51.572444925609204],
        [-0.243376337008792, 51.57239346409133],
        [-0.243645954260957, 51.5723246619719],
        [-0.2439209462201, 51.572303598902465],
        [-0.244038619656122, 51.572320646673646],
        [-0.244112368527567, 51.57235412249041],
        [-0.244115183713979, 51.5723559630749],
        [-0.244103898469615, 51.57242413576148],
        [-0.244125287369354, 51.57254315426685],
        [-0.244152101022888, 51.5725588423889],
        [-0.244179226356694, 51.57256644209073],
        [-0.244223831604626, 51.57256980716314],
        [-0.244288974353651, 51.57256448717734],
        [-0.244338494940384, 51.57255263882161],
        [-0.244388950374258, 51.57251652519911],
        [-0.244445394348847, 51.57243733806439],
        [-0.244458779153833, 51.572352111371316],
        [-0.244489389380986, 51.57230670851697],
        [-0.244520403107485, 51.572288288615326],
        [-0.244646649812837, 51.5722326263292],
        [-0.244764485221639, 51.57217054348393],
        [-0.244900711529039, 51.57204309172841],
        [-0.245101963553657, 51.571950783020185],
        [-0.245241903961485, 51.57191420872539],
        [-0.245453908885426, 51.57191737866965],
        [-0.245655854705799, 51.57203190246312],
        [-0.245774464272403, 51.57213708709801],
        [-0.245791113546346, 51.57215442136272],
        [-0.245819300583485, 51.57217192809395],
        [-0.24586915552895, 51.57218885947584],
        [-0.245932301838322, 51.57219789642963],
        [-0.245992909662044, 51.57219790310064],
        [-0.246042429422321, 51.57218605401708],
        [-0.246065989213434, 51.57217381691625],
        [-0.246086941282158, 51.5721543469907],
        [-0.246111469577406, 51.57211694589728],
        [-0.2463948598097, 51.57176508567291],
        [-0.24662458146914, 51.571645323647914],
        [-0.246673315261096, 51.57161637717489],
        [-0.246717006321259, 51.571568471496306],
        [-0.246731023450782, 51.571541703999195],
        [-0.246734841440064, 51.57151748181322],
        [-0.246728598616013, 51.57149221008324],
        [-0.246720567825259, 51.5714759039465],
        [-0.246544152061103, 51.571297918070684],
        [-0.246472433145416, 51.57124918718825],
        [-0.246273673880584, 51.57116438701631],
        [-0.24614228296955, 51.57109138414844],
        [-0.246023709799192, 51.57098530117124],
        [-0.246008918125481, 51.57095720392942],
        [-0.246007140677514, 51.57092840197538],
        [-0.246025622914807, 51.57089810437394],
        [-0.246385766077394, 51.570613934397166],
        [-0.246464632054666, 51.57051439905173],
        [-0.246502978775398, 51.57041785512286],
        [-0.246513688467303, 51.57017702127659],
        [-0.246574507126345, 51.57002146386637],
        [-0.246558960753734, 51.56986296692872],
        [-0.246495966071954, 51.56981256793403],
        [-0.246361746475739, 51.569925663818],
        [-0.246259689394418, 51.569952914041615],
        [-0.246182840465978, 51.56996255630484],
        [-0.246118324217249, 51.569951700529074],
        [-0.24608817744535, 51.56994765303089],
        [-0.246071148369755, 51.5699402046627],
        [-0.246058722454301, 51.569925631244935],
        [-0.24605258396933, 51.569897663335986],
        [-0.246057751118836, 51.569838391321106],
        [-0.246069990616225, 51.56978282193539],
        [-0.246103042643147, 51.56971137745693],
        [-0.24616484407, 51.56960529263809],
        [-0.246480412199188, 51.569429263119424],
        [-0.246587634361563, 51.56934274063915],
        [-0.246615830102001, 51.56932247962242],
        [-0.246631427002849, 51.56929213881182],
        [-0.246631402517698, 51.56925526997453],
        [-0.246560620274401, 51.56918227387091],
        [-0.246524701421275, 51.56906573635358],
        [-0.246554857803497, 51.56903201618262],
        [-0.246609599317546, 51.568996864891055],
        [-0.246631784323218, 51.56898280867653],
        [-0.24686125405487, 51.56898174094935],
        [-0.247028841195539, 51.56901391915037],
        [-0.247192171345818, 51.56904423506256],
        [-0.24736781800778, 51.568979416215655],
        [-0.24738258481274, 51.56897064445251],
        [-0.247393370868953, 51.56895282092485],
        [-0.247391454347859, 51.56892761383402],
        [-0.247344530648426, 51.5688720599215],
        [-0.247281778373722, 51.568815370341824],
        [-0.247147853937888, 51.56873333839397],
        [-0.247083487153085, 51.5686811207434],
        [-0.24702365424689, 51.5686235753986],
        [-0.247041245817078, 51.568578876633055],
        [-0.247134760074802, 51.56851103273813],
        [-0.247309817184247, 51.568461492105094],
        [-0.247615162853524, 51.56847594386554],
        [-0.24786182258698, 51.568515596291505],
        [-0.248080141093259, 51.56861687201937],
        [-0.248225716173894, 51.56865861142761],
        [-0.248552487340485, 51.568528604403674],
        [-0.248597019932086, 51.56853376521239],
        [-0.24870627463452, 51.56854438808896],
        [-0.248771118277605, 51.56862179042159],
        [-0.248850659509011, 51.56869221819869],
        [-0.248999456957661, 51.568762780113765],
        [-0.249058989877974, 51.56879064534169],
        [-0.249180456808301, 51.56885900076051],
        [-0.249330091715234, 51.56887022551248],
        [-0.249428320519954, 51.56890496244915],
        [-0.249495091295826, 51.56896980388573],
        [-0.249582293602121, 51.569028655435496],
        [-0.249672242315969, 51.569091144806045],
        [-0.249785058212369, 51.56915937054963],
        [-0.250009372343012, 51.56936774050425],
        [-0.250034433491821, 51.56939149422926],
        [-0.250219439643057, 51.56957140142581],
        [-0.250500332705054, 51.56984715709531],
        [-0.250768663676058, 51.57011193404367],
        [-0.251149505803835, 51.5702650841233],
        [-0.251205088559294, 51.570320765509564],
        [-0.251281476271081, 51.57039833842996],
        [-0.251322016919523, 51.57046998174851],
        [-0.251377484310528, 51.570603894367],
        [-0.251512955368526, 51.570758782085726],
        [-0.251611034009429, 51.570910414847376],
        [-0.25175295918261, 51.571085181495675],
        [-0.251772287890856, 51.57110795020228],
        [-0.251910864508334, 51.57118195298393],
        [-0.252083054572413, 51.57128253394506],
        [-0.252510292051346, 51.57150561125702],
        [-0.252663450021396, 51.57168863709723],
        [-0.25286333091218, 51.571970374417795],
        [-0.253035669269661, 51.57229306593501],
        [-0.253084252335191, 51.57234324680575],
        [-0.253106191071363, 51.5723732479738],
        [-0.25313111288931, 51.57243836350769],
        [-0.253130005642082, 51.572504890034836],
        [-0.253101254712532, 51.57257729966913],
        [-0.253051524726295, 51.572632311627615],
        [-0.253018865188247, 51.572656104644786],
        [-0.252970478794836, 51.57267606660705],
        [-0.252890604262323, 51.57268926515567],
        [-0.252640924344418, 51.57269004385445],
        [-0.252519155784033, 51.57270441680399],
        [-0.252314696840048, 51.572730147391646],
        [-0.25211861534433, 51.572763196240615],
        [-0.251859724119527, 51.57281599141873],
        [-0.251697566192531, 51.57286752950634],
        [-0.251491720536106, 51.57296697486367],
        [-0.251429559722251, 51.57300741324856],
        [-0.251389204998092, 51.573043680375996],
        [-0.251366226207392, 51.573078407945545],
        [-0.251355365450803, 51.573135796829064],
        [-0.251372424838327, 51.573180113294626],
        [-0.251442393236445, 51.57327467576409],
        [-0.251825176332361, 51.57371650511687],
        [-0.251965530627952, 51.57389484489713],
        [-0.252128474280183, 51.57412387781473],
        [-0.252353421785609, 51.57446713681586],
        [-0.252623102915303, 51.57492346512978],
        [-0.25271596573083, 51.57513616674506],
        [-0.252790615244168, 51.57544751235406],
        [-0.252818491769623, 51.57551087344806],
        [-0.252934296178413, 51.57572751333027],
        [-0.253233892293021, 51.57653318638654],
        [-0.253353329867604, 51.57684339971231],
        [-0.253427625749183, 51.57701356054953],
        [-0.253569291794521, 51.57727104991557],
        [-0.253597893895908, 51.577315537780194],
        [-0.2536496042881, 51.57739723790193],
        [-0.253944046856563, 51.577810768275455],
        [-0.254078820208322, 51.578022293736005],
        [-0.254102958268318, 51.57807031197116],
        [-0.254245304191955, 51.5784608964318],
        [-0.254415403130169, 51.57884290119698],
        [-0.2544647062777, 51.57898751113313],
        [-0.254612988924221, 51.57948699003422],
        [-0.254631798730559, 51.57959877413658],
        [-0.254630452225889, 51.57967159163518],
        [-0.254613273028129, 51.57974327443771],
        [-0.254586409694583, 51.579804022466625],
        [-0.254484392567729, 51.57994278484931],
        [-0.254429704867924, 51.58005167734584],
        [-0.254372158591886, 51.580235163274494],
        [-0.254335357660501, 51.58040457009343],
        [-0.254316378973001, 51.58059852117122],
        [-0.254311958886743, 51.580826859481746],
        [-0.25431837137199, 51.58092317232021],
        [-0.254334219183552, 51.58111224604035],
        [-0.254349355688475, 51.58120689017993],
        [-0.254394088485551, 51.581395494293986],
        [-0.254395798710723, 51.581463861095045],
        [-0.254379548252898, 51.5815112784948],
        [-0.254334891075068, 51.58158435098797],
        [-0.254122815374909, 51.58180780187098],
        [-0.25399871062003, 51.581920157614675],
        [-0.253829438742315, 51.58204353118134],
        [-0.253692181977816, 51.58212241946714],
        [-0.253539504706591, 51.58218938815107],
        [-0.253416746091372, 51.5822289258132],
        [-0.253211486546272, 51.582274429270264],
        [-0.253142790893901, 51.582296786732535],
        [-0.252885140667935, 51.582428734966484],
        [-0.252535740740889, 51.58261956486836],
        [-0.252417302212727, 51.58269693341452],
        [-0.252303874927326, 51.58279415949477],
        [-0.252044345416423, 51.58305017144836],
        [-0.251667870530135, 51.58345730960909],
        [-0.25140928437939, 51.583575752267365],
        [-0.250822884414693, 51.58369830134188],
        [-0.25038163800206, 51.583799631570535],
        [-0.249931906749031, 51.583896337482855],
        [-0.24850368657871, 51.58425180850609],
        [-0.248367589066515, 51.58430013414563],
        [-0.248284314693506, 51.58436363571923],
        [-0.248534593013578, 51.5845741936123],
        [-0.249982066087502, 51.586047140652774],
        [-0.25035025837497, 51.58638264693602],
        [-0.251937606026196, 51.587937685175504],
        [-0.252536488203096, 51.58854458985521],
        [-0.253129458124568, 51.58904259680467],
        [-0.253387382163963, 51.5892055986647],
        [-0.253932259115972, 51.58956530391506],
        [-0.253949090021822, 51.58957814348776],
        [-0.254270188182566, 51.5897879437569],
        [-0.254760570384334, 51.59006320635839],
        [-0.255629733704194, 51.59070109016624],
        [-0.257028489166339, 51.5917604774024],
        [-0.257421207727526, 51.59202348750943],
        [-0.257691082370578, 51.59225230062221],
        [-0.258039593446369, 51.59257669898083],
        [-0.258245885452897, 51.592769497256846],
        [-0.259770163925117, 51.594174217789515],
        [-0.260641470722266, 51.59491100986749],
        [-0.261901910398306, 51.595969186411395],
        [-0.262399113007513, 51.59637130799071],
        [-0.262682162420336, 51.59659670732115],
        [-0.263376807722575, 51.597122243078196],
        [-0.263877637984435, 51.597467760663754],
        [-0.264275775826472, 51.597780284639605],
        [-0.264761474590647, 51.59818222575485],
        [-0.265187703089924, 51.598553611424215],
        [-0.265730632984, 51.59900765004734],
        [-0.266153722517451, 51.59942394692874],
        [-0.267052122829789, 51.600288779750045],
        [-0.267155869443294, 51.600370342358225],
        [-0.267615671994523, 51.600733222256466],
        [-0.268448059658238, 51.60147477515779],
        [-0.268736225406256, 51.601719118543386],
        [-0.270079712765224, 51.60276763819141],
        [-0.270246570615033, 51.60289868614325],
        [-0.272970145735699, 51.60502588666345],
        [-0.273807664218311, 51.60571262302225],
        [-0.274893602223054, 51.606932646417384],
        [-0.27493258509469, 51.606970986654815],
        [-0.275272227620597, 51.60730689134995],
        [-0.275555489503344, 51.607568230538405],
        [-0.276036802465826, 51.60801501993611],
        [-0.276445559426008, 51.608318664866566],
        [-0.276652768667313, 51.60845299350484],
        [-0.27713596369927, 51.60873614741765],
        [-0.277315173838351, 51.60888535069617],
        [-0.277937459119727, 51.609424122926384],
        [-0.27874597367466, 51.610156257542656],
        [-0.279339915773098, 51.61071978465652],
        [-0.279367901565929, 51.6107435746215],
        [-0.280150394682747, 51.61143934889042],
        [-0.281482088990556, 51.61269977679934],
        [-0.282199703229832, 51.61335592054523],
        [-0.283412315187268, 51.61429176275858],
        [-0.283962194849179, 51.614647800456765],
        [-0.284185402346215, 51.61478055079743],
        [-0.284410088636445, 51.61491242309403],
        [-0.285307043435826, 51.61541110667804],
        [-0.286003758901889, 51.61589606925679],
        [-0.286852274278742, 51.61660804789066],
        [-0.287565593448056, 51.61715169250159],
        [-0.287698774362797, 51.617297510274945],
        [-0.288008667292022, 51.61777591865088],
        [-0.288276186087522, 51.61803699636925],
        [-0.289600303757524, 51.61916413363181],
        [-0.291673425546281, 51.620889346764955],
        [-0.29267661791544, 51.62175729876382],
        [-0.293151062084336, 51.62220301612949],
        [-0.293870981931821, 51.62280606542898],
        [-0.294364078937218, 51.62329431202001],
        [-0.294879480140823, 51.62380446161901],
        [-0.295188975645539, 51.624103899728105],
        [-0.295907979794429, 51.62469433369462],
        [-0.297275758053388, 51.62590024673798],
        [-0.297712852489821, 51.62626537285255],
        [-0.298027423619224, 51.62650732684443],
        [-0.298668867502016, 51.62697162769793],
        [-0.299254915464897, 51.62741084363378],
        [-0.300153081836352, 51.628197177535256],
        [-0.300543172022962, 51.62862275894169],
        [-0.301182356013466, 51.62926505780473],
        [-0.301838448790421, 51.62984195477684],
        [-0.302185879284414, 51.63013382939786],
        [-0.302538990010218, 51.63042848272412],
        [-0.30395392004459, 51.63146414558815],
        [-0.3044847725197, 51.632030225855374],
        [-0.305052296854998, 51.63277577694286],
        [-0.305462270890671, 51.63336798317466],
        [-0.305597635000039, 51.63411718488031],
        [-0.305585398217605, 51.63432922316188],
        [-0.305574220880626, 51.63439650302586],
        [-0.30504985575481, 51.63539965291245],
        [-0.304482738231355, 51.63634733094027],
        [-0.304451231812331, 51.63633968225405],
        [-0.304349625211217, 51.63631303693219],
        [-0.304301262440206, 51.636369888284214],
        [-0.304160330238834, 51.636428999540044],
        [-0.303994003707039, 51.636471557948944],
        [-0.303808663705288, 51.636481469702666],
        [-0.303569647403169, 51.636458233906836],
        [-0.30336260718623, 51.636430064380264],
        [-0.30320312646216, 51.63636661316335],
        [-0.303077839661469, 51.636316244925744],
        [-0.3030422689804, 51.63630134339807],
        [-0.302996722440949, 51.636282700817915],
        [-0.30294408865491, 51.63626035892359],
        [-0.302746551029337, 51.636132512716586],
        [-0.302436372452996, 51.63635103413821],
        [-0.301781063238147, 51.636253434947676],
        [-0.30124926028245, 51.636137836261376],
        [-0.301104394598964, 51.63610876381363],
        [-0.300926579198433, 51.63607202066403],
        [-0.300667884406225, 51.63595677416259],
        [-0.300618006357883, 51.63593806796214],
        [-0.300476970952257, 51.63588387212551],
        [-0.300337044187004, 51.63583868432422],
        [-0.300205245761973, 51.635808001480754],
        [-0.300101795413213, 51.63579211635857],
        [-0.299877630841388, 51.6357582974361],
        [-0.299660217432399, 51.63573716487342],
        [-0.299612690806492, 51.63573287974896],
        [-0.2994283951089, 51.63571492400224],
        [-0.29882723925592, 51.63575387416004],
        [-0.298763489390397, 51.63575834580088],
        [-0.298702661693192, 51.635761960532],
        [-0.298499891426636, 51.63577430898362],
        [-0.29824059247926, 51.6357912330991],
        [-0.297743158711302, 51.63576154209938],
        [-0.29723272718532, 51.63573166049388],
        [-0.296151062411163, 51.635443506573246],
        [-0.294406496050829, 51.63564657864622],
        [-0.294105739665662, 51.63572853421482],
        [-0.293599141087939, 51.63590461308111],
        [-0.293338517740231, 51.63599524289351],
        [-0.292189703203099, 51.63637958964208],
        [-0.292043349784319, 51.63642871619621],
        [-0.2918913201777, 51.6364750623448],
        [-0.291740539695905, 51.636488155452774],
        [-0.29137926387526, 51.63648829407275],
        [-0.290574935894458, 51.63658808973085],
        [-0.289928911887178, 51.63666680593252],
        [-0.289411998591823, 51.636617013166735],
        [-0.289278118766741, 51.63660337282615],
        [-0.2891415871763, 51.63658339917488],
        [-0.288366936359024, 51.636470497709595],
        [-0.288101819190623, 51.636488213864205],
        [-0.287810569216289, 51.63650914521652],
        [-0.287253500912698, 51.63664309688372],
        [-0.286936612957191, 51.6366924270402],
        [-0.286505714279063, 51.6367760612884],
        [-0.28601573326122, 51.636855234651314],
        [-0.285523899577674, 51.6369451695324],
        [-0.285195697844838, 51.63706446875858],
        [-0.28508066891105, 51.63712573397642],
        [-0.284650358267897, 51.63742338376687],
        [-0.284282427784126, 51.63759964996484],
        [-0.283897996201906, 51.63779185976248],
        [-0.282935846515773, 51.6380133885224],
        [-0.281414678071714, 51.63834272771226],
        [-0.2805474094554, 51.63830934866466],
        [-0.2804303497475, 51.638309432823554],
        [-0.280050997833651, 51.63829038835048],
        [-0.279418444537244, 51.63827932244445],
        [-0.279041929447287, 51.63829988185975],
        [-0.278636527221241, 51.63832001657976],
        [-0.278243559876667, 51.638393386098066],
        [-0.277963760872695, 51.63845492581522],
        [-0.27779760751921, 51.63849205448722],
        [-0.277345978031914, 51.638587940246616],
        [-0.27701050791397, 51.63866934294042],
        [-0.276760948340588, 51.63877178834708],
        [-0.276498729160276, 51.638865055225224],
        [-0.275905494828153, 51.63880778821618],
        [-0.275513312280479, 51.6387840445989],
        [-0.275121164273102, 51.6387594009579],
        [-0.274750579672093, 51.6387377704987],
        [-0.274019317330134, 51.63870004700024],
        [-0.273737180367311, 51.63867072125956],
        [-0.273745322481901, 51.63876076279818],
        [-0.273985004929192, 51.63884251832865],
        [-0.274164468797047, 51.638911698431684],
        [-0.274174158506022, 51.63899906502452],
        [-0.274183643536867, 51.63909182391618],
        [-0.274200145778646, 51.639304281967014],
        [-0.273911132070632, 51.63987463413363],
        [-0.273724438179434, 51.64026215020034],
        [-0.273563856906716, 51.64045671801436],
        [-0.273378898525326, 51.64079839892076],
        [-0.273176719740335, 51.64106069509338],
        [-0.273145769585759, 51.64119062654198],
        [-0.273128867079635, 51.641255121660635],
        [-0.273087474598036, 51.64143165885524],
        [-0.272920251630811, 51.64176280924769],
        [-0.27287810657815, 51.641959118087755],
        [-0.272890249560482, 51.64209597782774],
        [-0.271946199668682, 51.64210366945828],
        [-0.27155526468895, 51.64208442722106],
        [-0.271125979271003, 51.642047533876806],
        [-0.270647215479623, 51.6420575688217],
        [-0.270060877872644, 51.64208400135723],
        [-0.269745762690439, 51.642161187245655],
        [-0.26946126120946, 51.64226939690308],
        [-0.269434945614619, 51.64223933485759],
        [-0.268805449321897, 51.64229839612767],
        [-0.268270361468583, 51.6423831253103],
        [-0.268332606346007, 51.64275991657246],
        [-0.26841251537915, 51.64305244174433],
        [-0.268428060688767, 51.643251398229786],
        [-0.268422082127225, 51.643484207596224],
        [-0.268414324833012, 51.64357401502589],
        [-0.268405561608362, 51.64361435061723],
        [-0.268365661435898, 51.64378910976421],
        [-0.268369864458498, 51.64383053578415],
        [-0.266791127475067, 51.644107582341285],
        [-0.265554995525999, 51.644041671329404],
        [-0.265235068315734, 51.64401716242857],
        [-0.264818866877319, 51.64390220737922],
        [-0.264749015830124, 51.64391466342529],
        [-0.264675822893611, 51.64386322552133],
        [-0.264635064535647, 51.64383294895057],
        [-0.264572741604869, 51.64379965599905],
        [-0.264532669674076, 51.64375140516411],
        [-0.264473853625093, 51.64370197805391],
        [-0.264382878063991, 51.643624199786736],
        [-0.264250620165549, 51.64383266196579],
        [-0.264057465482325, 51.643781248750635],
        [-0.263296171808842, 51.644830170278105],
        [-0.263229034130438, 51.644809394469924],
        [-0.263124716392849, 51.644778177269],
        [-0.262969426011697, 51.64471922938778],
        [-0.262779190701413, 51.64462919087081],
        [-0.262687254383094, 51.644576575204745],
        [-0.262461901928237, 51.64442217205472],
        [-0.262221590405264, 51.6442810353574],
        [-0.262045700475778, 51.64419390558611],
        [-0.261843466316079, 51.64411537777326],
        [-0.261725737156127, 51.64405698421896],
        [-0.261628609521184, 51.643989004133516],
        [-0.26151383797048, 51.64389108851473],
        [-0.261361371716983, 51.64375844432611],
        [-0.261314252654658, 51.643705591932125],
        [-0.2612938571927, 51.64367201882739],
        [-0.261272360493731, 51.64359167002364],
        [-0.261264963321619, 51.64340722058894],
        [-0.261242985473763, 51.643339453717545],
        [-0.261187165178821, 51.64324960443709],
        [-0.26107012594092, 51.64309770163082],
        [-0.261036111337609, 51.64304234552501],
        [-0.260954703247574, 51.6428657921379],
        [-0.260913569757153, 51.642807632901594],
        [-0.260870441722456, 51.64276383161507],
        [-0.26073672485724, 51.64267013068438],
        [-0.260473041383906, 51.64253583784684],
        [-0.260280894129604, 51.642458355917064],
        [-0.260178097094875, 51.64242536013693],
        [-0.260047889941648, 51.64239105888161],
        [-0.25975542298461, 51.64232917465087],
        [-0.259315899114594, 51.64222014877233],
        [-0.258938693785632, 51.64214441719026],
        [-0.25876051182392, 51.64211749610657],
        [-0.258414980997091, 51.642082697412434],
        [-0.258406937711793, 51.641990857719755],
        [-0.257907918523334, 51.64196367226736],
        [-0.25772819013378, 51.64193942432355],
        [-0.257614975051466, 51.641914364672104],
        [-0.257507779011635, 51.641883099695114],
        [-0.25735666693392, 51.64182870236937],
        [-0.257267962368135, 51.64195597427011],
        [-0.256910172105779, 51.64258011719945],
        [-0.25649260340441, 51.643142224501624],
        [-0.256196038962717, 51.64348851626906],
        [-0.255511756466305, 51.643241857307075],
        [-0.255482655667284, 51.64328458750576],
        [-0.255444439492581, 51.643338872123635],
        [-0.255380218172979, 51.643430537578396],
        [-0.254766494712933, 51.643604858198216],
        [-0.254513698731955, 51.64367663506711],
        [-0.254069512988497, 51.644178090482185],
        [-0.253693445941324, 51.64471203000493],
        [-0.252990598134248, 51.64562507374148],
        [-0.252583416644755, 51.64614056241104],
        [-0.252275266501008, 51.64656130719725],
        [-0.252071343188434, 51.646902672943405],
        [-0.251900511679265, 51.647210360634844],
        [-0.251765212825053, 51.64749609660843],
        [-0.251581552478893, 51.647949266387975],
        [-0.25141857060069, 51.648353286724806],
        [-0.251404047313966, 51.64839263611247],
        [-0.251296700902942, 51.648703066692214],
        [-0.251217059413861, 51.648932080807356],
        [-0.25107867506262, 51.64944797016121],
        [-0.250445099966796, 51.65208763188978],
        [-0.249880965825033, 51.65461142601067],
        [-0.250377635043254, 51.654665586344485],
        [-0.25059263071183, 51.65471375031435],
        [-0.250756676748441, 51.654771046366214],
        [-0.250816045347194, 51.65480610100196],
        [-0.25091589602549, 51.65487862653402],
        [-0.251072226356207, 51.65498616345447],
        [-0.251170425426062, 51.65506405947698],
        [-0.251356918108896, 51.65521430845792],
        [-0.251281189507393, 51.65526623467505],
        [-0.2512054607325, 51.65531816084124],
        [-0.251277421705922, 51.65551436286118],
        [-0.25127514663752, 51.65553591022494],
        [-0.251232079855022, 51.65567824462647],
        [-0.251178058023169, 51.655729594807696],
        [-0.251062348024048, 51.655806103587004],
        [-0.250835062251634, 51.65592681052325],
        [-0.250607533034927, 51.65605380792626],
        [-0.250483748929242, 51.656077141973434],
        [-0.250435271749603, 51.65609710177528],
        [-0.250277528224169, 51.65613881324781],
        [-0.250110458645936, 51.656047301205646],
        [-0.249977910236096, 51.65603543460023],
        [-0.249871222127589, 51.65606531730107],
        [-0.249735721512065, 51.65616760717731],
        [-0.249372876061035, 51.65605429241182],
        [-0.249007108046423, 51.65594183215404],
        [-0.24890217143611, 51.655851244794334],
        [-0.248511112062432, 51.65564488708994],
        [-0.24829454130512, 51.65556252551839],
        [-0.248019862325429, 51.6553749872542],
        [-0.247890446533509, 51.6552444681249],
        [-0.24676307669778, 51.655574740646735],
        [-0.246498838640956, 51.65567870161221],
        [-0.246029055999665, 51.65586411873954],
        [-0.245857889118303, 51.65591641442759],
        [-0.245155740265876, 51.65612893034841],
        [-0.244715018925491, 51.656310280434404],
        [-0.244413038496085, 51.65649280387416],
        [-0.244010670347778, 51.656579407478986],
        [-0.243923212405366, 51.656597882499995],
        [-0.243649473097051, 51.65668550907889],
        [-0.243381214176637, 51.656743542770734],
        [-0.243189514339928, 51.656765853221025],
        [-0.243008762791465, 51.656766745903475],
        [-0.242868155608945, 51.65677633195944],
        [-0.242711202549993, 51.656797363096096],
        [-0.242600347138567, 51.656822680764506],
        [-0.24239311975147, 51.656872633341855],
        [-0.242129594571865, 51.65695771161281],
        [-0.241909311321665, 51.65704613433456],
        [-0.241390072181989, 51.657201118381366],
        [-0.241018338372444, 51.65683226632847],
        [-0.239983006576602, 51.65717284489349],
        [-0.239643712941205, 51.65727296797313],
        [-0.239224006944268, 51.65739616334739],
        [-0.238493131778941, 51.65763968162702],
        [-0.237995897021862, 51.65778598861364],
        [-0.238300446560099, 51.65824646203708],
        [-0.237691420573266, 51.65840457896124],
        [-0.237267743143837, 51.65859245161663],
        [-0.237114906986498, 51.65861893242644],
        [-0.237007646544837, 51.65866318242489],
        [-0.236702700400744, 51.658771905691324],
        [-0.236489608216598, 51.65882355829486],
        [-0.236215617790594, 51.65887969120254],
        [-0.235780886720558, 51.65894240098527],
        [-0.235141890654677, 51.65901552786838],
        [-0.234951469484178, 51.65900457301711],
        [-0.234731974505212, 51.65899767692541],
        [-0.234413229456014, 51.65856845339382],
        [-0.234252131490882, 51.65824950582429],
        [-0.234097408343276, 51.65832451221384],
        [-0.23388917434326, 51.65836274485918],
        [-0.233564435828288, 51.6584226044668],
        [-0.233268502497868, 51.65852246222087],
        [-0.232452441824498, 51.65879883189162],
        [-0.231298535835611, 51.65921128565499],
        [-0.231153569443312, 51.65929542734667],
        [-0.231039681900118, 51.659361153391785],
        [-0.230727122505777, 51.65940500269474],
        [-0.230581864665093, 51.65945946503047],
        [-0.230125903709437, 51.65965851553232],
        [-0.229917669582625, 51.65973360920363],
        [-0.229773381290276, 51.65972603896555],
        [-0.2294876951523, 51.659859312876065],
        [-0.228943984502993, 51.65997250913296],
        [-0.228837747674427, 51.659916054481954],
        [-0.228513517399304, 51.659962419560195],
        [-0.228441390289262, 51.659550387808565],
        [-0.228385600216793, 51.65938678728353],
        [-0.228294317277209, 51.6592064652925],
        [-0.228475744168889, 51.65918852021437],
        [-0.228236124791516, 51.65884499992539],
        [-0.22808276534916, 51.65858820663629],
        [-0.227993331002341, 51.65847175692884],
        [-0.227319628657044, 51.65787799501292],
        [-0.227002462327925, 51.657558479617286],
        [-0.226635016062802, 51.65726787834326],
        [-0.226487476233028, 51.6571586429466],
        [-0.225888177428284, 51.65747420937448],
        [-0.226068885722543, 51.657622613065044],
        [-0.225590021660077, 51.65785277277045],
        [-0.224998558948194, 51.65811539907267],
        [-0.223938499344581, 51.65860383458769],
        [-0.222903445397864, 51.65915468527919],
        [-0.221628080476965, 51.659749546768154],
        [-0.221262197243106, 51.65997330686395],
        [-0.220264189426141, 51.660462649373144],
        [-0.219825690227739, 51.660657428665736],
        [-0.219440298457564, 51.66075139955971],
        [-0.219272255230643, 51.66079651030213],
        [-0.218919491780527, 51.66005829528775],
        [-0.217152467832791, 51.66061597645662],
        [-0.214805481153219, 51.661691760305274],
        [-0.214546559348216, 51.661841590964976],
        [-0.213525636278269, 51.662322435287805],
        [-0.213418026406826, 51.66237475156161],
        [-0.212839141712324, 51.66194690616637],
        [-0.212449874735202, 51.66158758743155],
        [-0.212159915242432, 51.66135027498974],
        [-0.211909131784607, 51.66147684400311],
        [-0.211561176111624, 51.6616109249114],
        [-0.211038640145433, 51.661808887901756],
        [-0.210012205625191, 51.66217181982024],
        [-0.208122464370125, 51.66279313864086],
        [-0.207888559174334, 51.66285791033929],
        [-0.209724022155267, 51.665301215327695],
        [-0.210446234446224, 51.666128715814594],
        [-0.211158533401846, 51.66695156449827],
        [-0.209863477041195, 51.66755948793401],
        [-0.20798417894918, 51.66659114067806],
        [-0.207451583664726, 51.66711535195504],
        [-0.207086536372018, 51.6674245071609],
        [-0.20576058090694, 51.668483323263295],
        [-0.205659168735723, 51.66859777349098],
        [-0.204735335108135, 51.6684820430937],
        [-0.203886599794696, 51.66833238428291],
        [-0.203581442973866, 51.668223407209986],
        [-0.203296117133178, 51.66816149226696],
        [-0.203187643461539, 51.66808879418109],
        [-0.202858370554309, 51.66800462445669],
        [-0.202694872754024, 51.667933781562645],
        [-0.20225468911314, 51.66780205239633],
        [-0.202405250242498, 51.66845539384129],
        [-0.20254726794053, 51.66895933339584],
        [-0.202617285849144, 51.66912676105676],
        [-0.202633117952189, 51.66931134385547],
        [-0.203377581356253, 51.67012304223346],
        [-0.202406428701028, 51.67006951532845],
        [-0.201811146682121, 51.67005590636696],
        [-0.201089199221186, 51.67006373407125],
        [-0.20014528778444, 51.67012570612119],
        [-0.19989636163062, 51.670166852124574]
      ]
    ]
  }
}
