{
  "type": "Feature",
  "properties": {
    "name": "Barnet",
    "level": 2,
    "londonBorough": true,
    "center": [-0.215, 51.616]
  },
  "geometry": {
    "type": "Polygon",
    "coordinates": [
      [
        [-0.19989636163062, 51.670166852124574],
        [-0.199138017932372, 51.66850335487462],
        [-0.199029896078027, 51.66820315502102],
        [-0.196960828910746, 51.668158818641075],
        [-0.196638971725181, 51.66814308618941],
        [-0.196184130476779, 51.668526363775555],
        [-0.195650001683843, 51.66843003495734],
        [-0.194877074401142, 51.66830215761822],
        [-0.196673289912396, 51.665494502288304],
        [-0.196689828781149, 51.66547857023085],
        [-0.193851996707933, 51.664988046258514],
        [-0.192555885316917, 51.664745997327366],
        [-0.19124395827811, 51.66410263653197],
        [-0.191091785369614, 51.66389347117516],
        [-0.188978371333506, 51.66648933088787],
        [-0.187815358746808, 51.667875978294965],
        [-0.185829267457645, 51.66850624465862],
        [-0.18496812705778, 51.668487543781104],
        [-0.182110401323698, 51.668600707859],
        [-0.185707566628301, 51.66315487894725],
        [-0.185891041472782, 51.66283309320233],
        [-0.165041673375437, 51.65822434879876],
        [-0.163504252697715, 51.65816614449871],
        [-0.163286237986644, 51.65808719961243],
        [-0.162779439465831, 51.657963271328164],
        [-0.160975680014699, 51.656984552902735],
        [-0.160515276355349, 51.65675073617315],
        [-0.158300254413333, 51.65625471332199],
        [-0.157979552626974, 51.656319822976364],
        [-0.157825870095001, 51.65618792320093],
        [-0.157731933624331, 51.65615137959286],
        [-0.154912290555057, 51.655557680754846],
        [-0.154787615676634, 51.655530543304415],
        [-0.154713353975554, 51.65518766919659],
        [-0.154722740682425, 51.65502775386688],
        [-0.153880888573409, 51.6546476361133],
        [-0.15378191438413, 51.65466406464252],
        [-0.153544443429561, 51.653428386127075],
        [-0.153490249949547, 51.65330344023722],
        [-0.153986367962597, 51.65322581381038],
        [-0.154230743883915, 51.652975173315134],
        [-0.15405094905391, 51.65256139900931],
        [-0.153796103006971, 51.65264281931219],
        [-0.15350193661576, 51.652695744635274],
        [-0.152890424585894, 51.65184264928055],
        [-0.152564536131524, 51.651467039690885],
        [-0.152329977693911, 51.650054255257906],
        [-0.152270522141307, 51.64984559746751],
        [-0.15101943884562, 51.650075890046736],
        [-0.149919598848194, 51.648792449391834],
        [-0.1517285932217, 51.648171693436666],
        [-0.15227393333469, 51.647984243905924],
        [-0.152383340550364, 51.64763976167689],
        [-0.151386367263302, 51.64731023833239],
        [-0.151068296311576, 51.64720541565329],
        [-0.151309252143185, 51.646825237995365],
        [-0.152168136267356, 51.645822626550036],
        [-0.151599812383733, 51.64565181973221],
        [-0.151751804190564, 51.645361962203104],
        [-0.150338113086831, 51.64525787094075],
        [-0.149243612806599, 51.645301772003414],
        [-0.14917984018829, 51.64463173858397],
        [-0.149047991221685, 51.644178245954635],
        [-0.148157771329209, 51.64240171476259],
        [-0.147920785388459, 51.64208144715446],
        [-0.145102536006854, 51.64264663790643],
        [-0.143944239860221, 51.64099802503529],
        [-0.140826077076336, 51.637977625290794],
        [-0.140437864681474, 51.637681924148794],
        [-0.138331938345556, 51.636455267674215],
        [-0.138129654373096, 51.63634864809932],
        [-0.134744196115343, 51.63482376457358],
        [-0.134534148156367, 51.63469543370237],
        [-0.134265164546107, 51.63441869141301],
        [-0.134532256457301, 51.63424848404234],
        [-0.134255888184548, 51.63408133099513],
        [-0.134436676751225, 51.63397179951754],
        [-0.134278995260066, 51.633870378041294],
        [-0.134004647335945, 51.63404136874842],
        [-0.133841516663437, 51.633896696804634],
        [-0.133687942266161, 51.63376566505725],
        [-0.133871840369738, 51.63365078846548],
        [-0.133638578997725, 51.63348971449121],
        [-0.13329522779104, 51.633264842478894],
        [-0.132043985634022, 51.63280431613378],
        [-0.131356817685536, 51.63257756447726],
        [-0.129177448344765, 51.63226948893238],
        [-0.129147234627761, 51.63226630976593],
        [-0.129555842981142, 51.63146620604521],
        [-0.129803509417846, 51.630960284984226],
        [-0.13020560939522, 51.631020643822296],
        [-0.130792158278401, 51.63014423692145],
        [-0.13114717627327, 51.62966250309654],
        [-0.130656919559834, 51.62946226143891],
        [-0.130466793363358, 51.629377403492285],
        [-0.130553719128747, 51.629301453423366],
        [-0.130850394617428, 51.629325061162284],
        [-0.131395415568678, 51.62854420826797],
        [-0.131305667617327, 51.62851310496987],
        [-0.132571603690137, 51.627099866703254],
        [-0.132700605467317, 51.626949048537554],
        [-0.133532105499469, 51.626367876296264],
        [-0.133536732094627, 51.626360755966104],
        [-0.134120444644054, 51.62456436904999],
        [-0.134123848373553, 51.62455183384408],
        [-0.134324000781764, 51.62446239355958],
        [-0.134349939840979, 51.62439356461114],
        [-0.134206158743901, 51.62398932103654],
        [-0.134221997337776, 51.623955401790305],
        [-0.134964058808353, 51.622594059570886],
        [-0.135069993506892, 51.62233586323985],
        [-0.135438400116973, 51.622335420549476],
        [-0.135571826012173, 51.62239329231269],
        [-0.135468709193782, 51.62173701062114],
        [-0.135461999377586, 51.62168924452843],
        [-0.136678847683324, 51.62086688015147],
        [-0.137231609130139, 51.620491678736244],
        [-0.139927088326478, 51.61834028338893],
        [-0.140639548433553, 51.617731996585164],
        [-0.14107196356905, 51.617648921288165],
        [-0.141291389104263, 51.61754628593876],
        [-0.142053413401049, 51.61639563677148],
        [-0.142120917102075, 51.61636972806919],
        [-0.142066772235017, 51.61617463608935],
        [-0.142057328121885, 51.616158300361874],
        [-0.144141222222295, 51.61560316395524],
        [-0.144536065494914, 51.615484411808815],
        [-0.142096946666525, 51.61303048371658],
        [-0.141417160350755, 51.61234619411326],
        [-0.139624891550654, 51.610823270701516],
        [-0.138785572324254, 51.610192189402895],
        [-0.14282266976605, 51.609051154513516],
        [-0.143450610371986, 51.60884617028251],
        [-0.143161909514039, 51.6065773241879],
        [-0.143103464523839, 51.60634619482652],
        [-0.142323218355444, 51.60504703984775],
        [-0.142214746333914, 51.604909538155695],
        [-0.142039825042895, 51.6042773029594],
        [-0.142025256015808, 51.603785189190646],
        [-0.142140861607119, 51.60328794199398],
        [-0.142179543984894, 51.60322470836436],
        [-0.143111960495716, 51.60249219618242],
        [-0.143154126926435, 51.60244969982845],
        [-0.144026819476387, 51.60123334479171],
        [-0.144199343593993, 51.60111017937148],
        [-0.144523179485566, 51.600215161754726],
        [-0.144495022734983, 51.60012659129553],
        [-0.147503068778608, 51.59901948439041],
        [-0.147412715298927, 51.598862490115145],
        [-0.151374587513591, 51.597445711182864],
        [-0.151385948611508, 51.597450386312396],
        [-0.152923482496493, 51.599056351495975],
        [-0.153030478718628, 51.59923068880912],
        [-0.153437367968972, 51.60069745209576],
        [-0.15346355881133, 51.60087051765286],
        [-0.153385226045955, 51.602089549871486],
        [-0.153312243433706, 51.602678301025676],
        [-0.154447920304262, 51.60390833423377],
        [-0.154575538344787, 51.604073102546266],
        [-0.155413102180506, 51.60467886464092],
        [-0.156141325715731, 51.60509676114543],
        [-0.156137645621692, 51.60529453528875],
        [-0.155987208922689, 51.605443243698204],
        [-0.156367634145431, 51.60535659823239],
        [-0.156395637373269, 51.60534265029084],
        [-0.156570450253412, 51.60512688148839],
        [-0.156773724820678, 51.604921450972014],
        [-0.159929679766704, 51.60022749722567],
        [-0.161730703054997, 51.59767850666335],
        [-0.161760296001813, 51.59701713201478],
        [-0.161715716426011, 51.59683388876748],
        [-0.161025848655749, 51.59511093486896],
        [-0.160970765270169, 51.59483040908032],
        [-0.16039615890226, 51.59407953360037],
        [-0.160265789221834, 51.59384009150364],
        [-0.159775303811567, 51.5925087246737],
        [-0.159675421835125, 51.59226526365467],
        [-0.158863962409698, 51.592374833286264],
        [-0.158692865838599, 51.59207180376969],
        [-0.158689264302602, 51.59205376251296],
        [-0.159351063222938, 51.59157495812144],
        [-0.159480803089257, 51.59157969048498],
        [-0.15980182406104, 51.59038783892023],
        [-0.15984677957901, 51.59020420004136],
        [-0.159768212705827, 51.58971917820343],
        [-0.16016922213509, 51.58969129421845],
        [-0.16009621407414, 51.58810389395096],
        [-0.160273117826902, 51.58797717689219],
        [-0.158640535375365, 51.587974953850704],
        [-0.158713957352485, 51.587158698182584],
        [-0.158704989928172, 51.58663070455835],
        [-0.157671913083878, 51.5865830184617],
        [-0.157429991713314, 51.586568429652694],
        [-0.15718638327513, 51.586203110786414],
        [-0.157182273670271, 51.586197650824346],
        [-0.157368368145341, 51.58620057278548],
        [-0.157922033196176, 51.58621645831525],
        [-0.157922905540975, 51.586194890281824],
        [-0.157966111834566, 51.58573335979805],
        [-0.159580635286418, 51.58450155423022],
        [-0.159642928649739, 51.58446026688675],
        [-0.161109528007128, 51.58535281975052],
        [-0.161223454693222, 51.585355504039924],
        [-0.162289606054201, 51.58461864193607],
        [-0.162505974828315, 51.584515020486826],
        [-0.163695613832662, 51.58429444340344],
        [-0.163746277129665, 51.58432670945636],
        [-0.164490114871939, 51.58395706863611],
        [-0.16462943042373, 51.58393856500762],
        [-0.165014605676983, 51.58358579215685],
        [-0.164908046248553, 51.583543660246924],
        [-0.165203959372638, 51.58343588222754],
        [-0.165746663894841, 51.58322135469972],
        [-0.165772271320079, 51.582943890356916],
        [-0.166372342006182, 51.58216463577543],
        [-0.166215633067695, 51.582041689264166],
        [-0.166896056810713, 51.58195520172969],
        [-0.167146695461247, 51.581537373752],
        [-0.167219781480164, 51.58129931782678],
        [-0.166854553577419, 51.57879013366006],
        [-0.166838378575756, 51.57865409596625],
        [-0.167323230298264, 51.578297477172065],
        [-0.167360879723521, 51.57825849863261],
        [-0.167167391818688, 51.57822490275391],
        [-0.167084277966562, 51.578210116059104],
        [-0.167756782444006, 51.57735015491636],
        [-0.168088445173212, 51.576926395937654],
        [-0.168284918373162, 51.57699330875901],
        [-0.169345605479955, 51.577426207437476],
        [-0.169459854191131, 51.57713303940191],
        [-0.169566524936352, 51.576920684518264],
        [-0.169687263972873, 51.5765736631757],
        [-0.16975343804968, 51.57639934374628],
        [-0.169590966359037, 51.57634825078451],
        [-0.169481696449605, 51.574003130112054],
        [-0.169484005158266, 51.57398158439088],
        [-0.170958319246282, 51.57363588497266],
        [-0.171181501114876, 51.57361238620398],
        [-0.171239847165939, 51.57302159633059],
        [-0.1712852480622, 51.572429705410194],
        [-0.173223455085178, 51.571345737122506],
        [-0.173295523585994, 51.57127581914809],
        [-0.173548102441424, 51.57098659884572],
        [-0.173651818855192, 51.57077509349323],
        [-0.173739549561052, 51.57024231095397],
        [-0.173730919520401, 51.56991755136317],
        [-0.174351380848709, 51.5693058319743],
        [-0.174406861550967, 51.56925364002926],
        [-0.174887838984383, 51.5694220856629],
        [-0.17515736328331, 51.56942987434266],
        [-0.175992980098117, 51.569895183288615],
        [-0.176514277084413, 51.57006604735791],
        [-0.177695019443524, 51.570273229650496],
        [-0.178078315803453, 51.57043115268922],
        [-0.178271395011689, 51.57004118309021],
        [-0.17828455352242, 51.570036891176535],
        [-0.180752411025585, 51.56966692305951],
        [-0.180974564410603, 51.569668568506344],
        [-0.18083377104629, 51.569436180914515],
        [-0.183567472144471, 51.568006476167405],
        [-0.183718876740627, 51.56797285022689],
        [-0.183481789946379, 51.56776685168523],
        [-0.183811365964061, 51.56749858476706],
        [-0.186114847808489, 51.566939818171385],
        [-0.18616754688948, 51.56692084954612],
        [-0.187016767787897, 51.566465470379235],
        [-0.187192855692356, 51.566210109566796],
        [-0.188384777770119, 51.565771704551025],
        [-0.188701216822694, 51.56557875722208],
        [-0.189187573955968, 51.565539503315925],
        [-0.189252091496271, 51.565513521795644],
        [-0.189847365288125, 51.56505690101172],
        [-0.189900317461103, 51.564958801695454],
        [-0.1901603860478, 51.56375064047428],
        [-0.190144565736708, 51.56349501285691],
        [-0.190663025544187, 51.56191945015938],
        [-0.190766365507806, 51.56182392587437],
        [-0.191746996842032, 51.561580061540674],
        [-0.192319961895784, 51.561538532578524],
        [-0.193615739666425, 51.56095060300628],
        [-0.193788777132693, 51.56084355971838],
        [-0.194402707354709, 51.560787364177024],
        [-0.194481775751597, 51.56075800677319],
        [-0.194612089179243, 51.56056397801639],
        [-0.194851962599241, 51.56048134170527],
        [-0.196243904352693, 51.56067000574421],
        [-0.196594625165939, 51.560739242526786],
        [-0.196813062167842, 51.560614907819236],
        [-0.196919578747521, 51.56062104086088],
        [-0.196922497969656, 51.56003658118563],
        [-0.19694454248005, 51.55988045255918],
        [-0.196766319448964, 51.55938942759391],
        [-0.196680231290023, 51.559231637151456],
        [-0.197564207915816, 51.5589125015485],
        [-0.19762322851468, 51.55887923713282],
        [-0.197984631747114, 51.55911589216635],
        [-0.19823103341417, 51.558940727770015],
        [-0.198479123530127, 51.558759294121195],
        [-0.198507604002681, 51.55822108793948],
        [-0.198533228638345, 51.558156736236526],
        [-0.199052264244449, 51.55776274463975],
        [-0.199126196502171, 51.557717119021994],
        [-0.199624079753714, 51.557054827382984],
        [-0.199660219886497, 51.55697984592986],
        [-0.199464084010102, 51.55628442306505],
        [-0.199410001416561, 51.556192770085886],
        [-0.200169210755673, 51.556181937492795],
        [-0.200551409741525, 51.556147333908505],
        [-0.205779077944158, 51.55530747032855],
        [-0.205815225390851, 51.555305325369076],
        [-0.205893824397841, 51.55620396614223],
        [-0.205966107122616, 51.55641998908533],
        [-0.208333987097701, 51.555889650792665],
        [-0.20884510469996, 51.55573109554204],
        [-0.21002693150238, 51.55674998145461],
        [-0.210031115481941, 51.55675364222975],
        [-0.211246836002029, 51.55632166455621],
        [-0.21169767985052, 51.55615498412882],
        [-0.213285276802626, 51.55528802679446],
        [-0.213501320597123, 51.55518610577257],
        [-0.218319748082384, 51.5591251864323],
        [-0.218650214107063, 51.5594179592226],
        [-0.221553196085387, 51.56255176597531],
        [-0.221954970634603, 51.56294092866076],
        [-0.225489886104528, 51.565864794317335],
        [-0.225705377483022, 51.56603710879887],
        [-0.226720581099512, 51.56679342323563],
        [-0.226893755747861, 51.5669039480952],
        [-0.228637918447404, 51.567839414622085],
        [-0.228819055637174, 51.56796804143163],
        [-0.232235542761312, 51.57095285558165],
        [-0.233442488672184, 51.57197996946653],
        [-0.233875322965286, 51.57179584725162],
        [-0.234047487495316, 51.571747181988194],
        [-0.234506747368582, 51.57177477464834],
        [-0.234586277137999, 51.57177057573046],
        [-0.23506911164899, 51.57215821359837],
        [-0.23510307844805, 51.572212678360785],
        [-0.235644982995492, 51.57226758716368],
        [-0.235693964256504, 51.57230699054973],
        [-0.23538128484001, 51.57255587252077],
        [-0.235401058334879, 51.5725669606372],
        [-0.235752458115483, 51.57254796484062],
        [-0.235812111168473, 51.57253537317179],
        [-0.235887221119498, 51.5723098959111],
        [-0.235921938667174, 51.57230772011449],
        [-0.237594908764047, 51.57248212963542],
        [-0.237664587282777, 51.572471486055356],
        [-0.237778523061245, 51.572398560833136],
        [-0.237783544820305, 51.57238065161253],
        [-0.237649593107986, 51.572224871428894],
        [-0.237721547893472, 51.57211804422244],
        [-0.238175375108576, 51.57209968009031],
        [-0.238184862293197, 51.57207824096756],
        [-0.237884205092035, 51.57190467119089],
        [-0.23784060886511, 51.57187524113602],
        [-0.237944047775483, 51.57177518118372],
        [-0.238014993584202, 51.57176905258761],
        [-0.238701869598543, 51.572142653389974],
        [-0.238866475194402, 51.572252132360916],
        [-0.239056968341686, 51.57221452560904],
        [-0.239209040183531, 51.57208821738227],
        [-0.239806462870935, 51.57208818760607],
        [-0.239903820016652, 51.57207076401157],
        [-0.239995600863844, 51.57208562903262],
        [-0.240075011048951, 51.57212189000921],
        [-0.239972100008367, 51.57228310746077],
        [-0.239905395130889, 51.57232886702937],
        [-0.240016935405157, 51.57239258688217],
        [-0.240080462564971, 51.57239174115884],
        [-0.240521615568065, 51.57221581239245],
        [-0.240561735203282, 51.57218584005004],
        [-0.240718460093246, 51.572350051344785],
        [-0.240785079805494, 51.57234385621529],
        [-0.240956203413717, 51.57213510208251],
        [-0.241108433733694, 51.57211670154435],
        [-0.241270472842469, 51.5722180455622],
        [-0.241343927460766, 51.572296480280926],
        [-0.241361276788206, 51.57263215349717],
        [-0.241374762607186, 51.57265663483666],
        [-0.241742052270902, 51.57274936388176],
        [-0.242015542686449, 51.57280471740192],
        [-0.242492104566381, 51.57279566942487],
        [-0.242559660569775, 51.57276520807183],
        [-0.242418611438155, 51.57253109405266],
        [-0.24249678261229, 51.572487303255635],
        [-0.243376337008792, 51.57239346409133],
        [-0.243645954260957, 51.5723246619719],
        [-0.2439209462201, 51.572303598902465],
        [-0.244038619656122, 51.572320646673646],
        [-0.244288974353651, 51.57256448717734],
        [-0.244338494940384, 51.57255263882161],
        [-0.245101963553657, 51.571950783020185],
        [-0.245241903961485, 51.57191420872539],
        [-0.245992909662044, 51.57219790310064],
        [-0.246042429422321, 51.57218605401708],
        [-0.246731023450782, 51.571541703999195],
        [-0.246734841440064, 51.57151748181322],
        [-0.246023709799192, 51.57098530117124],
        [-0.246008918125481, 51.57095720392942],
        [-0.246385766077394, 51.570613934397166],
        [-0.246464632054666, 51.57051439905173],
        [-0.246513688467303, 51.57017702127659],
        [-0.246574507126345, 51.57002146386637],
        [-0.246558960753734, 51.56986296692872],
        [-0.246495966071954, 51.56981256793403],
        [-0.246259689394418, 51.569952914041615],
        [-0.246182840465978, 51.56996255630484],
        [-0.246057751118836, 51.569838391321106],
        [-0.246069990616225, 51.56978282193539],
        [-0.246587634361563, 51.56934274063915],
        [-0.246615830102001, 51.56932247962242],
        [-0.246609599317546, 51.568996864891055],
        [-0.246631784323218, 51.56898280867653],
        [-0.24736781800778, 51.568979416215655],
        [-0.24738258481274, 51.56897064445251],
        [-0.24702365424689, 51.5686235753986],
        [-0.247041245817078, 51.568578876633055],
        [-0.247134760074802, 51.56851103273813],
        [-0.247309817184247, 51.568461492105094],
        [-0.248080141093259, 51.56861687201937],
        [-0.248225716173894, 51.56865861142761],
        [-0.248597019932086, 51.56853376521239],
        [-0.24870627463452, 51.56854438808896],
        [-0.249672242315969, 51.569091144806045],
        [-0.249785058212369, 51.56915937054963],
        [-0.250768663676058, 51.57011193404367],
        [-0.251149505803835, 51.5702650841233],
        [-0.25175295918261, 51.571085181495675],
        [-0.251772287890856, 51.57110795020228],
        [-0.252083054572413, 51.57128253394506],
        [-0.252510292051346, 51.57150561125702],
        [-0.253084252335191, 51.57234324680575],
        [-0.253106191071363, 51.5723732479738],
        [-0.253018865188247, 51.572656104644786],
        [-0.252970478794836, 51.57267606660705],
        [-0.25211861534433, 51.572763196240615],
        [-0.251859724119527, 51.57281599141873],
        [-0.251366226207392, 51.573078407945545],
        [-0.251355365450803, 51.573135796829064],
        [-0.252353421785609, 51.57446713681586],
        [-0.252623102915303, 51.57492346512978],
        [-0.253353329867604, 51.57684339971231],
        [-0.253427625749183, 51.57701356054953],
        [-0.254078820208322, 51.578022293736005],
        [-0.254102958268318, 51.57807031197116],
        [-0.254631798730559, 51.57959877413658],
        [-0.254630452225889, 51.57967159163518],
        [-0.254372158591886, 51.580235163274494],
        [-0.254335357660501, 51.58040457009343],
        [-0.254394088485551, 51.581395494293986],
        [-0.254395798710723, 51.581463861095045],
        [-0.254122815374909, 51.58180780187098],
        [-0.25399871062003, 51.581920157614675],
        [-0.252535740740889, 51.58261956486836],
        [-0.252417302212727, 51.58269693341452],
        [-0.251667870530135, 51.58345730960909],
        [-0.25140928437939, 51.583575752267365],
        [-0.248367589066515, 51.58430013414563],
        [-0.248284314693506, 51.58436363571923],
        [-0.251937606026196, 51.587937685175504],
        [-0.252536488203096, 51.58854458985521],
        [-0.257028489166339, 51.5917604774024],
        [-0.257421207727526, 51.59202348750943],
        [-0.259770163925117, 51.594174217789515],
        [-0.260641470722266, 51.59491100986749],
        [-0.265187703089924, 51.598553611424215],
        [-0.265730632984, 51.59900765004734],
        [-0.268448059658238, 51.60147477515779],
        [-0.268736225406256, 51.601719118543386],
        [-0.272970145735699, 51.60502588666345],
        [-0.273807664218311, 51.60571262302225],
        [-0.275555489503344, 51.607568230538405],
        [-0.276036802465826, 51.60801501993611],
        [-0.27713596369927, 51.60873614741765],
        [-0.277315173838351, 51.60888535069617],
        [-0.281482088990556, 51.61269977679934],
        [-0.282199703229832, 51.61335592054523],
        [-0.286852274278742, 51.61660804789066],
        [-0.287565593448056, 51.61715169250159],
        [-0.288008667292022, 51.61777591865088],
        [-0.288276186087522, 51.61803699636925],
        [-0.298668867502016, 51.62697162769793],
        [-0.299254915464897, 51.62741084363378],
        [-0.302538990010218, 51.63042848272412],
        [-0.30395392004459, 51.63146414558815],
        [-0.305462270890671, 51.63336798317466],
        [-0.305597635000039, 51.63411718488031],
        [-0.30504985575481, 51.63539965291245],
        [-0.304482738231355, 51.63634733094027],
        [-0.304160330238834, 51.636428999540044],
        [-0.303994003707039, 51.636471557948944],
        [-0.30294408865491, 51.63626035892359],
        [-0.302746551029337, 51.636132512716586],
        [-0.302436372452996, 51.63635103413821],
        [-0.301781063238147, 51.636253434947676],
        [-0.300101795413213, 51.63579211635857],
        [-0.299877630841388, 51.6357582974361],
        [-0.29723272718532, 51.63573166049388],
        [-0.296151062411163, 51.635443506573246],
        [-0.294406496050829, 51.63564657864622],
        [-0.292043349784319, 51.63642871619621],
        [-0.2918913201777, 51.6364750623448],
        [-0.290574935894458, 51.63658808973085],
        [-0.289928911887178, 51.63666680593252],
        [-0.2891415871763, 51.63658339917488],
        [-0.288366936359024, 51.636470497709595],
        [-0.28601573326122, 51.636855234651314],
        [-0.285523899577674, 51.6369451695324],
        [-0.284282427784126, 51.63759964996484],
        [-0.283897996201906, 51.63779185976248],
        [-0.282935846515773, 51.6380133885224],
        [-0.281414678071714, 51.63834272771226],
        [-0.279041929447287, 51.63829988185975],
        [-0.278636527221241, 51.63832001657976],
        [-0.276760948340588, 51.63877178834708],
        [-0.276498729160276, 51.638865055225224],
        [-0.274019317330134, 51.63870004700024],
        [-0.273737180367311, 51.63867072125956],
        [-0.273985004929192, 51.63884251832865],
        [-0.274164468797047, 51.638911698431684],
        [-0.274183643536867, 51.63909182391618],
        [-0.274200145778646, 51.639304281967014],
        [-0.273378898525326, 51.64079839892076],
        [-0.273176719740335, 51.64106069509338],
        [-0.27287810657815, 51.641959118087755],
        [-0.272890249560482, 51.64209597782774],
        [-0.270647215479623, 51.6420575688217],
        [-0.270060877872644, 51.64208400135723],
        [-0.268805449321897, 51.64229839612767],
        [-0.268270361468583, 51.6423831253103],
        [-0.268365661435898, 51.64378910976421],
        [-0.268369864458498, 51.64383053578415],
        [-0.266791127475067, 51.644107582341285],
        [-0.265554995525999, 51.644041671329404],
        [-0.265235068315734, 51.64401716242857],
        [-0.264473853625093, 51.64370197805391],
        [-0.264382878063991, 51.643624199786736],
        [-0.264250620165549, 51.64383266196579],
        [-0.264057465482325, 51.643781248750635],
        [-0.263296171808842, 51.644830170278105],
        [-0.261725737156127, 51.64405698421896],
        [-0.261628609521184, 51.643989004133516],
        [-0.261361371716983, 51.64375844432611],
        [-0.261314252654658, 51.643705591932125],
        [-0.261264963321619, 51.64340722058894],
        [-0.261242985473763, 51.643339453717545],
        [-0.26073672485724, 51.64267013068438],
        [-0.260473041383906, 51.64253583784684],
        [-0.257507779011635, 51.641883099695114],
        [-0.25735666693392, 51.64182870236937],
        [-0.25649260340441, 51.643142224501624],
        [-0.256196038962717, 51.64348851626906],
        [-0.255511756466305, 51.643241857307075],
        [-0.255444439492581, 51.643338872123635],
        [-0.255380218172979, 51.643430537578396],
        [-0.254766494712933, 51.643604858198216],
        [-0.254513698731955, 51.64367663506711],
        [-0.251900511679265, 51.647210360634844],
        [-0.251765212825053, 51.64749609660843],
        [-0.251296700902942, 51.648703066692214],
        [-0.251217059413861, 51.648932080807356],
        [-0.250445099966796, 51.65208763188978],
        [-0.249880965825033, 51.65461142601067],
        [-0.25059263071183, 51.65471375031435],
        [-0.250756676748441, 51.654771046366214],
        [-0.251170425426062, 51.65506405947698],
        [-0.251356918108896, 51.65521430845792],
        [-0.251281189507393, 51.65526623467505],
        [-0.2512054607325, 51.65531816084124],
        [-0.25127514663752, 51.65553591022494],
        [-0.251232079855022, 51.65567824462647],
        [-0.250835062251634, 51.65592681052325],
        [-0.250607533034927, 51.65605380792626],
        [-0.249871222127589, 51.65606531730107],
        [-0.249735721512065, 51.65616760717731],
        [-0.249372876061035, 51.65605429241182],
        [-0.249007108046423, 51.65594183215404],
        [-0.248019862325429, 51.6553749872542],
        [-0.247890446533509, 51.6552444681249],
        [-0.244715018925491, 51.656310280434404],
        [-0.244413038496085, 51.65649280387416],
        [-0.241390072181989, 51.657201118381366],
        [-0.241018338372444, 51.65683226632847],
        [-0.238493131778941, 51.65763968162702],
        [-0.237995897021862, 51.65778598861364],
        [-0.238300446560099, 51.65824646203708],
        [-0.237007646544837, 51.65866318242489],
        [-0.236702700400744, 51.658771905691324],
        [-0.234951469484178, 51.65900457301711],
        [-0.234731974505212, 51.65899767692541],
        [-0.234413229456014, 51.65856845339382],
        [-0.234252131490882, 51.65824950582429],
        [-0.2294876951523, 51.659859312876065],
        [-0.228943984502993, 51.65997250913296],
        [-0.228837747674427, 51.659916054481954],
        [-0.228513517399304, 51.659962419560195],
        [-0.228294317277209, 51.6592064652925],
        [-0.228475744168889, 51.65918852021437],
        [-0.228236124791516, 51.65884499992539],
        [-0.22808276534916, 51.65858820663629],
        [-0.226635016062802, 51.65726787834326],
        [-0.226487476233028, 51.6571586429466],
        [-0.225888177428284, 51.65747420937448],
        [-0.226068885722543, 51.657622613065044],
        [-0.220264189426141, 51.660462649373144],
        [-0.219825690227739, 51.660657428665736],
        [-0.219272255230643, 51.66079651030213],
        [-0.218919491780527, 51.66005829528775],
        [-0.217152467832791, 51.66061597645662],
        [-0.213525636278269, 51.662322435287805],
        [-0.213418026406826, 51.66237475156161],
        [-0.212449874735202, 51.66158758743155],
        [-0.212159915242432, 51.66135027498974],
        [-0.208122464370125, 51.66279313864086],
        [-0.207888559174334, 51.66285791033929],
        [-0.210446234446224, 51.666128715814594],
        [-0.211158533401846, 51.66695156449827],
        [-0.209863477041195, 51.66755948793401],
        [-0.20798417894918, 51.66659114067806],
        [-0.20576058090694, 51.668483323263295],
        [-0.205659168735723, 51.66859777349098],
        [-0.204735335108135, 51.6684820430937],
        [-0.203886599794696, 51.66833238428291],
        [-0.202694872754024, 51.667933781562645],
        [-0.20225468911314, 51.66780205239633],
        [-0.202633117952189, 51.66931134385547],
        [-0.203377581356253, 51.67012304223346],
        [-0.19989636163062, 51.670166852124574]
      ]
    ]
  }
}
