{
  "type": "Feature",
  "properties": { "name": "Bexley", "level": 2, "londonBorough": true },
  "geometry": {
    "type": "Polygon",
    "coordinates": [
      [
        [0.155848898967282, 51.430876557423197],
        [0.155609600903576, 51.430438504483469],
        [0.155467755975681, 51.430084092027904],
        [0.155431057660183, 51.429946275056345],
        [0.155387508967318, 51.429693473875616],
        [0.155385182984526, 51.429644055245404],
        [0.155402257888997, 51.4293649587079],
        [0.155384626833279, 51.429234884709814],
        [0.155339305327435, 51.429097226295411],
        [0.155274579923797, 51.428975212795159],
        [0.155186814849669, 51.428852723669472],
        [0.15477036027943, 51.428409833149317],
        [0.154464249159276, 51.428171751284708],
        [0.154035251434312, 51.427798334769093],
        [0.153737477041251, 51.427523226566031],
        [0.153602766507621, 51.426830544512725],
        [0.153498534706046, 51.426296478024831],
        [0.153335339285024, 51.425640290976531],
        [0.153305247175061, 51.425459185591372],
        [0.153292781500949, 51.425316426159299],
        [0.153287502143009, 51.425173534677775],
        [0.153292706935204, 51.42500886738204],
        [0.153320150036227, 51.424735875608619],
        [0.153432776510634, 51.424224802934376],
        [0.153488326250431, 51.424029533589682],
        [0.153504139047515, 51.423906938359323],
        [0.153507818735785, 51.423832228932156],
        [0.153491339810302, 51.423604109840134],
        [0.153452583280778, 51.423422264366714],
        [0.153444256768365, 51.423398136305742],
        [0.153384238562165, 51.423222976607143],
        [0.153295988274892, 51.422936822572765],
        [0.153108883181509, 51.422322442078766],
        [0.152977735794771, 51.421980420113663],
        [0.152825199585633, 51.42170354047137],
        [0.151971120576012, 51.421006083685327],
        [0.151439033344727, 51.420671422201991],
        [0.151342330059237, 51.420603052261995],
        [0.151132865631257, 51.420430634959111],
        [0.151376166661232, 51.420312856767474],
        [0.151626989506596, 51.420202134343739],
        [0.152270309980114, 51.419996071826759],
        [0.153081645776624, 51.41953961146541],
        [0.153140103454461, 51.419467492713899],
        [0.153760375458395, 51.419108065149949],
        [0.153955859761772, 51.418983066628577],
        [0.15413663453912, 51.418851143777772],
        [0.154604353446684, 51.418490019367738],
        [0.154610608930846, 51.418470119754645],
        [0.154352623121029, 51.418183489923948],
        [0.154091937953351, 51.417778201587922],
        [0.154068185313784, 51.41776245082486],
        [0.153503357011589, 51.417709881376751],
        [0.153141063805512, 51.417651789310277],
        [0.152474796168097, 51.41770539751785],
        [0.152298296999603, 51.41771403525722],
        [0.152109795157379, 51.417712101573628],
        [0.151921124503668, 51.417706573488815],
        [0.151756503280435, 51.417692509796304],
        [0.151274856014468, 51.417634804969275],
        [0.151029467337215, 51.417615927906986],
        [0.151053996717765, 51.417433819153658],
        [0.151111030661826, 51.416718728410281],
        [0.151110524415519, 51.41670794610944],
        [0.151095012953243, 51.41573428941539],
        [0.151143848039221, 51.415487884117148],
        [0.151157181108726, 51.415251123530837],
        [0.151149835550131, 51.41515593260938],
        [0.151128247283848, 51.415063701049398],
        [0.151071289677139, 51.414922657286269],
        [0.150749259583066, 51.414373700476709],
        [0.150598233504839, 51.414189418041019],
        [0.150535690622993, 51.414143802302583],
        [0.150500572410303, 51.414130957316317],
        [0.15045129605874, 51.414122868649926],
        [0.150302915720233, 51.414117497938257],
        [0.150234875371191, 51.414107954913781],
        [0.150176598199438, 51.414091937600922],
        [0.150132521411541, 51.41407206249395],
        [0.150098292139979, 51.414047510180019],
        [0.149970931200296, 51.413907757702681],
        [0.149933958289928, 51.413855377389787],
        [0.149933831810498, 51.413852681811171],
        [0.14985600419233, 51.413695832984843],
        [0.149766864992129, 51.413420484063295],
        [0.149665828678055, 51.412983479362801],
        [0.149632707486863, 51.412890559801042],
        [0.149587202660024, 51.412809558303849],
        [0.149524835048832, 51.412736959825097],
        [0.149463268464897, 51.412681433316656],
        [0.149251901595463, 51.412528832229498],
        [0.149133923191645, 51.412435670351371],
        [0.149480092199668, 51.411967080596916],
        [0.149725911564546, 51.411658607621547],
        [0.151603938181006, 51.411442479253282],
        [0.152475666690085, 51.411356323658914],
        [0.1537440776264, 51.411265568871436],
        [0.153597191736705, 51.411077616905764],
        [0.153539807405743, 51.410988741520207],
        [0.153484325722572, 51.410879147225486],
        [0.153419760289221, 51.410729251317619],
        [0.153362083674222, 51.410572933670771],
        [0.15333373169472, 51.410489819745543],
        [0.153256665082532, 51.410196265378289],
        [0.15303308182501, 51.409232726313242],
        [0.152906379483996, 51.408708963422058],
        [0.152036063080566, 51.408670993166467],
        [0.151569041741917, 51.408677771121766],
        [0.151153357411434, 51.408736663471466],
        [0.15069786509172, 51.408805278022143],
        [0.150041600597383, 51.408946821124509],
        [0.149285725072919, 51.409141447823828],
        [0.148963796852918, 51.408623959689422],
        [0.14887668323318, 51.408483467884118],
        [0.148803153111972, 51.408509996768508],
        [0.148601113337855, 51.408586545078407],
        [0.147964481536049, 51.408809552828494],
        [0.147348047374872, 51.409003409321414],
        [0.146593006491643, 51.409185413058545],
        [0.145886682983086, 51.409363821795644],
        [0.145680841797123, 51.409390073829947],
        [0.145538175662078, 51.409414269435452],
        [0.145544673426123, 51.409460914043535],
        [0.145544925829132, 51.409466305220356],
        [0.145209762089591, 51.409556076728585],
        [0.14468610720057, 51.409735630217305],
        [0.144412209182502, 51.409844062617303],
        [0.144180656406224, 51.409935532104079],
        [0.143699802287654, 51.410108002798957],
        [0.142597604973721, 51.410493277740692],
        [0.142143660102209, 51.410657156209403],
        [0.141975326784207, 51.410716889329763],
        [0.141482457639258, 51.410878778835951],
        [0.140589598323472, 51.411190063261259],
        [0.140356855858279, 51.411256366438295],
        [0.1399660418311, 51.41138670841034],
        [0.139695174379552, 51.411468095301665],
        [0.139268446425477, 51.411568514563683],
        [0.139139708090709, 51.41161403118614],
        [0.138853021689116, 51.411726281045418],
        [0.138607099502578, 51.411880053234619],
        [0.138356152312064, 51.412018628520251],
        [0.138176481862332, 51.412082160185868],
        [0.137998236300321, 51.412176241719465],
        [0.137712591489163, 51.412310952189458],
        [0.137527464949991, 51.412380877468991],
        [0.137048457404459, 51.412563179045911],
        [0.136874668342794, 51.412598723174945],
        [0.136350781944701, 51.412867273592767],
        [0.135971508527599, 51.413029766358115],
        [0.135290349579741, 51.413318265335469],
        [0.134317296281576, 51.413762260008717],
        [0.134319849351428, 51.413817070667186],
        [0.134136036818793, 51.413853692546766],
        [0.133933111562175, 51.413912245341677],
        [0.133703261024727, 51.413979381744262],
        [0.133204746516638, 51.414144935889432],
        [0.13281473840975, 51.414262648803444],
        [0.132436322441777, 51.414351371932284],
        [0.132140034274871, 51.414412519872634],
        [0.131864881176092, 51.414464289571946],
        [0.13153368711988, 51.414517078038614],
        [0.130297575463014, 51.414717617644854],
        [0.129778121504417, 51.414804399586025],
        [0.129030566976004, 51.414903417443455],
        [0.128229734663027, 51.414970124171568],
        [0.128005570660862, 51.414974195238116],
        [0.127744856976953, 51.414965440096616],
        [0.127520818093466, 51.414972205853168],
        [0.127370582691536, 51.414957846795474],
        [0.127255812208749, 51.414932951466575],
        [0.12713450148295, 51.414891088113158],
        [0.127018813623648, 51.41484642468069],
        [0.126910394130203, 51.414803427801793],
        [0.126845249971363, 51.414763242559083],
        [0.126709089115274, 51.414680280658224],
        [0.126626243286702, 51.41463052430101],
        [0.12631851379379, 51.414724239762634],
        [0.12625014674736, 51.414769545846362],
        [0.126164035875143, 51.414804382283798],
        [0.125899637904649, 51.414809179338924],
        [0.12567936833111, 51.414804182337981],
        [0.125507621489869, 51.414791110415614],
        [0.125402474381552, 51.414787621836048],
        [0.125339018561883, 51.414752800919693],
        [0.125080325241583, 51.414694541910784],
        [0.124809595344396, 51.414624809739912],
        [0.124575019341162, 51.414590393304678],
        [0.124059823515802, 51.414427967542153],
        [0.123072883530215, 51.414109516391527],
        [0.12244917997407, 51.413932862180431],
        [0.122015650877203, 51.413825603915647],
        [0.121785996429941, 51.413773106882395],
        [0.120729440293488, 51.413565610792219],
        [0.120161745548282, 51.413449082941085],
        [0.119883739021304, 51.413408248593271],
        [0.119489824524372, 51.413348826342194],
        [0.119070462272933, 51.413298855931849],
        [0.11885511695725, 51.413275771178448],
        [0.118583981869497, 51.41325909049246],
        [0.118173176544633, 51.413238638929215],
        [0.117985548401009, 51.413224044507807],
        [0.117292130352839, 51.413218589938197],
        [0.116915437915994, 51.413189423921601],
        [0.116380909752495, 51.413199079309813],
        [0.116023146679831, 51.413174964313299],
        [0.11503016016242, 51.413097566195937],
        [0.114346802184765, 51.413091912618526],
        [0.113560484581322, 51.413098903726173],
        [0.113478152998462, 51.413059920433192],
        [0.113098950999453, 51.412913879064163],
        [0.112559006129024, 51.413024335743749],
        [0.112522211161143, 51.413099640580477],
        [0.112493954667356, 51.413172992883588],
        [0.112333738109791, 51.413222644479944],
        [0.112074788555026, 51.413283068438837],
        [0.111764221207168, 51.413315644632938],
        [0.11130672776047, 51.413374249032557],
        [0.110348930819915, 51.413529993817463],
        [0.10959290629381, 51.413664112487311],
        [0.109536938013886, 51.413635443353542],
        [0.108870701848859, 51.413783228883005],
        [0.108342479561264, 51.413898850767602],
        [0.107623615739111, 51.414090742150272],
        [0.107502880985831, 51.414123489646151],
        [0.107210507439585, 51.414207885542979],
        [0.107005694715334, 51.414257432433196],
        [0.107010281123077, 51.414357171614085],
        [0.107011355420588, 51.414380533944453],
        [0.106404313035636, 51.414565011279251],
        [0.105688766852656, 51.414798198526128],
        [0.104716307159998, 51.415136716996841],
        [0.104475653089654, 51.415220177023542],
        [0.104132698132378, 51.415362129023471],
        [0.103817696886252, 51.415486491562348],
        [0.103728651908344, 51.415520464760533],
        [0.103513859828225, 51.415603458486395],
        [0.103351452007194, 51.415668424979977],
        [0.103231493639312, 51.415718240657142],
        [0.10311601755158, 51.415803048208097],
        [0.102987401818366, 51.415883594982965],
        [0.102849963807785, 51.415991278731035],
        [0.102708750216431, 51.416110720873931],
        [0.102621635029225, 51.416155450105812],
        [0.102604597092359, 51.416160252285131],
        [0.102524907992231, 51.416178768691253],
        [0.102450630886932, 51.416158518330775],
        [0.102391478265673, 51.416217134383174],
        [0.102438617138855, 51.416241468859852],
        [0.102449748269809, 51.416264650774998],
        [0.102452869691374, 51.416269990531219],
        [0.102275357721163, 51.416381989742348],
        [0.101089046296755, 51.416950935795732],
        [0.100441887292985, 51.417234123979995],
        [0.09951098636963, 51.41769685528044],
        [0.098672406304296, 51.418134544072402],
        [0.098433865416014, 51.418264716836347],
        [0.098046122770592, 51.418497381924915],
        [0.097402584111853, 51.418860525180087],
        [0.096721505842752, 51.419220739319655],
        [0.096644397517142, 51.419264385669557],
        [0.09566016380554, 51.419789191747626],
        [0.094858176632627, 51.420242385454344],
        [0.094798064028024, 51.420280330988078],
        [0.09426431346048, 51.420592032944249],
        [0.094251708258152, 51.420630927753763],
        [0.094243044808805, 51.420661658494041],
        [0.094081796913333, 51.420752670608621],
        [0.09388511211885, 51.420855107180401],
        [0.093593368270384, 51.421017695662371],
        [0.093311271969848, 51.421171118152962],
        [0.092973082114171, 51.421387592896991],
        [0.092873545996661, 51.421475702537229],
        [0.092385840724912, 51.421788371949098],
        [0.0920893208196, 51.422004100044944],
        [0.091805404754457, 51.422212408059742],
        [0.091455290810669, 51.422451573409774],
        [0.091222496762732, 51.422582527849457],
        [0.091049490605208, 51.422699824941581],
        [0.090932250043467, 51.422778356576472],
        [0.090929457620052, 51.422780204981663],
        [0.090651243113854, 51.42292455872699],
        [0.090528621430275, 51.423011279563276],
        [0.09030707169144, 51.423168110984598],
        [0.090064125751094, 51.423328920735884],
        [0.089810907541403, 51.423548367046216],
        [0.089396705682738, 51.423865108598896],
        [0.089120979683957, 51.424064270967143],
        [0.088936502353228, 51.42421414379077],
        [0.088730010755865, 51.42438599165208],
        [0.088625076439272, 51.424513762538894],
        [0.087881724714804, 51.425120540052589],
        [0.087592307742763, 51.425335230542082],
        [0.087398455293354, 51.425500555783664],
        [0.087250190401866, 51.425624600710641],
        [0.086934636721922, 51.425928784734225],
        [0.086464687098435, 51.426380502456951],
        [0.085975045448742, 51.426905411182545],
        [0.085607263443511, 51.427295054306782],
        [0.085146028467791, 51.427780784385959],
        [0.084420474220678, 51.428654311274151],
        [0.083996790973268, 51.429143865111925],
        [0.083663684180468, 51.42950590650026],
        [0.083464500011888, 51.429681211895058],
        [0.083144145452688, 51.429912628116909],
        [0.082906193902088, 51.43005804577701],
        [0.082606470559329, 51.430205459939287],
        [0.082167106067721, 51.430350857873741],
        [0.081405972460855, 51.430570315091082],
        [0.08099539944439, 51.430684621426714],
        [0.080711740169326, 51.430774190951951],
        [0.080516241766513, 51.430777661642864],
        [0.080385847274237, 51.430757494146512],
        [0.080371699802243, 51.430826091207166],
        [0.079439323972938, 51.431044977950926],
        [0.077009895045072, 51.431594357180145],
        [0.075576772604902, 51.431938993568274],
        [0.075343176131053, 51.431990792543658],
        [0.07530756363695, 51.431998617460671],
        [0.074652690488234, 51.432151399980924],
        [0.074687219443422, 51.432183163101421],
        [0.074784730728239, 51.432271365658153],
        [0.074832767741588, 51.432315479628755],
        [0.074904062321429, 51.432333102487995],
        [0.075047209316551, 51.432412403295075],
        [0.075424062628661, 51.432696200320365],
        [0.075629776474392, 51.432854429048845],
        [0.07589269730989, 51.433036824217233],
        [0.076080139086878, 51.433299693175492],
        [0.075654742702871, 51.433627374231378],
        [0.075695931870641, 51.433647328366526],
        [0.075912348722985, 51.433755906236406],
        [0.076388301833845, 51.43400377194039],
        [0.076290185009997, 51.434092741079567],
        [0.075889577139332, 51.434459552415078],
        [0.076503165927803, 51.434855160784764],
        [0.076418212697906, 51.434885443099027],
        [0.076406874725588, 51.434889241118881],
        [0.076006226227733, 51.435128354681495],
        [0.075648498973356, 51.435362210275372],
        [0.075450912233918, 51.43551049461712],
        [0.074960377239032, 51.435861808531158],
        [0.075001893933246, 51.435888951413524],
        [0.075900786451881, 51.436452174618552],
        [0.076511975470863, 51.436857717660963],
        [0.076544623359384, 51.436879621410242],
        [0.076929721927673, 51.436741501884157],
        [0.077076957683471, 51.436688532578515],
        [0.077304539829181, 51.436630541909238],
        [0.077819983003346, 51.436447842618023],
        [0.077966818405762, 51.436608010404498],
        [0.078139196598821, 51.436792005873166],
        [0.078314441510119, 51.437007425318278],
        [0.078418577622669, 51.437114392458412],
        [0.078435126461401, 51.437130286164276],
        [0.078501240345173, 51.437192063834623],
        [0.07868564508627, 51.437419011027714],
        [0.078832834539679, 51.437650215171793],
        [0.078904222838157, 51.437796432083317],
        [0.079036190109537, 51.437977545880514],
        [0.079002623434572, 51.437998824909222],
        [0.078850359700698, 51.438099548023693],
        [0.078790047368736, 51.438133891395381],
        [0.078815263842879, 51.43815053060267],
        [0.079063320445387, 51.43832149169107],
        [0.079146721030679, 51.438415336702469],
        [0.079253175864101, 51.43847819689811],
        [0.079459663973551, 51.438652592452435],
        [0.079581966583465, 51.438747545525516],
        [0.07948851749927, 51.438876003078292],
        [0.079606484971037, 51.43890718364063],
        [0.079703253798126, 51.438946833823785],
        [0.079763834197757, 51.438981730358456],
        [0.079778579054178, 51.438989562302169],
        [0.079811638248311, 51.439020450728719],
        [0.080029379200424, 51.439220724945436],
        [0.079937680655493, 51.439261021624134],
        [0.079943921574225, 51.439271702320418],
        [0.079959360583352, 51.439294809808089],
        [0.08010424428719, 51.439443318853804],
        [0.080196275677761, 51.439537009954165],
        [0.080132964496252, 51.439568709366526],
        [0.080032802068604, 51.439612753476744],
        [0.080046313546876, 51.43962510371265],
        [0.080292813918357, 51.439824867052877],
        [0.080486829859645, 51.439977899298029],
        [0.080403838571352, 51.440019840344966],
        [0.080415830822458, 51.440030418930462],
        [0.080851623883337, 51.440405779186079],
        [0.081326681073893, 51.440188709533992],
        [0.081642247774041, 51.44004011864287],
        [0.081785468716364, 51.439962034732986],
        [0.081833152912244, 51.439998058556512],
        [0.082573889326069, 51.440560443182619],
        [0.082790055306601, 51.440725668118333],
        [0.082941692027418, 51.440864161545846],
        [0.08323865108963, 51.441097194964897],
        [0.084169846674205, 51.441796473132953],
        [0.08441559358999, 51.442010629921839],
        [0.083224277768601, 51.44264692263701],
        [0.08291367317569, 51.44277834301095],
        [0.082825868091236, 51.442841054889989],
        [0.0829320044819, 51.442928198213444],
        [0.083097905159099, 51.4430637400948],
        [0.082972953688974, 51.443163983032377],
        [0.082943821438217, 51.443187882216947],
        [0.082810242020559, 51.443288278302845],
        [0.083032425576848, 51.443427316552466],
        [0.083216121237431, 51.443542757700683],
        [0.083666603995221, 51.44325956830933],
        [0.084348349762144, 51.442872443871472],
        [0.084712050969261, 51.442611477180058],
        [0.084991055467946, 51.442734213207366],
        [0.08499253425656, 51.442735086189124],
        [0.085304779975855, 51.442829352239997],
        [0.085283288766539, 51.44286300823498],
        [0.085539090703122, 51.442950184268177],
        [0.085748272468948, 51.44299322499031],
        [0.086320589913368, 51.443236638238524],
        [0.086450531041491, 51.443246015955282],
        [0.086913317631184, 51.443264755563106],
        [0.087380176004552, 51.443246550032597],
        [0.087219178091494, 51.443565966412827],
        [0.086924285978699, 51.443915644527038],
        [0.086804584440777, 51.444130906911965],
        [0.086671522664186, 51.444400364261689],
        [0.086504563727455, 51.444683914171122],
        [0.086388667537107, 51.444982742068241],
        [0.08629429360537, 51.445311762514301],
        [0.086356243519798, 51.445344832741682],
        [0.086555576250289, 51.445392543831517],
        [0.086694601833907, 51.445411651756636],
        [0.086811603693461, 51.445452734524096],
        [0.086897499615431, 51.445537536802824],
        [0.087067702156761, 51.445609147148168],
        [0.087281200217588, 51.445746533525416],
        [0.087354934591965, 51.445848638504756],
        [0.08735504655765, 51.445945759549204],
        [0.087352975613488, 51.446089682409621],
        [0.087532129527109, 51.446231277097553],
        [0.087766825854846, 51.446423141594209],
        [0.087909701736834, 51.446589662646922],
        [0.088005654955019, 51.446800185204737],
        [0.088040589036934, 51.447092730561131],
        [0.088039314946598, 51.447506425412072],
        [0.08790847029908, 51.448171530880181],
        [0.087888065997833, 51.448418299012928],
        [0.087832984501915, 51.448662087662775],
        [0.087409079016505, 51.449496981565169],
        [0.087037426215187, 51.449963135083415],
        [0.086796301260747, 51.450451244366093],
        [0.086830661333636, 51.450699735063885],
        [0.086809631899061, 51.450964499733047],
        [0.086716901994792, 51.451550686856379],
        [0.086654001595935, 51.451812599696197],
        [0.086644459206941, 51.451887410345392],
        [0.086607727529202, 51.452186627328174],
        [0.086576051521907, 51.45247046641893],
        [0.086508314286103, 51.452941998951168],
        [0.086435564672634, 51.45339833275338],
        [0.086389000781582, 51.453766070343754],
        [0.086298604655596, 51.45434052456087],
        [0.086266934091622, 51.454561413331753],
        [0.086244765807137, 51.454706592937278],
        [0.086187792863296, 51.4548460969621],
        [0.086085401617022, 51.455062848550412],
        [0.086058253586847, 51.455256678167871],
        [0.086059096471701, 51.455401448207894],
        [0.086031010279473, 51.455543135918944],
        [0.086021548204902, 51.455619743606725],
        [0.086004389983467, 51.455780121838394],
        [0.085823273340089, 51.456196116957805],
        [0.08567968125904, 51.456551191952066],
        [0.085683982352701, 51.456645540427594],
        [0.084986178417679, 51.4568108326635],
        [0.083902312360599, 51.457064819481658],
        [0.08299600834706, 51.457298554696862],
        [0.082205913126904, 51.457523923701224],
        [0.08141983133091, 51.457774396037294],
        [0.080867414320284, 51.458003629001858],
        [0.080780116999595, 51.458046545716037],
        [0.080421225376533, 51.458226477664667],
        [0.079752615257194, 51.458623235748391],
        [0.079611591388713, 51.458560989165115],
        [0.079501473414799, 51.45864028114287],
        [0.078826741261648, 51.459124373028487],
        [0.078667655989825, 51.459266583189184],
        [0.078637195546437, 51.459293202569803],
        [0.079388822831668, 51.459392282829718],
        [0.080825185000452, 51.459575429221019],
        [0.082878283617846, 51.459834832032705],
        [0.082655940016559, 51.460073495827551],
        [0.082479657552497, 51.460343715176656],
        [0.082409877616961, 51.460518516745843],
        [0.082311614957709, 51.460700119207566],
        [0.082274195288082, 51.460795208795041],
        [0.082244540253472, 51.460902750434336],
        [0.082230960179967, 51.460983927276388],
        [0.082227442244053, 51.461096400352282],
        [0.082227135280722, 51.461184535704852],
        [0.082263716269668, 51.461545398368756],
        [0.082266497673182, 51.461606500319121],
        [0.082279334506834, 51.461920122633202],
        [0.082307756179946, 51.462196597433199],
        [0.082375331007043, 51.4625425209192],
        [0.082411763819657, 51.462647090028142],
        [0.082530921588653, 51.462987600669898],
        [0.082602500838152, 51.463263308677618],
        [0.082629964856032, 51.463613541697576],
        [0.082585106964968, 51.463893116774237],
        [0.082469276059855, 51.464131686247036],
        [0.082188938631625, 51.464646560021187],
        [0.08217576659818, 51.464736722398307],
        [0.082145433680478, 51.465114061222415],
        [0.082200794585429, 51.465697612612409],
        [0.082204415044509, 51.466061758350293],
        [0.082190117827136, 51.466411833768774],
        [0.082222892278429, 51.466530856414302],
        [0.082273966524246, 51.466609086230733],
        [0.082295579891878, 51.466641076553699],
        [0.083218293170946, 51.466478999440824],
        [0.08354292101258, 51.46693636162842],
        [0.083978138839189, 51.467545534652984],
        [0.084333853855742, 51.468021227016884],
        [0.084532008969247, 51.468325258905374],
        [0.084796740484623, 51.468731524193608],
        [0.085106757179189, 51.468709823552587],
        [0.085176910418452, 51.468795806342939],
        [0.085445201517345, 51.469090495659714],
        [0.08576318618583, 51.469432861599444],
        [0.086018766098, 51.469543422544518],
        [0.086344511913458, 51.469677014930518],
        [0.086609218830859, 51.469798203582734],
        [0.087002174145066, 51.469953080007052],
        [0.087268452615281, 51.470013987172038],
        [0.087597006791191, 51.470082777650134],
        [0.088102231771108, 51.470205075513661],
        [0.088591264080957, 51.470319566136205],
        [0.088896884838698, 51.470390560128457],
        [0.089047907921822, 51.470418444759353],
        [0.089543758938525, 51.470713566083361],
        [0.089831457498954, 51.47086491340427],
        [0.090103248368475, 51.471046220019758],
        [0.090533136690522, 51.471315534664754],
        [0.09087576014787, 51.471534245641742],
        [0.091184309033054, 51.47173198061148],
        [0.091108053347877, 51.471796290698116],
        [0.091096707007475, 51.471831565170774],
        [0.091196268691434, 51.471899034181895],
        [0.091220603550351, 51.471958852161549],
        [0.091279140732182, 51.471979390805231],
        [0.091298296409476, 51.472020416183675],
        [0.091264217424668, 51.472062391172784],
        [0.091398434174497, 51.472100464730978],
        [0.091542023370483, 51.472186033002522],
        [0.091744562052335, 51.472269650047991],
        [0.091860979981754, 51.472327824906039],
        [0.091936166696555, 51.472334576878467],
        [0.09197258853664, 51.472375294055368],
        [0.092138706908546, 51.472449668178015],
        [0.092481303839019, 51.472541575891142],
        [0.092691327613877, 51.472631352711517],
        [0.092839854170084, 51.472730320547093],
        [0.093171112254406, 51.472951925646299],
        [0.093589931631513, 51.473073044909668],
        [0.093846288529711, 51.473136812300829],
        [0.0939978173725, 51.473175473000239],
        [0.094210517236981, 51.473229227944636],
        [0.094471766730522, 51.473274021603089],
        [0.09464717814386, 51.473268189849854],
        [0.095007992296272, 51.473286023406935],
        [0.095354498549046, 51.47327443518072],
        [0.095664416612598, 51.473250010691963],
        [0.0965490365167, 51.473228798677802],
        [0.096560508999262, 51.473259169201789],
        [0.096803817959307, 51.473886115830716],
        [0.096909862277778, 51.474094651828182],
        [0.09708548968771, 51.474156258944269],
        [0.097334041475365, 51.474520519519395],
        [0.0974817262989, 51.474663561563034],
        [0.09802119456794, 51.475122436251553],
        [0.098097384940881, 51.475213699117752],
        [0.09816725158334, 51.475355435058681],
        [0.098223999413326, 51.475462333637331],
        [0.09871301096709, 51.475449084369274],
        [0.099242511832212, 51.475408129528326],
        [0.099782279150496, 51.47530853488545],
        [0.100199374698752, 51.475234516741772],
        [0.100946385278503, 51.474975627646955],
        [0.101428576168536, 51.474814107155098],
        [0.101440349628474, 51.474694291172852],
        [0.101697615027942, 51.474495433882971],
        [0.1017446837861, 51.474485597228906],
        [0.101821679059923, 51.474468929044292],
        [0.102001864724478, 51.474472892851644],
        [0.102470458336311, 51.474924025204466],
        [0.102549174786786, 51.474882145686728],
        [0.102550696282757, 51.474883916971173],
        [0.102672942613794, 51.474817875273708],
        [0.103076262839144, 51.474601107479565],
        [0.103087732265024, 51.474600002448888],
        [0.103141168392569, 51.474572065299185],
        [0.103272227161123, 51.474572412009003],
        [0.10329118013769, 51.47457746770089],
        [0.103377105331731, 51.474598408280642],
        [0.103711867584132, 51.474769561072549],
        [0.103856595996183, 51.4748478996949],
        [0.104127109528327, 51.475030995678928],
        [0.104484205145783, 51.475217932605915],
        [0.104688857487243, 51.47537792881851],
        [0.104814240228309, 51.475505174995618],
        [0.104891451875474, 51.475524472342364],
        [0.105191109433414, 51.475245709079282],
        [0.105636198415143, 51.475467033877472],
        [0.106162562080505, 51.475014231133102],
        [0.106378595942517, 51.475139847099392],
        [0.106897889371004, 51.475346344623603],
        [0.10705860766431, 51.475396514110557],
        [0.107160343306942, 51.475479218513968],
        [0.107200000797936, 51.475558542184302],
        [0.107272887411055, 51.475671441445584],
        [0.107336302102405, 51.475735050189833],
        [0.107399913321449, 51.475771676788781],
        [0.107548594997623, 51.475841846265979],
        [0.107663075352486, 51.475919824703588],
        [0.107666596313621, 51.475996200713311],
        [0.108165892683586, 51.476112224300593],
        [0.10822559145164, 51.476126438659058],
        [0.108230435445661, 51.476106567260409],
        [0.10829790474911, 51.476008231094482],
        [0.108477300433198, 51.475745111222416],
        [0.108722136000405, 51.475464626878036],
        [0.108973742394006, 51.475268553098388],
        [0.109381008847069, 51.475013023143809],
        [0.10975373850621, 51.47475811324621],
        [0.110033312940392, 51.474512972342957],
        [0.110371062813593, 51.474186747047213],
        [0.110567702597859, 51.474016839174787],
        [0.110688565995991, 51.473921137450816],
        [0.110816747401171, 51.473828001698983],
        [0.110885133601771, 51.473780906783624],
        [0.111234215024769, 51.473544403535591],
        [0.111665954553393, 51.473289323952208],
        [0.111772467316852, 51.473194778842505],
        [0.111975696713657, 51.473074210601105],
        [0.11223813836367, 51.473269124191276],
        [0.112527504312161, 51.473454559176993],
        [0.112560154280705, 51.473475553726558],
        [0.112842606828311, 51.473729458330162],
        [0.113005804750584, 51.473895583004207],
        [0.113067468370788, 51.473983501006757],
        [0.113224443827468, 51.474201896176261],
        [0.113512829317191, 51.474552815235697],
        [0.113750138453054, 51.474857891575155],
        [0.113802008592575, 51.47492080573538],
        [0.114024793153009, 51.475191970502337],
        [0.114345833510788, 51.475376829917877],
        [0.114632535804707, 51.475535329220271],
        [0.1150254988843, 51.475749465258069],
        [0.115049269020549, 51.475765223598565],
        [0.115079418183107, 51.475794356155895],
        [0.115339941904166, 51.476040556866394],
        [0.115489692102157, 51.476164654286926],
        [0.115664170105118, 51.47632517605534],
        [0.116109827634872, 51.476806345104144],
        [0.11645337134097, 51.477134678569264],
        [0.116818521110486, 51.477494095982038],
        [0.117090925825683, 51.477778747684631],
        [0.118165229118984, 51.478679313924779],
        [0.118454315653615, 51.478919596060578],
        [0.118849017352938, 51.478797354714288],
        [0.119090350381729, 51.478721949275958],
        [0.119146136576645, 51.478713746649937],
        [0.119373681336742, 51.478682654914365],
        [0.119703539084556, 51.478621835068601],
        [0.119872919176975, 51.478609779698793],
        [0.120232491212456, 51.478599680450195],
        [0.12059022909572, 51.478550044630929],
        [0.120731018051857, 51.478511526535534],
        [0.121010927681533, 51.478398548517831],
        [0.121384305134843, 51.47825150427461],
        [0.121765208478725, 51.478111516922304],
        [0.12185677928853, 51.478067593162585],
        [0.122223144183084, 51.477893694490611],
        [0.122610527326866, 51.477738299160762],
        [0.122935992528025, 51.477583124446276],
        [0.12343973201442, 51.477328496247232],
        [0.1236768755497, 51.477163228334703],
        [0.123814401675386, 51.477054621125923],
        [0.123886052109761, 51.476984977256556],
        [0.124053749583595, 51.476812873014254],
        [0.124160812268235, 51.476823523309285],
        [0.124040353802581, 51.477113477889056],
        [0.123973712852923, 51.477290945647361],
        [0.123908510320491, 51.477468387301357],
        [0.123707229840479, 51.478064664189482],
        [0.123458522457212, 51.478694174003692],
        [0.123302772132125, 51.479092681391123],
        [0.122986343635864, 51.479969821233936],
        [0.122638203233479, 51.480846634877018],
        [0.122506735657129, 51.481241104203086],
        [0.122232530485816, 51.481849489597323],
        [0.122135010349096, 51.482230753901],
        [0.122098012587094, 51.482426568837568],
        [0.122059617640505, 51.482747409928031],
        [0.122077537024094, 51.483598710272432],
        [0.122069803389842, 51.484455870534383],
        [0.122073709872917, 51.48556372096462],
        [0.122022672871952, 51.485860509948012],
        [0.121964876995311, 51.486073787572657],
        [0.121945625422798, 51.486124496030648],
        [0.121514737813513, 51.487330142810627],
        [0.121467283858106, 51.487518052973464],
        [0.121448447884391, 51.487639797421956],
        [0.121444442405808, 51.487739690662657],
        [0.121454871070193, 51.487840222024587],
        [0.121496566483105, 51.488024720552531],
        [0.121532608129562, 51.48855284865882],
        [0.121527080115312, 51.488650970866154],
        [0.12152007109634, 51.488748220582757],
        [0.121429228565185, 51.488994470046691],
        [0.121334626288967, 51.489780359010389],
        [0.121292817534036, 51.490555400527697],
        [0.121278607695542, 51.491087135489387],
        [0.121241474532387, 51.491342305131482],
        [0.121232994941162, 51.492587069804927],
        [0.121187846117935, 51.493290228525353],
        [0.1211965419096, 51.493694749640042],
        [0.121164298830635, 51.495203434304479],
        [0.121085285417138, 51.49620127149408],
        [0.121082343002122, 51.496293051790488],
        [0.121045156216401, 51.49735398138656],
        [0.121023382851296, 51.49883999364657],
        [0.120999173141766, 51.499746011136644],
        [0.120981951618959, 51.500771506919676],
        [0.120926801376908, 51.501352542842071],
        [0.120919516780943, 51.501661129108079],
        [0.120914861194258, 51.50196427210318],
        [0.120945236972883, 51.502432249764951],
        [0.120929165525439, 51.503079125730117],
        [0.120857277065563, 51.503796256016599],
        [0.120823338595465, 51.50492726967618],
        [0.12084757619328, 51.506069820960704],
        [0.120779899687313, 51.50662950004125],
        [0.120746091170766, 51.507018601957022],
        [0.120697461975828, 51.507833332924477],
        [0.120705928462059, 51.508450088209209],
        [0.120694782524362, 51.508706585516613],
        [0.120679149860593, 51.508959566816266],
        [0.120625325505844, 51.509445253806064],
        [0.120599987671036, 51.509768554648616],
        [0.120579136293612, 51.510095371472893],
        [0.120535238242955, 51.511043110288213],
        [0.120210881555192, 51.511444659399857],
        [0.119074237426342, 51.512727796528729],
        [0.118296800474391, 51.513584469439216],
        [0.119304721768596, 51.513967339257711],
        [0.119979670015018, 51.514224924880153],
        [0.120438134253296, 51.514383003589366],
        [0.120767369766353, 51.514489460572548],
        [0.121103473275164, 51.514588598160692],
        [0.121582335466909, 51.514720224309748],
        [0.121821558785216, 51.514781544002503],
        [0.122236955453035, 51.514881042281864],
        [0.122935743933459, 51.515061740592358],
        [0.123372329128921, 51.515151858489581],
        [0.123862199905474, 51.515241009781235],
        [0.124396381393472, 51.515322162113797],
        [0.125211200715371, 51.515425205275193],
        [0.125269139733626, 51.515431349584112],
        [0.125280660613949, 51.515431140802455],
        [0.126295568319145, 51.515466701162708],
        [0.127008012257851, 51.515506839577398],
        [0.127714110609972, 51.515534498829716],
        [0.128229025945488, 51.515542242061592],
        [0.128806552091675, 51.515532659425951],
        [0.129002239416999, 51.515525509982304],
        [0.130527091475601, 51.515431271166364],
        [0.131793081322445, 51.515287761232671],
        [0.132695881313066, 51.51520659849384],
        [0.133594449163792, 51.515004102414437],
        [0.13592608006119, 51.514594751538588],
        [0.136846652647012, 51.51437024671921],
        [0.137990149323839, 51.514074224375321],
        [0.139042276613454, 51.513766368079366],
        [0.139924945080152, 51.513410335272383],
        [0.140872189928375, 51.513048620421849],
        [0.142331806731956, 51.51248778962254],
        [0.143450732505269, 51.51200780862321],
        [0.144539384979888, 51.511589521812553],
        [0.146859271888594, 51.510721530047419],
        [0.148093458024827, 51.510365293984272],
        [0.14919870467694, 51.510086948022149],
        [0.149939297404926, 51.509899810424336],
        [0.151104910818228, 51.509679692520351],
        [0.15261176735457, 51.509361572170938],
        [0.153259547497171, 51.509254355069324],
        [0.154669571301323, 51.509083670645559],
        [0.15640482340833, 51.508872816152888],
        [0.15787416184569, 51.508768448876552],
        [0.157945985465712, 51.508763530054225],
        [0.160057676023636, 51.508712061841713],
        [0.160059115889101, 51.508712035319455],
        [0.160513682640678, 51.508664092642242],
        [0.160772937384591, 51.50863053865195],
        [0.161126116947994, 51.508571871670163],
        [0.161473068315712, 51.508503426240154],
        [0.161727108585676, 51.508451081176872],
        [0.162525555608677, 51.508269991257109],
        [0.163588656635134, 51.508017465845022],
        [0.163901121183992, 51.507920872199179],
        [0.16483752710977, 51.507610420781518],
        [0.165157014868235, 51.507510096931711],
        [0.165661035845079, 51.507350608447268],
        [0.166910456235949, 51.506925545053356],
        [0.167506377939023, 51.506698702135857],
        [0.167933262269363, 51.506523542993179],
        [0.168497956856438, 51.506276588589351],
        [0.168941971549085, 51.506067835195118],
        [0.169182667406123, 51.505947374574795],
        [0.169663628428778, 51.505697466885771],
        [0.169896694718552, 51.505568153029074],
        [0.170346559102425, 51.50530083208519],
        [0.170717958554642, 51.505050249834675],
        [0.172582495929863, 51.503654193430293],
        [0.172798026252285, 51.503459550301756],
        [0.173180987502306, 51.503089140048488],
        [0.173464362756135, 51.502836582926633],
        [0.174127103125573, 51.502168713696307],
        [0.174364056928609, 51.501909820654298],
        [0.174633035267184, 51.501597275009438],
        [0.174825697364973, 51.501346396706786],
        [0.174950554569536, 51.501154330398947],
        [0.175457424525915, 51.500300492952],
        [0.175721674745296, 51.499798281780123],
        [0.175886842845791, 51.499212475869086],
        [0.175907393298064, 51.499159935594506],
        [0.176065908726529, 51.498737024639908],
        [0.176067348262424, 51.498736997924823],
        [0.176262261115822, 51.498291828173564],
        [0.176310943186017, 51.49819470038269],
        [0.176571314155861, 51.497762703779934],
        [0.176618427100278, 51.497662907096],
        [0.17688969691474, 51.497036460265726],
        [0.177014120186096, 51.496624072932065],
        [0.177190971783016, 51.495770058639174],
        [0.177685958841506, 51.493883143477838],
        [0.177820615768364, 51.493323080888672],
        [0.177889656226947, 51.493078989428319],
        [0.178046703458573, 51.492595849786504],
        [0.178243577442419, 51.492102077769907],
        [0.178350575986414, 51.491838395627902],
        [0.178526976778741, 51.49145921364174],
        [0.179012086215357, 51.490454681434741],
        [0.179569379875747, 51.489574706192506],
        [0.180018360439679, 51.488961134368438],
        [0.180549241023925, 51.488283086966547],
        [0.18082539961034, 51.488002766691274],
        [0.181028170021268, 51.487814639631246],
        [0.181653026930612, 51.487325489085812],
        [0.182143182952106, 51.486971937745338],
        [0.182437791786736, 51.486776703066923],
        [0.182658483529095, 51.486632304900596],
        [0.183334919141539, 51.486228517133391],
        [0.183996369804013, 51.485903243132036],
        [0.184816672185913, 51.485526443327679],
        [0.185148720047588, 51.485391656027254],
        [0.185450050923484, 51.485277224836601],
        [0.186129645630076, 51.485030738306023],
        [0.186352187811529, 51.484955544230409],
        [0.186871629545347, 51.484793875619424],
        [0.187269691675118, 51.484654253683566],
        [0.18745711320084, 51.484597698589369],
        [0.187600911998521, 51.484562640939089],
        [0.188177395474425, 51.484449363375589],
        [0.188375299369713, 51.484431280863014],
        [0.189433547357377, 51.484332385457549],
        [0.189970701190676, 51.484270194028397],
        [0.190254646073192, 51.484244206065782],
        [0.191972793977739, 51.484150044520497],
        [0.195559574366652, 51.484186349701204],
        [0.196305553727992, 51.48421374518518],
        [0.197133028222324, 51.484258493949106],
        [0.198347153383539, 51.484346348226765],
        [0.198751560144585, 51.484369340775103],
        [0.199014809489127, 51.484392281706761],
        [0.199277009141835, 51.484423335411833],
        [0.200446020749289, 51.484591152390088],
        [0.202593181185972, 51.484970805735223],
        [0.20336910811638, 51.48508122839506],
        [0.205120433545377, 51.485316292783267],
        [0.20769699216607, 51.485697668336933],
        [0.208127138188, 51.485746223594425],
        [0.20827610311355, 51.485758705983891],
        [0.208690730286728, 51.485784169728696],
        [0.209596784881142, 51.485814760182478],
        [0.210307031300751, 51.485876913508385],
        [0.211055753162044, 51.485870889569483],
        [0.211517181450661, 51.485851395081987],
        [0.212560837176796, 51.485778645574506],
        [0.213580857558658, 51.485664065953131],
        [0.213816914303216, 51.485630831303745],
        [0.214175469649379, 51.485569203125898],
        [0.216095745186027, 51.485187591127975],
        [0.21630393231508, 51.485144086632751],
        [0.216702208552882, 51.485040332021633],
        [0.216941051375596, 51.484975562884621],
        [0.217176753856016, 51.484905456847272],
        [0.217434521477065, 51.484815148417987],
        [0.218623657371276, 51.484327713833089],
        [0.218983633606024, 51.484206690146287],
        [0.2199421489659, 51.483835119786157],
        [0.220267319374329, 51.483709355340331],
        [0.222103968077842, 51.482943427750548],
        [0.223675838820563, 51.48227242329412],
        [0.222111803747015, 51.481238205754188],
        [0.22083711712342, 51.480436801442096],
        [0.220127756892571, 51.480005982473521],
        [0.219639968430733, 51.48001521880434],
        [0.218713053706032, 51.48023510697535],
        [0.218349444945312, 51.480310334543063],
        [0.218167095224415, 51.480292201614944],
        [0.218049409577588, 51.480271046415581],
        [0.217940139535622, 51.480245235388338],
        [0.217590964877436, 51.480143025422684],
        [0.21730013255692, 51.480055898408146],
        [0.216891138615734, 51.479908054127506],
        [0.21680506779102, 51.479855723662993],
        [0.216638771651914, 51.479693396828409],
        [0.216611652672122, 51.479639052280433],
        [0.216573329861481, 51.479531860860241],
        [0.216362309797616, 51.479130266136956],
        [0.216353677808038, 51.479100752427058],
        [0.216353330591434, 51.479063887692433],
        [0.216381065159646, 51.478982426365626],
        [0.216409413303754, 51.478824512929933],
        [0.216406495783705, 51.478734638085683],
        [0.216426601362408, 51.478614651071041],
        [0.216418758619974, 51.478482602236866],
        [0.216452464759296, 51.478435201388365],
        [0.216476141177027, 51.478418566356957],
        [0.216515601435646, 51.478400733602832],
        [0.216609520355103, 51.478377374675347],
        [0.216717793790492, 51.478085752812916],
        [0.216788955962721, 51.477949512204724],
        [0.216823142633564, 51.477852640643526],
        [0.216872027429631, 51.477613401697582],
        [0.216872160108755, 51.477556743273674],
        [0.216860215745895, 51.477488622319683],
        [0.216830961945773, 51.477419929376943],
        [0.216683254378332, 51.477106168662267],
        [0.216597497634163, 51.476971096497834],
        [0.216539294138467, 51.476899353644626],
        [0.21644228787221, 51.476799566774012],
        [0.216274259362778, 51.476660653995069],
        [0.216226954539834, 51.476635468566158],
        [0.216026922227075, 51.476549319862244],
        [0.215660904728899, 51.476485193296703],
        [0.214987512775338, 51.476378311278594],
        [0.214400059678453, 51.476261708453116],
        [0.213470367934006, 51.476006777692803],
        [0.213072795397884, 51.475915360577581],
        [0.212850356812346, 51.475871896573686],
        [0.212703652109856, 51.475816211140732],
        [0.212492945836186, 51.475747344624985],
        [0.212366341336373, 51.475690380128334],
        [0.21225669809273, 51.475626800328662],
        [0.212210400529298, 51.47559260129028],
        [0.212115193029714, 51.475499971357337],
        [0.211541056224933, 51.475092629192574],
        [0.211507100083494, 51.475045606866111],
        [0.211501745256315, 51.474994447790088],
        [0.211433643391643, 51.474717848808666],
        [0.211479289544041, 51.474440902671681],
        [0.211531319436429, 51.474325710066154],
        [0.211713031185645, 51.47376561529228],
        [0.211784254234319, 51.473570922041759],
        [0.211859127855799, 51.47345170106955],
        [0.211869033556584, 51.473388563164931],
        [0.211849687078312, 51.473316084877595],
        [0.211480260981348, 51.472942650516714],
        [0.211074946378698, 51.472660721222375],
        [0.210525361146513, 51.472224133545417],
        [0.210234652239862, 51.472048855595837],
        [0.209726800803506, 51.471849791892524],
        [0.209629200811135, 51.471796774275113],
        [0.209283661702742, 51.471589253369537],
        [0.209174342644507, 51.471502282834543],
        [0.209006622522575, 51.471339072898296],
        [0.208842798132607, 51.471107442522488],
        [0.208797605532069, 51.471036350041786],
        [0.208785842422876, 51.47100149897944],
        [0.208776479173042, 51.47095671039844],
        [0.208778321159134, 51.470905415591496],
        [0.208791938931238, 51.47082961780692],
        [0.208817499673478, 51.470762587990755],
        [0.208857793784531, 51.470702474957356],
        [0.208901399069272, 51.470651292517907],
        [0.209432437871274, 51.470138576274636],
        [0.209798134677191, 51.469750379955961],
        [0.209950170199553, 51.469618913953518],
        [0.210124391554202, 51.469499619674551],
        [0.210976135356309, 51.469128334610616],
        [0.211151269378296, 51.468998229943786],
        [0.211223120429848, 51.468935722209174],
        [0.211275396237195, 51.468885274592296],
        [0.211314768331416, 51.468835969663466],
        [0.211356544259436, 51.468747050145993],
        [0.211444617916194, 51.46836498449774],
        [0.211487704594423, 51.467975673744725],
        [0.211371201654422, 51.467591172210227],
        [0.211028769274203, 51.466941141881534],
        [0.210754363954842, 51.466447205291139],
        [0.210558218278939, 51.466142444087644],
        [0.210420221933173, 51.465849176295741],
        [0.210354307682874, 51.465647177181893],
        [0.210336286367842, 51.465512621849903],
        [0.210332704438767, 51.465081024925986],
        [0.210351301266604, 51.464929591696325],
        [0.210350400314491, 51.464851369495733],
        [0.210357777121255, 51.464795473734199],
        [0.210397331407871, 51.464690408966192],
        [0.21048637760102, 51.464000764485334],
        [0.210496163817758, 51.463637262265017],
        [0.210560944831906, 51.463100956397028],
        [0.210585683527539, 51.462480871252822],
        [0.210279872396644, 51.462289690969286],
        [0.210078172315946, 51.462197268773529],
        [0.209865573973179, 51.46211764191127],
        [0.209404359004702, 51.462047197458816],
        [0.209269030200848, 51.462017373264423],
        [0.207845395491568, 51.461573861708246],
        [0.207604174582823, 51.461467790854542],
        [0.207121463169985, 51.461130649902017],
        [0.207062282852991, 51.461097590753845],
        [0.207019010852546, 51.461066030655125],
        [0.206958226717556, 51.460999727512345],
        [0.206836651153773, 51.460896798206669],
        [0.206741954833178, 51.460843723615866],
        [0.206215900987595, 51.460622505472905],
        [0.205937613073117, 51.460464070119755],
        [0.205545779561256, 51.460189962180223],
        [0.205479496769551, 51.460158834483863],
        [0.205349279418099, 51.460115420120822],
        [0.204759009814671, 51.459995226059128],
        [0.204630847406137, 51.459934685535586],
        [0.204534414222085, 51.459875346744298],
        [0.204474457985919, 51.459826113483196],
        [0.203829903167436, 51.459266278266931],
        [0.203707290564105, 51.459171458972328],
        [0.203415673282741, 51.458915244513065],
        [0.203244928125477, 51.458747586843565],
        [0.20316913125392, 51.458638397511443],
        [0.203151795995807, 51.458607247806953],
        [0.20293915883871, 51.458346849782323],
        [0.202829018785116, 51.458241902868807],
        [0.202835301391243, 51.458222899482259],
        [0.202915949954796, 51.45816382857948],
        [0.203024507919756, 51.458056570130132],
        [0.203080802933508, 51.457970078489836],
        [0.203138449421315, 51.457881762816363],
        [0.203220133207592, 51.45772464842819],
        [0.203208581893035, 51.457604359213441],
        [0.203127108415982, 51.457407145047064],
        [0.202847732627284, 51.456836843054866],
        [0.202580972192172, 51.456229431996462],
        [0.202546963975467, 51.456150932541647],
        [0.202566579280115, 51.456139772340904],
        [0.203123334378282, 51.456103229360892],
        [0.203409972746009, 51.456077157528107],
        [0.203777893753376, 51.456035167984155],
        [0.203808461260737, 51.455982433797026],
        [0.20383275667265, 51.455919025911577],
        [0.203873676538488, 51.455662854957772],
        [0.203867683949324, 51.455598217932618],
        [0.203856102038022, 51.455566960148097],
        [0.203820211326317, 51.455509180370065],
        [0.203310750765529, 51.455033135257374],
        [0.2032578199253, 51.454980172126113],
        [0.203235738991585, 51.454940118616939],
        [0.203234440947207, 51.454913163974794],
        [0.203244561409463, 51.45488419609817],
        [0.20329809559217, 51.45483013102892],
        [0.203310789365947, 51.454794819664592],
        [0.203371488651671, 51.454560759588205],
        [0.203373117794056, 51.4543853651804],
        [0.203352951141353, 51.454355168022488],
        [0.203325723760628, 51.454327801490813],
        [0.203032499402571, 51.454276657060895],
        [0.202963610319816, 51.454250972778418],
        [0.202930933622305, 51.454230003683982],
        [0.202912724568065, 51.454210561277471],
        [0.202776145696697, 51.453974813202827],
        [0.202693492438034, 51.453932300706725],
        [0.202473571101029, 51.453878878039099],
        [0.202427422172314, 51.453877047284216],
        [0.202336638035415, 51.453904832827],
        [0.20201220941197, 51.454102479335042],
        [0.202000791043521, 51.454104492447847],
        [0.201938433552815, 51.454094872285985],
        [0.201907584703042, 51.454081962283638],
        [0.201869988927023, 51.454048495086163],
        [0.201857793789596, 51.453914728278654],
        [0.201825950590454, 51.453881153004104],
        [0.201359542087928, 51.453850344258072],
        [0.201049697927515, 51.453633136301406],
        [0.200993895160951, 51.45358022609507],
        [0.200977698934989, 51.453542759571626],
        [0.200976272620375, 51.453513109413173],
        [0.20098390705496, 51.453492282126838],
        [0.20101948201423, 51.453453843449772],
        [0.201131027802302, 51.453378905376347],
        [0.201142013784897, 51.453367907454016],
        [0.201161954159764, 51.453303682596598],
        [0.201102399344059, 51.453262533819164],
        [0.200985179996018, 51.453249446879312],
        [0.200835674661437, 51.45322347652715],
        [0.200692440396169, 51.453208179859118],
        [0.200671831910732, 51.4531986744745],
        [0.20061498096872, 51.453153877481839],
        [0.200588027259362, 51.453102224052998],
        [0.200592927330105, 51.453054469089885],
        [0.20064532703554, 51.45300672163367],
        [0.200699102207971, 51.452897795839853],
        [0.200623816010444, 51.452858740788137],
        [0.200389194693042, 51.452858649013059],
        [0.200300867565154, 51.45284771690865],
        [0.200254429551432, 51.452809918681766],
        [0.200243869134015, 51.452739971419795],
        [0.200255799292522, 51.452658810357462],
        [0.200206713706606, 51.452595881375927],
        [0.200105734642984, 51.452621158670276],
        [0.199892691159618, 51.452710591004525],
        [0.199841395996531, 51.452721446043419],
        [0.199791236494264, 51.452725984637546],
        [0.199742126281573, 51.452722409807052],
        [0.199694238165292, 51.452714315515159],
        [0.199648751058243, 51.452696283832282],
        [0.199604140536947, 51.452666544766451],
        [0.199576441287602, 51.452629293920744],
        [0.199564776724327, 51.45259623867215],
        [0.199559395443205, 51.452544180186983],
        [0.199531566732002, 51.452504233856608],
        [0.19948796262666, 51.452465482849647],
        [0.199431804793404, 51.452435061104779],
        [0.199366055714527, 51.452414711618033],
        [0.199299343694359, 51.452404272475889],
        [0.19914242284463, 51.452403619558062],
        [0.199087042603287, 51.452389370481065],
        [0.199039902090992, 51.452366873079718],
        [0.199015856857353, 51.452345740970536],
        [0.198999489987238, 51.452304680177718],
        [0.199001286569097, 51.452282163943245],
        [0.199018556268232, 51.452252163006584],
        [0.199046021843913, 51.452224668682],
        [0.19908097991195, 51.452203328887073],
        [0.199109507837532, 51.452138043965711],
        [0.198775375805493, 51.452103843911743],
        [0.198592943204303, 51.452051509374733],
        [0.198391530465438, 51.452053488612556],
        [0.198314062187643, 51.452028861838521],
        [0.198177216146868, 51.451966678654365],
        [0.198118097377569, 51.451934513214795],
        [0.198075415106343, 51.451884952789968],
        [0.198033855121924, 51.451858753131894],
        [0.197988412671046, 51.451841619275854],
        [0.197937520213131, 51.451830882708535],
        [0.197887059362168, 51.451829131036575],
        [0.197838424970466, 51.451835438804189],
        [0.197790178973239, 51.451849832978255],
        [0.197749425237807, 51.451870381756862],
        [0.197718910375892, 51.451894335745372],
        [0.197671154228154, 51.451978866164325],
        [0.197611921507641, 51.452004257872623],
        [0.197547898848961, 51.451929916944636],
        [0.197512809814485, 51.451858630731493],
        [0.197430049879105, 51.451783741731141],
        [0.197249374787891, 51.451797920441777],
        [0.197173029290221, 51.451796653696753],
        [0.19707176256701, 51.451785961732867],
        [0.196974508021236, 51.451768899371778],
        [0.196866669622314, 51.451741243691387],
        [0.19669167433672, 51.451813769644787],
        [0.196593082743146, 51.451768853697928],
        [0.196527292713396, 51.451747604097292],
        [0.196461589004415, 51.451728151444222],
        [0.196422632603611, 51.451726183555223],
        [0.196383848720605, 51.451727809624025],
        [0.196233443641568, 51.451772895070583],
        [0.196151992900631, 51.451785212832171],
        [0.196071764540754, 51.451793011130057],
        [0.195959036857253, 51.451783432239566],
        [0.195934014542072, 51.451801887048902],
        [0.195895905376347, 51.451847566053793],
        [0.195876835649533, 51.451900082760929],
        [0.19587776915446, 51.451949526815206],
        [0.195897095430772, 51.451992331184833],
        [0.19593515948382, 51.452035683803693],
        [0.1959991516125, 51.452079449940868],
        [0.196108068412139, 51.452129568734897],
        [0.196135074555165, 51.452152444556127],
        [0.196146003406992, 51.452170225802227],
        [0.19615152505758, 51.452195302766789],
        [0.196144492358544, 51.452228708664911],
        [0.196107605496816, 51.452269868329154],
        [0.195960361277944, 51.452350866214069],
        [0.195896424849704, 51.452368251461117],
        [0.195863435751337, 51.452370668091824],
        [0.195818726589378, 51.452368807771869],
        [0.195773672488772, 51.452359759491081],
        [0.195737031166972, 51.452346057092157],
        [0.195707278338226, 51.452325930535864],
        [0.195675483859567, 51.452293252007713],
        [0.195662901525981, 51.452271005189438],
        [0.195632030487253, 51.452137587671494],
        [0.195604996775208, 51.452084136027914],
        [0.195549633299285, 51.452040208049965],
        [0.195482232848861, 51.452015390826631],
        [0.195411251201194, 51.452005928754275],
        [0.195346754618707, 51.452011633286837],
        [0.195238999321209, 51.452075703224573],
        [0.195220159819641, 51.452103035086658],
        [0.195179749525986, 51.452130770933984],
        [0.195144315501672, 51.452142226159218],
        [0.195101432573479, 51.45214842507103],
        [0.195063913910908, 51.452146429802582],
        [0.195027488481329, 51.452137219643973],
        [0.19499485999569, 51.452117146761807],
        [0.19497178067337, 51.45208610343979],
        [0.194967611529297, 51.452059202494581],
        [0.195001341081377, 51.451892200228336],
        [0.194992987116416, 51.451868075554025],
        [0.194976134209227, 51.451846807938615],
        [0.194949344326203, 51.45182842430787],
        [0.194921375024041, 51.451815458561192],
        [0.19486342236455, 51.45180755077601],
        [0.194824896930938, 51.451814567291969],
        [0.194788068112392, 51.451826947829751],
        [0.194765705893851, 51.451840856072188],
        [0.19473160797535, 51.45188016447505],
        [0.194634079552146, 51.451887386420331],
        [0.194605146290956, 51.45188433095435],
        [0.194538263680903, 51.45187029510376],
        [0.194456311219514, 51.451842152548394],
        [0.194395972579904, 51.451814504590089],
        [0.194321312814513, 51.45175834709061],
        [0.194253240211069, 51.451689476020888],
        [0.194225185014759, 51.451674713116418],
        [0.194154117964923, 51.451663453284652],
        [0.194123041231125, 51.451675725935665],
        [0.194068422573329, 51.451707324573412],
        [0.194046361768945, 51.4517275221394],
        [0.194022485603689, 51.451799913114016],
        [0.194028738447289, 51.451840264594153],
        [0.194021488828088, 51.451869177914084],
        [0.19400683356285, 51.451893733352961],
        [0.193981939634014, 51.451914883237578],
        [0.193951121171516, 51.451932546809786],
        [0.193911372840147, 51.451944082416148],
        [0.193865570742543, 51.45194943621506],
        [0.193819424003895, 51.451947602042559],
        [0.193755374543762, 51.451932613417966],
        [0.193689585545763, 51.451911362211888],
        [0.193641010076209, 51.45188888951364],
        [0.193600890624294, 51.45186266133986],
        [0.193567702995085, 51.451830907623005],
        [0.193542842155986, 51.451792702962315],
        [0.193519866773237, 51.451733779100238],
        [0.193456351251978, 51.451699895011906],
        [0.192992957929695, 51.451701371518205],
        [0.192881186475406, 51.451621626347929],
        [0.192873901247841, 51.451559710916818],
        [0.192859107379046, 51.451521317773043],
        [0.192834376479242, 51.451485808435699],
        [0.192805589870051, 51.451455770771013],
        [0.192731406246627, 51.451409495669296],
        [0.192649240418015, 51.451376859350269],
        [0.192615261587032, 51.451358609675388],
        [0.192454486906382, 51.451247405964317],
        [0.192385238136179, 51.451183951631016],
        [0.192128222613363, 51.450896486113827],
        [0.191978825729378, 51.450782371065877],
        [0.191915674690122, 51.450725996827629],
        [0.19188688917055, 51.450695958920797],
        [0.191746928847005, 51.450688683860584],
        [0.191720528251466, 51.450678385925706],
        [0.190985182388322, 51.448787415631138],
        [0.188824000873338, 51.449129959704436],
        [0.188797558850022, 51.449118762592363],
        [0.188407953351772, 51.44861613436958],
        [0.188377412720612, 51.448609510191034],
        [0.187646444143156, 51.448703193414829],
        [0.18761738446044, 51.448697440697352],
        [0.187374296231177, 51.448308983383967],
        [0.187350707168736, 51.448206903394123],
        [0.187280935199213, 51.44728912068188],
        [0.187334583596031, 51.447086676241945],
        [0.187411454113458, 51.446948548001743],
        [0.187440596968556, 51.446895844691625],
        [0.187438128377611, 51.446874307555554],
        [0.187055665265635, 51.446610755484599],
        [0.186500982372043, 51.44620652705418],
        [0.18575039643182, 51.445707925838683],
        [0.185088328131644, 51.445254433274776],
        [0.184250928620426, 51.444654920831141],
        [0.184220391219477, 51.444648295526541],
        [0.184038621769036, 51.444699345736602],
        [0.183662312614779, 51.444805280426415],
        [0.18362915673551, 51.444804099553401],
        [0.183201945998, 51.444536872263079],
        [0.183172889502444, 51.444531118401649],
        [0.183050027301618, 51.444580170493616],
        [0.183018395132818, 51.444580759668384],
        [0.182750092793291, 51.444416688271893],
        [0.182636400234233, 51.444386430759458],
        [0.182531591811638, 51.444361403501453],
        [0.182163344079894, 51.444304409969256],
        [0.181418285383177, 51.444222054323539],
        [0.181058042642025, 51.44418199503869],
        [0.181040018171596, 51.444166143057707],
        [0.181030131706165, 51.444109671143977],
        [0.180976468237305, 51.443678106514653],
        [0.180976339795445, 51.443675411005117],
        [0.180861141230776, 51.443522875027625],
        [0.180833266588852, 51.443511702800699],
        [0.180531637008015, 51.443463356894867],
        [0.180442947147998, 51.443444323004627],
        [0.180209604807304, 51.443379417752034],
        [0.179856464469272, 51.443246594822647],
        [0.179549549146579, 51.443117407734896],
        [0.179520793481234, 51.443117942479375],
        [0.1791995812185, 51.443444065999707],
        [0.179170868119481, 51.443445499165051],
        [0.1788881128245, 51.443340142232309],
        [0.178861094201061, 51.44334693961865],
        [0.178724526725672, 51.443470883824311],
        [0.178698903026605, 51.443476755942307],
        [0.178051024821622, 51.443198323773153],
        [0.176261630128377, 51.442125424987175],
        [0.175991145919348, 51.442005444494633],
        [0.175957906777332, 51.442002464411409],
        [0.175158285758315, 51.442345551494604],
        [0.174673841265461, 51.442537998274339],
        [0.174396746963243, 51.442672638427226],
        [0.174185959557648, 51.442809645099842],
        [0.174049653090887, 51.442878721704659],
        [0.173907082988415, 51.442937122737611],
        [0.173779560063027, 51.442979057132725],
        [0.173675796545048, 51.443006161961044],
        [0.173580275609203, 51.443025020144816],
        [0.173481537691782, 51.443036743515563],
        [0.173365332959395, 51.443044294204341],
        [0.173138034631573, 51.443045810983314],
        [0.172770375197842, 51.443031044195358],
        [0.172760950465103, 51.443044708397295],
        [0.172828016265903, 51.4432449080388],
        [0.172753098294526, 51.44318244668861],
        [0.172498840508813, 51.442919168842572],
        [0.172492023216358, 51.442896812736862],
        [0.17255950743412, 51.442772357883193],
        [0.172550027815323, 51.442754547625221],
        [0.172433275436689, 51.442659587473365],
        [0.172396338111255, 51.442609012085249],
        [0.172351200663363, 51.442567581662949],
        [0.172298959723652, 51.442528081480653],
        [0.172159843735226, 51.442447025038312],
        [0.172024487267775, 51.442354207876086],
        [0.171876606043611, 51.442240039482371],
        [0.171744242502503, 51.442119288275251],
        [0.171355293939716, 51.44180724366398],
        [0.171110701245117, 51.44156536696827],
        [0.17099146095566, 51.441357139834679],
        [0.170876429280781, 51.441207289053132],
        [0.170770536048522, 51.441068060488689],
        [0.170524001502185, 51.440815426968548],
        [0.169732002252316, 51.43961963549215],
        [0.169748615633975, 51.439605838444606],
        [0.169804174181329, 51.439594018284417],
        [0.169790383279601, 51.439576287623503],
        [0.169820288046188, 51.439478609693246],
        [0.169823909324539, 51.439433577702033],
        [0.169808149079211, 51.439343939585754],
        [0.169778065078554, 51.439286042112805],
        [0.169724509977903, 51.439218686864585],
        [0.169654043698303, 51.439158839050798],
        [0.169566708852707, 51.439107397151417],
        [0.169487371577696, 51.43907289382598],
        [0.169402581820474, 51.43904478646683],
        [0.169146067779865, 51.438732981086055],
        [0.169037886832018, 51.438545231174992],
        [0.168748491090425, 51.437994819947953],
        [0.168679356291668, 51.437720014453191],
        [0.168688118528325, 51.437479739467271],
        [0.168500594868961, 51.437348314460536],
        [0.168363142568691, 51.437241143142195],
        [0.168260959443268, 51.437149506547598],
        [0.168177763448948, 51.437063813697542],
        [0.168031158390354, 51.436884867397609],
        [0.167931876439481, 51.436732923815214],
        [0.167789926551694, 51.436561085499214],
        [0.167644771066624, 51.436412688079336],
        [0.167537078678024, 51.436265396218467],
        [0.167372938745337, 51.436111054483803],
        [0.167231928648724, 51.43595898270263],
        [0.167107915107325, 51.435801200676444],
        [0.167052079995096, 51.435715900403594],
        [0.166997427490731, 51.435625182443289],
        [0.166915513417508, 51.435414462433947],
        [0.166663801321209, 51.435051302864366],
        [0.166661616537834, 51.434944326658872],
        [0.166649616016468, 51.43481235154259],
        [0.166559996975897, 51.434712387520975],
        [0.16655285408006, 51.434561437308965],
        [0.166504352091908, 51.434053330585115],
        [0.166747754339565, 51.433724183706566],
        [0.166664105994294, 51.432534158518948],
        [0.166798012487753, 51.432414773874477],
        [0.166837394567099, 51.432334907378412],
        [0.166819026456537, 51.431946749593813],
        [0.166345263284161, 51.431633558911919],
        [0.166205256190221, 51.431532727442402],
        [0.166069476996851, 51.431430019065424],
        [0.166649323781344, 51.431309585840502],
        [0.166667372589415, 51.431295762661208],
        [0.166352592994888, 51.430541673697178],
        [0.166183505206467, 51.430282203730023],
        [0.166158516987057, 51.430270974714183],
        [0.165595625903185, 51.430354221000357],
        [0.165563705753862, 51.430348515750879],
        [0.165218518384379, 51.429985281734311],
        [0.164562022685463, 51.429062137630041],
        [0.164414625292672, 51.428743810047088],
        [0.164406752601388, 51.428698990465449],
        [0.164389158245957, 51.428661544829644],
        [0.16435266613937, 51.428619951709905],
        [0.164302097932451, 51.428584913637842],
        [0.164249207137519, 51.428561609332917],
        [0.164190949189193, 51.428546497818083],
        [0.164123012039922, 51.428539658714463],
        [0.16406116394284, 51.428539901527508],
        [0.164006884668336, 51.428548098241315],
        [0.16380549931934, 51.428609371961485],
        [0.163876408418381, 51.428679107346198],
        [0.163897005107582, 51.428932329519007],
        [0.163521128376893, 51.428893405087408],
        [0.163298664727792, 51.42905668789426],
        [0.16287706309337, 51.429115729782581],
        [0.162607995710646, 51.429206128807749],
        [0.162337108049143, 51.429288467099035],
        [0.162131235359899, 51.429346223496459],
        [0.16123933456147, 51.429560521075018],
        [0.161047069760015, 51.429601837206867],
        [0.160669259652272, 51.429674452339121],
        [0.160642034233463, 51.429676752889321],
        [0.160274578490994, 51.42938945623429],
        [0.159972041861311, 51.429288915424586],
        [0.159811173454365, 51.429202849697305],
        [0.159712849495177, 51.429283800051842],
        [0.159706716802407, 51.429641834051566],
        [0.159679537085753, 51.429675608997684],
        [0.159612071597787, 51.429739803192781],
        [0.159523172272017, 51.429807090211312],
        [0.159377666969546, 51.429894305468075],
        [0.159349936070116, 51.429916399604949],
        [0.159154935403239, 51.43011334170906],
        [0.159059486114499, 51.430224814678283],
        [0.158826494917116, 51.430165256673881],
        [0.158606019978205, 51.43012705083833],
        [0.15852155766759, 51.430196953246984],
        [0.158429738695861, 51.430263393891252],
        [0.158334663509514, 51.430321800742853],
        [0.158195282645443, 51.430386419238445],
        [0.158109040734649, 51.430418583570642],
        [0.157981283293868, 51.430455109504159],
        [0.157769057304745, 51.430500384960091],
        [0.157563088539267, 51.430556336413083],
        [0.15727277757997, 51.43062373237246],
        [0.156957606468506, 51.430682592179025],
        [0.156688938277529, 51.43072081079],
        [0.156380995105578, 51.430780435317843],
        [0.156379557687562, 51.430780461766631],
        [0.155848898967282, 51.430876557423197]
      ]
    ]
  }
}
