{
  "type": "Feature",
  "properties": {
    "name": "Bexley",
    "level": 2,
    "londonBorough": true,
    "center": [0.1505, 51.4549]
  },
  "geometry": {
    "type": "Polygon",
    "coordinates": [
      [
        [0.155848898967282, 51.4308765574232],
        [0.155609600903576, 51.43043850448347],
        [0.155467755975681, 51.430084092027904],
        [0.155339305327435, 51.42909722629541],
        [0.155274579923797, 51.42897521279516],
        [0.154035251434312, 51.42779833476909],
        [0.153737477041251, 51.42752322656603],
        [0.153305247175061, 51.42545918559137],
        [0.153292781500949, 51.4253164261593],
        [0.153507818735785, 51.423832228932156],
        [0.153491339810302, 51.423604109840134],
        [0.153108883181509, 51.422322442078766],
        [0.152977735794771, 51.42198042011366],
        [0.152825199585633, 51.42170354047137],
        [0.151342330059237, 51.420603052261995],
        [0.151132865631257, 51.42043063495911],
        [0.151626989506596, 51.42020213434374],
        [0.152270309980114, 51.41999607182676],
        [0.154604353446684, 51.41849001936774],
        [0.154610608930846, 51.418470119754645],
        [0.154091937953351, 51.41777820158792],
        [0.154068185313784, 51.41776245082486],
        [0.151274856014468, 51.417634804969275],
        [0.151029467337215, 51.417615927906986],
        [0.151149835550131, 51.41515593260938],
        [0.151128247283848, 51.4150637010494],
        [0.150749259583066, 51.41437370047671],
        [0.150598233504839, 51.41418941804102],
        [0.150098292139979, 51.41404751018002],
        [0.149970931200296, 51.41390775770268],
        [0.149665828678055, 51.4129834793628],
        [0.149632707486863, 51.41289055980104],
        [0.149251901595463, 51.4125288322295],
        [0.149133923191645, 51.41243567035137],
        [0.149480092199668, 51.411967080596916],
        [0.149725911564546, 51.41165860762155],
        [0.152475666690085, 51.411356323658914],
        [0.1537440776264, 51.411265568871436],
        [0.153419760289221, 51.41072925131762],
        [0.153362083674222, 51.41057293367077],
        [0.15303308182501, 51.40923272631324],
        [0.152906379483996, 51.40870896342206],
        [0.152036063080566, 51.40867099316647],
        [0.151569041741917, 51.408677771121766],
        [0.150041600597383, 51.40894682112451],
        [0.149285725072919, 51.40914144782383],
        [0.148963796852918, 51.40862395968942],
        [0.14887668323318, 51.40848346788412],
        [0.145680841797123, 51.40939007382995],
        [0.145538175662078, 51.40941426943545],
        [0.139268446425477, 51.41156851456368],
        [0.139139708090709, 51.41161403118614],
        [0.134317296281576, 51.41376226000872],
        [0.134319849351428, 51.413817070667186],
        [0.13281473840975, 51.414262648803444],
        [0.132436322441777, 51.414351371932284],
        [0.130297575463014, 51.414717617644854],
        [0.129778121504417, 51.414804399586025],
        [0.128229734663027, 51.41497012417157],
        [0.128005570660862, 51.414974195238116],
        [0.127370582691536, 51.414957846795474],
        [0.127255812208749, 51.414932951466575],
        [0.126709089115274, 51.414680280658224],
        [0.126626243286702, 51.41463052430101],
        [0.12625014674736, 51.41476954584636],
        [0.126164035875143, 51.4148043822838],
        [0.125507621489869, 51.414791110415614],
        [0.125402474381552, 51.41478762183605],
        [0.123072883530215, 51.41410951639153],
        [0.12244917997407, 51.41393286218043],
        [0.119883739021304, 51.41340824859327],
        [0.119489824524372, 51.413348826342194],
        [0.113478152998462, 51.41305992043319],
        [0.113098950999453, 51.41291387906416],
        [0.112333738109791, 51.413222644479944],
        [0.112074788555026, 51.41328306843884],
        [0.10959290629381, 51.41366411248731],
        [0.109536938013886, 51.41363544335354],
        [0.107210507439585, 51.41420788554298],
        [0.107005694715334, 51.414257432433196],
        [0.107010281123077, 51.414357171614085],
        [0.107011355420588, 51.41438053394445],
        [0.103351452007194, 51.41566842497998],
        [0.103231493639312, 51.41571824065714],
        [0.102452869691374, 51.41626999053122],
        [0.102275357721163, 51.41638198974235],
        [0.09951098636963, 51.41769685528044],
        [0.098672406304296, 51.4181345440724],
        [0.093311271969848, 51.42117111815296],
        [0.092973082114171, 51.42138759289699],
        [0.09030707169144, 51.4231681109846],
        [0.090064125751094, 51.423328920735884],
        [0.087398455293354, 51.425500555783664],
        [0.087250190401866, 51.42562460071064],
        [0.083144145452688, 51.42991262811691],
        [0.082906193902088, 51.43005804577701],
        [0.08099539944439, 51.430684621426714],
        [0.080711740169326, 51.43077419095195],
        [0.07530756363695, 51.43199861746067],
        [0.074652690488234, 51.432151399980924],
        [0.075629776474392, 51.432854429048845],
        [0.07589269730989, 51.43303682421723],
        [0.076080139086878, 51.43329969317549],
        [0.075654742702871, 51.43362737423138],
        [0.075912348722985, 51.43375590623641],
        [0.076388301833845, 51.43400377194039],
        [0.075889577139332, 51.43445955241508],
        [0.076503165927803, 51.434855160784764],
        [0.075450912233918, 51.43551049461712],
        [0.074960377239032, 51.43586180853116],
        [0.076511975470863, 51.43685771766096],
        [0.076544623359384, 51.43687962141024],
        [0.077304539829181, 51.43663054190924],
        [0.077819983003346, 51.43644784261802],
        [0.07868564508627, 51.437419011027714],
        [0.078832834539679, 51.43765021517179],
        [0.078904222838157, 51.43779643208332],
        [0.079036190109537, 51.437977545880514],
        [0.078850359700698, 51.43809954802369],
        [0.078790047368736, 51.43813389139538],
        [0.079581966583465, 51.438747545525516],
        [0.07948851749927, 51.43887600307829],
        [0.079811638248311, 51.43902045072872],
        [0.080029379200424, 51.439220724945436],
        [0.080132964496252, 51.439568709366526],
        [0.080032802068604, 51.439612753476744],
        [0.080415830822458, 51.44003041893046],
        [0.080851623883337, 51.44040577918608],
        [0.081642247774041, 51.44004011864287],
        [0.081785468716364, 51.439962034732986],
        [0.084169846674205, 51.44179647313295],
        [0.08441559358999, 51.44201062992184],
        [0.08291367317569, 51.44277834301095],
        [0.082825868091236, 51.44284105488999],
        [0.0829320044819, 51.442928198213444],
        [0.083097905159099, 51.4430637400948],
        [0.082943821438217, 51.44318788221695],
        [0.082810242020559, 51.443288278302845],
        [0.083032425576848, 51.443427316552466],
        [0.083216121237431, 51.44354275770068],
        [0.084348349762144, 51.44287244387147],
        [0.084712050969261, 51.44261147718006],
        [0.085748272468948, 51.44299322499031],
        [0.086320589913368, 51.443236638238524],
        [0.086913317631184, 51.443264755563106],
        [0.087380176004552, 51.4432465500326],
        [0.086388667537107, 51.44498274206824],
        [0.08629429360537, 51.4453117625143],
        [0.087067702156761, 51.44560914714817],
        [0.087281200217588, 51.445746533525416],
        [0.08735504655765, 51.445945759549204],
        [0.087352975613488, 51.44608968240962],
        [0.087766825854846, 51.44642314159421],
        [0.087909701736834, 51.44658966264692],
        [0.088040589036934, 51.44709273056113],
        [0.088039314946598, 51.44750642541207],
        [0.087888065997833, 51.44841829901293],
        [0.087832984501915, 51.448662087662775],
        [0.087037426215187, 51.449963135083415],
        [0.086796301260747, 51.45045124436609],
        [0.086266934091622, 51.45456141333175],
        [0.086244765807137, 51.45470659293728],
        [0.08567968125904, 51.456551191952066],
        [0.085683982352701, 51.456645540427594],
        [0.082205913126904, 51.457523923701224],
        [0.08141983133091, 51.457774396037294],
        [0.079752615257194, 51.45862323574839],
        [0.079611591388713, 51.458560989165115],
        [0.078667655989825, 51.459266583189184],
        [0.078637195546437, 51.4592932025698],
        [0.080825185000452, 51.45957542922102],
        [0.082878283617846, 51.459834832032705],
        [0.082244540253472, 51.460902750434336],
        [0.082230960179967, 51.46098392727639],
        [0.082279334506834, 51.4619201226332],
        [0.082307756179946, 51.4621965974332],
        [0.082602500838152, 51.46326330867762],
        [0.082629964856032, 51.463613541697576],
        [0.082188938631625, 51.46464656002119],
        [0.08217576659818, 51.46473672239831],
        [0.082273966524246, 51.46660908623073],
        [0.082295579891878, 51.4666410765537],
        [0.083218293170946, 51.466478999440824],
        [0.084532008969247, 51.468325258905374],
        [0.084796740484623, 51.46873152419361],
        [0.085106757179189, 51.46870982355259],
        [0.085445201517345, 51.469090495659714],
        [0.08576318618583, 51.469432861599444],
        [0.086609218830859, 51.469798203582734],
        [0.087002174145066, 51.46995308000705],
        [0.088896884838698, 51.47039056012846],
        [0.089047907921822, 51.47041844475935],
        [0.09087576014787, 51.47153424564174],
        [0.091184309033054, 51.47173198061148],
        [0.091108053347877, 51.471796290698116],
        [0.091096707007475, 51.471831565170774],
        [0.091298296409476, 51.472020416183675],
        [0.091264217424668, 51.472062391172784],
        [0.092839854170084, 51.47273032054709],
        [0.093171112254406, 51.4729519256463],
        [0.094210517236981, 51.473229227944636],
        [0.094471766730522, 51.47327402160309],
        [0.095664416612598, 51.47325001069196],
        [0.0965490365167, 51.4732287986778],
        [0.096803817959307, 51.473886115830716],
        [0.096909862277778, 51.47409465182818],
        [0.09816725158334, 51.47535543505868],
        [0.098223999413326, 51.47546233363733],
        [0.099782279150496, 51.47530853488545],
        [0.100199374698752, 51.47523451674177],
        [0.100946385278503, 51.474975627646955],
        [0.101428576168536, 51.4748141071551],
        [0.101821679059923, 51.47446892904429],
        [0.102001864724478, 51.474472892851644],
        [0.102470458336311, 51.474924025204466],
        [0.103141168392569, 51.474572065299185],
        [0.103272227161123, 51.474572412009],
        [0.104688857487243, 51.47537792881851],
        [0.104814240228309, 51.47550517499562],
        [0.104891451875474, 51.475524472342364],
        [0.105191109433414, 51.47524570907928],
        [0.105636198415143, 51.47546703387747],
        [0.106162562080505, 51.4750142311331],
        [0.106897889371004, 51.4753463446236],
        [0.10705860766431, 51.47539651411056],
        [0.107663075352486, 51.47591982470359],
        [0.107666596313621, 51.47599620071331],
        [0.108165892683586, 51.47611222430059],
        [0.10822559145164, 51.47612643865906],
        [0.108477300433198, 51.475745111222416],
        [0.108722136000405, 51.475464626878036],
        [0.111772467316852, 51.473194778842505],
        [0.111975696713657, 51.473074210601105],
        [0.112560154280705, 51.47347555372656],
        [0.112842606828311, 51.47372945833016],
        [0.113802008592575, 51.47492080573538],
        [0.114024793153009, 51.47519197050234],
        [0.1150254988843, 51.47574946525807],
        [0.115049269020549, 51.475765223598565],
        [0.118165229118984, 51.47867931392478],
        [0.118454315653615, 51.47891959606058],
        [0.12059022909572, 51.47855004463093],
        [0.120731018051857, 51.478511526535534],
        [0.122935992528025, 51.47758312444628],
        [0.12343973201442, 51.47732849624723],
        [0.124053749583595, 51.476812873014254],
        [0.124160812268235, 51.476823523309285],
        [0.122135010349096, 51.482230753901],
        [0.122098012587094, 51.48242656883757],
        [0.122069803389842, 51.48445587053438],
        [0.122073709872917, 51.48556372096462],
        [0.121467283858106, 51.48751805297346],
        [0.121448447884391, 51.487639797421956],
        [0.121496566483105, 51.48802472055253],
        [0.121532608129562, 51.48855284865882],
        [0.121278607695542, 51.49108713548939],
        [0.121241474532387, 51.49134230513148],
        [0.120823338595465, 51.50492726967618],
        [0.12084757619328, 51.506069820960704],
        [0.120579136293612, 51.51009537147289],
        [0.120535238242955, 51.51104311028821],
        [0.119074237426342, 51.51272779652873],
        [0.118296800474391, 51.513584469439216],
        [0.122236955453035, 51.514881042281864],
        [0.122935743933459, 51.51506174059236],
        [0.125211200715371, 51.51542520527519],
        [0.125269139733626, 51.51543134958411],
        [0.127714110609972, 51.515534498829716],
        [0.128229025945488, 51.51554224206159],
        [0.129002239416999, 51.515525509982304],
        [0.130527091475601, 51.515431271166364],
        [0.133594449163792, 51.51500410241444],
        [0.13592608006119, 51.51459475153859],
        [0.137990149323839, 51.51407422437532],
        [0.139042276613454, 51.51376636807937],
        [0.146859271888594, 51.51072153004742],
        [0.148093458024827, 51.51036529398427],
        [0.15261176735457, 51.50936157217094],
        [0.153259547497171, 51.509254355069324],
        [0.161473068315712, 51.50850342624015],
        [0.161727108585676, 51.50845108117687],
        [0.165157014868235, 51.50751009693171],
        [0.165661035845079, 51.50735060844727],
        [0.169182667406123, 51.505947374574795],
        [0.169663628428778, 51.50569746688577],
        [0.170717958554642, 51.505050249834675],
        [0.172582495929863, 51.50365419343029],
        [0.174825697364973, 51.501346396706786],
        [0.174950554569536, 51.50115433039895],
        [0.175457424525915, 51.500300492952],
        [0.175721674745296, 51.49979828178012],
        [0.176618427100278, 51.497662907096],
        [0.17688969691474, 51.497036460265726],
        [0.178046703458573, 51.492595849786504],
        [0.178243577442419, 51.49210207776991],
        [0.179569379875747, 51.489574706192506],
        [0.180018360439679, 51.48896113436844],
        [0.180549241023925, 51.48828308696655],
        [0.18082539961034, 51.488002766691274],
        [0.181653026930612, 51.48732548908581],
        [0.182143182952106, 51.48697193774534],
        [0.182658483529095, 51.486632304900596],
        [0.183334919141539, 51.48622851713339],
        [0.185450050923484, 51.4852772248366],
        [0.186129645630076, 51.48503073830602],
        [0.187600911998521, 51.48456264093909],
        [0.188177395474425, 51.48444936337559],
        [0.191972793977739, 51.4841500445205],
        [0.195559574366652, 51.484186349701204],
        [0.199014809489127, 51.48439228170676],
        [0.199277009141835, 51.48442333541183],
        [0.20769699216607, 51.48569766833693],
        [0.208127138188, 51.485746223594425],
        [0.211055753162044, 51.48587088956948],
        [0.211517181450661, 51.48585139508199],
        [0.213580857558658, 51.48566406595313],
        [0.213816914303216, 51.485630831303745],
        [0.216702208552882, 51.48504033202163],
        [0.216941051375596, 51.48497556288462],
        [0.222103968077842, 51.48294342775055],
        [0.223675838820563, 51.48227242329412],
        [0.22083711712342, 51.480436801442096],
        [0.220127756892571, 51.48000598247352],
        [0.218713053706032, 51.48023510697535],
        [0.218349444945312, 51.48031033454306],
        [0.21730013255692, 51.480055898408146],
        [0.216891138615734, 51.479908054127506],
        [0.216362309797616, 51.479130266136956],
        [0.216353677808038, 51.47910075242706],
        [0.216426601362408, 51.47861465107104],
        [0.216418758619974, 51.478482602236866],
        [0.216515601435646, 51.47840073360283],
        [0.216609520355103, 51.47837737467535],
        [0.216823142633564, 51.477852640643526],
        [0.216872027429631, 51.47761340169758],
        [0.216539294138467, 51.476899353644626],
        [0.21644228787221, 51.47679956677401],
        [0.216226954539834, 51.47663546856616],
        [0.216026922227075, 51.476549319862244],
        [0.213072795397884, 51.47591536057758],
        [0.212850356812346, 51.475871896573686],
        [0.212115193029714, 51.47549997135734],
        [0.211541056224933, 51.475092629192574],
        [0.211433643391643, 51.474717848808666],
        [0.211479289544041, 51.47444090267168],
        [0.211869033556584, 51.47338856316493],
        [0.211849687078312, 51.473316084877595],
        [0.211074946378698, 51.472660721222375],
        [0.210525361146513, 51.47222413354542],
        [0.209629200811135, 51.47179677427511],
        [0.209283661702742, 51.47158925336954],
        [0.208785842422876, 51.47100149897944],
        [0.208776479173042, 51.47095671039844],
        [0.208817499673478, 51.470762587990755],
        [0.208857793784531, 51.470702474957356],
        [0.209798134677191, 51.46975037995596],
        [0.209950170199553, 51.46961891395352],
        [0.210124391554202, 51.46949961967455],
        [0.210976135356309, 51.469128334610616],
        [0.211356544259436, 51.46874705014599],
        [0.211444617916194, 51.46836498449774],
        [0.211487704594423, 51.467975673744725],
        [0.211371201654422, 51.46759117221023],
        [0.210420221933173, 51.46584917629574],
        [0.210354307682874, 51.46564717718189],
        [0.210560944831906, 51.46310095639703],
        [0.210585683527539, 51.46248087125282],
        [0.210078172315946, 51.46219726877353],
        [0.209865573973179, 51.46211764191127],
        [0.207845395491568, 51.461573861708246],
        [0.207604174582823, 51.46146779085454],
        [0.205937613073117, 51.460464070119755],
        [0.205545779561256, 51.46018996218022],
        [0.204759009814671, 51.45999522605913],
        [0.204630847406137, 51.459934685535586],
        [0.203415673282741, 51.458915244513065],
        [0.203244928125477, 51.458747586843565],
        [0.20293915883871, 51.45834684978232],
        [0.202829018785116, 51.45824190286881],
        [0.203220133207592, 51.45772464842819],
        [0.203208581893035, 51.45760435921344],
        [0.202580972192172, 51.45622943199646],
        [0.202546963975467, 51.45615093254165],
        [0.203777893753376, 51.456035167984155],
        [0.203808461260737, 51.455982433797026],
        [0.203867683949324, 51.45559821793262],
        [0.203856102038022, 51.4555669601481],
        [0.2032578199253, 51.45498017212611],
        [0.203235738991585, 51.45494011861694],
        [0.203352951141353, 51.45435516802249],
        [0.203325723760628, 51.45432780149081],
        [0.202963610319816, 51.45425097277842],
        [0.202930933622305, 51.45423000368398],
        [0.202776145696697, 51.45397481320283],
        [0.202693492438034, 51.453932300706725],
        [0.202473571101029, 51.4538788780391],
        [0.202427422172314, 51.453877047284216],
        [0.20201220941197, 51.45410247933504],
        [0.202000791043521, 51.45410449244785],
        [0.201825950590454, 51.453881153004104],
        [0.201359542087928, 51.45385034425807],
        [0.201049697927515, 51.453633136301406],
        [0.200993895160951, 51.45358022609507],
        [0.201142013784897, 51.453367907454016],
        [0.201161954159764, 51.4533036825966],
        [0.200692440396169, 51.45320817985912],
        [0.200671831910732, 51.4531986744745],
        [0.20064532703554, 51.45300672163367],
        [0.200699102207971, 51.45289779583985],
        [0.200389194693042, 51.45285864901306],
        [0.200300867565154, 51.45284771690865],
        [0.200255799292522, 51.45265881035746],
        [0.200206713706606, 51.45259588137593],
        [0.199694238165292, 51.45271431551516],
        [0.199648751058243, 51.45269628383228],
        [0.199531566732002, 51.45250423385661],
        [0.19948796262666, 51.45246548284965],
        [0.199087042603287, 51.452389370481065],
        [0.199039902090992, 51.45236687307972],
        [0.19908097991195, 51.45220332888707],
        [0.199109507837532, 51.45213804396571],
        [0.198592943204303, 51.45205150937473],
        [0.198391530465438, 51.452053488612556],
        [0.197988412671046, 51.451841619275854],
        [0.197937520213131, 51.451830882708535],
        [0.197671154228154, 51.451978866164325],
        [0.197611921507641, 51.45200425787262],
        [0.197512809814485, 51.45185863073149],
        [0.197430049879105, 51.45178374173114],
        [0.196422632603611, 51.45172618355522],
        [0.196383848720605, 51.451727809624025],
        [0.195934014542072, 51.4518018870489],
        [0.195895905376347, 51.45184756605379],
        [0.196146003406992, 51.45217022580223],
        [0.19615152505758, 51.45219530276679],
        [0.195863435751337, 51.452370668091824],
        [0.195818726589378, 51.45236880777187],
        [0.195549633299285, 51.452040208049965],
        [0.195482232848861, 51.45201539082663],
        [0.195027488481329, 51.45213721964397],
        [0.19499485999569, 51.45211714676181],
        [0.194949344326203, 51.45182842430787],
        [0.194921375024041, 51.45181545856119],
        [0.194634079552146, 51.45188738642033],
        [0.194605146290956, 51.45188433095435],
        [0.194225185014759, 51.45167471311642],
        [0.194154117964923, 51.45166345328465],
        [0.193865570742543, 51.45194943621506],
        [0.193819424003895, 51.45194760204256],
        [0.193456351251978, 51.451699895011906],
        [0.192992957929695, 51.451701371518205],
        [0.191720528251466, 51.450678385925706],
        [0.190985182388322, 51.44878741563114],
        [0.188824000873338, 51.449129959704436],
        [0.188797558850022, 51.44911876259236],
        [0.188407953351772, 51.44861613436958],
        [0.187646444143156, 51.44870319341483],
        [0.18761738446044, 51.44869744069735],
        [0.187374296231177, 51.44830898338397],
        [0.187350707168736, 51.44820690339412],
        [0.187280935199213, 51.44728912068188],
        [0.187440596968556, 51.446895844691625],
        [0.187438128377611, 51.446874307555554],
        [0.185088328131644, 51.445254433274776],
        [0.184250928620426, 51.44465492083114],
        [0.183662312614779, 51.444805280426415],
        [0.18362915673551, 51.4448040995534],
        [0.182750092793291, 51.44441668827189],
        [0.182636400234233, 51.44438643075946],
        [0.181418285383177, 51.44422205432354],
        [0.181058042642025, 51.44418199503869],
        [0.180976339795445, 51.44367541100512],
        [0.180861141230776, 51.443522875027625],
        [0.179856464469272, 51.44324659482265],
        [0.179549549146579, 51.443117407734896],
        [0.179520793481234, 51.443117942479375],
        [0.1791995812185, 51.44344406599971],
        [0.179170868119481, 51.44344549916505],
        [0.1788881128245, 51.44334014223231],
        [0.178724526725672, 51.44347088382431],
        [0.178698903026605, 51.44347675594231],
        [0.176261630128377, 51.442125424987175],
        [0.175991145919348, 51.44200544449463],
        [0.173907082988415, 51.44293712273761],
        [0.173779560063027, 51.442979057132725],
        [0.172760950465103, 51.443044708397295],
        [0.172828016265903, 51.4432449080388],
        [0.172753098294526, 51.44318244668861],
        [0.172498840508813, 51.44291916884257],
        [0.17255950743412, 51.44277235788319],
        [0.172550027815323, 51.44275454762522],
        [0.171744242502503, 51.44211928827525],
        [0.171355293939716, 51.44180724366398],
        [0.170770536048522, 51.44106806048869],
        [0.170524001502185, 51.44081542696855],
        [0.169732002252316, 51.43961963549215],
        [0.169808149079211, 51.439343939585754],
        [0.169778065078554, 51.439286042112805],
        [0.169402581820474, 51.43904478646683],
        [0.169146067779865, 51.438732981086055],
        [0.168679356291668, 51.43772001445319],
        [0.168688118528325, 51.43747973946727],
        [0.168260959443268, 51.4371495065476],
        [0.168177763448948, 51.43706381369754],
        [0.166915513417508, 51.43541446243395],
        [0.166663801321209, 51.435051302864366],
        [0.16655285408006, 51.434561437308965],
        [0.166504352091908, 51.434053330585115],
        [0.166747754339565, 51.433724183706566],
        [0.166664105994294, 51.43253415851895],
        [0.166837394567099, 51.43233490737841],
        [0.166819026456537, 51.43194674959381],
        [0.166205256190221, 51.4315327274424],
        [0.166069476996851, 51.431430019065424],
        [0.166649323781344, 51.4313095858405],
        [0.166667372589415, 51.43129576266121],
        [0.166352592994888, 51.43054167369718],
        [0.166183505206467, 51.43028220373002],
        [0.165595625903185, 51.43035422100036],
        [0.165563705753862, 51.43034851575088],
        [0.16435266613937, 51.428619951709905],
        [0.164302097932451, 51.42858491363784],
        [0.163876408418381, 51.4286791073462],
        [0.163897005107582, 51.42893232951901],
        [0.163521128376893, 51.42889340508741],
        [0.161047069760015, 51.42960183720687],
        [0.160669259652272, 51.42967445233912],
        [0.159972041861311, 51.429288915424586],
        [0.159811173454365, 51.429202849697305],
        [0.159712849495177, 51.42928380005184],
        [0.159706716802407, 51.429641834051566],
        [0.159154935403239, 51.43011334170906],
        [0.159059486114499, 51.43022481467828],
        [0.158826494917116, 51.43016525667388],
        [0.158606019978205, 51.43012705083833],
        [0.158109040734649, 51.43041858357064],
        [0.157981283293868, 51.43045510950416],
        [0.155848898967282, 51.4308765574232]
      ]
    ]
  }
}
