{
  "type": "Feature",
  "properties": {
    "name": "Brent",
    "level": 2,
    "londonBorough": true,
    "center": [-0.2817, 51.5588]
  },
  "geometry": {
    "type": "Polygon",
    "coordinates": [
      [
        [-0.196568703845233, 51.52765400501623],
        [-0.196846636741683, 51.527734713173956],
        [-0.196846201338131, 51.527855204946526],
        [-0.196931355118115, 51.527925755505066],
        [-0.197021449862963, 51.52794422589222],
        [-0.197129437587928, 51.52794768409052],
        [-0.197182995058458, 51.52794221250786],
        [-0.19724980354457, 51.52792975060518],
        [-0.197500812539051, 51.52785267604078],
        [-0.197798791538443, 51.527900417986324],
        [-0.197950423123025, 51.52836855486224],
        [-0.198074730640385, 51.52861595748034],
        [-0.197995408774149, 51.52872624501322],
        [-0.197973534200469, 51.52876907260146],
        [-0.197954491648359, 51.52884971185521],
        [-0.197972385299089, 51.52901724574456],
        [-0.198001798248131, 51.52911211798041],
        [-0.198002728245856, 51.52916159057447],
        [-0.197925769544436, 51.52961362629188],
        [-0.19794044131968, 51.529935780272396],
        [-0.197975213715317, 51.53007749540483],
        [-0.197993717795952, 51.53012004402025],
        [-0.198215902142354, 51.53037164759582],
        [-0.198298074497744, 51.53044484902798],
        [-0.198595165487101, 51.530661632630355],
        [-0.198685913256212, 51.53073676394937],
        [-0.198767284629267, 51.53079376639154],
        [-0.198858564989348, 51.53085541712563],
        [-0.199018298421993, 51.53093610356566],
        [-0.199174631834133, 51.53099335730872],
        [-0.199329476290063, 51.53108835613034],
        [-0.199330881713298, 51.5310892769449],
        [-0.199412077224764, 51.531150772436526],
        [-0.199562919149088, 51.53123761633283],
        [-0.199843606571031, 51.53135882532917],
        [-0.200449015939153, 51.53161810312584],
        [-0.200675142779474, 51.53169710801433],
        [-0.200903053872754, 51.53180401630459],
        [-0.201007590766119, 51.53185867470386],
        [-0.201108017737223, 51.53190787453686],
        [-0.201297262731081, 51.53204476331264],
        [-0.201399604527131, 51.5321551406498],
        [-0.201434553559004, 51.532219522606894],
        [-0.201476034323709, 51.53230109027467],
        [-0.20155019610237, 51.53239484908881],
        [-0.201689319437521, 51.532559744505654],
        [-0.201877939937844, 51.5325662327804],
        [-0.202035203214304, 51.53260011662893],
        [-0.202291738988171, 51.53267598744083],
        [-0.202601898560606, 51.532781455016774],
        [-0.202849719876606, 51.532858989555756],
        [-0.202992186171557, 51.53290253707461],
        [-0.203073162163393, 51.532896583539404],
        [-0.203265550835947, 51.53288064627062],
        [-0.203598408879857, 51.5328857438635],
        [-0.204057185898968, 51.53291524932665],
        [-0.204604002745688, 51.532942503476484],
        [-0.205309925472301, 51.53295690218413],
        [-0.205530779246921, 51.53295038907967],
        [-0.205869091757199, 51.5329267879589],
        [-0.206259525311514, 51.532897688148026],
        [-0.206608559483616, 51.532858062507785],
        [-0.206797676536177, 51.532851961080894],
        [-0.207105233565356, 51.53284047563721],
        [-0.207336032000236, 51.53283770808493],
        [-0.2076481587635, 51.53281999636708],
        [-0.207946864067642, 51.53277690006286],
        [-0.208681979414602, 51.532635256613254],
        [-0.20895865048811, 51.532565743312766],
        [-0.209335732774603, 51.532472583386294],
        [-0.209687123562973, 51.532372735489574],
        [-0.210101741825979, 51.532241478628656],
        [-0.210185037977519, 51.532213074588626],
        [-0.210841736141912, 51.53201177062067],
        [-0.211051413294902, 51.531959215438924],
        [-0.211402440964485, 51.53190521814388],
        [-0.211735088070211, 51.53184194721119],
        [-0.212258214263098, 51.53181125321192],
        [-0.212662551080732, 51.531794933386365],
        [-0.212817081152712, 51.53178829530572],
        [-0.213062670467405, 51.531775850205825],
        [-0.213267773255212, 51.53176638491489],
        [-0.213632574350466, 51.53169190822715],
        [-0.213820070421748, 51.53165339818532],
        [-0.214046576328185, 51.53161278402642],
        [-0.214185783127628, 51.53159242226286],
        [-0.214694742680059, 51.531518338246435],
        [-0.215207285604, 51.53138945292347],
        [-0.215268822931188, 51.53136431120498],
        [-0.2153056890815, 51.53134329032052],
        [-0.215328111011824, 51.53132294892067],
        [-0.21535098981495, 51.53129092435039],
        [-0.215362763113185, 51.53124793995081],
        [-0.215360443692773, 51.53119664799956],
        [-0.215324772905222, 51.531076506443235],
        [-0.215292300292379, 51.53098518920218],
        [-0.2151675072074, 51.53056334557206],
        [-0.215103441903488, 51.53039511219636],
        [-0.215097011072009, 51.53033836223516],
        [-0.21510446197206, 51.53025844325166],
        [-0.215129449295246, 51.53017249640819],
        [-0.21517805271801, 51.530072521035464],
        [-0.215228729279404, 51.52999325970226],
        [-0.215264996958177, 51.529950647968384],
        [-0.215314091724209, 51.52991182833025],
        [-0.215375943270982, 51.52987859818224],
        [-0.215471004732752, 51.529844074725546],
        [-0.215562200297094, 51.52979780226726],
        [-0.215687132900408, 51.529773624657366],
        [-0.21584724316426, 51.52973469486209],
        [-0.215883650986658, 51.52972535694744],
        [-0.215947749407414, 51.52956087164605],
        [-0.216040381071072, 51.52925653879967],
        [-0.216076399244335, 51.529072742349044],
        [-0.216088485085936, 51.528874194103935],
        [-0.216028870217723, 51.5279281862027],
        [-0.216391884341167, 51.52808298012904],
        [-0.216666905267341, 51.528202264128225],
        [-0.217067104002001, 51.5283648151373],
        [-0.217331725183072, 51.528455163810506],
        [-0.217979012791217, 51.52864035035285],
        [-0.218260258354514, 51.52871116617251],
        [-0.218712366853671, 51.5287998630255],
        [-0.219057747535373, 51.5288527667439],
        [-0.219517308641677, 51.528935278940835],
        [-0.220714627125031, 51.5291386889113],
        [-0.221005471053026, 51.52918536421917],
        [-0.221526610259763, 51.52927869395471],
        [-0.221903771933112, 51.529367141396435],
        [-0.222296544986097, 51.52949898767612],
        [-0.222668973345922, 51.529635020581686],
        [-0.222819884326137, 51.529684067358275],
        [-0.223087406526396, 51.52977444686501],
        [-0.223388139646853, 51.529863530251525],
        [-0.22363372955779, 51.529924800687695],
        [-0.223803793571225, 51.52996334534232],
        [-0.224296689719306, 51.5300418472129],
        [-0.224600755848617, 51.530082419013766],
        [-0.225016791239775, 51.53013547512859],
        [-0.225446564317812, 51.530168954320644],
        [-0.225463193299758, 51.53003791700411],
        [-0.225465333068641, 51.530019964596256],
        [-0.226200308414465, 51.52999061452179],
        [-0.226716838558573, 51.529980438925286],
        [-0.227685223721561, 51.529917738836],
        [-0.227680517201338, 51.52992755935381],
        [-0.227588011597721, 51.53015636680673],
        [-0.227590893351269, 51.53015641034674],
        [-0.227718817285567, 51.53016643620745],
        [-0.22784660168678, 51.53018005677446],
        [-0.228009884699785, 51.53020770200088],
        [-0.228164348177594, 51.53023970998159],
        [-0.228372483829086, 51.530300404728],
        [-0.228503091391323, 51.53035273446444],
        [-0.228716339567769, 51.530467460101924],
        [-0.228811950509998, 51.53041854636326],
        [-0.229198095429997, 51.5304990126801],
        [-0.229428474654937, 51.53054385501242],
        [-0.229918842676579, 51.53068793938495],
        [-0.230077213603044, 51.53073079464428],
        [-0.230469592259088, 51.53083652946229],
        [-0.230742387808547, 51.530865822716784],
        [-0.23109808471533, 51.530988087702475],
        [-0.231394066410797, 51.53108876885346],
        [-0.231614064139072, 51.531178412242596],
        [-0.232354885907159, 51.531519597643964],
        [-0.232949112114611, 51.53181180985583],
        [-0.233253047029171, 51.53200522752884],
        [-0.233859990503069, 51.53234168920103],
        [-0.234188602961896, 51.53253097972407],
        [-0.23421834142186, 51.532544915914166],
        [-0.234423837861805, 51.532637033379174],
        [-0.234628751680453, 51.53259515533228],
        [-0.23508830067683, 51.53249326223234],
        [-0.235104255471533, 51.53249080455254],
        [-0.235387466150528, 51.532437513770915],
        [-0.235452830388777, 51.53242500840449],
        [-0.236485719627008, 51.53222382387059],
        [-0.236799777320855, 51.53215570637016],
        [-0.237350079017502, 51.53201829970575],
        [-0.238569184257861, 51.531960175711276],
        [-0.239252052380131, 51.53197402391501],
        [-0.239491422333298, 51.53197312022356],
        [-0.240129393892135, 51.531954816246234],
        [-0.240499488224759, 51.53192889440033],
        [-0.240935429201751, 51.53187788089468],
        [-0.241101830269176, 51.53186239118952],
        [-0.242103172458053, 51.531805461473596],
        [-0.243230207887989, 51.53177918114403],
        [-0.243428953863386, 51.531784854952086],
        [-0.243513623437089, 51.53179511509017],
        [-0.243649371388247, 51.53182682234691],
        [-0.243934136051333, 51.53192010981446],
        [-0.244504394931475, 51.53208780960337],
        [-0.244757842265513, 51.532170734801085],
        [-0.246037879057382, 51.53262780795882],
        [-0.24621396877029, 51.53269788328787],
        [-0.246311358077234, 51.53275239411814],
        [-0.2463946141568, 51.532799499712496],
        [-0.246521228392048, 51.53288142430232],
        [-0.246777045488908, 51.53312804146506],
        [-0.247118970756739, 51.533422704963655],
        [-0.247151457723136, 51.5334402758581],
        [-0.247158559135282, 51.53344307967204],
        [-0.247226691311835, 51.53347107472882],
        [-0.247359116175509, 51.53351441805766],
        [-0.247655944787881, 51.53359438805548],
        [-0.248020708658913, 51.53366997645377],
        [-0.249024058910938, 51.53386210575958],
        [-0.250773674850085, 51.53418315591844],
        [-0.250931131438859, 51.53391213599801],
        [-0.251006477499709, 51.533902468502994],
        [-0.251140836172503, 51.53389547917519],
        [-0.251254676208504, 51.53389717618869],
        [-0.25135678150997, 51.533904093591104],
        [-0.251455763751523, 51.53391725900396],
        [-0.251565964245924, 51.53393868464744],
        [-0.251799983796322, 51.53400242097832],
        [-0.251817069414051, 51.534008070996705],
        [-0.252030123594104, 51.5340921768553],
        [-0.252088482473559, 51.534111930323014],
        [-0.252165712377611, 51.53412836797557],
        [-0.252341069505488, 51.534142670499264],
        [-0.25286069772211, 51.53412792948039],
        [-0.25403764127999, 51.53407980737513],
        [-0.255271263519972, 51.53401992713107],
        [-0.255669090105575, 51.53398537745298],
        [-0.256049555202854, 51.5339523668103],
        [-0.256141421893025, 51.53434040343456],
        [-0.256152467797029, 51.534390924781455],
        [-0.256166395792449, 51.53444148896777],
        [-0.256183240234468, 51.534491197268316],
        [-0.25620152574925, 51.534540926986274],
        [-0.256219845647596, 51.534589757977045],
        [-0.256241013320226, 51.53463953052822],
        [-0.256263656424062, 51.53468842577049],
        [-0.256292132436976, 51.53473560923536],
        [-0.256301738932561, 51.5347483413077],
        [-0.256319716954049, 51.534768391685525],
        [-0.256337694991194, 51.534788442060666],
        [-0.256358555135748, 51.53480853526931],
        [-0.256377974252026, 51.53482860705653],
        [-0.25639591799629, 51.53484955614739],
        [-0.256398662723745, 51.53485319388007],
        [-0.256413690049527, 51.53487499885742],
        [-0.256428717389471, 51.5348968038329],
        [-0.256442269353192, 51.53491948611385],
        [-0.256451738565275, 51.53493581307179],
        [-0.256534564004614, 51.53495682716302],
        [-0.257218614526881, 51.53512975255],
        [-0.257368003399655, 51.535182328838395],
        [-0.257809069727591, 51.53533725340193],
        [-0.258044374706286, 51.535216653178985],
        [-0.258105756944364, 51.5351950837295],
        [-0.258455041030085, 51.535072578047924],
        [-0.259662563924526, 51.5347146174564],
        [-0.260128735966603, 51.534589344590614],
        [-0.260318159593116, 51.534499532585464],
        [-0.260433616081467, 51.53453451631941],
        [-0.260545458403362, 51.53436172320887],
        [-0.260625501057308, 51.53430445975475],
        [-0.261229369794367, 51.53393303534247],
        [-0.2620748598732, 51.53342580621609],
        [-0.262908221643282, 51.53293367845296],
        [-0.26337791923853, 51.53267715677486],
        [-0.263869509592275, 51.53248929903557],
        [-0.264434722267279, 51.532298931526554],
        [-0.264445014157992, 51.532293688381564],
        [-0.264854301570345, 51.532184640760214],
        [-0.264755188080808, 51.53198534322179],
        [-0.264758411743185, 51.531976398562044],
        [-0.264763418101711, 51.53195848792819],
        [-0.264768424456141, 51.53194057729405],
        [-0.264774871767673, 51.53192268797346],
        [-0.264781319073987, 51.53190479865242],
        [-0.26478299924579, 51.53189852886445],
        [-0.264846583545686, 51.531743002578615],
        [-0.264843975007534, 51.53173577012175],
        [-0.2648428074253, 51.531728558977775],
        [-0.264841674015054, 51.53172044910493],
        [-0.264841947388152, 51.53171325927392],
        [-0.264842220761137, 51.531706069442905],
        [-0.26484252830561, 51.53169798088299],
        [-0.264844242632281, 51.53169081236491],
        [-0.264845956958387, 51.53168364384677],
        [-0.264849112237407, 51.53167649664148],
        [-0.264852267515412, 51.531669349436115],
        [-0.264855354449797, 51.5316639996884],
        [-0.264858509725918, 51.531656852482804],
        [-0.264864512735208, 51.53165064663141],
        [-0.264870515742851, 51.53164444077968],
        [-0.264876518748849, 51.531638234927634],
        [-0.264883962705303, 51.53163205038769],
        [-0.26489140665973, 51.53162586584726],
        [-0.264898850612131, 51.531619681306324],
        [-0.264906260392262, 51.53161439549381],
        [-0.264913704340763, 51.531608210951894],
        [-0.264921148287237, 51.53160202640947],
        [-0.264928592231684, 51.53159584186655],
        [-0.264928626401464, 51.531594943137605],
        [-0.265048275911282, 51.53148161071902],
        [-0.265092973491466, 51.53144360467379],
        [-0.265137602665968, 51.53140739606872],
        [-0.265185113657546, 51.53137123006314],
        [-0.265234031353125, 51.53133598407458],
        [-0.265284355752497, 51.5313016581013],
        [-0.265334645914663, 51.531268230834705],
        [-0.265359722646346, 51.53125331465138],
        [-0.266119187467588, 51.53080683178531],
        [-0.266610451692863, 51.53051284820512],
        [-0.266969449119404, 51.53036078618163],
        [-0.267525082153844, 51.530155874657915],
        [-0.267877295148421, 51.53006845454754],
        [-0.268182272510948, 51.530010010802854],
        [-0.268798381664037, 51.52995885585954],
        [-0.268722916370331, 51.52985792717889],
        [-0.268703664303888, 51.529833363733374],
        [-0.269021563819257, 51.52973823992476],
        [-0.26914602618766, 51.52972568861171],
        [-0.269245866378771, 51.529754138674186],
        [-0.26938695698217, 51.52983535277491],
        [-0.269676173846562, 51.53000238040093],
        [-0.270417588001547, 51.52976422598737],
        [-0.270592974501197, 51.53004377572926],
        [-0.271460298565933, 51.529945053627095],
        [-0.271461739469785, 51.52994507485828],
        [-0.272281680296668, 51.52984115234614],
        [-0.273557608498238, 51.5296881831752],
        [-0.275321860637057, 51.529469542473855],
        [-0.277196350191892, 51.52923271114952],
        [-0.278857314331187, 51.5288083745725],
        [-0.278972752561583, 51.528729137197246],
        [-0.279090462155598, 51.52866611922761],
        [-0.279246653651881, 51.52872955826125],
        [-0.279582745112866, 51.528571726483825],
        [-0.279731730256481, 51.52855862436718],
        [-0.280137626697719, 51.52846116401454],
        [-0.280250928398072, 51.52843854575691],
        [-0.280478498294527, 51.52840591234498],
        [-0.280635131019859, 51.52845766596338],
        [-0.28212624228043, 51.5287142107919],
        [-0.282457223843788, 51.52876851495405],
        [-0.282980573719237, 51.5288445178191],
        [-0.283359431693112, 51.528929194834724],
        [-0.284193632267375, 51.52905829916408],
        [-0.284266127671046, 51.52900900244095],
        [-0.284253656558017, 51.528918896781754],
        [-0.285751873689527, 51.52917909614835],
        [-0.286116190903204, 51.52953601913372],
        [-0.286368544441513, 51.52968807898969],
        [-0.286984930067047, 51.53005137869804],
        [-0.287594945678388, 51.530469435266],
        [-0.288190807586831, 51.530842320448905],
        [-0.288774721613655, 51.53118805129435],
        [-0.289076803460079, 51.53143704834921],
        [-0.289388241877354, 51.53166729716574],
        [-0.288391443327283, 51.532027737779885],
        [-0.287313437000462, 51.53236180596102],
        [-0.286479325728238, 51.53265086840438],
        [-0.285916685629187, 51.53281350309671],
        [-0.285838421814549, 51.53286271654826],
        [-0.28578482377647, 51.53290779420926],
        [-0.285730651681127, 51.53296815039996],
        [-0.285670805881675, 51.533064392931934],
        [-0.285293857263497, 51.53308136476427],
        [-0.284189346484341, 51.53346717248138],
        [-0.284038927001755, 51.53351802709599],
        [-0.283538982786559, 51.532818304675956],
        [-0.282276399337768, 51.5330749897887],
        [-0.281603390459322, 51.53321980163209],
        [-0.281508878361417, 51.53324089801662],
        [-0.281028665764041, 51.53266914468453],
        [-0.280951423196065, 51.53257629113811],
        [-0.280250244335973, 51.53278003176753],
        [-0.279759884343713, 51.53289873496527],
        [-0.279276778433533, 51.533054411059545],
        [-0.279009990626779, 51.53320876256333],
        [-0.278900254559528, 51.53332764986931],
        [-0.278795638539601, 51.53354013237983],
        [-0.278683612966834, 51.53375790147369],
        [-0.278590794689774, 51.53403979780369],
        [-0.278472968964493, 51.534564119856576],
        [-0.278153224362729, 51.534554931247],
        [-0.278146476664739, 51.53458090995306],
        [-0.278064248802492, 51.53492590756321],
        [-0.277963492475457, 51.53495949871545],
        [-0.27796345855826, 51.53496039745005],
        [-0.277881741237521, 51.53498617490387],
        [-0.277797785069983, 51.53507126877701],
        [-0.277997805207403, 51.53512006574458],
        [-0.278217474965353, 51.5352213062332],
        [-0.278451776881931, 51.5353551333859],
        [-0.278669719688046, 51.53550220851745],
        [-0.278842786717336, 51.53565402026431],
        [-0.279169782029021, 51.535891718284624],
        [-0.279705424212356, 51.53633210457684],
        [-0.280529567840685, 51.53703749434576],
        [-0.28160159242008, 51.53790027773839],
        [-0.282375467157571, 51.53856355309916],
        [-0.282485565307893, 51.53866497962814],
        [-0.282563436817601, 51.538626553420634],
        [-0.282773619541369, 51.53852082306555],
        [-0.284162430501241, 51.53786402178514],
        [-0.285138640096191, 51.53740350096208],
        [-0.285711989873328, 51.53714930469927],
        [-0.286751997093827, 51.53675534665024],
        [-0.288743317926919, 51.5361009940753],
        [-0.290188345209766, 51.53578664982076],
        [-0.290366011786871, 51.53573978132165],
        [-0.292058233687956, 51.535292333059],
        [-0.292138267227687, 51.53527281587096],
        [-0.292911117490077, 51.535079938761875],
        [-0.293294391316745, 51.534971312847496],
        [-0.293523627919924, 51.534933282886755],
        [-0.294368428928034, 51.5350139096948],
        [-0.2950459138585, 51.534903260512394],
        [-0.295112606409859, 51.53489343895739],
        [-0.295173232418962, 51.53489162228303],
        [-0.295226384417256, 51.534896890815574],
        [-0.295276452814639, 51.534907509900336],
        [-0.295363116349953, 51.534942040697125],
        [-0.295399745076292, 51.53496505367636],
        [-0.295689352243779, 51.53524082888155],
        [-0.295784159769491, 51.535288966127936],
        [-0.295825447919356, 51.535303054350194],
        [-0.295881247708072, 51.53531465565823],
        [-0.295961713909557, 51.53532211906856],
        [-0.296055418461093, 51.53532258085648],
        [-0.296176772241366, 51.535316250282506],
        [-0.296299768421967, 51.53530454805144],
        [-0.296398433759596, 51.53528799622772],
        [-0.296589095585284, 51.53524040781619],
        [-0.29672489500866, 51.53519472028207],
        [-0.296874133578653, 51.53513663846555],
        [-0.296997499322987, 51.53507638242841],
        [-0.297116843353361, 51.535007974813176],
        [-0.297201064470176, 51.53495344497998],
        [-0.297324296107625, 51.53485811666966],
        [-0.297685175804774, 51.53446049848523],
        [-0.298088207542057, 51.53416959989713],
        [-0.298498539905267, 51.53387610813144],
        [-0.299557024821414, 51.5332521023043],
        [-0.300421691032084, 51.53283749764763],
        [-0.301442170800307, 51.53241974734972],
        [-0.302536972395305, 51.53213525049728],
        [-0.302731525639334, 51.53198249854576],
        [-0.304749147272919, 51.532471177894124],
        [-0.306056822079234, 51.532743649766275],
        [-0.30738978460103, 51.533034456399996],
        [-0.307464151402948, 51.53305081622599],
        [-0.307501084824968, 51.53306573673675],
        [-0.307422843517019, 51.53311496479645],
        [-0.307385884347288, 51.53313960999231],
        [-0.307233524132213, 51.53324352076783],
        [-0.307158112430415, 51.533371921685834],
        [-0.307083741235859, 51.53351112832483],
        [-0.306984397702079, 51.53362389688164],
        [-0.306814701890319, 51.533689789302436],
        [-0.30652402405307, 51.5337521367002],
        [-0.306430529334419, 51.533784957786494],
        [-0.306377050385978, 51.53382734878157],
        [-0.306335580161233, 51.53393465765037],
        [-0.306256842108093, 51.53423026667448],
        [-0.306191552834401, 51.53459081433495],
        [-0.306094131275464, 51.535001254854706],
        [-0.306032808578612, 51.535449084921574],
        [-0.305969088508974, 51.53600029169015],
        [-0.305960320985199, 51.53608109573174],
        [-0.30588618981894, 51.536718478087295],
        [-0.305896010939318, 51.53734718112256],
        [-0.305885165609204, 51.53763927398793],
        [-0.305985459559224, 51.53917120996329],
        [-0.30596723481279, 51.53942902550382],
        [-0.304782502676407, 51.539839945995155],
        [-0.30474449607133, 51.539853784487235],
        [-0.304725459364193, 51.53986160247493],
        [-0.305030067208503, 51.540124082252824],
        [-0.30552952734254, 51.54045951541968],
        [-0.305922367820926, 51.54075384086996],
        [-0.306343304926622, 51.54106835359157],
        [-0.306961227722982, 51.54170942975444],
        [-0.307064181986237, 51.541810729733605],
        [-0.30765965609439, 51.54239662518642],
        [-0.308575882329268, 51.543238925889916],
        [-0.308489676182922, 51.54326915605539],
        [-0.308467739267155, 51.54335516567854],
        [-0.308336475453603, 51.543511537267186],
        [-0.308215241717035, 51.543708518599836],
        [-0.308038725223706, 51.54403509065175],
        [-0.307999487047017, 51.54443198355936],
        [-0.308055617095305, 51.54451282429512],
        [-0.308475036757368, 51.544869570742634],
        [-0.308895710567897, 51.544959263067305],
        [-0.308890471911038, 51.54521726592715],
        [-0.308063508362484, 51.545233219622574],
        [-0.307287127273853, 51.54524630035098],
        [-0.307221896758257, 51.5452552507471],
        [-0.307193742749088, 51.54527552678698],
        [-0.307170079733128, 51.545291371477546],
        [-0.307124161712868, 51.545323980388],
        [-0.307167211252429, 51.54536866369057],
        [-0.307268532510691, 51.545475335191895],
        [-0.307696877593303, 51.54586368609594],
        [-0.308177213996418, 51.546211420599],
        [-0.308601115836494, 51.54644773454584],
        [-0.309414719118156, 51.54683174067273],
        [-0.309656037902297, 51.546935931022446],
        [-0.309792687109141, 51.546984659442764],
        [-0.311223209232412, 51.54741800354841],
        [-0.311292910308959, 51.54744418512111],
        [-0.311368044673049, 51.547479437120124],
        [-0.311494917193581, 51.54755859654967],
        [-0.311729935112379, 51.54775531228889],
        [-0.311945472540326, 51.547932863505714],
        [-0.312106234331277, 51.54810962633712],
        [-0.312240762205891, 51.548332771377595],
        [-0.312384051810942, 51.54859201134822],
        [-0.312522398255529, 51.54890693209615],
        [-0.312598337754986, 51.549154412388894],
        [-0.312808107018694, 51.549293212223375],
        [-0.313772998991463, 51.549800758443105],
        [-0.314444640951695, 51.550126037403544],
        [-0.314539525639253, 51.550056361545984],
        [-0.315817870890134, 51.55063043954645],
        [-0.316620194719944, 51.55097196918244],
        [-0.316562560706908, 51.55104847574535],
        [-0.317371210257994, 51.551414370011145],
        [-0.317652406487612, 51.551533503074324],
        [-0.317779168581707, 51.55161625085764],
        [-0.317979023828606, 51.551633503614816],
        [-0.318372355127834, 51.55180190132843],
        [-0.319053884997139, 51.552056256339135],
        [-0.319683141326716, 51.5522810835411],
        [-0.32049609325379, 51.55257058338663],
        [-0.321291590187166, 51.55286432393144],
        [-0.321996715332169, 51.55310551081959],
        [-0.322263914256935, 51.553213641799005],
        [-0.322772696184824, 51.55342054349976],
        [-0.323942664502511, 51.55384820717248],
        [-0.32475406507446, 51.55414215110484],
        [-0.325587157585972, 51.55447416633847],
        [-0.326124143546647, 51.554699440265026],
        [-0.327022925949162, 51.55501080084898],
        [-0.327964454206268, 51.5552975853045],
        [-0.328652506863433, 51.555416193924295],
        [-0.329404296786546, 51.55552761293502],
        [-0.33041475158579, 51.55566608768143],
        [-0.331400669811163, 51.55580510399615],
        [-0.332235142572386, 51.55594375801716],
        [-0.333212089693128, 51.55613118960791],
        [-0.334117809573598, 51.55629422200581],
        [-0.334153495943956, 51.55626505426408],
        [-0.33417584505053, 51.55624558862828],
        [-0.334204158269271, 51.556220812315495],
        [-0.334233913237086, 51.556196056463094],
        [-0.334732792108568, 51.55636050163174],
        [-0.335584419626142, 51.55658300293175],
        [-0.335548861575858, 51.55668770768636],
        [-0.334908438984002, 51.55783142599552],
        [-0.33397810582259, 51.55770941473412],
        [-0.333993779626057, 51.55799109417959],
        [-0.33402324178533, 51.55836918626323],
        [-0.333922565931203, 51.55887401955266],
        [-0.333418095584164, 51.559374916915814],
        [-0.332634648999881, 51.56008766197476],
        [-0.331853436784996, 51.56081751885216],
        [-0.331996172452876, 51.56093824532398],
        [-0.331216800178548, 51.56145950438488],
        [-0.33142072842148, 51.561524450702166],
        [-0.331329518383111, 51.561572610982175],
        [-0.329964722551437, 51.562281566144456],
        [-0.329882424707472, 51.562322658360046],
        [-0.32978573992672, 51.56236264652283],
        [-0.32968797524418, 51.56239272778045],
        [-0.329533874666943, 51.56242470467494],
        [-0.329192086632759, 51.56246030372424],
        [-0.329046183678832, 51.56246542000455],
        [-0.328750480104512, 51.56246390660816],
        [-0.328249612539528, 51.562509826308],
        [-0.328323697473688, 51.56273209064821],
        [-0.328580446471686, 51.56300911179071],
        [-0.328332663374342, 51.56327444996809],
        [-0.328539418115793, 51.56412806016529],
        [-0.328593066890513, 51.564947117207986],
        [-0.328669099648505, 51.56594274057758],
        [-0.329069892674898, 51.56599071160739],
        [-0.329646098865855, 51.56621292975438],
        [-0.329677516526513, 51.5666548952387],
        [-0.329745382957624, 51.5670865887944],
        [-0.329288545228529, 51.56715022505857],
        [-0.328731170142962, 51.567279869461885],
        [-0.327498872213662, 51.567557258010595],
        [-0.327653292330306, 51.567792357389216],
        [-0.326747565592719, 51.56789904315354],
        [-0.326174892131498, 51.567934038960054],
        [-0.325796721553891, 51.56805543475548],
        [-0.325073621174135, 51.56825733290688],
        [-0.3251751113679, 51.568440424411065],
        [-0.324481825097368, 51.56865533356683],
        [-0.323794387980834, 51.56890719033582],
        [-0.322908915518313, 51.56932526702888],
        [-0.322153682333172, 51.569654377749714],
        [-0.322519423337169, 51.5701065201156],
        [-0.322936675784848, 51.570727552060795],
        [-0.323577359912567, 51.57155140176961],
        [-0.324116205623164, 51.57231984015624],
        [-0.324741419505021, 51.57317313647931],
        [-0.324834980400712, 51.57337589778122],
        [-0.324883423361213, 51.57351057334765],
        [-0.324924621935649, 51.57364604470991],
        [-0.324974473826854, 51.57389943764791],
        [-0.324991857477852, 51.57409391771533],
        [-0.32537971595875, 51.57587002066299],
        [-0.32543408681463, 51.57603985015841],
        [-0.32555241984304, 51.57631490194421],
        [-0.325906037687834, 51.57694220804078],
        [-0.326300848387984, 51.57766631711035],
        [-0.326489785134763, 51.578023304615996],
        [-0.326585984163393, 51.57823329566168],
        [-0.326615275785321, 51.57830025568958],
        [-0.326664996419895, 51.57847901041715],
        [-0.326708287311933, 51.57867565786731],
        [-0.326671545105875, 51.57877224989117],
        [-0.325283672755218, 51.57899344482948],
        [-0.323422947125734, 51.57939580666872],
        [-0.321044324426462, 51.580143226224365],
        [-0.320706826877054, 51.58025439717449],
        [-0.320210849720506, 51.58043613592895],
        [-0.319798933845604, 51.58060828541841],
        [-0.319261480469601, 51.58085776724057],
        [-0.318796845594584, 51.58108940609825],
        [-0.317089461263353, 51.58210353689687],
        [-0.314292134784725, 51.583666704656125],
        [-0.313609543083813, 51.5840138897419],
        [-0.313381740090036, 51.58412391824297],
        [-0.313074967713594, 51.58426158638773],
        [-0.311760656409894, 51.584789415093454],
        [-0.310582408586568, 51.58522836639735],
        [-0.308368317390118, 51.586001278926084],
        [-0.306841154093848, 51.58654396932857],
        [-0.306473478344523, 51.58664926896239],
        [-0.306088894745843, 51.58678219931816],
        [-0.305885982220367, 51.58684311539255],
        [-0.305775131297303, 51.58687388729739],
        [-0.305386545152882, 51.58695909881159],
        [-0.305321053716938, 51.586973439978216],
        [-0.304846035609117, 51.58705380480012],
        [-0.304090087512559, 51.58715798464961],
        [-0.303578357592997, 51.58721623254945],
        [-0.30306290093334, 51.587258238337725],
        [-0.302613338053573, 51.58727511739021],
        [-0.302136798365259, 51.58727991458276],
        [-0.302061775892947, 51.587278829276606],
        [-0.301187609979433, 51.587262582801856],
        [-0.300791460465476, 51.58724066218139],
        [-0.300499691448718, 51.58720676336262],
        [-0.300214331113875, 51.58715587139736],
        [-0.300065427246064, 51.58712314122831],
        [-0.299286051133957, 51.58692661041979],
        [-0.29861189786588, 51.58681163061565],
        [-0.298331473640088, 51.58678328617213],
        [-0.298165695025879, 51.58677728560505],
        [-0.297830715093619, 51.586779621697204],
        [-0.295708915199663, 51.58669847380722],
        [-0.294315832991024, 51.586585616609355],
        [-0.292102753327493, 51.58632143362246],
        [-0.289012334687624, 51.58593471669618],
        [-0.284066570763157, 51.585294202233825],
        [-0.282470734666173, 51.585047851813286],
        [-0.282454579759664, 51.585093475871986],
        [-0.282449777337695, 51.58510599474133],
        [-0.282432601022558, 51.58510214647838],
        [-0.2823409149777, 51.58508371940136],
        [-0.282319860264174, 51.58522099267543],
        [-0.282271484476168, 51.585738238209096],
        [-0.28230431678409, 51.58586281175571],
        [-0.282335687398366, 51.585949596455386],
        [-0.282371860677307, 51.58602386228357],
        [-0.282433019606078, 51.58612457126669],
        [-0.282559680874828, 51.5862873860218],
        [-0.282867786038324, 51.58672981658461],
        [-0.283053437858019, 51.587433927784964],
        [-0.283078500732109, 51.5878029764695],
        [-0.283119829391771, 51.58800860421714],
        [-0.283238449287621, 51.58834664927707],
        [-0.283364079755836, 51.58888172685088],
        [-0.283851096162694, 51.589863607933445],
        [-0.283997227776718, 51.59023802329792],
        [-0.284302086386299, 51.59057609215578],
        [-0.284431245776193, 51.59074973187756],
        [-0.284538945726247, 51.590879895057604],
        [-0.2846539282168, 51.59100836611749],
        [-0.284912887584797, 51.591262134668995],
        [-0.285159282621292, 51.591466261748955],
        [-0.285291290429287, 51.591564407292914],
        [-0.285458930563428, 51.59167476310583],
        [-0.285672134342935, 51.59180197020699],
        [-0.285906982439379, 51.591929493005466],
        [-0.286137875294373, 51.59204706611092],
        [-0.286391720188896, 51.59216857074375],
        [-0.28660466957926, 51.592264299578005],
        [-0.286798264734039, 51.592337264935345],
        [-0.28699639203981, 51.59240490077342],
        [-0.287314911711433, 51.592495874442506],
        [-0.287563913636617, 51.59255436019885],
        [-0.28844545102957, 51.592722783881385],
        [-0.288729987900784, 51.592796172888015],
        [-0.289092467343261, 51.59290846473675],
        [-0.289291908468875, 51.59297971270338],
        [-0.28948681892214, 51.59305628963854],
        [-0.289653006745489, 51.59312885081546],
        [-0.289896935488391, 51.59324570714785],
        [-0.290421891953922, 51.593568082468984],
        [-0.290360006618576, 51.59360135154879],
        [-0.290105013454859, 51.59374061354782],
        [-0.289724989331482, 51.593864564878764],
        [-0.289353055741844, 51.5939652531049],
        [-0.289127272317023, 51.59401861330164],
        [-0.288334449286567, 51.59417790664579],
        [-0.288001942902676, 51.59426657644883],
        [-0.287685351863665, 51.594315911681534],
        [-0.28712260343993, 51.59453790181391],
        [-0.286718181109514, 51.59473432449069],
        [-0.286282911709925, 51.594944682982366],
        [-0.286135041626795, 51.59488407442967],
        [-0.285796555072883, 51.59474784490309],
        [-0.285611981020573, 51.59520195452981],
        [-0.285509618873383, 51.59523642830715],
        [-0.285394100529115, 51.59527520592825],
        [-0.284944021861908, 51.595380134047296],
        [-0.284584218968756, 51.59546479848512],
        [-0.284069290295234, 51.59560474441167],
        [-0.283331832461649, 51.59574952673288],
        [-0.282655668574101, 51.59583855018394],
        [-0.281763070857341, 51.59596216901284],
        [-0.28137662086847, 51.59602575143813],
        [-0.279370813971252, 51.59622656643523],
        [-0.279351952997913, 51.59622898761945],
        [-0.276515609725053, 51.59651469208428],
        [-0.276976314374678, 51.59689283536908],
        [-0.275626116557385, 51.597432324730455],
        [-0.274143091586956, 51.59797074495797],
        [-0.274132785768072, 51.59797598877016],
        [-0.274030034092309, 51.598020338333654],
        [-0.273925873230677, 51.5980637678614],
        [-0.27382033726132, 51.59810537862676],
        [-0.273713392115457, 51.59814606934901],
        [-0.273603662892184, 51.59818402135409],
        [-0.273493967569917, 51.598221074531914],
        [-0.273382897173792, 51.598256308932584],
        [-0.27334782048256, 51.59826748286441],
        [-0.273309857640996, 51.59827861432899],
        [-0.273232386572896, 51.59830355215927],
        [-0.273194389585381, 51.59831558230849],
        [-0.273156392577997, 51.59832761244519],
        [-0.273118395550747, 51.59833964256937],
        [-0.273078989525488, 51.598350752727384],
        [-0.273041060641725, 51.5983609853811],
        [-0.273001688671801, 51.59837119679029],
        [-0.272960907707845, 51.598380488230994],
        [-0.2729216038912, 51.59838890216807],
        [-0.27288089108483, 51.59839639613582],
        [-0.272840212360782, 51.59840299136692],
        [-0.272798158747364, 51.598407767904426],
        [-0.272796715677016, 51.598407746669785],
        [-0.272717074027739, 51.598413768515925],
        [-0.272636091586456, 51.59841707290434],
        [-0.27255668860945, 51.59841680358534],
        [-0.272475944872159, 51.59841381680739],
        [-0.272395201146787, 51.59841082997396],
        [-0.272315968714862, 51.598406066881374],
        [-0.27225257596077, 51.598402436113304],
        [-0.27217193459971, 51.59839675296029],
        [-0.272092770439535, 51.598390192273314],
        [-0.272013708638558, 51.598380935367125],
        [-0.271634888017252, 51.59831870678761],
        [-0.271623479961493, 51.59831494190848],
        [-0.27160636788143, 51.59830929458774],
        [-0.271587812739528, 51.59830362601506],
        [-0.27156778041596, 51.59829883491159],
        [-0.271549191162473, 51.5982940650547],
        [-0.271529124726154, 51.59829017266649],
        [-0.271510501358861, 51.59828630152531],
        [-0.271490400807501, 51.59828330785231],
        [-0.271470266136554, 51.59828121289767],
        [-0.271450165590244, 51.59827821921783],
        [-0.271428553735297, 51.598277001726636],
        [-0.271408384946709, 51.59827580548315],
        [-0.271388216159263, 51.59827460923621],
        [-0.271376671638864, 51.598274439220255],
        [-0.27135935485848, 51.598274184194196],
        [-0.271342003953517, 51.598274827887266],
        [-0.271326096113163, 51.598275492830474],
        [-0.271308745207348, 51.59827613651864],
        [-0.271291360175268, 51.598277678925896],
        [-0.27127397514207, 51.598279221330564],
        [-0.271258033172907, 51.59828078498619],
        [-0.271240614010665, 51.59828322610757],
        [-0.271224603784732, 51.59828658720193],
        [-0.27120859355648, 51.598289948294074],
        [-0.271141291071572, 51.59831323606835],
        [-0.271013082079986, 51.598381487098656],
        [-0.270993980875725, 51.598390197977004],
        [-0.27085738610165, 51.598451131519184],
        [-0.270660644242532, 51.598575023691396],
        [-0.27026106874825, 51.598793042882825],
        [-0.269778251431791, 51.599073678651884],
        [-0.269472289510513, 51.599259803763445],
        [-0.269143679685681, 51.599433904206634],
        [-0.268818807970256, 51.59958557826167],
        [-0.268789399048447, 51.59959953210496],
        [-0.268676954563455, 51.599670710789034],
        [-0.268371174594633, 51.59977590554801],
        [-0.267994694693479, 51.59995559116209],
        [-0.267155869443294, 51.600370342358225],
        [-0.267052122829789, 51.600288779750045],
        [-0.266153722517451, 51.59942394692874],
        [-0.265730632984, 51.59900765004734],
        [-0.265187703089924, 51.598553611424215],
        [-0.264761474590647, 51.59818222575485],
        [-0.264275775826472, 51.597780284639605],
        [-0.263877637984435, 51.597467760663754],
        [-0.263376807722575, 51.597122243078196],
        [-0.262682162420336, 51.59659670732115],
        [-0.262399113007513, 51.59637130799071],
        [-0.261901910398306, 51.595969186411395],
        [-0.260641470722266, 51.59491100986749],
        [-0.259770163925117, 51.594174217789515],
        [-0.258245885452897, 51.592769497256846],
        [-0.258039593446369, 51.59257669898083],
        [-0.257691082370578, 51.59225230062221],
        [-0.257421207727526, 51.59202348750943],
        [-0.257028489166339, 51.5917604774024],
        [-0.255629733704194, 51.59070109016624],
        [-0.254760570384334, 51.59006320635839],
        [-0.254270188182566, 51.5897879437569],
        [-0.253949090021822, 51.58957814348776],
        [-0.253932259115972, 51.58956530391506],
        [-0.253387382163963, 51.5892055986647],
        [-0.253129458124568, 51.58904259680467],
        [-0.252536488203096, 51.58854458985521],
        [-0.251937606026196, 51.587937685175504],
        [-0.25035025837497, 51.58638264693602],
        [-0.249982066087502, 51.586047140652774],
        [-0.248534593013578, 51.5845741936123],
        [-0.248284314693506, 51.58436363571923],
        [-0.248367589066515, 51.58430013414563],
        [-0.24850368657871, 51.58425180850609],
        [-0.249931906749031, 51.583896337482855],
        [-0.25038163800206, 51.583799631570535],
        [-0.250822884414693, 51.58369830134188],
        [-0.25140928437939, 51.583575752267365],
        [-0.251667870530135, 51.58345730960909],
        [-0.252044345416423, 51.58305017144836],
        [-0.252303874927326, 51.58279415949477],
        [-0.252417302212727, 51.58269693341452],
        [-0.252535740740889, 51.58261956486836],
        [-0.252885140667935, 51.582428734966484],
        [-0.253142790893901, 51.582296786732535],
        [-0.253211486546272, 51.582274429270264],
        [-0.253416746091372, 51.5822289258132],
        [-0.253539504706591, 51.58218938815107],
        [-0.253692181977816, 51.58212241946714],
        [-0.253829438742315, 51.58204353118134],
        [-0.25399871062003, 51.581920157614675],
        [-0.254122815374909, 51.58180780187098],
        [-0.254334891075068, 51.58158435098797],
        [-0.254379548252898, 51.5815112784948],
        [-0.254395798710723, 51.581463861095045],
        [-0.254394088485551, 51.581395494293986],
        [-0.254349355688475, 51.58120689017993],
        [-0.254334219183552, 51.58111224604035],
        [-0.25431837137199, 51.58092317232021],
        [-0.254311958886743, 51.580826859481746],
        [-0.254316378973001, 51.58059852117122],
        [-0.254335357660501, 51.58040457009343],
        [-0.254372158591886, 51.580235163274494],
        [-0.254429704867924, 51.58005167734584],
        [-0.254484392567729, 51.57994278484931],
        [-0.254586409694583, 51.579804022466625],
        [-0.254613273028129, 51.57974327443771],
        [-0.254630452225889, 51.57967159163518],
        [-0.254631798730559, 51.57959877413658],
        [-0.254612988924221, 51.57948699003422],
        [-0.2544647062777, 51.57898751113313],
        [-0.254415403130169, 51.57884290119698],
        [-0.254245304191955, 51.5784608964318],
        [-0.254102958268318, 51.57807031197116],
        [-0.254078820208322, 51.578022293736005],
        [-0.253944046856563, 51.577810768275455],
        [-0.2536496042881, 51.57739723790193],
        [-0.253597893895908, 51.577315537780194],
        [-0.253569291794521, 51.57727104991557],
        [-0.253427625749183, 51.57701356054953],
        [-0.253353329867604, 51.57684339971231],
        [-0.253233892293021, 51.57653318638654],
        [-0.252934296178413, 51.57572751333027],
        [-0.252818491769623, 51.57551087344806],
        [-0.252790615244168, 51.57544751235406],
        [-0.25271596573083, 51.57513616674506],
        [-0.252623102915303, 51.57492346512978],
        [-0.252353421785609, 51.57446713681586],
        [-0.252128474280183, 51.57412387781473],
        [-0.251965530627952, 51.57389484489713],
        [-0.251825176332361, 51.57371650511687],
        [-0.251442393236445, 51.57327467576409],
        [-0.251372424838327, 51.573180113294626],
        [-0.251355365450803, 51.573135796829064],
        [-0.251366226207392, 51.573078407945545],
        [-0.251389204998092, 51.573043680375996],
        [-0.251429559722251, 51.57300741324856],
        [-0.251491720536106, 51.57296697486367],
        [-0.251697566192531, 51.57286752950634],
        [-0.251859724119527, 51.57281599141873],
        [-0.25211861534433, 51.572763196240615],
        [-0.252314696840048, 51.572730147391646],
        [-0.252519155784033, 51.57270441680399],
        [-0.252640924344418, 51.57269004385445],
        [-0.252890604262323, 51.57268926515567],
        [-0.252970478794836, 51.57267606660705],
        [-0.253018865188247, 51.572656104644786],
        [-0.253051524726295, 51.572632311627615],
        [-0.253101254712532, 51.57257729966913],
        [-0.253130005642082, 51.572504890034836],
        [-0.25313111288931, 51.57243836350769],
        [-0.253106191071363, 51.5723732479738],
        [-0.253084252335191, 51.57234324680575],
        [-0.253035669269661, 51.57229306593501],
        [-0.25286333091218, 51.571970374417795],
        [-0.252663450021396, 51.57168863709723],
        [-0.252510292051346, 51.57150561125702],
        [-0.252083054572413, 51.57128253394506],
        [-0.251910864508334, 51.57118195298393],
        [-0.251772287890856, 51.57110795020228],
        [-0.25175295918261, 51.571085181495675],
        [-0.251611034009429, 51.570910414847376],
        [-0.251512955368526, 51.570758782085726],
        [-0.251377484310528, 51.570603894367],
        [-0.251322016919523, 51.57046998174851],
        [-0.251281476271081, 51.57039833842996],
        [-0.251205088559294, 51.570320765509564],
        [-0.251149505803835, 51.5702650841233],
        [-0.250768663676058, 51.57011193404367],
        [-0.250500332705054, 51.56984715709531],
        [-0.250219439643057, 51.56957140142581],
        [-0.250034433491821, 51.56939149422926],
        [-0.250009372343012, 51.56936774050425],
        [-0.249785058212369, 51.56915937054963],
        [-0.249672242315969, 51.569091144806045],
        [-0.249582293602121, 51.569028655435496],
        [-0.249495091295826, 51.56896980388573],
        [-0.249428320519954, 51.56890496244915],
        [-0.249330091715234, 51.56887022551248],
        [-0.249180456808301, 51.56885900076051],
        [-0.249058989877974, 51.56879064534169],
        [-0.248999456957661, 51.568762780113765],
        [-0.248850659509011, 51.56869221819869],
        [-0.248771118277605, 51.56862179042159],
        [-0.24870627463452, 51.56854438808896],
        [-0.248597019932086, 51.56853376521239],
        [-0.248552487340485, 51.568528604403674],
        [-0.248225716173894, 51.56865861142761],
        [-0.248080141093259, 51.56861687201937],
        [-0.24786182258698, 51.568515596291505],
        [-0.247615162853524, 51.56847594386554],
        [-0.247309817184247, 51.568461492105094],
        [-0.247134760074802, 51.56851103273813],
        [-0.247041245817078, 51.568578876633055],
        [-0.24702365424689, 51.5686235753986],
        [-0.247083487153085, 51.5686811207434],
        [-0.247147853937888, 51.56873333839397],
        [-0.247281778373722, 51.568815370341824],
        [-0.247344530648426, 51.5688720599215],
        [-0.247391454347859, 51.56892761383402],
        [-0.247393370868953, 51.56895282092485],
        [-0.24738258481274, 51.56897064445251],
        [-0.24736781800778, 51.568979416215655],
        [-0.247192171345818, 51.56904423506256],
        [-0.247028841195539, 51.56901391915037],
        [-0.24686125405487, 51.56898174094935],
        [-0.246631784323218, 51.56898280867653],
        [-0.246609599317546, 51.568996864891055],
        [-0.246554857803497, 51.56903201618262],
        [-0.246524701421275, 51.56906573635358],
        [-0.246560620274401, 51.56918227387091],
        [-0.246631402517698, 51.56925526997453],
        [-0.246631427002849, 51.56929213881182],
        [-0.246615830102001, 51.56932247962242],
        [-0.246587634361563, 51.56934274063915],
        [-0.246480412199188, 51.569429263119424],
        [-0.24616484407, 51.56960529263809],
        [-0.246103042643147, 51.56971137745693],
        [-0.246069990616225, 51.56978282193539],
        [-0.246057751118836, 51.569838391321106],
        [-0.24605258396933, 51.569897663335986],
        [-0.246058722454301, 51.569925631244935],
        [-0.246071148369755, 51.5699402046627],
        [-0.24608817744535, 51.56994765303089],
        [-0.246118324217249, 51.569951700529074],
        [-0.246182840465978, 51.56996255630484],
        [-0.246259689394418, 51.569952914041615],
        [-0.246361746475739, 51.569925663818],
        [-0.246495966071954, 51.56981256793403],
        [-0.246558960753734, 51.56986296692872],
        [-0.246574507126345, 51.57002146386637],
        [-0.246513688467303, 51.57017702127659],
        [-0.246502978775398, 51.57041785512286],
        [-0.246464632054666, 51.57051439905173],
        [-0.246385766077394, 51.570613934397166],
        [-0.246025622914807, 51.57089810437394],
        [-0.246007140677514, 51.57092840197538],
        [-0.246008918125481, 51.57095720392942],
        [-0.246023709799192, 51.57098530117124],
        [-0.24614228296955, 51.57109138414844],
        [-0.246273673880584, 51.57116438701631],
        [-0.246472433145416, 51.57124918718825],
        [-0.246544152061103, 51.571297918070684],
        [-0.246720567825259, 51.5714759039465],
        [-0.246728598616013, 51.57149221008324],
        [-0.246734841440064, 51.57151748181322],
        [-0.246731023450782, 51.571541703999195],
        [-0.246717006321259, 51.571568471496306],
        [-0.246673315261096, 51.57161637717489],
        [-0.24662458146914, 51.571645323647914],
        [-0.2463948598097, 51.57176508567291],
        [-0.246111469577406, 51.57211694589728],
        [-0.246086941282158, 51.5721543469907],
        [-0.246065989213434, 51.57217381691625],
        [-0.246042429422321, 51.57218605401708],
        [-0.245992909662044, 51.57219790310064],
        [-0.245932301838322, 51.57219789642963],
        [-0.24586915552895, 51.57218885947584],
        [-0.245819300583485, 51.57217192809395],
        [-0.245791113546346, 51.57215442136272],
        [-0.245774464272403, 51.57213708709801],
        [-0.245655854705799, 51.57203190246312],
        [-0.245453908885426, 51.57191737866965],
        [-0.245241903961485, 51.57191420872539],
        [-0.245101963553657, 51.571950783020185],
        [-0.244900711529039, 51.57204309172841],
        [-0.244764485221639, 51.57217054348393],
        [-0.244646649812837, 51.5722326263292],
        [-0.244520403107485, 51.572288288615326],
        [-0.244489389380986, 51.57230670851697],
        [-0.244458779153833, 51.572352111371316],
        [-0.244445394348847, 51.57243733806439],
        [-0.244388950374258, 51.57251652519911],
        [-0.244338494940384, 51.57255263882161],
        [-0.244288974353651, 51.57256448717734],
        [-0.244223831604626, 51.57256980716314],
        [-0.244179226356694, 51.57256644209073],
        [-0.244152101022888, 51.5725588423889],
        [-0.244125287369354, 51.57254315426685],
        [-0.244103898469615, 51.57242413576148],
        [-0.244115183713979, 51.5723559630749],
        [-0.244112368527567, 51.57235412249041],
        [-0.244038619656122, 51.572320646673646],
        [-0.2439209462201, 51.572303598902465],
        [-0.243645954260957, 51.5723246619719],
        [-0.243376337008792, 51.57239346409133],
        [-0.243209844609627, 51.572444925609204],
        [-0.243004203798432, 51.572501196149354],
        [-0.242969243820395, 51.5725096650282],
        [-0.242918488634244, 51.57251609893634],
        [-0.242867976018433, 51.572516241837896],
        [-0.2427917805606, 51.57250880629923],
        [-0.242616730015758, 51.572482804965254],
        [-0.24249678261229, 51.572487303255635],
        [-0.242418611438155, 51.57253109405266],
        [-0.242418597787689, 51.572568861550714],
        [-0.24243458732029, 51.57260327180498],
        [-0.242455250201005, 51.572628759738656],
        [-0.242482063319843, 51.57264444823723],
        [-0.242583283278052, 51.572676537974615],
        [-0.242601512393204, 51.572690299431585],
        [-0.242606553458994, 51.57270925877456],
        [-0.242604383359005, 51.57272811012654],
        [-0.242592290918215, 51.572742316730846],
        [-0.242559660569775, 51.57276520807183],
        [-0.242492104566381, 51.57279566942487],
        [-0.242373563900319, 51.57280108789257],
        [-0.242216949534831, 51.57278345517303],
        [-0.242141606600903, 51.57279131891114],
        [-0.242015542686449, 51.57280471740192],
        [-0.241742052270902, 51.57274936388176],
        [-0.241497462120948, 51.57273041203621],
        [-0.241411393512619, 51.572679664559764],
        [-0.24139439889197, 51.57267131680234],
        [-0.241374762607186, 51.57265663483666],
        [-0.241361276788206, 51.57263215349717],
        [-0.241354045487866, 51.572595176651845],
        [-0.241376069306611, 51.57247321126963],
        [-0.241370086651279, 51.572403880815344],
        [-0.241343927460766, 51.572296480280926],
        [-0.241270472842469, 51.5722180455622],
        [-0.24120617742075, 51.57216402731146],
        [-0.241108433733694, 51.57211670154435],
        [-0.240956203413717, 51.57213510208251],
        [-0.240869159849948, 51.57229655815026],
        [-0.240785079805494, 51.57234385621529],
        [-0.240718460093246, 51.572350051344785],
        [-0.240687390497587, 51.57233250016288],
        [-0.240625251378191, 51.57229739777493],
        [-0.24064799053337, 51.57219432709483],
        [-0.240584741247948, 51.572187983440024],
        [-0.240561735203282, 51.57218584005004],
        [-0.240521615568065, 51.57221581239245],
        [-0.240462523580344, 51.57228866335507],
        [-0.240331493894773, 51.57235593945203],
        [-0.240138429089011, 51.572385416622986],
        [-0.240080462564971, 51.57239174115884],
        [-0.240016935405157, 51.57239258688217],
        [-0.239969480949616, 51.57238827824326],
        [-0.239939472005319, 51.572380634313944],
        [-0.239916882451753, 51.57236770626883],
        [-0.239903119796996, 51.57235041445415],
        [-0.239905395130889, 51.57232886702937],
        [-0.239972100008367, 51.57228310746077],
        [-0.240061078373853, 51.5721837280192],
        [-0.240075011048951, 51.57212189000921],
        [-0.239995600863844, 51.57208562903262],
        [-0.239903820016652, 51.57207076401157],
        [-0.239806462870935, 51.57208818760607],
        [-0.239748566115708, 51.572092714560114],
        [-0.239651556044569, 51.57210115091889],
        [-0.239437812327655, 51.572068269766056],
        [-0.239209040183531, 51.57208821738227],
        [-0.239056968341686, 51.57221452560904],
        [-0.238866475194402, 51.572252132360916],
        [-0.238701869598543, 51.572142653389974],
        [-0.238491617374375, 51.571982132038904],
        [-0.23844393724796, 51.571946346288335],
        [-0.238381974118391, 51.57190674918135],
        [-0.238169986775302, 51.571791162767795],
        [-0.238132976015987, 51.571778017860545],
        [-0.238087103589063, 51.571770135280886],
        [-0.238014993584202, 51.57176905258761],
        [-0.237944047775483, 51.57177518118372],
        [-0.237903249148586, 51.57178535934913],
        [-0.237851694793318, 51.571812461391865],
        [-0.237836508209585, 51.5718320164422],
        [-0.237831312770195, 51.57185441921617],
        [-0.23784060886511, 51.57187524113602],
        [-0.237884205092035, 51.57190467119089],
        [-0.238138745950952, 51.5720020131503],
        [-0.23817924959513, 51.57203679205134],
        [-0.238185904692683, 51.57205127967113],
        [-0.238184862293197, 51.57207824096756],
        [-0.238175375108576, 51.57209968009031],
        [-0.238147069672974, 51.572122635147096],
        [-0.238126670227065, 51.57212772426535],
        [-0.238093499363309, 51.572127226240696],
        [-0.237954577896991, 51.57209996189937],
        [-0.237777603078761, 51.5720865136659],
        [-0.23775418016856, 51.57209515424322],
        [-0.237721547893472, 51.57211804422244],
        [-0.237649593107986, 51.572224871428894],
        [-0.237644901288691, 51.57227156100978],
        [-0.237667003539804, 51.57229707142031],
        [-0.237761650996183, 51.57234974896551],
        [-0.237776924560777, 51.57236526526183],
        [-0.237783544820305, 51.57238065161253],
        [-0.237778523061245, 51.572398560833136],
        [-0.237761720247215, 51.57242258776049],
        [-0.237736403111451, 51.572442889899484],
        [-0.237664587282777, 51.572471486055356],
        [-0.237594908764047, 51.57248212963542],
        [-0.237566099077964, 51.57248079772873],
        [-0.23752747191974, 51.57247212451582],
        [-0.237389523120527, 51.572419695634764],
        [-0.237202539217078, 51.572366530012374],
        [-0.237179568024618, 51.572363487250556],
        [-0.237053816892091, 51.57236879202456],
        [-0.23662688346156, 51.57243791293018],
        [-0.236554598560395, 51.57244132287502],
        [-0.236485545896377, 51.57243578903188],
        [-0.2363601075494, 51.572433004678835],
        [-0.236156548745667, 51.5723607044142],
        [-0.236014170881705, 51.572310905027756],
        [-0.235921938667174, 51.57230772011449],
        [-0.235887221119498, 51.5723098959111],
        [-0.235868159184093, 51.5723177024401],
        [-0.235842458548807, 51.572347889959175],
        [-0.235858025503844, 51.572393085567484],
        [-0.235915625608196, 51.57243351765767],
        [-0.235889124710992, 51.57248437548653],
        [-0.23583725523644, 51.57251956500035],
        [-0.235812111168473, 51.57253537317179],
        [-0.235752458115483, 51.57254796484062],
        [-0.235619251644345, 51.572559450618776],
        [-0.23557879979797, 51.57256064087746],
        [-0.235401058334879, 51.5725669606372],
        [-0.23538128484001, 51.57255587252077],
        [-0.235363301606259, 51.57253581900376],
        [-0.235350132296656, 51.57250324862784],
        [-0.235354443662494, 51.57246644495597],
        [-0.23537289878917, 51.57243704782196],
        [-0.235408451699452, 51.57241330317511],
        [-0.235598774250925, 51.57238019561509],
        [-0.235687828207704, 51.572353658349634],
        [-0.235693964256504, 51.57230699054973],
        [-0.235644982995492, 51.57226758716368],
        [-0.23552587082933, 51.57225050932004],
        [-0.235492595522663, 51.57225270668517],
        [-0.235346444738323, 51.57226309828345],
        [-0.235238278722212, 51.572261471690226],
        [-0.235169957442288, 51.57223706419999],
        [-0.23510307844805, 51.572212678360785],
        [-0.23506911164899, 51.57215821359837],
        [-0.235009011133448, 51.572107851926845],
        [-0.234998065228317, 51.5720924003538],
        [-0.234971359478827, 51.57207401404608],
        [-0.23471593999188, 51.57196226425016],
        [-0.234666671979645, 51.57181854522631],
        [-0.234586277137999, 51.57177057573046],
        [-0.234506747368582, 51.57177477464834],
        [-0.234453072682919, 51.57178206020484],
        [-0.234406643790949, 51.57178855552198],
        [-0.234357101241105, 51.57183816710871],
        [-0.234269321589742, 51.571794582442315],
        [-0.234196326695921, 51.57177909637394],
        [-0.234047487495316, 51.571747181988194],
        [-0.233875322965286, 51.57179584725162],
        [-0.233755892433044, 51.57186149215689],
        [-0.233442488672184, 51.57197996946653],
        [-0.232235542761312, 51.57095285558165],
        [-0.231881610371648, 51.57062829584541],
        [-0.231328944162153, 51.57018204115697],
        [-0.230919722875539, 51.56983236579912],
        [-0.230546828075866, 51.569550679178306],
        [-0.230169030779199, 51.56920956802861],
        [-0.229807438156235, 51.56893434406505],
        [-0.229382959656216, 51.568532277477374],
        [-0.228937650492693, 51.568072343979544],
        [-0.228819055637174, 51.56796804143163],
        [-0.228637918447404, 51.567839414622085],
        [-0.228397972054411, 51.567701806580246],
        [-0.228031011604521, 51.56752810927158],
        [-0.227738341752521, 51.567373517493294],
        [-0.227188036534751, 51.56705407019552],
        [-0.226893755747861, 51.5669039480952],
        [-0.226720581099512, 51.56679342323563],
        [-0.226426531968429, 51.56656327164952],
        [-0.225942255841239, 51.56621604084612],
        [-0.225705377483022, 51.56603710879887],
        [-0.225489886104528, 51.565864794317335],
        [-0.225186272888965, 51.565584137791504],
        [-0.225071669052083, 51.565488884032774],
        [-0.224620090064891, 51.565154731438355],
        [-0.224107550755145, 51.564718940257876],
        [-0.223431000739951, 51.564123297735904],
        [-0.222675092223807, 51.56352824763914],
        [-0.222389841096564, 51.56329552113984],
        [-0.221954970634603, 51.56294092866076],
        [-0.221553196085387, 51.56255176597531],
        [-0.221206438425123, 51.56223177772708],
        [-0.220662688310359, 51.56167320183895],
        [-0.22058773917451, 51.56159742878509],
        [-0.220312737321804, 51.56128751825277],
        [-0.21932393223766, 51.560119697288755],
        [-0.219022255569664, 51.5597913940426],
        [-0.218650214107063, 51.5594179592226],
        [-0.218319748082384, 51.5591251864323],
        [-0.217769251447042, 51.55866720840599],
        [-0.217172875672047, 51.55820223596161],
        [-0.216942929629468, 51.55799551458718],
        [-0.216759438284633, 51.557818274310506],
        [-0.216511210841277, 51.55763645282334],
        [-0.216176059453217, 51.557390362817145],
        [-0.215500599086676, 51.556845945705014],
        [-0.215373167409898, 51.556747789299415],
        [-0.214855253435605, 51.55634334761197],
        [-0.214287841541192, 51.55587700217905],
        [-0.213736757207661, 51.555399212396445],
        [-0.213501320597123, 51.55518610577257],
        [-0.213462362732302, 51.55514954313196],
        [-0.213239128740422, 51.55495640496578],
        [-0.212899236800784, 51.55464818575622],
        [-0.212807890352606, 51.55458654554813],
        [-0.21249114338654, 51.55424001046208],
        [-0.212380006058818, 51.55413130808212],
        [-0.211941016996371, 51.55370197761797],
        [-0.21172992499829, 51.553530603184996],
        [-0.211430129001457, 51.55330392197865],
        [-0.211280249744354, 51.55319013174595],
        [-0.210749473221205, 51.55278457594137],
        [-0.210318306077424, 51.552450677595424],
        [-0.209756638951379, 51.552060832235576],
        [-0.209172063385882, 51.55163016876057],
        [-0.20860187287502, 51.551237489899236],
        [-0.207973903157476, 51.55077378515191],
        [-0.207562885621993, 51.550441982581475],
        [-0.207309251409692, 51.55025286447153],
        [-0.207254205929144, 51.55018547978718],
        [-0.206813705172681, 51.54983344075927],
        [-0.206336765713327, 51.549417896284396],
        [-0.205767429508818, 51.548894826713536],
        [-0.205136424882092, 51.54828987940241],
        [-0.204272328711485, 51.54748802485411],
        [-0.203736510475066, 51.546957364857406],
        [-0.203589386801984, 51.546811234046],
        [-0.203218051523473, 51.546498907270184],
        [-0.202722427362108, 51.546010222978836],
        [-0.201958224365262, 51.54531059564323],
        [-0.201931795540596, 51.545285911141576],
        [-0.201228955139592, 51.54460340557119],
        [-0.199405860993967, 51.543036840595654],
        [-0.198876052512728, 51.54261235996347],
        [-0.198874611265166, 51.542612337837056],
        [-0.197796444425453, 51.541722618362435],
        [-0.196855115816981, 51.54094739691545],
        [-0.196692200425681, 51.54083698398371],
        [-0.196539445181099, 51.540724928524796],
        [-0.196391405070776, 51.54060305370383],
        [-0.195442148843365, 51.53973777455816],
        [-0.193755532737446, 51.53826673864718],
        [-0.192650544528277, 51.53729472617838],
        [-0.192462443764901, 51.53712906543629],
        [-0.191483479647746, 51.53628937321688],
        [-0.192983097913678, 51.534067974682],
        [-0.193035258375225, 51.53398874560626],
        [-0.192769822395812, 51.53366452663494],
        [-0.192407900769218, 51.533301052191106],
        [-0.19238233837042, 51.53325479696453],
        [-0.192374031767065, 51.5332097068681],
        [-0.192384959299968, 51.53300664654861],
        [-0.192411058914996, 51.53289374421156],
        [-0.192558519914229, 51.53262894139819],
        [-0.192664635563048, 51.53246151880587],
        [-0.192892465391737, 51.53213320831873],
        [-0.193138596612444, 51.5318159701862],
        [-0.193516716951625, 51.531369474812756],
        [-0.19428351904783, 51.53046405362184],
        [-0.195696346548525, 51.52875205384415],
        [-0.196413135301231, 51.52790609880813],
        [-0.196527976668412, 51.52773610917075],
        [-0.19656253495678, 51.52770067077762],
        [-0.196568703845233, 51.52765400501623]
      ]
    ]
  }
}
