{
  "type": "Feature",
  "properties": {
    "name": "Brent",
    "level": 2,
    "londonBorough": true
  },
  "geometry": {
    "type": "Polygon",
    "coordinates": [
      [
        [-0.196568703845233, 51.52765400501623],
        [-0.196846201338131, 51.527855204946526],
        [-0.196931355118115, 51.527925755505066],
        [-0.197500812539051, 51.52785267604078],
        [-0.197798791538443, 51.527900417986324],
        [-0.197950423123025, 51.52836855486224],
        [-0.198074730640385, 51.52861595748034],
        [-0.197925769544436, 51.52961362629188],
        [-0.19794044131968, 51.529935780272396],
        [-0.198215902142354, 51.53037164759582],
        [-0.198298074497744, 51.53044484902798],
        [-0.199412077224764, 51.531150772436526],
        [-0.199562919149088, 51.53123761633283],
        [-0.201007590766119, 51.53185867470386],
        [-0.201108017737223, 51.53190787453686],
        [-0.20155019610237, 51.53239484908881],
        [-0.201689319437521, 51.532559744505654],
        [-0.202849719876606, 51.532858989555756],
        [-0.202992186171557, 51.53290253707461],
        [-0.207336032000236, 51.53283770808493],
        [-0.2076481587635, 51.53281999636708],
        [-0.210841736141912, 51.53201177062067],
        [-0.211051413294902, 51.531959215438924],
        [-0.214694742680059, 51.531518338246435],
        [-0.215207285604, 51.53138945292347],
        [-0.215362763113185, 51.53124793995081],
        [-0.215360443692773, 51.53119664799956],
        [-0.21510446197206, 51.53025844325166],
        [-0.215129449295246, 51.53017249640819],
        [-0.215264996958177, 51.529950647968384],
        [-0.215314091724209, 51.52991182833025],
        [-0.21584724316426, 51.52973469486209],
        [-0.215883650986658, 51.52972535694744],
        [-0.216088485085936, 51.528874194103935],
        [-0.216028870217723, 51.5279281862027],
        [-0.217331725183072, 51.528455163810506],
        [-0.217979012791217, 51.52864035035285],
        [-0.221005471053026, 51.52918536421917],
        [-0.221526610259763, 51.52927869395471],
        [-0.22363372955779, 51.529924800687695],
        [-0.223803793571225, 51.52996334534232],
        [-0.225016791239775, 51.53013547512859],
        [-0.225446564317812, 51.530168954320644],
        [-0.225463193299758, 51.53003791700411],
        [-0.225465333068641, 51.530019964596256],
        [-0.226716838558573, 51.529980438925286],
        [-0.227685223721561, 51.529917738836],
        [-0.227680517201338, 51.52992755935381],
        [-0.227588011597721, 51.53015636680673],
        [-0.23109808471533, 51.530988087702475],
        [-0.231394066410797, 51.53108876885346],
        [-0.23421834142186, 51.532544915914166],
        [-0.234423837861805, 51.532637033379174],
        [-0.236799777320855, 51.53215570637016],
        [-0.237350079017502, 51.53201829970575],
        [-0.243230207887989, 51.53177918114403],
        [-0.243428953863386, 51.531784854952086],
        [-0.246037879057382, 51.53262780795882],
        [-0.24621396877029, 51.53269788328787],
        [-0.247158559135282, 51.53344307967204],
        [-0.247226691311835, 51.53347107472882],
        [-0.249024058910938, 51.53386210575958],
        [-0.250773674850085, 51.53418315591844],
        [-0.251006477499709, 51.533902468502994],
        [-0.251140836172503, 51.53389547917519],
        [-0.252165712377611, 51.53412836797557],
        [-0.252341069505488, 51.534142670499264],
        [-0.255669090105575, 51.53398537745298],
        [-0.256049555202854, 51.5339523668103],
        [-0.256442269353192, 51.53491948611385],
        [-0.256451738565275, 51.53493581307179],
        [-0.257368003399655, 51.535182328838395],
        [-0.257809069727591, 51.53533725340193],
        [-0.260318159593116, 51.534499532585464],
        [-0.260433616081467, 51.53453451631941],
        [-0.2620748598732, 51.53342580621609],
        [-0.262908221643282, 51.53293367845296],
        [-0.264445014157992, 51.532293688381564],
        [-0.264854301570345, 51.532184640760214],
        [-0.264755188080808, 51.53198534322179],
        [-0.264928626401464, 51.531594943137605],
        [-0.265048275911282, 51.53148161071902],
        [-0.266969449119404, 51.53036078618163],
        [-0.267525082153844, 51.530155874657915],
        [-0.268182272510948, 51.530010010802854],
        [-0.268798381664037, 51.52995885585954],
        [-0.268722916370331, 51.52985792717889],
        [-0.268703664303888, 51.529833363733374],
        [-0.269021563819257, 51.52973823992476],
        [-0.26914602618766, 51.52972568861171],
        [-0.26938695698217, 51.52983535277491],
        [-0.269676173846562, 51.53000238040093],
        [-0.270417588001547, 51.52976422598737],
        [-0.270592974501197, 51.53004377572926],
        [-0.275321860637057, 51.529469542473855],
        [-0.277196350191892, 51.52923271114952],
        [-0.280250928398072, 51.52843854575691],
        [-0.280478498294527, 51.52840591234498],
        [-0.283359431693112, 51.528929194834724],
        [-0.284193632267375, 51.52905829916408],
        [-0.284253656558017, 51.528918896781754],
        [-0.285751873689527, 51.52917909614835],
        [-0.289076803460079, 51.53143704834921],
        [-0.289388241877354, 51.53166729716574],
        [-0.285730651681127, 51.53296815039996],
        [-0.285670805881675, 51.533064392931934],
        [-0.284189346484341, 51.53346717248138],
        [-0.284038927001755, 51.53351802709599],
        [-0.283538982786559, 51.532818304675956],
        [-0.281603390459322, 51.53321980163209],
        [-0.281508878361417, 51.53324089801662],
        [-0.281028665764041, 51.53266914468453],
        [-0.280951423196065, 51.53257629113811],
        [-0.279276778433533, 51.533054411059545],
        [-0.279009990626779, 51.53320876256333],
        [-0.278590794689774, 51.53403979780369],
        [-0.278472968964493, 51.534564119856576],
        [-0.278153224362729, 51.534554931247],
        [-0.278146476664739, 51.53458090995306],
        [-0.278064248802492, 51.53492590756321],
        [-0.277881741237521, 51.53498617490387],
        [-0.277797785069983, 51.53507126877701],
        [-0.278451776881931, 51.5353551333859],
        [-0.278669719688046, 51.53550220851745],
        [-0.282375467157571, 51.53856355309916],
        [-0.282485565307893, 51.53866497962814],
        [-0.285711989873328, 51.53714930469927],
        [-0.286751997093827, 51.53675534665024],
        [-0.288743317926919, 51.5361009940753],
        [-0.292911117490077, 51.535079938761875],
        [-0.293294391316745, 51.534971312847496],
        [-0.295173232418962, 51.53489162228303],
        [-0.295226384417256, 51.534896890815574],
        [-0.295784159769491, 51.535288966127936],
        [-0.295825447919356, 51.535303054350194],
        [-0.296398433759596, 51.53528799622772],
        [-0.296589095585284, 51.53524040781619],
        [-0.297116843353361, 51.535007974813176],
        [-0.297201064470176, 51.53495344497998],
        [-0.298498539905267, 51.53387610813144],
        [-0.299557024821414, 51.5332521023043],
        [-0.300421691032084, 51.53283749764763],
        [-0.301442170800307, 51.53241974734972],
        [-0.302536972395305, 51.53213525049728],
        [-0.302731525639334, 51.53198249854576],
        [-0.307464151402948, 51.53305081622599],
        [-0.307501084824968, 51.53306573673675],
        [-0.307083741235859, 51.53351112832483],
        [-0.306984397702079, 51.53362389688164],
        [-0.306335580161233, 51.53393465765037],
        [-0.306256842108093, 51.53423026667448],
        [-0.305960320985199, 51.53608109573174],
        [-0.30588618981894, 51.536718478087295],
        [-0.305985459559224, 51.53917120996329],
        [-0.30596723481279, 51.53942902550382],
        [-0.30474449607133, 51.539853784487235],
        [-0.304725459364193, 51.53986160247493],
        [-0.305922367820926, 51.54075384086996],
        [-0.306343304926622, 51.54106835359157],
        [-0.30765965609439, 51.54239662518642],
        [-0.308575882329268, 51.543238925889916],
        [-0.308038725223706, 51.54403509065175],
        [-0.307999487047017, 51.54443198355936],
        [-0.308055617095305, 51.54451282429512],
        [-0.308475036757368, 51.544869570742634],
        [-0.308895710567897, 51.544959263067305],
        [-0.308890471911038, 51.54521726592715],
        [-0.307287127273853, 51.54524630035098],
        [-0.307221896758257, 51.5452552507471],
        [-0.307170079733128, 51.545291371477546],
        [-0.307124161712868, 51.545323980388],
        [-0.307268532510691, 51.545475335191895],
        [-0.307696877593303, 51.54586368609594],
        [-0.308601115836494, 51.54644773454584],
        [-0.309414719118156, 51.54683174067273],
        [-0.311368044673049, 51.547479437120124],
        [-0.311494917193581, 51.54755859654967],
        [-0.311945472540326, 51.547932863505714],
        [-0.312106234331277, 51.54810962633712],
        [-0.312598337754986, 51.549154412388894],
        [-0.312808107018694, 51.549293212223375],
        [-0.317652406487612, 51.551533503074324],
        [-0.317779168581707, 51.55161625085764],
        [-0.327022925949162, 51.55501080084898],
        [-0.327964454206268, 51.5552975853045],
        [-0.334732792108568, 51.55636050163174],
        [-0.335584419626142, 51.55658300293175],
        [-0.334908438984002, 51.55783142599552],
        [-0.33397810582259, 51.55770941473412],
        [-0.33402324178533, 51.55836918626323],
        [-0.333922565931203, 51.55887401955266],
        [-0.331853436784996, 51.56081751885216],
        [-0.331996172452876, 51.56093824532398],
        [-0.331216800178548, 51.56145950438488],
        [-0.33142072842148, 51.561524450702166],
        [-0.329882424707472, 51.562322658360046],
        [-0.32978573992672, 51.56236264652283],
        [-0.328750480104512, 51.56246390660816],
        [-0.328249612539528, 51.562509826308],
        [-0.328323697473688, 51.56273209064821],
        [-0.328580446471686, 51.56300911179071],
        [-0.328332663374342, 51.56327444996809],
        [-0.328593066890513, 51.564947117207986],
        [-0.328669099648505, 51.56594274057758],
        [-0.329069892674898, 51.56599071160739],
        [-0.329646098865855, 51.56621292975438],
        [-0.329677516526513, 51.5666548952387],
        [-0.329745382957624, 51.5670865887944],
        [-0.327498872213662, 51.567557258010595],
        [-0.327653292330306, 51.567792357389216],
        [-0.325796721553891, 51.56805543475548],
        [-0.325073621174135, 51.56825733290688],
        [-0.3251751113679, 51.568440424411065],
        [-0.322908915518313, 51.56932526702888],
        [-0.322153682333172, 51.569654377749714],
        [-0.324116205623164, 51.57231984015624],
        [-0.324741419505021, 51.57317313647931],
        [-0.32537971595875, 51.57587002066299],
        [-0.32543408681463, 51.57603985015841],
        [-0.326708287311933, 51.57867565786731],
        [-0.326671545105875, 51.57877224989117],
        [-0.325283672755218, 51.57899344482948],
        [-0.323422947125734, 51.57939580666872],
        [-0.320706826877054, 51.58025439717449],
        [-0.320210849720506, 51.58043613592895],
        [-0.313381740090036, 51.58412391824297],
        [-0.313074967713594, 51.58426158638773],
        [-0.305321053716938, 51.586973439978216],
        [-0.304846035609117, 51.58705380480012],
        [-0.303578357592997, 51.58721623254945],
        [-0.30306290093334, 51.587258238337725],
        [-0.301187609979433, 51.587262582801856],
        [-0.300791460465476, 51.58724066218139],
        [-0.299286051133957, 51.58692661041979],
        [-0.29861189786588, 51.58681163061565],
        [-0.295708915199663, 51.58669847380722],
        [-0.294315832991024, 51.586585616609355],
        [-0.282432601022558, 51.58510214647838],
        [-0.2823409149777, 51.58508371940136],
        [-0.282271484476168, 51.585738238209096],
        [-0.28230431678409, 51.58586281175571],
        [-0.282559680874828, 51.5862873860218],
        [-0.282867786038324, 51.58672981658461],
        [-0.283238449287621, 51.58834664927707],
        [-0.283364079755836, 51.58888172685088],
        [-0.283851096162694, 51.589863607933445],
        [-0.283997227776718, 51.59023802329792],
        [-0.284538945726247, 51.590879895057604],
        [-0.2846539282168, 51.59100836611749],
        [-0.285159282621292, 51.591466261748955],
        [-0.285291290429287, 51.591564407292914],
        [-0.286391720188896, 51.59216857074375],
        [-0.28660466957926, 51.592264299578005],
        [-0.289896935488391, 51.59324570714785],
        [-0.290421891953922, 51.593568082468984],
        [-0.288001942902676, 51.59426657644883],
        [-0.287685351863665, 51.594315911681534],
        [-0.286718181109514, 51.59473432449069],
        [-0.286282911709925, 51.594944682982366],
        [-0.286135041626795, 51.59488407442967],
        [-0.285796555072883, 51.59474784490309],
        [-0.285611981020573, 51.59520195452981],
        [-0.284584218968756, 51.59546479848512],
        [-0.284069290295234, 51.59560474441167],
        [-0.279351952997913, 51.59622898761945],
        [-0.276515609725053, 51.59651469208428],
        [-0.276976314374678, 51.59689283536908],
        [-0.273041060641725, 51.5983609853811],
        [-0.273001688671801, 51.59837119679029],
        [-0.271224603784732, 51.59828658720193],
        [-0.27120859355648, 51.598289948294074],
        [-0.267994694693479, 51.59995559116209],
        [-0.267155869443294, 51.600370342358225],
        [-0.266153722517451, 51.59942394692874],
        [-0.265730632984, 51.59900765004734],
        [-0.261901910398306, 51.595969186411395],
        [-0.260641470722266, 51.59491100986749],
        [-0.257691082370578, 51.59225230062221],
        [-0.257421207727526, 51.59202348750943],
        [-0.253129458124568, 51.58904259680467],
        [-0.252536488203096, 51.58854458985521],
        [-0.248534593013578, 51.5845741936123],
        [-0.248284314693506, 51.58436363571923],
        [-0.25140928437939, 51.583575752267365],
        [-0.251667870530135, 51.58345730960909],
        [-0.252303874927326, 51.58279415949477],
        [-0.252417302212727, 51.58269693341452],
        [-0.253692181977816, 51.58212241946714],
        [-0.253829438742315, 51.58204353118134],
        [-0.254379548252898, 51.5815112784948],
        [-0.254395798710723, 51.581463861095045],
        [-0.254316378973001, 51.58059852117122],
        [-0.254335357660501, 51.58040457009343],
        [-0.254613273028129, 51.57974327443771],
        [-0.254630452225889, 51.57967159163518],
        [-0.2544647062777, 51.57898751113313],
        [-0.254415403130169, 51.57884290119698],
        [-0.253569291794521, 51.57727104991557],
        [-0.253427625749183, 51.57701356054953],
        [-0.25271596573083, 51.57513616674506],
        [-0.252623102915303, 51.57492346512978],
        [-0.251372424838327, 51.573180113294626],
        [-0.251355365450803, 51.573135796829064],
        [-0.251491720536106, 51.57296697486367],
        [-0.251697566192531, 51.57286752950634],
        [-0.252890604262323, 51.57268926515567],
        [-0.252970478794836, 51.57267606660705],
        [-0.253130005642082, 51.572504890034836],
        [-0.25313111288931, 51.57243836350769],
        [-0.252663450021396, 51.57168863709723],
        [-0.252510292051346, 51.57150561125702],
        [-0.251910864508334, 51.57118195298393],
        [-0.251772287890856, 51.57110795020228],
        [-0.251205088559294, 51.570320765509564],
        [-0.251149505803835, 51.5702650841233],
        [-0.250768663676058, 51.57011193404367],
        [-0.249495091295826, 51.56896980388573],
        [-0.249428320519954, 51.56890496244915],
        [-0.248771118277605, 51.56862179042159],
        [-0.24870627463452, 51.56854438808896],
        [-0.248552487340485, 51.568528604403674],
        [-0.248225716173894, 51.56865861142761],
        [-0.247615162853524, 51.56847594386554],
        [-0.247309817184247, 51.568461492105094],
        [-0.247041245817078, 51.568578876633055],
        [-0.24702365424689, 51.5686235753986],
        [-0.247393370868953, 51.56895282092485],
        [-0.24738258481274, 51.56897064445251],
        [-0.24686125405487, 51.56898174094935],
        [-0.246631784323218, 51.56898280867653],
        [-0.246554857803497, 51.56903201618262],
        [-0.246524701421275, 51.56906573635358],
        [-0.246631427002849, 51.56929213881182],
        [-0.246615830102001, 51.56932247962242],
        [-0.246103042643147, 51.56971137745693],
        [-0.246069990616225, 51.56978282193539],
        [-0.246071148369755, 51.5699402046627],
        [-0.24608817744535, 51.56994765303089],
        [-0.246558960753734, 51.56986296692872],
        [-0.246574507126345, 51.57002146386637],
        [-0.246502978775398, 51.57041785512286],
        [-0.246464632054666, 51.57051439905173],
        [-0.246007140677514, 51.57092840197538],
        [-0.246008918125481, 51.57095720392942],
        [-0.246728598616013, 51.57149221008324],
        [-0.246734841440064, 51.57151748181322],
        [-0.246065989213434, 51.57217381691625],
        [-0.246042429422321, 51.57218605401708],
        [-0.245453908885426, 51.57191737866965],
        [-0.245241903961485, 51.57191420872539],
        [-0.244520403107485, 51.572288288615326],
        [-0.244489389380986, 51.57230670851697],
        [-0.244388950374258, 51.57251652519911],
        [-0.244338494940384, 51.57255263882161],
        [-0.244152101022888, 51.5725588423889],
        [-0.244125287369354, 51.57254315426685],
        [-0.244103898469615, 51.57242413576148],
        [-0.244115183713979, 51.5723559630749],
        [-0.2439209462201, 51.572303598902465],
        [-0.243645954260957, 51.5723246619719],
        [-0.242616730015758, 51.572482804965254],
        [-0.24249678261229, 51.572487303255635],
        [-0.242418611438155, 51.57253109405266],
        [-0.242418597787689, 51.572568861550714],
        [-0.242604383359005, 51.57272811012654],
        [-0.242592290918215, 51.572742316730846],
        [-0.242141606600903, 51.57279131891114],
        [-0.242015542686449, 51.57280471740192],
        [-0.24139439889197, 51.57267131680234],
        [-0.241374762607186, 51.57265663483666],
        [-0.24120617742075, 51.57216402731146],
        [-0.241108433733694, 51.57211670154435],
        [-0.240869159849948, 51.57229655815026],
        [-0.240785079805494, 51.57234385621529],
        [-0.240584741247948, 51.572187983440024],
        [-0.240561735203282, 51.57218584005004],
        [-0.240016935405157, 51.57239258688217],
        [-0.239969480949616, 51.57238827824326],
        [-0.240075011048951, 51.57212189000921],
        [-0.239995600863844, 51.57208562903262],
        [-0.239437812327655, 51.572068269766056],
        [-0.239209040183531, 51.57208821738227],
        [-0.239056968341686, 51.57221452560904],
        [-0.238866475194402, 51.572252132360916],
        [-0.238132976015987, 51.571778017860545],
        [-0.238087103589063, 51.571770135280886],
        [-0.237836508209585, 51.5718320164422],
        [-0.237831312770195, 51.57185441921617],
        [-0.238184862293197, 51.57207824096756],
        [-0.238175375108576, 51.57209968009031],
        [-0.23775418016856, 51.57209515424322],
        [-0.237721547893472, 51.57211804422244],
        [-0.237736403111451, 51.572442889899484],
        [-0.237664587282777, 51.572471486055356],
        [-0.236014170881705, 51.572310905027756],
        [-0.235921938667174, 51.57230772011449],
        [-0.235915625608196, 51.57243351765767],
        [-0.235889124710992, 51.57248437548653],
        [-0.23557879979797, 51.57256064087746],
        [-0.235401058334879, 51.5725669606372],
        [-0.235354443662494, 51.57246644495597],
        [-0.23537289878917, 51.57243704782196],
        [-0.235687828207704, 51.572353658349634],
        [-0.235693964256504, 51.57230699054973],
        [-0.235169957442288, 51.57223706419999],
        [-0.23510307844805, 51.572212678360785],
        [-0.234666671979645, 51.57181854522631],
        [-0.234586277137999, 51.57177057573046],
        [-0.233755892433044, 51.57186149215689],
        [-0.233442488672184, 51.57197996946653],
        [-0.228937650492693, 51.568072343979544],
        [-0.228819055637174, 51.56796804143163],
        [-0.226893755747861, 51.5669039480952],
        [-0.226720581099512, 51.56679342323563],
        [-0.222389841096564, 51.56329552113984],
        [-0.221954970634603, 51.56294092866076],
        [-0.218650214107063, 51.5594179592226],
        [-0.218319748082384, 51.5591251864323],
        [-0.214855253435605, 51.55634334761197],
        [-0.214287841541192, 51.55587700217905],
        [-0.211941016996371, 51.55370197761797],
        [-0.21172992499829, 51.553530603184996],
        [-0.207254205929144, 51.55018547978718],
        [-0.206813705172681, 51.54983344075927],
        [-0.201931795540596, 51.545285911141576],
        [-0.201228955139592, 51.54460340557119],
        [-0.192462443764901, 51.53712906543629],
        [-0.191483479647746, 51.53628937321688],
        [-0.192983097913678, 51.534067974682],
        [-0.193035258375225, 51.53398874560626],
        [-0.192769822395812, 51.53366452663494],
        [-0.192407900769218, 51.533301052191106],
        [-0.192411058914996, 51.53289374421156],
        [-0.192558519914229, 51.53262894139819],
        [-0.196568703845233, 51.52765400501623]
      ]
    ]
  }
}
