{
  "type": "Feature",
  "properties": {
    "name": "Bromley",
    "level": 2,
    "londonBorough": true,
    "center": [0.065, 51.371]
  },
  "geometry": {
    "type": "Polygon",
    "coordinates": [
      [
        [0.012130980445183, 51.29959905375681],
        [0.011186216801347, 51.30174572272001],
        [0.011098832774887, 51.301978343181034],
        [0.011053002853106, 51.30257086803538],
        [0.011071955803726, 51.30297162906733],
        [0.010913381579566, 51.303118240286274],
        [0.010873791983718, 51.30319715909689],
        [0.01083834710475, 51.303863247732615],
        [0.010833025268582, 51.303905606095455],
        [0.010450803852909, 51.30464689555971],
        [0.010426766132705, 51.30468777667331],
        [0.010466003225964, 51.30479771645224],
        [0.010502196410942, 51.30493648598679],
        [0.010268393657152, 51.30552864062763],
        [0.010260281809206, 51.305638494110866],
        [0.009544082058974, 51.3068144784118],
        [0.009453385002062, 51.306905964667244],
        [0.008985970328269, 51.30845717816225],
        [0.009083041920123, 51.30874148876362],
        [0.008401438687823, 51.31018576089297],
        [0.008363209255725, 51.31036177933434],
        [0.00835337448106, 51.310662312851015],
        [0.008398658206853, 51.3108449924749],
        [0.008920456132274, 51.31162202563612],
        [0.009065479179472, 51.31191990217252],
        [0.00915145274391, 51.31250836499607],
        [0.009209229628246, 51.31284550877398],
        [0.009586375232339, 51.313857938553305],
        [0.009535224901765, 51.31393525653124],
        [0.010094336353414, 51.3153348558214],
        [0.010320406527672, 51.31614034061831],
        [0.006557778951358, 51.31564821492794],
        [0.006552396036943, 51.31565640082598],
        [0.006126378018504, 51.31710796790106],
        [0.006002921868127, 51.317468901520996],
        [0.005626196209463, 51.31817590519773],
        [0.00551733898665, 51.318443960824744],
        [0.004887308479818, 51.32193232020175],
        [0.004841909701996, 51.32207608520539],
        [0.003851063927001, 51.32423696108292],
        [0.003725089657318, 51.32450800543171],
        [0.00325329980516, 51.32652689691457],
        [0.003155933325993, 51.326993496994824],
        [0.002256135388482, 51.32917258361886],
        [0.002223670431024, 51.32931702550856],
        [0.002197138561756, 51.329465862408796],
        [0.002181760142744, 51.32977188480325],
        [0.002864153038324, 51.330311482287655],
        [0.002886961532267, 51.33034076885098],
        [0.002882629500922, 51.33116369556323],
        [0.002885541955509, 51.331263467210704],
        [0.003212914206794, 51.331627476952654],
        [0.003281848566279, 51.33215508168822],
        [0.002608110100528, 51.33234196676272],
        [0.002270021210014, 51.33248983586054],
        [0.000959728568628, 51.33352033737623],
        [0.000840807291134, 51.3335916146838],
        [0.000556154146002, 51.33490134994199],
        [0.000392323427537, 51.33545811206624],
        [-0.001483526946072, 51.34075188970492],
        [-0.001580202010774, 51.340740949278],
        [-0.001765056785589, 51.34140957836258],
        [-0.001651894372526, 51.34143642486144],
        [-0.001717841446339, 51.341702840761066],
        [-0.00241093375565, 51.34342961077804],
        [-0.002579516758077, 51.34387853386778],
        [-0.002920177608957, 51.34552195002859],
        [-0.002922216363605, 51.345574143598924],
        [-0.004507807139348, 51.34943483949895],
        [-0.004632772030206, 51.34956646609991],
        [-0.004733627148833, 51.350748950600156],
        [-0.00474549006313, 51.3509056289431],
        [-0.005330909900367, 51.35267011219774],
        [-0.005332110836562, 51.35267552838041],
        [-0.006088901187168, 51.353537342046],
        [-0.006275506633807, 51.35370508825324],
        [-0.007397116184455, 51.35450115922073],
        [-0.007690379715588, 51.35475974699537],
        [-0.008450501380067, 51.355645882071165],
        [-0.008685414813949, 51.35582613636917],
        [-0.0111183011609, 51.35699068143499],
        [-0.011525697297882, 51.35716846273041],
        [-0.012018793440256, 51.35729104202072],
        [-0.012107585639644, 51.35729704539542],
        [-0.012182348802039, 51.35719579546147],
        [-0.012329341615241, 51.357084979742766],
        [-0.012877371807798, 51.35716622109863],
        [-0.013122604528253, 51.35720815116641],
        [-0.015047843471752, 51.35849080060811],
        [-0.015650267187426, 51.358876010101994],
        [-0.016536570334222, 51.35980559544306],
        [-0.017325848288691, 51.360587847175246],
        [-0.018288292761281, 51.36125251875417],
        [-0.018400293528745, 51.36135333494285],
        [-0.018166051696026, 51.36142221422951],
        [-0.018877298440242, 51.36268245396613],
        [-0.018934407915419, 51.36279043479746],
        [-0.019382242370328, 51.363264736885256],
        [-0.019476753385338, 51.36337155124547],
        [-0.020367980708759, 51.36409075647227],
        [-0.02076065592911, 51.36427904747618],
        [-0.021248186955305, 51.36493297053682],
        [-0.021344571973551, 51.36509646992019],
        [-0.022142855228125, 51.36574034975601],
        [-0.022270398227539, 51.365880992999756],
        [-0.023587150004757, 51.365294400843055],
        [-0.023796014685904, 51.365414831612384],
        [-0.023729780530223, 51.36568529815159],
        [-0.024479892472857, 51.36641468033727],
        [-0.02449573429797, 51.366780956219884],
        [-0.024044692398253, 51.36677964396595],
        [-0.024045612007976, 51.36699189058407],
        [-0.023279865899771, 51.36699246087136],
        [-0.023119703486494, 51.36700864309517],
        [-0.023261135148914, 51.368127940934514],
        [-0.023302480688538, 51.368335473985795],
        [-0.023564136137843, 51.36886507082269],
        [-0.02358608108145, 51.369056089302454],
        [-0.023506988252346, 51.369591627459165],
        [-0.023509561467703, 51.369698685674976],
        [-0.023734416673636, 51.371316693811515],
        [-0.023816330008387, 51.371316277085285],
        [-0.023620391196389, 51.37179588697048],
        [-0.02359351046616, 51.37221989537621],
        [-0.023944969174369, 51.37263319977601],
        [-0.024185596062118, 51.37295110835598],
        [-0.024271076027118, 51.37320165153851],
        [-0.02440688324974, 51.37371833196736],
        [-0.02591608765559, 51.37604413920754],
        [-0.026152918612424, 51.376451008421405],
        [-0.025937541938812, 51.37648065290374],
        [-0.026012328933647, 51.37698011572536],
        [-0.026052224776038, 51.37722179571887],
        [-0.026210865279133, 51.377408821540286],
        [-0.026420279959336, 51.37788537220207],
        [-0.026821871205669, 51.379373254887376],
        [-0.026821793911654, 51.37937505215021],
        [-0.028041083314395, 51.379358711032836],
        [-0.027992336224231, 51.37878774558453],
        [-0.027996907555425, 51.37874825411206],
        [-0.028186979938225, 51.37830451005983],
        [-0.028212974280321, 51.37826807699131],
        [-0.028800231025797, 51.377743785793484],
        [-0.028857853456905, 51.37770698546357],
        [-0.029693239540036, 51.37736042590266],
        [-0.029760063250252, 51.37734356409161],
        [-0.0347447301038, 51.37694347454798],
        [-0.035724338098327, 51.37688526307095],
        [-0.036791561963823, 51.376995778029375],
        [-0.036951883791472, 51.37701015518383],
        [-0.036352145247422, 51.37900370319819],
        [-0.036929070866831, 51.37895401910553],
        [-0.03785666882506, 51.38256578237065],
        [-0.037898595205287, 51.38323195211909],
        [-0.036535741737133, 51.388413255090214],
        [-0.036525046801401, 51.388461636977546],
        [-0.03927627784581, 51.38885932894245],
        [-0.039563841291877, 51.38885694665761],
        [-0.041279287010141, 51.38924355059132],
        [-0.041683165883328, 51.38934472609338],
        [-0.042277699605433, 51.38932318692828],
        [-0.042772392649054, 51.38945195512928],
        [-0.043711683402918, 51.38987321682142],
        [-0.044709649020421, 51.3905031834142],
        [-0.046145323472661, 51.39182479206693],
        [-0.046235761608759, 51.3919962637484],
        [-0.046498140648979, 51.39197815663783],
        [-0.046823141656306, 51.391839690295804],
        [-0.047625191912419, 51.39285305485678],
        [-0.047763978436943, 51.3930370215124],
        [-0.04806594062028, 51.39316974978805],
        [-0.048445199294098, 51.39324261384078],
        [-0.050340289616858, 51.39329754404259],
        [-0.050494545309166, 51.39332079408618],
        [-0.051562370296891, 51.3936299219316],
        [-0.051718245641979, 51.3935812550912],
        [-0.051720311868167, 51.39370179262208],
        [-0.051725026472669, 51.39399683399913],
        [-0.05205205129727, 51.394081407625485],
        [-0.052451281904098, 51.3941581877481],
        [-0.052639776053457, 51.3945938729892],
        [-0.052619499092671, 51.39463130562932],
        [-0.053232476776039, 51.39478627532453],
        [-0.053509931916169, 51.39492128001219],
        [-0.05327983785429, 51.395092816406326],
        [-0.053427426546526, 51.395171706941674],
        [-0.051811809752999, 51.396454202982945],
        [-0.050978209057951, 51.397126488432114],
        [-0.050824439644091, 51.39759874884296],
        [-0.050347773384154, 51.397990097553105],
        [-0.050472205197109, 51.398038930304665],
        [-0.050859620880368, 51.39771803863538],
        [-0.051391674076867, 51.397917534628235],
        [-0.052130490773422, 51.398292227387216],
        [-0.05065461345517, 51.39956444073713],
        [-0.051141143265501, 51.399820734053804],
        [-0.051494672985725, 51.39999297957143],
        [-0.052477236316939, 51.40099312275693],
        [-0.052990701666172, 51.401462085041615],
        [-0.0561069216921, 51.40069907845779],
        [-0.056854166484001, 51.4005037396907],
        [-0.059265804104988, 51.3993332820835],
        [-0.059412965991358, 51.399252986006175],
        [-0.060324736018471, 51.3992456007082],
        [-0.060585776892015, 51.39912402298782],
        [-0.060714775584522, 51.399269142839756],
        [-0.060178240917653, 51.39954803004086],
        [-0.060714512913459, 51.400091076330334],
        [-0.062186084380713, 51.40153357876495],
        [-0.063977408750905, 51.40163692937553],
        [-0.064639566995218, 51.40171980969554],
        [-0.064585255972057, 51.40184840823147],
        [-0.064499516643917, 51.402040336136146],
        [-0.066231617305235, 51.40252576480981],
        [-0.06640753575258, 51.40258172499619],
        [-0.068131410369922, 51.40343389341127],
        [-0.068242566703463, 51.40349148091427],
        [-0.068204339856305, 51.40351153402939],
        [-0.068139455926426, 51.40355003241689],
        [-0.068740870384453, 51.40398350400513],
        [-0.068942690535995, 51.40417567757154],
        [-0.068980709559494, 51.40453601366189],
        [-0.068975525054959, 51.40462495634225],
        [-0.069770416501173, 51.4057567491292],
        [-0.070209509314065, 51.4062558836844],
        [-0.072856567791295, 51.40847928393153],
        [-0.073038310125606, 51.40873946463714],
        [-0.073525265162799, 51.41008558874878],
        [-0.073543509876872, 51.41047257588797],
        [-0.073512593103558, 51.41083177665048],
        [-0.073490102872177, 51.41105892286373],
        [-0.072907929961001, 51.4123532958226],
        [-0.072757011861676, 51.41269343674632],
        [-0.073341633403715, 51.41281186167623],
        [-0.073657146091831, 51.412866508434696],
        [-0.074456099359759, 51.4132231607444],
        [-0.075176211429724, 51.41353984389168],
        [-0.075044309548745, 51.413633000180006],
        [-0.075032435359346, 51.41364179785424],
        [-0.076423047733333, 51.41439573975],
        [-0.076527734329065, 51.41443702598774],
        [-0.076756001352018, 51.414377823332366],
        [-0.076878650142708, 51.41440231787409],
        [-0.077955755926406, 51.41488311320253],
        [-0.078102993589551, 51.41493858495319],
        [-0.080415978727967, 51.4155448335424],
        [-0.080475473264749, 51.415566491269914],
        [-0.080498757841248, 51.415697266952215],
        [-0.080762955199188, 51.41601633880167],
        [-0.080972405825325, 51.41695590970564],
        [-0.08095299042358, 51.41707609406543],
        [-0.081111976385106, 51.41719470328176],
        [-0.081089950262978, 51.417308550016195],
        [-0.079658422684572, 51.41883094820394],
        [-0.079542405300106, 51.418956743543696],
        [-0.078529030415795, 51.419731491440416],
        [-0.078456078381342, 51.419790546479916],
        [-0.078548602385852, 51.41984781824731],
        [-0.078589454521492, 51.41986827197314],
        [-0.078404200134034, 51.420410192632325],
        [-0.078335912830559, 51.42056374749722],
        [-0.07479716637197, 51.425847337279215],
        [-0.074773524748171, 51.42586223652462],
        [-0.073812665596042, 51.42616928698174],
        [-0.073651669257891, 51.4262008132052],
        [-0.071926997223457, 51.42630194848337],
        [-0.071550793204292, 51.42628586701769],
        [-0.070659594935053, 51.42620195592501],
        [-0.07061397417687, 51.42619221221305],
        [-0.069229027976309, 51.42574135193217],
        [-0.068881850796808, 51.425616928250875],
        [-0.068787412690952, 51.425912131593506],
        [-0.068690339881783, 51.425996862028995],
        [-0.068244082802927, 51.42597062281502],
        [-0.06791509505044, 51.42592653119842],
        [-0.067934653932911, 51.42590617039343],
        [-0.068006987819042, 51.4258282269406],
        [-0.066742904354937, 51.42534335846244],
        [-0.066062533129428, 51.4250704455962],
        [-0.065841625177573, 51.42532848814762],
        [-0.06466257768452, 51.425078810899734],
        [-0.064604288228059, 51.42506256072992],
        [-0.064531998712185, 51.425071258937066],
        [-0.064429104595692, 51.42532765062902],
        [-0.062618858264034, 51.42517364084233],
        [-0.062603457647357, 51.425197666600326],
        [-0.061638061603552, 51.42486246245808],
        [-0.061445309624315, 51.42479452680309],
        [-0.061574100077403, 51.42467435600958],
        [-0.061493224627593, 51.42451204864814],
        [-0.061423141229244, 51.42446862364607],
        [-0.058121846435749, 51.42318196759527],
        [-0.058125102116895, 51.42317302881298],
        [-0.057014286846702, 51.42301253317028],
        [-0.056788745934581, 51.42297192360017],
        [-0.055792044872394, 51.42307139966306],
        [-0.055154730703449, 51.42293852433332],
        [-0.054788331552927, 51.42370851612444],
        [-0.054780343263509, 51.42372726826968],
        [-0.051865027949686, 51.423584420887295],
        [-0.051809046581805, 51.423581691773244],
        [-0.051762077755865, 51.42269063035206],
        [-0.051773765786785, 51.42251726487201],
        [-0.048747028041003, 51.42283111668885],
        [-0.048553657094496, 51.422845882514814],
        [-0.046890870150817, 51.4228127880846],
        [-0.04601540866457, 51.422800892934546],
        [-0.046017018548967, 51.42276315026293],
        [-0.046018686055549, 51.42262289130158],
        [-0.046265832681981, 51.42262881017222],
        [-0.046288522329491, 51.42236660037603],
        [-0.044429496102765, 51.42275285827451],
        [-0.043690825429281, 51.422905996837294],
        [-0.04382544513495, 51.42315554433769],
        [-0.043319409851718, 51.423283786568845],
        [-0.043015102183781, 51.423403704717465],
        [-0.042836669597937, 51.42323705713976],
        [-0.041607702891888, 51.42365447399285],
        [-0.041712442078698, 51.42382888485668],
        [-0.041192474775685, 51.4241817037989],
        [-0.04106889030153, 51.424246184501214],
        [-0.040711010438334, 51.424306748422225],
        [-0.040315650622647, 51.42430193678546],
        [-0.038617314202088, 51.42398935556291],
        [-0.038476244858287, 51.423958217795295],
        [-0.037757625220189, 51.424716866725355],
        [-0.037485443106658, 51.42499288304289],
        [-0.034261733905644, 51.42509712948661],
        [-0.034227043193788, 51.42510104400051],
        [-0.034238244476016, 51.42477299642405],
        [-0.034239015761835, 51.42475502385593],
        [-0.032367164481294, 51.42469843272386],
        [-0.031820026767481, 51.42471082819812],
        [-0.03194258769058, 51.42527313500176],
        [-0.03199743497136, 51.42553664443458],
        [-0.030299181489837, 51.42569066802417],
        [-0.030241954911785, 51.425683411304654],
        [-0.027895209175973, 51.42469521001344],
        [-0.02784369513544, 51.4246889475126],
        [-0.027794479163488, 51.42449567424504],
        [-0.027792107363007, 51.42448394374365],
        [-0.026015268125354, 51.42362489676682],
        [-0.025999766974468, 51.42361744146371],
        [-0.025818987360034, 51.42374029506515],
        [-0.025796768544817, 51.423755208485964],
        [-0.025598154532438, 51.423557618920384],
        [-0.025488283149145, 51.42347033661261],
        [-0.024770169581124, 51.42327838042544],
        [-0.024427408587465, 51.42315479778755],
        [-0.023926604446425, 51.42286038468686],
        [-0.023706525826148, 51.422727177819006],
        [-0.022718237551734, 51.42169702282587],
        [-0.022606081197969, 51.421562936769654],
        [-0.022355922809524, 51.42169360721219],
        [-0.02226324139509, 51.42177477668324],
        [-0.021324199165605, 51.42117079867535],
        [-0.0209477811904, 51.4209279327899],
        [-0.021633261211016, 51.42047547937815],
        [-0.021674707329551, 51.420448301433005],
        [-0.021039818634513, 51.42009585683429],
        [-0.020777576161846, 51.41994034961376],
        [-0.021088241950212, 51.41960746756153],
        [-0.021192844529855, 51.41948333497707],
        [-0.021308644016717, 51.41860040107273],
        [-0.021384341915918, 51.41841283084411],
        [-0.021972278831821, 51.41785351312351],
        [-0.022555284547429, 51.417541410636034],
        [-0.021736244991213, 51.417291077489175],
        [-0.022185499311236, 51.41674560456046],
        [-0.021040388164567, 51.41605361302835],
        [-0.021040425867565, 51.41601944110053],
        [-0.020261314705902, 51.41597750487112],
        [-0.017846701416145, 51.41574334379912],
        [-0.017981850128049, 51.415079264305994],
        [-0.017987171987809, 51.415055973073734],
        [-0.014426153405185, 51.415093712572926],
        [-0.014152601758016, 51.41510076796449],
        [-0.014152021462267, 51.41508097399353],
        [-0.014152387461368, 51.4149397933955],
        [-0.014309690762047, 51.41492717118287],
        [-0.014558840211568, 51.413923300855686],
        [-0.014265581431335, 51.41378793647783],
        [-0.014262605601735, 51.41365749057641],
        [-0.011845525128427, 51.41354996134708],
        [-0.010545436113422, 51.41355127844049],
        [-0.00924294577773, 51.413872683899065],
        [-0.008704892222161, 51.41427451310904],
        [-0.008485975978656, 51.41434813103962],
        [-0.007584901294492, 51.414499181198615],
        [-0.006627306392414, 51.414660054413204],
        [-0.006681799441733, 51.41549011738047],
        [-0.006565058958578, 51.4159917283048],
        [-0.005999446847155, 51.41603426382602],
        [-0.005534131268464, 51.41578803623334],
        [-0.00551150301722, 51.415481895933496],
        [-0.005020389473783, 51.414672277815995],
        [-0.00499377148073, 51.414589990178946],
        [-0.003283929315198, 51.4150500776467],
        [-0.003492642216019, 51.4153099285172],
        [-0.003598278745557, 51.41555903023634],
        [-0.003426968060398, 51.41562895337623],
        [-0.003404002111493, 51.415660936182114],
        [-0.000852240200826, 51.4159025045336],
        [-0.000754008063325, 51.415912519366834],
        [-0.000857646382815, 51.41607525860698],
        [-0.000875074075722, 51.416104332882874],
        [-0.000347129312726, 51.41633813117198],
        [-0.000303032962586, 51.41645878158641],
        [-0.000199086217435, 51.417489381704925],
        [-0.000188320216751, 51.41750538503225],
        [0.001076490296516, 51.4182769598632],
        [0.001728789275568, 51.41855808589077],
        [0.003213617831285, 51.41758397303366],
        [0.003493423464789, 51.41740472928614],
        [0.005557163518899, 51.41845396180828],
        [0.005672016363697, 51.41851494585913],
        [0.005467360401396, 51.41866952748585],
        [0.005328785899275, 51.41898664710374],
        [0.005514963870921, 51.4191327417547],
        [0.005228127257635, 51.41931570769769],
        [0.005725038624826, 51.41992321143288],
        [0.005843869142909, 51.420074954601425],
        [0.006124165728091, 51.42076080431361],
        [0.006297829099073, 51.42101502564653],
        [0.00673591531954, 51.42093558247936],
        [0.006870855634656, 51.42119226460591],
        [0.006722680209, 51.42122447821005],
        [0.006786232449, 51.42136187919353],
        [0.006848150989933, 51.42149481171479],
        [0.006970613946624, 51.42146663541872],
        [0.007349381842211, 51.4213792130074],
        [0.00784038307079, 51.422474219246105],
        [0.008076757278611, 51.4230430110518],
        [0.008928189964355, 51.422844066467],
        [0.009966710766789, 51.42248363364718],
        [0.01014786069246, 51.42267836843928],
        [0.010690198035856, 51.42326978449054],
        [0.011261786830069, 51.423609796698344],
        [0.011618232913254, 51.42370170055457],
        [0.011813409095656, 51.424051767649715],
        [0.012226294519602, 51.42418406773004],
        [0.013344852268406, 51.42469543271533],
        [0.013513036697229, 51.42508552909355],
        [0.014395507962919, 51.425232234859706],
        [0.014260573004984, 51.42563113700703],
        [0.014107561810633, 51.42617513384058],
        [0.015673684021797, 51.42616619414664],
        [0.016048106891463, 51.42620831501753],
        [0.017215207470598, 51.42677456383962],
        [0.017435740910838, 51.42684990453245],
        [0.018587809100742, 51.427009024163006],
        [0.0187752173731, 51.42705076019715],
        [0.021042453771086, 51.42682553288259],
        [0.021135320882028, 51.42684371556818],
        [0.023707266441396, 51.42820850733799],
        [0.023718114723887, 51.42825867979717],
        [0.025339894017642, 51.42895368726196],
        [0.025410522440443, 51.42898933725488],
        [0.026909464941425, 51.42824040038637],
        [0.027214154128141, 51.42807146111102],
        [0.029948124310379, 51.426075393111404],
        [0.030084567298866, 51.425973209307536],
        [0.033517452780584, 51.42423832898829],
        [0.033764158195975, 51.424092860444425],
        [0.034960652882142, 51.42311525257774],
        [0.036185926298307, 51.42236555017452],
        [0.038824565737747, 51.42467490030556],
        [0.03902866722637, 51.42467134937926],
        [0.038943101522036, 51.42607751979797],
        [0.038940866787627, 51.426091947220954],
        [0.038826833855835, 51.42608313967644],
        [0.038819299909407, 51.42623704829785],
        [0.038772686691683, 51.42651483865043],
        [0.038662087468279, 51.42651856118017],
        [0.038613256115707, 51.42652030989123],
        [0.038436663394889, 51.42717446304925],
        [0.038463844966837, 51.427591257923446],
        [0.037875937399778, 51.42760148220756],
        [0.037857250845518, 51.42760180713649],
        [0.037835978926385, 51.42777034305404],
        [0.037831108801487, 51.42779021197549],
        [0.038266066725753, 51.42799577832071],
        [0.038332231202404, 51.42802790108139],
        [0.03827594506758, 51.42879956603803],
        [0.03829788061445, 51.429001523329845],
        [0.037612608197069, 51.431188805712424],
        [0.037521813925217, 51.43137923364987],
        [0.037627242282167, 51.432907980393516],
        [0.037698549269346, 51.43334648998033],
        [0.034646033611318, 51.43209376338898],
        [0.033700562277274, 51.43169920106386],
        [0.033223711232306, 51.432235353328835],
        [0.032451751948382, 51.43189262697725],
        [0.032218493474211, 51.43211519741295],
        [0.032158978665787, 51.43236263270608],
        [0.031587725895681, 51.43255509053101],
        [0.031350265309326, 51.432293918203996],
        [0.031147622615949, 51.432104084576395],
        [0.031046904320313, 51.43220115392847],
        [0.031381629994935, 51.4325793463179],
        [0.029107893315939, 51.433767116165534],
        [0.028584361389816, 51.434030675454416],
        [0.029033459688884, 51.4343601321279],
        [0.029065727584769, 51.434666228531675],
        [0.02867788458605, 51.436401361214934],
        [0.028674009413287, 51.436411320383336],
        [0.027653093635137, 51.43655578523513],
        [0.027240309517575, 51.43655932850521],
        [0.026271559026902, 51.43619208737075],
        [0.025744720946862, 51.43599166176981],
        [0.025500245522435, 51.43573419618092],
        [0.025375974616692, 51.435689581106445],
        [0.02493026587575, 51.43709566407613],
        [0.024889345210356, 51.437211478972266],
        [0.0247628162075, 51.438157010248396],
        [0.024790834995986, 51.43823746147356],
        [0.028689188399029, 51.43876717426747],
        [0.02881375385598, 51.438785701631225],
        [0.028865857861439, 51.439214656034466],
        [0.028875901554685, 51.4393763527485],
        [0.028571017028955, 51.44019188192075],
        [0.028576852829597, 51.44045347162209],
        [0.029085771495889, 51.441384410921785],
        [0.029082604974153, 51.44147529308746],
        [0.029359008045479, 51.441705220093446],
        [0.029576442611495, 51.44174102363608],
        [0.029978330427427, 51.44327543104466],
        [0.030324892039109, 51.44430809749007],
        [0.030500721568038, 51.444314044509184],
        [0.030585760429944, 51.44431706774162],
        [0.033377212169682, 51.443596912947676],
        [0.033470518156888, 51.44359169713383],
        [0.035488995734803, 51.44248022232505],
        [0.035543595239915, 51.44244600072859],
        [0.039748519904948, 51.44099609987931],
        [0.039814260419542, 51.440985962986296],
        [0.041401294611787, 51.43995023736006],
        [0.041953568832372, 51.4396537460737],
        [0.043225340032919, 51.43787528358858],
        [0.043311620829711, 51.437745181989776],
        [0.044884582973883, 51.43678519256947],
        [0.045182907573577, 51.43660282849855],
        [0.04514815837504, 51.43640469323513],
        [0.045147078454523, 51.43621945970593],
        [0.047104174791518, 51.434392121499634],
        [0.047784917082394, 51.43375342851171],
        [0.050148223740294, 51.432134767511954],
        [0.051049086481592, 51.43152997409723],
        [0.054711296851312, 51.42766814406644],
        [0.054827026616449, 51.42752222928722],
        [0.055985201735748, 51.42650011240729],
        [0.056391304567266, 51.42615755360271],
        [0.058199762060824, 51.42488299310245],
        [0.058596597155385, 51.42459094918601],
        [0.060644449195271, 51.42505945890229],
        [0.060899947673142, 51.42507924686455],
        [0.061337517090654, 51.424062551202454],
        [0.061708273271992, 51.42373498375735],
        [0.062940584215118, 51.42410898415446],
        [0.063202312196572, 51.42420329825303],
        [0.064004022535459, 51.42478900582819],
        [0.064437224787654, 51.42504936307718],
        [0.064196991908472, 51.42536834523261],
        [0.064194198232791, 51.425370193013684],
        [0.064778973390204, 51.42551456899035],
        [0.064714558375614, 51.42561732333143],
        [0.066579522338756, 51.426015210279424],
        [0.066404183618907, 51.42633754906762],
        [0.066935082993663, 51.426722074769735],
        [0.071636595228794, 51.42943494655092],
        [0.071942833526664, 51.42965345553354],
        [0.072237708918061, 51.429938711926305],
        [0.073471425543411, 51.43125952783687],
        [0.073035153924188, 51.43137875717998],
        [0.073327823296027, 51.431773762967076],
        [0.07430479268678, 51.43149028650668],
        [0.074835988369008, 51.43083069857563],
        [0.075182198145522, 51.431613244292635],
        [0.075343176131053, 51.43199079254366],
        [0.080516241766513, 51.430777661642864],
        [0.080711740169326, 51.43077419095195],
        [0.082606470559329, 51.43020545993929],
        [0.082906193902088, 51.43005804577701],
        [0.083464500011888, 51.42968121189506],
        [0.083663684180468, 51.42950590650026],
        [0.086934636721922, 51.425928784734225],
        [0.087250190401866, 51.42562460071064],
        [0.089810907541403, 51.423548367046216],
        [0.090064125751094, 51.423328920735884],
        [0.092873545996661, 51.42147570253723],
        [0.092973082114171, 51.42138759289699],
        [0.094858176632627, 51.420242385454344],
        [0.09566016380554, 51.419789191747626],
        [0.101089046296755, 51.41695093579573],
        [0.102275357721163, 51.41638198974235],
        [0.10311601755158, 51.4158030482081],
        [0.103231493639312, 51.41571824065714],
        [0.107010281123077, 51.414357171614085],
        [0.107005694715334, 51.414257432433196],
        [0.108870701848859, 51.413783228883005],
        [0.109536938013886, 51.41363544335354],
        [0.111764221207168, 51.41331564463294],
        [0.112074788555026, 51.41328306843884],
        [0.112333738109791, 51.413222644479944],
        [0.112493954667356, 51.41317299288359],
        [0.112559006129024, 51.41302433574375],
        [0.113098950999453, 51.41291387906416],
        [0.113478152998462, 51.41305992043319],
        [0.113560484581322, 51.41309890372617],
        [0.119070462272933, 51.41329885593185],
        [0.119489824524372, 51.413348826342194],
        [0.121785996429941, 51.413773106882395],
        [0.122015650877203, 51.41382560391565],
        [0.125339018561883, 51.41475280091969],
        [0.125402474381552, 51.41478762183605],
        [0.12631851379379, 51.414724239762634],
        [0.126626243286702, 51.41463052430101],
        [0.127255812208749, 51.414932951466575],
        [0.127370582691536, 51.414957846795474],
        [0.129030566976004, 51.414903417443455],
        [0.129778121504417, 51.414804399586025],
        [0.132140034274871, 51.414412519872634],
        [0.132436322441777, 51.414351371932284],
        [0.134136036818793, 51.413853692546766],
        [0.134319849351428, 51.413817070667186],
        [0.138853021689116, 51.41172628104542],
        [0.139139708090709, 51.41161403118614],
        [0.145544673426123, 51.409460914043535],
        [0.145538175662078, 51.40941426943545],
        [0.148803153111972, 51.40850999676851],
        [0.14887668323318, 51.40848346788412],
        [0.148742887618593, 51.408267391564465],
        [0.148666043017941, 51.40813120778871],
        [0.149666470210755, 51.407693783985636],
        [0.150107902109116, 51.40744826916484],
        [0.151027540699244, 51.40666878304145],
        [0.151073769912015, 51.406642753930306],
        [0.151972762996938, 51.40634296654486],
        [0.152029765145674, 51.40633202730827],
        [0.152683272586072, 51.40634700176323],
        [0.152796307500939, 51.406273880215146],
        [0.152734332613743, 51.406056488703555],
        [0.153187953069422, 51.40561199248316],
        [0.153970887954994, 51.40516863536561],
        [0.15427342806905, 51.404936449279894],
        [0.155122258099558, 51.404029631628916],
        [0.155223072469858, 51.40397202055577],
        [0.155115033949256, 51.40387598390959],
        [0.154940957061606, 51.40365975602134],
        [0.155275551034855, 51.40358975128512],
        [0.15548769806952, 51.40357595636972],
        [0.156189741830451, 51.40269791052749],
        [0.156408767399472, 51.40249423458873],
        [0.157071773015858, 51.40139837110964],
        [0.157196020279067, 51.401136185210675],
        [0.157637880359767, 51.39958844309151],
        [0.157760340596321, 51.39922736608182],
        [0.157691861298904, 51.39841385893254],
        [0.157702326285415, 51.39814747257132],
        [0.15887874700589, 51.3959584807209],
        [0.158954228736471, 51.39582129501713],
        [0.160256944230905, 51.39427116393792],
        [0.16045998328928, 51.39403450030998],
        [0.162159438015871, 51.39263890488208],
        [0.162357995268788, 51.39249045231658],
        [0.158984434374669, 51.39228018032212],
        [0.158247993985697, 51.39223979102945],
        [0.148036736342079, 51.3927700901627],
        [0.147714761902073, 51.39280117343931],
        [0.147678047670622, 51.392354893241816],
        [0.147507764929521, 51.39215657095027],
        [0.147960608894664, 51.3918200240174],
        [0.14859767711116, 51.391365885406906],
        [0.149705410847329, 51.39095616674364],
        [0.149809290868973, 51.39087242404292],
        [0.149458313687901, 51.38997776254387],
        [0.149403247656589, 51.38987625230857],
        [0.1486363051498, 51.38881565374607],
        [0.148627965217437, 51.38866832102567],
        [0.149390438981098, 51.387854854185534],
        [0.14887556471733, 51.38757202586999],
        [0.149317725490814, 51.38713134987762],
        [0.149679922711177, 51.38670203178403],
        [0.15025032605502, 51.38636062013048],
        [0.150270939780808, 51.386340457100275],
        [0.150430460260666, 51.386033564482474],
        [0.150432616132883, 51.38601823674974],
        [0.15032844099951, 51.38585018058242],
        [0.149965806850044, 51.38584064876298],
        [0.149863240971294, 51.385338921060836],
        [0.149773723554895, 51.384870228032746],
        [0.149785647164536, 51.383836709345196],
        [0.149760625161234, 51.38367079732908],
        [0.150037434138875, 51.38359737029859],
        [0.15043998077213, 51.38344699235893],
        [0.150435397650209, 51.38224560644566],
        [0.150424070019843, 51.38163608624052],
        [0.150265376319362, 51.38153108271963],
        [0.150263687733247, 51.38152571788958],
        [0.150346853957929, 51.38109252534807],
        [0.149582172554892, 51.38108947257143],
        [0.149629243184324, 51.38031520731055],
        [0.14958704481817, 51.380089356992904],
        [0.150218407121347, 51.37994647157879],
        [0.151107020945027, 51.37989598405789],
        [0.151090916708315, 51.37964447453662],
        [0.150948285222585, 51.37908502824848],
        [0.151630986996261, 51.378872845245375],
        [0.152326559745478, 51.378690098786585],
        [0.152163375468006, 51.37833607292772],
        [0.153003615726999, 51.37811289364175],
        [0.153209822499455, 51.378036259855904],
        [0.152722430991698, 51.376805975337625],
        [0.152611432917587, 51.37658408813901],
        [0.152571496998251, 51.37539594063634],
        [0.152510536270465, 51.375229790059976],
        [0.151926202195675, 51.37536283144761],
        [0.151709786727243, 51.37543605336637],
        [0.149754022948966, 51.3738082473297],
        [0.149573883913958, 51.373582230323045],
        [0.15080729521935, 51.372920184063034],
        [0.15076994209592, 51.372797665077854],
        [0.150750248761517, 51.37259208574552],
        [0.150958871588925, 51.3722609079394],
        [0.151179538112501, 51.3721867099098],
        [0.150100214883027, 51.37015700901551],
        [0.15084463898159, 51.36997697081233],
        [0.152031035079711, 51.369693482305024],
        [0.151502414359076, 51.36828588686849],
        [0.151494984302862, 51.36828062750582],
        [0.150998393861188, 51.36832212269247],
        [0.150972976575608, 51.36833158249814],
        [0.149492219285447, 51.36910878555843],
        [0.149411401471977, 51.36916242830083],
        [0.148937714429713, 51.368496640195595],
        [0.14884983292148, 51.368123241964604],
        [0.147253489057725, 51.367013995382216],
        [0.147220017983533, 51.36697414020457],
        [0.147768488007301, 51.36669069578063],
        [0.148321010596283, 51.36637120216899],
        [0.145190467384389, 51.36301841009471],
        [0.145021735501409, 51.36285063211419],
        [0.145233869784563, 51.362656094213214],
        [0.145364603225725, 51.36250261635289],
        [0.144507613450369, 51.36122420872111],
        [0.144493571020988, 51.36116960815543],
        [0.144515221580839, 51.360710565659595],
        [0.144524806511312, 51.36070049780004],
        [0.145342427365538, 51.36033749340768],
        [0.145362520479802, 51.36033712537468],
        [0.144841842705342, 51.358508479085195],
        [0.144821178646434, 51.35843511436147],
        [0.145347948343925, 51.35833463695148],
        [0.145868513083925, 51.35822437846298],
        [0.145253431083974, 51.35618882386026],
        [0.145087070030394, 51.355763800794804],
        [0.14484013246074, 51.35552011445886],
        [0.144259985628759, 51.35490751746398],
        [0.144025157375565, 51.354861455242734],
        [0.144019417165192, 51.35486156032193],
        [0.14373960981849, 51.353298290877156],
        [0.143604421861674, 51.35301748352676],
        [0.143113266691111, 51.353048954538465],
        [0.142918778223343, 51.3527899155616],
        [0.142849475102323, 51.35265898543655],
        [0.142746070029848, 51.35130472229455],
        [0.142757532110292, 51.351088678876984],
        [0.142593426165306, 51.35074185068641],
        [0.142593090795304, 51.35073466236431],
        [0.14258431356088, 51.35073122570768],
        [0.140957153710916, 51.350145855851906],
        [0.141260296717571, 51.349778792456455],
        [0.141253164472736, 51.34953341200251],
        [0.140117186169131, 51.34900919540631],
        [0.139938291261125, 51.34889915157523],
        [0.139228452984793, 51.34815040635955],
        [0.138686630858539, 51.34752449183228],
        [0.138619703397511, 51.34741330060577],
        [0.139465992046308, 51.34729981922025],
        [0.139413870451986, 51.34698241659805],
        [0.138268518423825, 51.3470878686523],
        [0.138241089612429, 51.34708477220934],
        [0.138191202325336, 51.34669178649632],
        [0.137534652890978, 51.346407899348854],
        [0.137521196136795, 51.34639645396285],
        [0.137462973706941, 51.346071068109346],
        [0.137471164271049, 51.34606192555147],
        [0.137169354141663, 51.34587138457587],
        [0.136519302055671, 51.34591202309777],
        [0.136172920979612, 51.3459363277478],
        [0.136218360534413, 51.34558566848918],
        [0.136226467687175, 51.345574728926174],
        [0.137062493708378, 51.34484003061951],
        [0.137073093783431, 51.34482095173881],
        [0.13699028794085, 51.34427568391217],
        [0.136931002960442, 51.3441742446504],
        [0.134502037915245, 51.34492989195527],
        [0.134399904880807, 51.344956933968234],
        [0.132151120201878, 51.34541967123942],
        [0.131750185027339, 51.345506108834286],
        [0.131642330139499, 51.34519331471735],
        [0.125316622612998, 51.34583977000943],
        [0.125185786139967, 51.34586732481314],
        [0.123674330833789, 51.34541541228998],
        [0.123568949853773, 51.34537235787046],
        [0.123505675995469, 51.34533933155089],
        [0.123521781537211, 51.34512860204748],
        [0.122642687588143, 51.34481179547757],
        [0.122211919691924, 51.34465682787759],
        [0.120590457860385, 51.3443399664356],
        [0.11994271525904, 51.34424377673598],
        [0.118581194202554, 51.34420726168936],
        [0.118429080134682, 51.34414706197141],
        [0.117664320477846, 51.3434747232618],
        [0.117570001640951, 51.343484522457274],
        [0.11756363422446, 51.34328409258357],
        [0.117559337903986, 51.343128590505394],
        [0.117393532689529, 51.34314507793953],
        [0.117204813367726, 51.3431628786929],
        [0.116654625520832, 51.34147493604623],
        [0.116653849993388, 51.34130228348255],
        [0.116977001770543, 51.34055631425428],
        [0.11725569723475, 51.339780571342544],
        [0.117497347215623, 51.33982116752417],
        [0.118443742409214, 51.33998121486118],
        [0.118986932478409, 51.3386835819221],
        [0.118271963144988, 51.338404242159015],
        [0.119363243545421, 51.33604090642856],
        [0.119553100600338, 51.33542594205006],
        [0.119775510853314, 51.3352366592299],
        [0.119983699981526, 51.3347391713244],
        [0.121582413553939, 51.33376234923217],
        [0.121656974146457, 51.33363599474874],
        [0.120483534041177, 51.332410809816054],
        [0.120218232774058, 51.33213682845271],
        [0.117915394900338, 51.33066856433689],
        [0.117864391939352, 51.3306209242118],
        [0.117761912762975, 51.330390756448644],
        [0.117756849653281, 51.330343184758206],
        [0.117864564741752, 51.32969013858909],
        [0.117876231162417, 51.329662948386435],
        [0.117335291970208, 51.32948117820182],
        [0.116972807737713, 51.32971435714528],
        [0.116614319836763, 51.33000321971054],
        [0.115715817255887, 51.32950685208274],
        [0.115153206263358, 51.328822751060166],
        [0.11418332005661, 51.327397778176824],
        [0.110364399698441, 51.328038624072875],
        [0.110125984717917, 51.32803572609265],
        [0.109799364718914, 51.32714320453612],
        [0.109730918773507, 51.32668399297021],
        [0.107343182379993, 51.327451828383154],
        [0.107210102430314, 51.32752346979064],
        [0.106816729748386, 51.32742802705549],
        [0.106533231938811, 51.327380967602004],
        [0.105046393506933, 51.327449073428284],
        [0.104873909189795, 51.32741260454295],
        [0.103551970383214, 51.32625377251315],
        [0.103212885577524, 51.32599546754104],
        [0.102523652387133, 51.32598985881775],
        [0.102118594357687, 51.325983641454904],
        [0.101157981010386, 51.325693319850664],
        [0.100764061152105, 51.32558527646892],
        [0.100773418212799, 51.32531891425231],
        [0.100751694080245, 51.32525185609587],
        [0.100266606938747, 51.32421646424523],
        [0.100148052781594, 51.324072003829095],
        [0.096495666687642, 51.32153306572228],
        [0.09615173974449, 51.32129281338422],
        [0.092856893970143, 51.31985170892765],
        [0.092748855067224, 51.319811372575636],
        [0.088208537099402, 51.31849671099957],
        [0.087756708928468, 51.318312316830585],
        [0.087130347619639, 51.31753928969063],
        [0.086793158612348, 51.31719277216211],
        [0.085358118014525, 51.316212916285984],
        [0.085000797783722, 51.316023231193135],
        [0.085066606160464, 51.31563895559418],
        [0.085099152847072, 51.3155655323435],
        [0.085473490604451, 51.3149914043713],
        [0.085613360998977, 51.314784770870986],
        [0.085060612137071, 51.313386303986334],
        [0.085009286687596, 51.31320375976907],
        [0.085049730127804, 51.31267155035308],
        [0.085042128805372, 51.31259884201207],
        [0.084962258904113, 51.31238802830714],
        [0.084920930770055, 51.3122044067051],
        [0.084493642471252, 51.31183160851655],
        [0.084423738778749, 51.31174562041315],
        [0.084107635435494, 51.311071372827],
        [0.084090284797502, 51.31100513309032],
        [0.083565634229375, 51.31066823814453],
        [0.083543512767809, 51.31052834021142],
        [0.083730827983421, 51.31041888875041],
        [0.084318130682494, 51.30884544256877],
        [0.084394442381076, 51.30869300072964],
        [0.084712716928127, 51.308370778612776],
        [0.084720219224369, 51.30834636378167],
        [0.084061059268342, 51.30808021324603],
        [0.084057540543639, 51.308065886991606],
        [0.084604073715245, 51.30717663659014],
        [0.084640997849069, 51.30710493401268],
        [0.084670689392973, 51.30681033238734],
        [0.084849800695137, 51.30604543110901],
        [0.082853640619292, 51.30565558810362],
        [0.082788112638873, 51.305634271185255],
        [0.083161272170554, 51.305003514125424],
        [0.083342534039297, 51.30479254920676],
        [0.085114779252527, 51.3029336098277],
        [0.085404486188281, 51.30252016479376],
        [0.085879398441532, 51.301730207242464],
        [0.085985388720047, 51.301568242260075],
        [0.086184304943217, 51.30035513044021],
        [0.086248096695241, 51.30024337897051],
        [0.089875785685442, 51.29752032538856],
        [0.091156884379274, 51.29682836425675],
        [0.089372386962152, 51.29616416156228],
        [0.089234069123882, 51.2960874909663],
        [0.087291566779961, 51.294626591984645],
        [0.087066992023479, 51.294482210054646],
        [0.087064832105768, 51.294434585254166],
        [0.086970451885263, 51.294029780709614],
        [0.086089146144683, 51.293383597828104],
        [0.085959041620764, 51.29326630821361],
        [0.084946294562325, 51.292884157348716],
        [0.083886427848752, 51.29266471192654],
        [0.083405302583297, 51.29236571211338],
        [0.083255509662501, 51.292256863687875],
        [0.081914431940662, 51.292066685722816],
        [0.081889783821485, 51.29206082890732],
        [0.081552620870223, 51.29183660173244],
        [0.081499025540348, 51.29182496438494],
        [0.079938644314877, 51.29166923941629],
        [0.079858603299016, 51.29164368226427],
        [0.077288979003176, 51.29178463335415],
        [0.077011191746411, 51.29179495801711],
        [0.07370375570521, 51.29163685881545],
        [0.073340943183762, 51.291606413447],
        [0.070764326547044, 51.29105038274561],
        [0.070808830110243, 51.2909875434067],
        [0.070477920872854, 51.29102846934382],
        [0.070275224839858, 51.29105004021364],
        [0.067541092357152, 51.29052999870696],
        [0.067535986145483, 51.290384401350266],
        [0.065750471783215, 51.290323293467495],
        [0.065721607889025, 51.29031930626497],
        [0.064213765143626, 51.28989355276013],
        [0.064164717343976, 51.2898872231565],
        [0.062784335700986, 51.28993673497854],
        [0.06254446031511, 51.28996074619051],
        [0.058629566938776, 51.289364169731],
        [0.058482869446651, 51.28935505837076],
        [0.057973680093185, 51.289739020861234],
        [0.05792716443044, 51.28978930033143],
        [0.057531150233729, 51.29058764926679],
        [0.057509545822342, 51.29061770602443],
        [0.056090478082514, 51.29227397597825],
        [0.056022805276446, 51.292396570554025],
        [0.054731444688139, 51.29212876765592],
        [0.054362545435105, 51.29209027658051],
        [0.051495427114542, 51.29344274586508],
        [0.051465970360835, 51.293457650903356],
        [0.050795075397144, 51.29398110885563],
        [0.050762391197597, 51.29398797651939],
        [0.048510148444972, 51.2937234434484],
        [0.04846854467671, 51.29372327212075],
        [0.045984628026492, 51.294022110391396],
        [0.045704186536165, 51.2940054278898],
        [0.045489745098604, 51.29392464039037],
        [0.045327610901515, 51.293794376324016],
        [0.045066656711127, 51.293312412387685],
        [0.044739693364676, 51.2930879020542],
        [0.04346767586014, 51.29273780076217],
        [0.043406922576324, 51.29272627096089],
        [0.042429190922574, 51.292672287803796],
        [0.042369036141985, 51.29267423656018],
        [0.043169132212821, 51.29619003705791],
        [0.043285547532086, 51.29658279890838],
        [0.044041413834176, 51.298195542359515],
        [0.043948966479548, 51.298245718677656],
        [0.044161524561343, 51.29841287492],
        [0.044270880228904, 51.29858183285305],
        [0.04318401247876, 51.29901268586048],
        [0.043065402164084, 51.29905522432932],
        [0.042846078908874, 51.30070657181176],
        [0.042775266808229, 51.30098569148237],
        [0.042384626132803, 51.30171914211709],
        [0.042276055198071, 51.301923378796936],
        [0.041482795731213, 51.30292734376572],
        [0.04151529234695, 51.3029807351844],
        [0.040991486534089, 51.30278302837023],
        [0.040889783040429, 51.30272185020768],
        [0.040397944374909, 51.3032124479287],
        [0.040226680528517, 51.30332964366641],
        [0.040170372892237, 51.30328925702879],
        [0.040090331780463, 51.303231297901284],
        [0.039402119597218, 51.303564338080626],
        [0.038798517322078, 51.303929174920725],
        [0.036637356200763, 51.30553696639892],
        [0.036586902702927, 51.30549917412071],
        [0.036375356984939, 51.30567911643509],
        [0.036505693822285, 51.30573890116161],
        [0.036308923700543, 51.305863729044425],
        [0.033214595495231, 51.30736537673428],
        [0.032881447388683, 51.307521344468704],
        [0.032333896493003, 51.306981378202],
        [0.03120389678021, 51.30647489712468],
        [0.031116732592723, 51.306417954793886],
        [0.030358597962161, 51.30562443277234],
        [0.030253836423534, 51.305558801973376],
        [0.029434122580301, 51.30538505965581],
        [0.029353965641237, 51.30535677214168],
        [0.028066325195083, 51.30475496972457],
        [0.027949941684394, 51.30468594100226],
        [0.025204300637486, 51.30251039845202],
        [0.024811383980705, 51.30215567609114],
        [0.023688296230504, 51.299877384632204],
        [0.023571687108521, 51.29970493611527],
        [0.021171423968803, 51.29715102042518],
        [0.020925588947598, 51.296779357129225],
        [0.020827118784878, 51.296594901906374],
        [0.020769847161821, 51.29633599295986],
        [0.020870604538508, 51.29565798067875],
        [0.020846789175987, 51.29557295831936],
        [0.020336670962163, 51.29483354536843],
        [0.020305480271811, 51.29477652845586],
        [0.01992932216489, 51.29342867404874],
        [0.019858910791667, 51.29319697028542],
        [0.019206366968902, 51.29195640179533],
        [0.019073993405547, 51.29168529774714],
        [0.01565246632713, 51.29183148941817],
        [0.014982153960674, 51.29178727192985],
        [0.014608167728265, 51.2923197982301],
        [0.014486302182954, 51.29255031723398],
        [0.014213743242568, 51.29382751490769],
        [0.014060082044598, 51.29431488056367],
        [0.013385166341738, 51.29626447782742],
        [0.013035898940276, 51.296641893995286],
        [0.012130980445183, 51.29959905375681]
      ]
    ]
  }
}
