{
  "type": "Feature",
  "properties": { "name": "Camden", "level": 2, "londonBorough": true },
  "geometry": {
    "type": "Polygon",
    "coordinates": [
      [
        [-0.142415838433851, 51.569120261237146],
        [-0.142500988225009, 51.569013700039861],
        [-0.142536449159828, 51.568922538613826],
        [-0.142224473906626, 51.568681998193036],
        [-0.141890159998804, 51.568317007665499],
        [-0.141670449005418, 51.567689453713776],
        [-0.141541408441015, 51.567280052928318],
        [-0.14130339514485, 51.566110863832485],
        [-0.141202015237684, 51.565695605977766],
        [-0.141197237084188, 51.56567125071571],
        [-0.141145569861941, 51.565416845601327],
        [-0.141111745095186, 51.565326385413599],
        [-0.141036263280741, 51.565160628056482],
        [-0.140690265803614, 51.564587723347948],
        [-0.140681602254329, 51.564552515568742],
        [-0.140670849271266, 51.564462420822501],
        [-0.140667342428239, 51.56437154165264],
        [-0.140672938994914, 51.564305086310696],
        [-0.140682531264931, 51.564246787475703],
        [-0.140816894550369, 51.563853249316708],
        [-0.14081722397734, 51.563632939843188],
        [-0.140802841766821, 51.563525701962263],
        [-0.140755272359389, 51.563347797210227],
        [-0.140718749378563, 51.563252797894002],
        [-0.140622560988849, 51.563064230983031],
        [-0.140592649267542, 51.562842543011897],
        [-0.140597464134983, 51.562547667340546],
        [-0.140638776503704, 51.56227764960407],
        [-0.14065901091862, 51.562206030737343],
        [-0.140699051918713, 51.562108647651044],
        [-0.140805232600469, 51.561910698000389],
        [-0.140996538068935, 51.561465006394009],
        [-0.141018066729655, 51.561397004943025],
        [-0.141043260125946, 51.561239137152924],
        [-0.141043198435662, 51.561169894389835],
        [-0.141032139664107, 51.561051918221025],
        [-0.141077821383209, 51.56071002999348],
        [-0.141056388602348, 51.560528043134724],
        [-0.141031547802217, 51.560429631971246],
        [-0.141005900859494, 51.560350991398245],
        [-0.140937758393521, 51.56021772287076],
        [-0.140884278585665, 51.560149432202884],
        [-0.140804028699306, 51.560065430179328],
        [-0.140702189513685, 51.559980186746166],
        [-0.140529082155789, 51.55980299013676],
        [-0.139692992677739, 51.558584749505222],
        [-0.13945105091562, 51.558256285977514],
        [-0.139267767234039, 51.558010583433706],
        [-0.138515239372949, 51.557008578367295],
        [-0.138394391740721, 51.556859184862368],
        [-0.137445572143746, 51.555684100574815],
        [-0.137384224064841, 51.555596799146869],
        [-0.137272336863435, 51.555475423258621],
        [-0.137178906989947, 51.555396604830264],
        [-0.137017382258778, 51.555289727756055],
        [-0.13654410657092, 51.555045710463375],
        [-0.135912756965923, 51.554857630836146],
        [-0.135474776126361, 51.554703195209413],
        [-0.135337552392322, 51.554637167999438],
        [-0.135255925645658, 51.554587311440137],
        [-0.135204131061791, 51.554548719921769],
        [-0.135147121605964, 51.554496556809205],
        [-0.135089185298517, 51.554431789497265],
        [-0.134883381881831, 51.554138061757563],
        [-0.134722402843655, 51.553947560268576],
        [-0.134639438999423, 51.553859913686075],
        [-0.134379502565283, 51.553620178333837],
        [-0.134005018306006, 51.553359736475556],
        [-0.13325044369179, 51.552835162883262],
        [-0.132161797142008, 51.552120920823434],
        [-0.131840689670201, 51.551966533421137],
        [-0.131354871205314, 51.551713302511565],
        [-0.131244940056238, 51.551650402821423],
        [-0.131027072631845, 51.551511146205982],
        [-0.130925565319137, 51.55141870526549],
        [-0.130879023271615, 51.55135771428958],
        [-0.130837321451858, 51.551284210955046],
        [-0.130814100945877, 51.5512172967711],
        [-0.130761975927928, 51.55087025639024],
        [-0.130714452958534, 51.55065727703397],
        [-0.130344827707797, 51.549892423101305],
        [-0.130162805036894, 51.549617949722261],
        [-0.130025485173451, 51.549484471062726],
        [-0.129834645734519, 51.549319564731142],
        [-0.129349964789771, 51.548969224636707],
        [-0.129347082005189, 51.548969178671982],
        [-0.129137549598805, 51.548838144500614],
        [-0.128235688518121, 51.548426292360759],
        [-0.12797235157616, 51.548306087859864],
        [-0.127781711506935, 51.548171755674041],
        [-0.127699401058814, 51.548103897831353],
        [-0.127609847152425, 51.548036823574257],
        [-0.127268596081589, 51.547741819214082],
        [-0.127204063097215, 51.547662554564297],
        [-0.12717308936362, 51.547609004526436],
        [-0.127138935684882, 51.547527527044849],
        [-0.127088595216515, 51.547453884373567],
        [-0.126888186918996, 51.546995665623562],
        [-0.126653649940182, 51.546104363379591],
        [-0.126509349335892, 51.545614666819034],
        [-0.126395616796977, 51.545188405561113],
        [-0.126361907660661, 51.545061073260996],
        [-0.12615529175393, 51.544192696752503],
        [-0.125994034483241, 51.543554352563199],
        [-0.125909654893817, 51.543186111404765],
        [-0.125938473994862, 51.54304628905502],
        [-0.125900517815942, 51.5429170902229],
        [-0.125827158508678, 51.542736967897163],
        [-0.125741122244112, 51.542479307633123],
        [-0.12568993036032, 51.542110697193536],
        [-0.125479436031413, 51.541758425615576],
        [-0.125266765865474, 51.541459174513797],
        [-0.125093157675468, 51.541192020986855],
        [-0.125086209226802, 51.541115473807814],
        [-0.125008863715068, 51.540857052546272],
        [-0.124861051717415, 51.540593907912765],
        [-0.124297571168922, 51.539813344443608],
        [-0.124050294455236, 51.539514436870583],
        [-0.123734329247448, 51.539237810652068],
        [-0.12337798214326, 51.538891295393519],
        [-0.123176237950961, 51.53864257294164],
        [-0.123075478011488, 51.538497980264943],
        [-0.122724395861192, 51.537918641588185],
        [-0.122606942969383, 51.53761911045639],
        [-0.12252093385923, 51.537361447897787],
        [-0.122400682289069, 51.536884719580563],
        [-0.122352264783687, 51.536309324179413],
        [-0.122340561559791, 51.536068137969046],
        [-0.122329080325337, 51.535821559803239],
        [-0.122338661608869, 51.535518666027784],
        [-0.122340988169436, 51.5345861812838],
        [-0.122340360825186, 51.534566387746594],
        [-0.122360479652859, 51.534042447112832],
        [-0.122464677365214, 51.532736605430941],
        [-0.122563410489607, 51.531107845135352],
        [-0.12255322262615, 51.530829813743495],
        [-0.122556070568083, 51.530725546288899],
        [-0.121995481425598, 51.530789412054318],
        [-0.12121884275762, 51.530848016533092],
        [-0.119895945411922, 51.530937428975363],
        [-0.1190113785554, 51.53074609578907],
        [-0.11814111610984, 51.530557683112228],
        [-0.117557648431824, 51.530407138929348],
        [-0.117102891827482, 51.530282038417866],
        [-0.116532478183881, 51.530094829326458],
        [-0.116052881544685, 51.529873105980514],
        [-0.116016645596071, 51.529842848718054],
        [-0.115943289579969, 51.52976883118987],
        [-0.115880204717037, 51.529690482333045],
        [-0.115841056615037, 51.529626006691643],
        [-0.115806972991196, 51.529543627359693],
        [-0.115783271670488, 51.529454220775747],
        [-0.115726880432134, 51.528724921378164],
        [-0.115680221943364, 51.528318609484494],
        [-0.115569721012778, 51.52795713376522],
        [-0.115528695220651, 51.527868348035028],
        [-0.115476069675873, 51.527781174433869],
        [-0.115432378938077, 51.527722021152698],
        [-0.115303514208631, 51.527595854013029],
        [-0.114705624929066, 51.527202265614683],
        [-0.114494792909349, 51.527071183111602],
        [-0.113824809415896, 51.526678229730997],
        [-0.113760358188443, 51.526633129998928],
        [-0.113625314133602, 51.526586895002701],
        [-0.113437671304127, 51.526522728114223],
        [-0.112949346510852, 51.526408761505685],
        [-0.113224629001526, 51.526236037127347],
        [-0.113735295183002, 51.525879153832676],
        [-0.114253379329995, 51.525516992083759],
        [-0.114206773876208, 51.525458690696851],
        [-0.114103122539103, 51.525280770866942],
        [-0.113880792389744, 51.524904905720454],
        [-0.113679613699658, 51.524610312954614],
        [-0.113612106412743, 51.524534589387798],
        [-0.113506817258386, 51.524431280575619],
        [-0.113212128498028, 51.524236798511446],
        [-0.112563005753406, 51.52379381485612],
        [-0.112357874679325, 51.523699689397539],
        [-0.112194177781737, 51.523649394552841],
        [-0.111885029317761, 51.523560788147783],
        [-0.111201315446785, 51.523396907534568],
        [-0.110602515334155, 51.52327126007404],
        [-0.109985177344917, 51.523140814566354],
        [-0.109809588538364, 51.523099317271623],
        [-0.109604630650401, 51.523070835184051],
        [-0.109481535241175, 51.523014896088682],
        [-0.109321618495963, 51.522943076050353],
        [-0.109244424164064, 51.522927443694108],
        [-0.108991224994869, 51.523019582040462],
        [-0.108966709695257, 51.522985015198167],
        [-0.108758293892786, 51.522692095491891],
        [-0.10860212631734, 51.522460267859984],
        [-0.108336913323783, 51.522146647909942],
        [-0.108285699309619, 51.522095463775116],
        [-0.108274398548586, 51.522089885999158],
        [-0.107020506684813, 51.522189257338248],
        [-0.106647705757206, 51.521689550162343],
        [-0.106501585284931, 51.521493851929378],
        [-0.106352486570689, 51.521265732293067],
        [-0.106165021204019, 51.52092009002385],
        [-0.106036428258869, 51.520684207747912],
        [-0.105884372820218, 51.520284282262594],
        [-0.105489475180056, 51.51913675148522],
        [-0.105349880835, 51.518540989057279],
        [-0.105837316887555, 51.518395988584437],
        [-0.106199831432056, 51.518274148280256],
        [-0.106531089343907, 51.518176082138766],
        [-0.107049250568442, 51.518019882365195],
        [-0.107406146402478, 51.517894350664797],
        [-0.107591348554496, 51.51784248443149],
        [-0.107826603652265, 51.517765347026398],
        [-0.108191643386771, 51.517791018968005],
        [-0.109033803038612, 51.517885532109517],
        [-0.109532243108608, 51.517926839270224],
        [-0.110475959873204, 51.518075135541437],
        [-0.111626441726772, 51.518207868916015],
        [-0.112339100063374, 51.518262504565811],
        [-0.113029753643663, 51.518291602778156],
        [-0.113821029388055, 51.518257568851745],
        [-0.113812505873787, 51.51821966315606],
        [-0.113786935411085, 51.518105946064765],
        [-0.113742387561277, 51.517963147677513],
        [-0.113719088879095, 51.517933996891557],
        [-0.113448579262132, 51.517643683743849],
        [-0.112860855181006, 51.517042520457963],
        [-0.112153873034006, 51.51622361377482],
        [-0.112133271131032, 51.516199002328491],
        [-0.111868718697341, 51.515799971536737],
        [-0.111606772509664, 51.515338034298594],
        [-0.111687690363291, 51.515333042300917],
        [-0.111707863905411, 51.515298296192249],
        [-0.112325190607479, 51.515217408598538],
        [-0.112307924167555, 51.515146988922666],
        [-0.11385925141735, 51.514820338213127],
        [-0.114685944792849, 51.515986472298657],
        [-0.114718323634117, 51.516040048693299],
        [-0.117276431626579, 51.515380620971428],
        [-0.117617181060159, 51.515226023138815],
        [-0.11837924427208, 51.515025128125821],
        [-0.11840546614525, 51.515018354766326],
        [-0.118623919743247, 51.514963407637602],
        [-0.118657798744664, 51.514840753415925],
        [-0.11870043044911, 51.514715541817139],
        [-0.118853587415603, 51.514671237186548],
        [-0.119321661324444, 51.514539359301999],
        [-0.119493133842036, 51.514505239305223],
        [-0.120346854951985, 51.514598058294439],
        [-0.121316205519871, 51.514788043987927],
        [-0.121843355226266, 51.514866628162949],
        [-0.12209818704959, 51.514627910330503],
        [-0.122894150005695, 51.515144233103449],
        [-0.123379982352871, 51.514790507925888],
        [-0.123584838509995, 51.514715550479053],
        [-0.123977227314299, 51.514461044157464],
        [-0.124492921628362, 51.51415185542546],
        [-0.125262095600273, 51.513776574668434],
        [-0.126198215254296, 51.513371583093416],
        [-0.126668723014768, 51.513144394190924],
        [-0.126867284201405, 51.513011778374988],
        [-0.126944462926313, 51.512957257287837],
        [-0.127042947654925, 51.512875199567077],
        [-0.127177948611168, 51.512710993646898],
        [-0.127278689228137, 51.51267932987875],
        [-0.127352768240246, 51.512665225384431],
        [-0.127452366236373, 51.512661420044083],
        [-0.127602630720743, 51.51265212871494],
        [-0.127714162398714, 51.512708763561413],
        [-0.127989005346188, 51.512859728727719],
        [-0.128272867315577, 51.513071986307558],
        [-0.128364384549707, 51.513124704111803],
        [-0.128869465937068, 51.513389949003447],
        [-0.128997359486297, 51.513434254100048],
        [-0.129008697537972, 51.513438931226183],
        [-0.129120154958393, 51.51346229120044],
        [-0.129361421065789, 51.513483225210962],
        [-0.12968963053036, 51.514126028936666],
        [-0.129852505620714, 51.514477535736908],
        [-0.130438373652641, 51.515938267794098],
        [-0.130471522838313, 51.516079079396484],
        [-0.130466071618792, 51.516177010911896],
        [-0.130372857941218, 51.516447099035169],
        [-0.130369430412779, 51.516495603974413],
        [-0.130427355228175, 51.516594545685528],
        [-0.130831772468763, 51.517101874190615],
        [-0.131076847626931, 51.517030242367923],
        [-0.131114775857415, 51.517019156444057],
        [-0.131162749978557, 51.517009129823464],
        [-0.131586284502279, 51.516943937250538],
        [-0.132474733043332, 51.516717986521314],
        [-0.132568887975116, 51.517164614902129],
        [-0.133004664281194, 51.517363991897817],
        [-0.133622524750878, 51.517728129897229],
        [-0.133867142567299, 51.517597134422537],
        [-0.133910273380099, 51.517564548350244],
        [-0.133942513237378, 51.517551572511437],
        [-0.133977340046267, 51.517545831826652],
        [-0.13401335014741, 51.517546404712057],
        [-0.134070378665236, 51.517561699970074],
        [-0.134473967168683, 51.517949402021486],
        [-0.134342758756117, 51.518021053651808],
        [-0.135258244352406, 51.518933063818608],
        [-0.135851753997768, 51.518694304852609],
        [-0.136321904687525, 51.519146904953217],
        [-0.137033114923813, 51.518884831106448],
        [-0.138035844472321, 51.519815290441827],
        [-0.138170828648098, 51.520004477137284],
        [-0.138206815269874, 51.520041018349374],
        [-0.138255583090987, 51.520082258667941],
        [-0.138344025039842, 51.520140315162351],
        [-0.138736858154396, 51.520439704847426],
        [-0.139179844925524, 51.520817224319117],
        [-0.139803991570019, 51.521347789891237],
        [-0.140473884049104, 51.521888069732803],
        [-0.141415920770927, 51.52264847789322],
        [-0.142901101577155, 51.523877894132625],
        [-0.143093141571841, 51.523870143405297],
        [-0.143311931693976, 51.523878103017353],
        [-0.143521201026796, 51.523907493508474],
        [-0.143520960328007, 51.523948855145427],
        [-0.143513495147304, 51.524026072393738],
        [-0.1434146841201, 51.52454157653343],
        [-0.143496428348124, 51.524622903469741],
        [-0.143989668241953, 51.524688260869652],
        [-0.14417896074512, 51.524641797180315],
        [-0.144154773160521, 51.523995753927537],
        [-0.144646603223188, 51.524060187049251],
        [-0.144708440229025, 51.524063862872779],
        [-0.144852940372011, 51.524055357323903],
        [-0.145198509863265, 51.523994277779984],
        [-0.145815556417239, 51.525270175112119],
        [-0.147195800277715, 51.525041094455496],
        [-0.149922788550015, 51.531205314499402],
        [-0.150885255784694, 51.53332023132262],
        [-0.151481133932415, 51.534627235303113],
        [-0.152732394033306, 51.537519137537743],
        [-0.153416411380064, 51.537470556235505],
        [-0.153928069991719, 51.537440840675245],
        [-0.154181307836729, 51.537418747318611],
        [-0.154423235191557, 51.53739108000417],
        [-0.154746515105458, 51.537348505424326],
        [-0.154994642056579, 51.537310143502339],
        [-0.155221407305357, 51.537265150419415],
        [-0.155481933739531, 51.537205400561092],
        [-0.155849399042461, 51.537104167467625],
        [-0.157579551554377, 51.536751871154451],
        [-0.158631462931722, 51.536519296058735],
        [-0.159438119051927, 51.536361098242423],
        [-0.159445287891836, 51.536362109963008],
        [-0.160486792729507, 51.537281288054693],
        [-0.161919824860317, 51.536858623622891],
        [-0.163390194870883, 51.536403254300993],
        [-0.163619117963257, 51.536304324136026],
        [-0.163792702742069, 51.536218915282916],
        [-0.16496103269152, 51.535779481023802],
        [-0.166582851000042, 51.53690011880866],
        [-0.168044149072909, 51.537890534292458],
        [-0.168206047837759, 51.537988382245445],
        [-0.168450231153, 51.538119887442136],
        [-0.169044088559286, 51.538413318555463],
        [-0.169261113541649, 51.538503032938607],
        [-0.169435988241869, 51.538565111896261],
        [-0.169542844528661, 51.538597353515229],
        [-0.170890201845994, 51.537792862834252],
        [-0.171981214700189, 51.538382686602283],
        [-0.173510929309229, 51.537632264351465],
        [-0.174035397169031, 51.538038793606468],
        [-0.1740947022231, 51.538106260671427],
        [-0.174123058813156, 51.538154361916291],
        [-0.174141435739656, 51.538199610102133],
        [-0.174152753575615, 51.538277121180357],
        [-0.173921606363296, 51.5394767109903],
        [-0.17579072700396, 51.53961459835277],
        [-0.178298541938746, 51.53979205034662],
        [-0.178353305339676, 51.539792900708463],
        [-0.178379245898949, 51.539793303502506],
        [-0.178571061350608, 51.539792684783073],
        [-0.178764604962484, 51.539784898637031],
        [-0.1790381646383, 51.5397594701016],
        [-0.17908892743151, 51.539752164839641],
        [-0.179312871736875, 51.539705282974275],
        [-0.179752154876304, 51.539646454906276],
        [-0.180036948444975, 51.539592422589251],
        [-0.18018094743778, 51.53956138443499],
        [-0.180419910428493, 51.539499446314075],
        [-0.181600618608292, 51.539145466917816],
        [-0.182749165388024, 51.538765798745558],
        [-0.183873480710009, 51.538378550351496],
        [-0.184078587124921, 51.538261226918024],
        [-0.184224296099302, 51.538187046672327],
        [-0.184468131442965, 51.538074818208202],
        [-0.184643115130296, 51.537953430653353],
        [-0.184701427304239, 51.537901277685428],
        [-0.185393338612545, 51.537254636075446],
        [-0.185490725090955, 51.537162621211642],
        [-0.187751178645322, 51.535033985567175],
        [-0.187841006980905, 51.534986814128523],
        [-0.187901765365522, 51.534945488282226],
        [-0.187978039958797, 51.5348765255616],
        [-0.188583289289135, 51.534594518319466],
        [-0.188773542701423, 51.534523718019017],
        [-0.189059100256866, 51.534776317371978],
        [-0.189216140316286, 51.534888449035783],
        [-0.189324722101614, 51.534986343922249],
        [-0.189425549858758, 51.535061637977563],
        [-0.189556532058063, 51.535140095038109],
        [-0.189669601714536, 51.535197592961538],
        [-0.189835632423168, 51.535264900411384],
        [-0.190406129708375, 51.535531784408093],
        [-0.190825345946856, 51.535759463736497],
        [-0.191082141442696, 51.535937876613858],
        [-0.191284464566217, 51.53610825514486],
        [-0.191427690365262, 51.536241752580658],
        [-0.191483479647746, 51.536289373216881],
        [-0.192462443764901, 51.537129065436289],
        [-0.192650544528277, 51.537294726178381],
        [-0.193755532737446, 51.538266738647181],
        [-0.195442148843365, 51.539737774558162],
        [-0.196391405070776, 51.540603053703833],
        [-0.196539445181099, 51.540724928524796],
        [-0.196692200425681, 51.540836983983709],
        [-0.196855115816981, 51.540947396915449],
        [-0.197796444425453, 51.541722618362435],
        [-0.198874611265166, 51.542612337837056],
        [-0.198876052512728, 51.542612359963471],
        [-0.199405860993967, 51.543036840595654],
        [-0.201228955139592, 51.544603405571188],
        [-0.201931795540596, 51.545285911141576],
        [-0.201958224365262, 51.54531059564323],
        [-0.202722427362108, 51.546010222978836],
        [-0.203218051523473, 51.546498907270184],
        [-0.203589386801984, 51.546811234045997],
        [-0.203736510475066, 51.546957364857406],
        [-0.204272328711485, 51.547488024854111],
        [-0.205136424882092, 51.548289879402411],
        [-0.205767429508818, 51.548894826713536],
        [-0.206336765713327, 51.549417896284396],
        [-0.206813705172681, 51.549833440759272],
        [-0.207254205929144, 51.550185479787181],
        [-0.207309251409692, 51.550252864471531],
        [-0.207562885621993, 51.550441982581475],
        [-0.207973903157476, 51.550773785151911],
        [-0.20860187287502, 51.551237489899236],
        [-0.209172063385882, 51.551630168760568],
        [-0.209756638951379, 51.552060832235576],
        [-0.210318306077424, 51.552450677595424],
        [-0.210749473221205, 51.552784575941367],
        [-0.211280249744354, 51.55319013174595],
        [-0.211430129001457, 51.553303921978653],
        [-0.21172992499829, 51.553530603184996],
        [-0.211941016996371, 51.553701977617969],
        [-0.212380006058818, 51.55413130808212],
        [-0.21249114338654, 51.554240010462081],
        [-0.212807890352606, 51.554586545548133],
        [-0.212899236800784, 51.554648185756221],
        [-0.213239128740422, 51.554956404965779],
        [-0.213462362732302, 51.555149543131961],
        [-0.213501320597123, 51.55518610577257],
        [-0.213285276802626, 51.555288026794457],
        [-0.213000241130026, 51.555420369967081],
        [-0.212511705933384, 51.555702482687515],
        [-0.212129397269109, 51.555924164741668],
        [-0.21169767985052, 51.556154984128817],
        [-0.211246836002029, 51.556321664556208],
        [-0.210844587553253, 51.55646300641218],
        [-0.210031115481941, 51.556753642229751],
        [-0.21002693150238, 51.556749981454608],
        [-0.209566450793489, 51.556353586191562],
        [-0.209538534572271, 51.556329780046056],
        [-0.209237124392178, 51.556033827495511],
        [-0.208856320321014, 51.555739359887781],
        [-0.20884510469996, 51.555731095542043],
        [-0.208333987097701, 51.555889650792665],
        [-0.208038324931439, 51.555961570841824],
        [-0.207522742531926, 51.556086782618365],
        [-0.206991404851594, 51.55620905366964],
        [-0.206496000495786, 51.55633456930407],
        [-0.206335859301051, 51.556371687791263],
        [-0.206215598107905, 51.556385136343678],
        [-0.206089534731311, 51.556399395301078],
        [-0.205992234342441, 51.556415892382127],
        [-0.205966107122616, 51.556419989085327],
        [-0.205893824397841, 51.556203966142228],
        [-0.205897953685129, 51.556135687245259],
        [-0.205903383183999, 51.556071025177886],
        [-0.205865366655926, 51.555937356748018],
        [-0.205877512670835, 51.555555366583526],
        [-0.205837383048014, 51.555438751331103],
        [-0.205815225390851, 51.555305325369076],
        [-0.205779077944158, 51.55530747032855],
        [-0.20534657312958, 51.55533772450395],
        [-0.205104578579327, 51.555365496150628],
        [-0.20497583774365, 51.555411186254226],
        [-0.204789297881028, 51.555422720106272],
        [-0.204310771496079, 51.555559275595996],
        [-0.204082094459763, 51.555615125321488],
        [-0.203948895095434, 51.55562747427075],
        [-0.20367672950757, 51.555652083427994],
        [-0.203347701315917, 51.55569200754055],
        [-0.202790630772944, 51.555771601393602],
        [-0.20185015794144, 51.555916357302237],
        [-0.201648808723016, 51.555937550832503],
        [-0.201338270394925, 51.5559840473829],
        [-0.200981798484411, 51.556061312168062],
        [-0.200551409741525, 51.556147333908505],
        [-0.200169210755673, 51.556181937492795],
        [-0.199991565131813, 51.556187305503187],
        [-0.199410001416561, 51.556192770085886],
        [-0.199464084010102, 51.556284423065051],
        [-0.199484915038428, 51.556341394721031],
        [-0.199501855654623, 51.556460354095464],
        [-0.199517523374554, 51.55650195946572],
        [-0.199604077829419, 51.556648064927003],
        [-0.199669207043772, 51.556825314904948],
        [-0.199675657054798, 51.556881166622844],
        [-0.199673634308743, 51.556932392147608],
        [-0.199660219886497, 51.55697984592986],
        [-0.199624079753714, 51.557054827382984],
        [-0.199498052077574, 51.557250725878077],
        [-0.199126196502171, 51.557717119021994],
        [-0.199052264244449, 51.557762744639753],
        [-0.198906693088866, 51.55783244923142],
        [-0.198791255812807, 51.557906213186072],
        [-0.198638979530447, 51.558036063455553],
        [-0.198580301698515, 51.558097210012861],
        [-0.198533228638345, 51.558156736236526],
        [-0.198507604002681, 51.558221087939479],
        [-0.198498974835022, 51.558256924966244],
        [-0.198500061296429, 51.558448479307785],
        [-0.198479123530127, 51.558759294121195],
        [-0.19823103341417, 51.558940727770015],
        [-0.198229591651072, 51.558940705630746],
        [-0.197984631747114, 51.559115892166353],
        [-0.19762322851468, 51.558879237132821],
        [-0.197564207915816, 51.558912501548498],
        [-0.197346705121835, 51.559013471797698],
        [-0.197034257953021, 51.559107587354688],
        [-0.196817748355821, 51.559183393231443],
        [-0.196680231290023, 51.559231637151456],
        [-0.196766319448964, 51.559389427593914],
        [-0.196817434356167, 51.559592541644626],
        [-0.196842601823776, 51.559868095185216],
        [-0.196932063978417, 51.559867671477747],
        [-0.19694454248005, 51.559880452559177],
        [-0.196922497969656, 51.560036581185628],
        [-0.1969037055802, 51.560402282175907],
        [-0.196918670119451, 51.560607538332711],
        [-0.196919578747521, 51.56062104086088],
        [-0.196813062167842, 51.560614907819236],
        [-0.196750748336052, 51.560694881584844],
        [-0.196649268086013, 51.56067084103951],
        [-0.196594625165939, 51.560739242526786],
        [-0.196243904352693, 51.560670005744207],
        [-0.196124802598348, 51.560653786996617],
        [-0.195958066248582, 51.560601765487078],
        [-0.195594762490161, 51.560522441671694],
        [-0.195348336392945, 51.560479085410087],
        [-0.195077738812581, 51.560463233190752],
        [-0.194851962599241, 51.56048134170527],
        [-0.194612089179243, 51.56056397801639],
        [-0.194612784310378, 51.560655710984243],
        [-0.194568978529781, 51.560705394291261],
        [-0.194481775751597, 51.560758006773192],
        [-0.194402707354709, 51.560787364177024],
        [-0.194301691188439, 51.560824476918206],
        [-0.194279779110752, 51.560831333615639],
        [-0.194110285141547, 51.560885377117287],
        [-0.193982194335329, 51.560913979745564],
        [-0.193852733253177, 51.560867924387701],
        [-0.193788777132693, 51.560843559718379],
        [-0.193615739666425, 51.560950603006283],
        [-0.192980477080546, 51.56118091811063],
        [-0.192319961895784, 51.561538532578524],
        [-0.191746996842032, 51.561580061540674],
        [-0.191406472730676, 51.561581108011168],
        [-0.191140297865784, 51.561635455488805],
        [-0.190960062400148, 51.561705515167198],
        [-0.190766365507806, 51.561823925874371],
        [-0.190663025544187, 51.56191945015938],
        [-0.190618673465373, 51.562055450457393],
        [-0.190514993951407, 51.562377577402053],
        [-0.190405159040841, 51.562636662648721],
        [-0.190371184010459, 51.562765628975221],
        [-0.190144565736708, 51.563495012856912],
        [-0.1901603860478, 51.563750640474282],
        [-0.190143027842581, 51.563969786816706],
        [-0.190021445923634, 51.564524539774879],
        [-0.190018783872395, 51.56462791107441],
        [-0.189997112334425, 51.564701314297878],
        [-0.189935187831903, 51.56480736839584],
        [-0.189900317461103, 51.564958801695454],
        [-0.189847365288125, 51.565056901011722],
        [-0.189643335851263, 51.56525338420137],
        [-0.189495949109295, 51.565295172862335],
        [-0.189422901343491, 51.565354294695815],
        [-0.189364929537484, 51.565433432348236],
        [-0.189311198131013, 51.565478464366166],
        [-0.189252091496271, 51.565513521795644],
        [-0.189187573955968, 51.565539503315925],
        [-0.189149618708971, 51.565550607677423],
        [-0.188701216822694, 51.565578757222077],
        [-0.188384777770119, 51.565771704551025],
        [-0.188414965178648, 51.565810837836082],
        [-0.188093408361954, 51.565914680819958],
        [-0.187918561849709, 51.565993811492341],
        [-0.187813274422782, 51.566029054274217],
        [-0.187728639095987, 51.566052925828998],
        [-0.187529801335704, 51.566082227305131],
        [-0.18744671496578, 51.566103424868899],
        [-0.187391061912248, 51.566124146908301],
        [-0.187277670298913, 51.566181744975481],
        [-0.187192855692356, 51.566210109566796],
        [-0.187016767787897, 51.566465470379235],
        [-0.18677655073447, 51.566628117720498],
        [-0.186721945435503, 51.566658747254522],
        [-0.186643767494621, 51.566701601817215],
        [-0.186564254679566, 51.566741737984898],
        [-0.186484741724901, 51.566781874097046],
        [-0.186470071390037, 51.566787942033955],
        [-0.186421519790981, 51.566811471085224],
        [-0.186371526138648, 51.566834977828456],
        [-0.186321568197631, 51.566857585864526],
        [-0.186271645970969, 51.566879295193516],
        [-0.186220317456424, 51.566900083526249],
        [-0.18616754688948, 51.566920849546122],
        [-0.186114847808489, 51.566939818171385],
        [-0.185681849622081, 51.567051823504713],
        [-0.185241424569928, 51.567169107818643],
        [-0.184750623846097, 51.567246943967945],
        [-0.184194833117602, 51.567362439654723],
        [-0.18400810625654, 51.567413504324023],
        [-0.183811365964061, 51.567498584767058],
        [-0.183481789946379, 51.567766851685228],
        [-0.183718876740627, 51.567972850226887],
        [-0.183567472144471, 51.568006476167405],
        [-0.183493211802833, 51.568023311386618],
        [-0.182210635459019, 51.568669785350693],
        [-0.182132055528805, 51.568722522329807],
        [-0.182000063545406, 51.568848169298526],
        [-0.181890016556919, 51.568930093460082],
        [-0.181828159044014, 51.568961507612805],
        [-0.181710893309067, 51.569007350228652],
        [-0.180918703168645, 51.569405124986311],
        [-0.18083377104629, 51.569436180914515],
        [-0.180974564410603, 51.569668568506344],
        [-0.180752411025585, 51.569666923059508],
        [-0.180515406216346, 51.569675837774504],
        [-0.180181135420416, 51.569699429913634],
        [-0.179724586338883, 51.569785869527401],
        [-0.179087205041644, 51.569919858785148],
        [-0.179061211420262, 51.56992035466272],
        [-0.179007782081145, 51.569921324021799],
        [-0.17895572301181, 51.569924113098224],
        [-0.178902221841494, 51.569926879771401],
        [-0.178848648837416, 51.569931443782274],
        [-0.178796517918596, 51.569936030149947],
        [-0.178744315157831, 51.569942413856424],
        [-0.178692076465951, 51.56994969622049],
        [-0.178639801839838, 51.569957877242089],
        [-0.178588933372567, 51.569966979305107],
        [-0.178538064885481, 51.569976081345871],
        [-0.178487124536305, 51.569986980726135],
        [-0.178437590338172, 51.569998801150703],
        [-0.178388020191663, 51.570011520234907],
        [-0.178385135996771, 51.570011475462003],
        [-0.178370571328537, 51.570014846319658],
        [-0.178357412832085, 51.570019138243154],
        [-0.178342848159423, 51.570022509097335],
        [-0.178328283484645, 51.570025879949689],
        [-0.178313718807751, 51.570029250800218],
        [-0.178299118203837, 51.570033520329687],
        [-0.17828455352242, 51.570036891176535],
        [-0.178271395011689, 51.570041183090211],
        [-0.178258200572778, 51.570046373683162],
        [-0.178245006130882, 51.570051564274557],
        [-0.178233253784757, 51.570056777252823],
        [-0.178222907608425, 51.570062911299097],
        [-0.17821111933018, 51.570069022955835],
        [-0.178200737221195, 51.570076055680815],
        [-0.178190355108998, 51.570083088404857],
        [-0.178179937066264, 51.570091019808622],
        [-0.178170997047448, 51.570098074919883],
        [-0.17816202109815, 51.570106028711116],
        [-0.1781530451457, 51.570113982501631],
        [-0.178145475362797, 51.570122857361554],
        [-0.178137905576913, 51.570131732220972],
        [-0.178131777889376, 51.570140629469478],
        [-0.17812565019941, 51.570149526717621],
        [-0.178119558435622, 51.570157525284742],
        [-0.17811487284306, 51.57016644492203],
        [-0.178111593422248, 51.570176285629671],
        [-0.178106907826113, 51.570185205266569],
        [-0.178105070505161, 51.570195068363894],
        [-0.178101791080023, 51.570204909071165],
        [-0.178099953757064, 51.57021477216837],
        [-0.178099594466303, 51.570223758974912],
        [-0.17809919924625, 51.570233644462114],
        [-0.178100246130529, 51.570243552339328],
        [-0.178101293015209, 51.570253460216527],
        [-0.178078315803453, 51.570431152689217],
        [-0.177695019443524, 51.570273229650496],
        [-0.177678001681254, 51.57026577146533],
        [-0.17738632833833, 51.570198294847224],
        [-0.176953769559053, 51.570189777049244],
        [-0.176514277084413, 51.570066047357912],
        [-0.175992980098117, 51.569895183288615],
        [-0.175924623008542, 51.569872538997522],
        [-0.175933556849132, 51.569793544856473],
        [-0.175192739452922, 51.569555418687251],
        [-0.17515736328331, 51.56942987434266],
        [-0.174887838984383, 51.5694220856629],
        [-0.174406861550967, 51.56925364002926],
        [-0.174351380848709, 51.569305831974297],
        [-0.174261364189797, 51.569391657643784],
        [-0.174106095452106, 51.569521429885327],
        [-0.173995600690083, 51.569614130622284],
        [-0.17385150539412, 51.56971709922955],
        [-0.173853497239973, 51.569919459007764],
        [-0.173730919520401, 51.569917551363169],
        [-0.173739549561052, 51.570242310953972],
        [-0.173743523209864, 51.570431212979123],
        [-0.173651818855192, 51.570775093493232],
        [-0.173548102441424, 51.570986598845721],
        [-0.173506679658586, 51.571048001590029],
        [-0.173461326616118, 51.57109945151592],
        [-0.17344315655252, 51.571120750423532],
        [-0.173376785003326, 51.571192555644949],
        [-0.173307565001893, 51.571263417249355],
        [-0.173295523585994, 51.571275819148092],
        [-0.173223455085178, 51.571345737122506],
        [-0.173149944223896, 51.571415632598459],
        [-0.173073656945289, 51.571482787087149],
        [-0.172694594361147, 51.571687306882204],
        [-0.172296131582678, 51.571907709604517],
        [-0.172090769142844, 51.571918898678469],
        [-0.171843007199388, 51.572051723352345],
        [-0.171811063295814, 51.572128560240195],
        [-0.171696988037216, 51.572238288595372],
        [-0.171358438422831, 51.572403868802382],
        [-0.1712852480622, 51.572429705410194],
        [-0.171008566112998, 51.57252790657293],
        [-0.170504523552017, 51.572645942874082],
        [-0.169946937383199, 51.572767638207971],
        [-0.169913442448514, 51.572775208995729],
        [-0.169148434008095, 51.572851401285682],
        [-0.168448287919529, 51.57289353065476],
        [-0.167372989231244, 51.572970263427095],
        [-0.167107121644071, 51.572978700398373],
        [-0.166853586828924, 51.572967546158317],
        [-0.166595440529244, 51.572927543659617],
        [-0.166321073494256, 51.572860309940829],
        [-0.166214252825321, 51.572789399264515],
        [-0.165956469845993, 51.572740408631596],
        [-0.165889768122349, 51.572748358513202],
        [-0.165771075755652, 51.572757294193245],
        [-0.165633531496301, 51.572732663199567],
        [-0.165271230865412, 51.572663153160136],
        [-0.164911996663308, 51.57258919374928],
        [-0.164894835415397, 51.572585328419585],
        [-0.164857664786175, 51.572576653972142],
        [-0.16482053036531, 51.57256708083942],
        [-0.164783359765636, 51.572558406368707],
        [-0.164746225375759, 51.572548833212721],
        [-0.164709054805631, 51.572540158718731],
        [-0.164671848053086, 51.572532382886642],
        [-0.164633199147607, 51.572524584486672],
        [-0.164594441660642, 51.572519482094684],
        [-0.164559974480215, 51.572515346034912],
        [-0.164473661754806, 51.572508600535308],
        [-0.164387240449338, 51.572504550992754],
        [-0.164300782956737, 51.572501400060062],
        [-0.164263286669961, 51.572500813486407],
        [-0.164176756782247, 51.57249945980918],
        [-0.164090190693042, 51.572499004741459],
        [-0.164003552187262, 51.572500346956367],
        [-0.163384784568113, 51.572528432227458],
        [-0.162608312924954, 51.572566634408041],
        [-0.161552869335014, 51.572687687478961],
        [-0.161494674957994, 51.572699365107312],
        [-0.161401650921802, 51.572715892439419],
        [-0.161308699346646, 51.572730622353397],
        [-0.161215820243641, 51.572743554849502],
        [-0.161122977356778, 51.572755588599776],
        [-0.161028728520944, 51.572766701003808],
        [-0.160933146282668, 51.572775094714956],
        [-0.160839042454872, 51.572782612279184],
        [-0.160820221685812, 51.572784115782945],
        [-0.160791269444495, 51.57278635973114],
        [-0.160760875029377, 51.572788581068302],
        [-0.160731886507812, 51.572791723673333],
        [-0.160701492086605, 51.572793944995034],
        [-0.160671133938689, 51.572795267637318],
        [-0.160642217960494, 51.572796612877077],
        [-0.160611896086697, 51.572797036832512],
        [-0.1605830163838, 51.572797483386175],
        [-0.160552767066052, 51.572796109983379],
        [-0.160545556210092, 51.572795996950958],
        [-0.160515343173834, 51.572793724867097],
        [-0.160485166420504, 51.572790554104053],
        [-0.160454989671565, 51.572787383333313],
        [-0.160424849207921, 51.572783313883434],
        [-0.160394745031335, 51.572778345754507],
        [-0.160366083031823, 51.572773400226652],
        [-0.160337457321302, 51.572767556020487],
        [-0.160331724923555, 51.572766566912705],
        [-0.160303135505195, 51.572759824026917],
        [-0.160274582379272, 51.572752182462892],
        [-0.160246029263071, 51.572744540892025],
        [-0.160218954610545, 51.572736023253562],
        [-0.160191879968263, 51.572727505608881],
        [-0.160166283790579, 51.572718111897977],
        [-0.15981356190618, 51.572590284514789],
        [-0.158862744708773, 51.572193193151243],
        [-0.156981381040853, 51.572076433542549],
        [-0.155391280424755, 51.571930051388271],
        [-0.153933175128329, 51.571802809798669],
        [-0.152706204736747, 51.571705266858736],
        [-0.151177288655175, 51.57161644278429],
        [-0.150350712265377, 51.57157374186216],
        [-0.150113654555286, 51.57151245355567],
        [-0.14977568238791, 51.57130659424535],
        [-0.149543116800194, 51.571205808968763],
        [-0.149162708590226, 51.571085605855501],
        [-0.148067496075521, 51.570800352275128],
        [-0.147096623845648, 51.570615968433792],
        [-0.146119406364001, 51.570445864131095],
        [-0.145128711153083, 51.570217087848192],
        [-0.144602652285643, 51.570130537084523],
        [-0.144417122127476, 51.570079943552003],
        [-0.14415337646283, 51.570001135459123],
        [-0.143855388160211, 51.569912792695021],
        [-0.142417970320485, 51.569280360187726],
        [-0.142412312034104, 51.569277572886485],
        [-0.142415838433851, 51.569120261237146]
      ]
    ]
  }
}
