{
  "type": "Feature",
  "properties": {
    "name": "Camden",
    "level": 2,
    "londonBorough": true,
    "center": [-0.171, 51.547]
  },
  "geometry": {
    "type": "Polygon",
    "coordinates": [
      [
        [-0.142415838433851, 51.569120261237146],
        [-0.142500988225009, 51.56901370003986],
        [-0.142536449159828, 51.568922538613826],
        [-0.142224473906626, 51.568681998193036],
        [-0.141890159998804, 51.5683170076655],
        [-0.141197237084188, 51.56567125071571],
        [-0.141145569861941, 51.56541684560133],
        [-0.140690265803614, 51.56458772334795],
        [-0.140681602254329, 51.56455251556874],
        [-0.140816894550369, 51.56385324931671],
        [-0.14081722397734, 51.56363293984319],
        [-0.140592649267542, 51.5628425430119],
        [-0.140597464134983, 51.562547667340546],
        [-0.140996538068935, 51.56146500639401],
        [-0.141018066729655, 51.561397004943025],
        [-0.141005900859494, 51.560350991398245],
        [-0.140937758393521, 51.56021772287076],
        [-0.137384224064841, 51.55559679914687],
        [-0.137272336863435, 51.55547542325862],
        [-0.137017382258778, 51.555289727756055],
        [-0.13654410657092, 51.555045710463375],
        [-0.135337552392322, 51.55463716799944],
        [-0.135255925645658, 51.55458731144014],
        [-0.134639438999423, 51.553859913686075],
        [-0.134379502565283, 51.55362017833384],
        [-0.131244940056238, 51.55165040282142],
        [-0.131027072631845, 51.55151114620598],
        [-0.130344827707797, 51.549892423101305],
        [-0.130162805036894, 51.54961794972226],
        [-0.129834645734519, 51.54931956473114],
        [-0.129349964789771, 51.54896922463671],
        [-0.128235688518121, 51.54842629236076],
        [-0.12797235157616, 51.548306087859864],
        [-0.127138935684882, 51.54752752704485],
        [-0.127088595216515, 51.54745388437357],
        [-0.125741122244112, 51.54247930763312],
        [-0.12568993036032, 51.542110697193536],
        [-0.125008863715068, 51.54085705254627],
        [-0.124861051717415, 51.540593907912765],
        [-0.12337798214326, 51.53889129539352],
        [-0.123176237950961, 51.53864257294164],
        [-0.122606942969383, 51.53761911045639],
        [-0.12252093385923, 51.53736144789779],
        [-0.122340561559791, 51.536068137969046],
        [-0.122329080325337, 51.53582155980324],
        [-0.12255322262615, 51.530829813743495],
        [-0.122556070568083, 51.5307255462889],
        [-0.12121884275762, 51.53084801653309],
        [-0.119895945411922, 51.53093742897536],
        [-0.116532478183881, 51.53009482932646],
        [-0.116052881544685, 51.52987310598051],
        [-0.115841056615037, 51.52962600669164],
        [-0.115806972991196, 51.52954362735969],
        [-0.115726880432134, 51.52872492137816],
        [-0.115680221943364, 51.528318609484494],
        [-0.115476069675873, 51.52778117443387],
        [-0.115432378938077, 51.5277220211527],
        [-0.113437671304127, 51.52652272811422],
        [-0.112949346510852, 51.526408761505685],
        [-0.113735295183002, 51.525879153832676],
        [-0.114253379329995, 51.52551699208376],
        [-0.113612106412743, 51.5245345893878],
        [-0.113506817258386, 51.52443128057562],
        [-0.112563005753406, 51.52379381485612],
        [-0.112357874679325, 51.52369968939754],
        [-0.109244424164064, 51.52292744369411],
        [-0.108991224994869, 51.52301958204046],
        [-0.108336913323783, 51.52214664790994],
        [-0.108285699309619, 51.522095463775116],
        [-0.108274398548586, 51.52208988599916],
        [-0.107020506684813, 51.52218925733825],
        [-0.106501585284931, 51.52149385192938],
        [-0.106352486570689, 51.52126573229307],
        [-0.105489475180056, 51.51913675148522],
        [-0.105349880835, 51.51854098905728],
        [-0.107591348554496, 51.51784248443149],
        [-0.107826603652265, 51.5177653470264],
        [-0.113029753643663, 51.518291602778156],
        [-0.113821029388055, 51.518257568851745],
        [-0.113786935411085, 51.518105946064765],
        [-0.113742387561277, 51.51796314767751],
        [-0.111868718697341, 51.51579997153674],
        [-0.111606772509664, 51.515338034298594],
        [-0.112307924167555, 51.515146988922666],
        [-0.11385925141735, 51.51482033821313],
        [-0.114685944792849, 51.51598647229866],
        [-0.114718323634117, 51.5160400486933],
        [-0.11840546614525, 51.515018354766326],
        [-0.118623919743247, 51.5149634076376],
        [-0.118657798744664, 51.514840753415925],
        [-0.11870043044911, 51.51471554181714],
        [-0.119321661324444, 51.514539359302],
        [-0.119493133842036, 51.51450523930522],
        [-0.121316205519871, 51.51478804398793],
        [-0.121843355226266, 51.51486662816295],
        [-0.12209818704959, 51.5146279103305],
        [-0.122894150005695, 51.51514423310345],
        [-0.123977227314299, 51.514461044157464],
        [-0.124492921628362, 51.51415185542546],
        [-0.126198215254296, 51.51337158309342],
        [-0.126668723014768, 51.513144394190924],
        [-0.127278689228137, 51.51267932987875],
        [-0.127352768240246, 51.51266522538443],
        [-0.127452366236373, 51.51266142004408],
        [-0.127602630720743, 51.51265212871494],
        [-0.129120154958393, 51.51346229120044],
        [-0.129361421065789, 51.51348322521096],
        [-0.129852505620714, 51.51447753573691],
        [-0.130438373652641, 51.5159382677941],
        [-0.130427355228175, 51.51659454568553],
        [-0.130831772468763, 51.517101874190615],
        [-0.131586284502279, 51.51694393725054],
        [-0.132474733043332, 51.516717986521314],
        [-0.132568887975116, 51.51716461490213],
        [-0.133004664281194, 51.51736399189782],
        [-0.133622524750878, 51.51772812989723],
        [-0.13401335014741, 51.51754640471206],
        [-0.134070378665236, 51.517561699970074],
        [-0.134473967168683, 51.517949402021486],
        [-0.134342758756117, 51.51802105365181],
        [-0.135258244352406, 51.51893306381861],
        [-0.135851753997768, 51.51869430485261],
        [-0.136321904687525, 51.51914690495322],
        [-0.137033114923813, 51.51888483110645],
        [-0.138170828648098, 51.520004477137284],
        [-0.138206815269874, 51.520041018349374],
        [-0.141415920770927, 51.52264847789322],
        [-0.142901101577155, 51.523877894132625],
        [-0.143311931693976, 51.52387810301735],
        [-0.143521201026796, 51.523907493508474],
        [-0.1434146841201, 51.52454157653343],
        [-0.143496428348124, 51.52462290346974],
        [-0.14417896074512, 51.524641797180315],
        [-0.144154773160521, 51.52399575392754],
        [-0.144852940372011, 51.5240553573239],
        [-0.145198509863265, 51.523994277779984],
        [-0.145815556417239, 51.52527017511212],
        [-0.147195800277715, 51.525041094455496],
        [-0.151481133932415, 51.53462723530311],
        [-0.152732394033306, 51.53751913753774],
        [-0.154746515105458, 51.537348505424326],
        [-0.154994642056579, 51.53731014350234],
        [-0.159445287891836, 51.53636210996301],
        [-0.160486792729507, 51.53728128805469],
        [-0.163792702742069, 51.536218915282916],
        [-0.16496103269152, 51.5357794810238],
        [-0.166582851000042, 51.53690011880866],
        [-0.168044149072909, 51.53789053429246],
        [-0.169435988241869, 51.53856511189626],
        [-0.169542844528661, 51.53859735351523],
        [-0.170890201845994, 51.53779286283425],
        [-0.171981214700189, 51.53838268660228],
        [-0.173510929309229, 51.537632264351465],
        [-0.174152753575615, 51.53827712118036],
        [-0.173921606363296, 51.5394767109903],
        [-0.178571061350608, 51.53979268478307],
        [-0.178764604962484, 51.53978489863703],
        [-0.18018094743778, 51.53956138443499],
        [-0.180419910428493, 51.539499446314075],
        [-0.184224296099302, 51.53818704667233],
        [-0.184468131442965, 51.5380748182082],
        [-0.185490725090955, 51.53716262121164],
        [-0.187751178645322, 51.535033985567175],
        [-0.188583289289135, 51.534594518319466],
        [-0.188773542701423, 51.53452371801902],
        [-0.189324722101614, 51.53498634392225],
        [-0.189425549858758, 51.53506163797756],
        [-0.190825345946856, 51.5357594637365],
        [-0.191082141442696, 51.53593787661386],
        [-0.195442148843365, 51.53973777455816],
        [-0.196391405070776, 51.54060305370383],
        [-0.199405860993967, 51.543036840595654],
        [-0.201228955139592, 51.54460340557119],
        [-0.206336765713327, 51.549417896284396],
        [-0.206813705172681, 51.54983344075927],
        [-0.211430129001457, 51.55330392197865],
        [-0.21172992499829, 51.553530603184996],
        [-0.213462362732302, 51.55514954313196],
        [-0.213501320597123, 51.55518610577257],
        [-0.210844587553253, 51.55646300641218],
        [-0.210031115481941, 51.55675364222975],
        [-0.208856320321014, 51.55573935988778],
        [-0.20884510469996, 51.55573109554204],
        [-0.205992234342441, 51.55641589238213],
        [-0.205966107122616, 51.55641998908533],
        [-0.205837383048014, 51.5554387513311],
        [-0.205815225390851, 51.555305325369076],
        [-0.199991565131813, 51.55618730550319],
        [-0.199410001416561, 51.556192770085886],
        [-0.199673634308743, 51.55693239214761],
        [-0.199660219886497, 51.55697984592986],
        [-0.199498052077574, 51.55725072587808],
        [-0.199126196502171, 51.557717119021994],
        [-0.198580301698515, 51.55809721001286],
        [-0.198533228638345, 51.558156736236526],
        [-0.198500061296429, 51.558448479307785],
        [-0.198479123530127, 51.558759294121195],
        [-0.198229591651072, 51.55894070563075],
        [-0.197984631747114, 51.55911589216635],
        [-0.19762322851468, 51.55887923713282],
        [-0.196817748355821, 51.55918339323144],
        [-0.196680231290023, 51.559231637151456],
        [-0.196932063978417, 51.55986767147775],
        [-0.19694454248005, 51.55988045255918],
        [-0.196918670119451, 51.56060753833271],
        [-0.196919578747521, 51.56062104086088],
        [-0.196649268086013, 51.56067084103951],
        [-0.196594625165939, 51.560739242526786],
        [-0.195077738812581, 51.56046323319075],
        [-0.194851962599241, 51.56048134170527],
        [-0.194568978529781, 51.56070539429126],
        [-0.194481775751597, 51.56075800677319],
        [-0.193852733253177, 51.5608679243877],
        [-0.193788777132693, 51.56084355971838],
        [-0.192980477080546, 51.56118091811063],
        [-0.192319961895784, 51.561538532578524],
        [-0.190960062400148, 51.5617055151672],
        [-0.190766365507806, 51.56182392587437],
        [-0.190371184010459, 51.56276562897522],
        [-0.190144565736708, 51.56349501285691],
        [-0.189935187831903, 51.56480736839584],
        [-0.189900317461103, 51.564958801695454],
        [-0.189311198131013, 51.565478464366166],
        [-0.189252091496271, 51.565513521795644],
        [-0.189149618708971, 51.56555060767742],
        [-0.188701216822694, 51.56557875722208],
        [-0.188384777770119, 51.565771704551025],
        [-0.188414965178648, 51.56581083783608],
        [-0.187277670298913, 51.56618174497548],
        [-0.187192855692356, 51.566210109566796],
        [-0.187016767787897, 51.566465470379235],
        [-0.186220317456424, 51.56690008352625],
        [-0.18616754688948, 51.56692084954612],
        [-0.18400810625654, 51.56741350432402],
        [-0.183811365964061, 51.56749858476706],
        [-0.183481789946379, 51.56776685168523],
        [-0.183718876740627, 51.56797285022689],
        [-0.18083377104629, 51.569436180914515],
        [-0.180974564410603, 51.569668568506344],
        [-0.178588933372567, 51.56996697930511],
        [-0.178538064885481, 51.56997608134587],
        [-0.178101293015209, 51.57025346021653],
        [-0.178078315803453, 51.57043115268922],
        [-0.176953769559053, 51.570189777049244],
        [-0.176514277084413, 51.57006604735791],
        [-0.174887838984383, 51.5694220856629],
        [-0.174406861550967, 51.56925364002926],
        [-0.173995600690083, 51.569614130622284],
        [-0.17385150539412, 51.56971709922955],
        [-0.173853497239973, 51.569919459007764],
        [-0.173730919520401, 51.56991755136317],
        [-0.173743523209864, 51.57043121297912],
        [-0.173651818855192, 51.57077509349323],
        [-0.173149944223896, 51.57141563259846],
        [-0.173073656945289, 51.57148278708715],
        [-0.171696988037216, 51.57223828859537],
        [-0.171358438422831, 51.57240386880238],
        [-0.169946937383199, 51.57276763820797],
        [-0.169913442448514, 51.57277520899573],
        [-0.167107121644071, 51.57297870039837],
        [-0.166853586828924, 51.57296754615832],
        [-0.164176756782247, 51.57249945980918],
        [-0.164090190693042, 51.57249900474146],
        [-0.160552767066052, 51.57279610998338],
        [-0.160545556210092, 51.57279599695096],
        [-0.15981356190618, 51.57259028451479],
        [-0.158862744708773, 51.57219319315124],
        [-0.151177288655175, 51.57161644278429],
        [-0.150350712265377, 51.57157374186216],
        [-0.149162708590226, 51.5710856058555],
        [-0.148067496075521, 51.57080035227513],
        [-0.14415337646283, 51.57000113545912],
        [-0.143855388160211, 51.56991279269502],
        [-0.142417970320485, 51.569280360187726],
        [-0.142412312034104, 51.569277572886485],
        [-0.142415838433851, 51.569120261237146]
      ]
    ]
  }
}
