{
  "type": "Feature",
  "properties": {
    "name": "City of London",
    "level": 2,
    "londonBorough": true
  },
  "geometry": {
    "type": "Polygon",
    "coordinates": [
      [
        [-0.072763983162958, 51.510804329303305],
        [-0.072749283487382, 51.510640422629955],
        [-0.072759675947561, 51.51036002461644],
        [-0.072914191983886, 51.510147640714266],
        [-0.072990936290159, 51.510104838004025],
        [-0.074618042261631, 51.50996609739774],
        [-0.074834476883796, 51.509993930331184],
        [-0.07556654098455, 51.509755051607215],
        [-0.075584049510972, 51.50974994334505],
        [-0.075776164620423, 51.510081324919675],
        [-0.075781396248303, 51.5101281722028],
        [-0.076082077365143, 51.5101061272654],
        [-0.076150877749094, 51.51045706744227],
        [-0.076276396403619, 51.510453730778416],
        [-0.076285572048482, 51.510543807133395],
        [-0.076558703888346, 51.510525805374165],
        [-0.076895390667622, 51.5105043488286],
        [-0.076882642001862, 51.5102595414833],
        [-0.076919172864251, 51.51021337904625],
        [-0.077578064328278, 51.51017202408202],
        [-0.077789454540745, 51.510114339309276],
        [-0.078544126060578, 51.509440571550165],
        [-0.078882546568026, 51.50941194368379],
        [-0.079049186922615, 51.509116119425755],
        [-0.079099204661686, 51.50905758760362],
        [-0.078736885807975, 51.508832233707956],
        [-0.078721233918478, 51.50882748100969],
        [-0.07910271251827, 51.50822043545022],
        [-0.079243270843515, 51.50789360891421],
        [-0.079780825909749, 51.507584074000754],
        [-0.080189852971354, 51.50686956495858],
        [-0.08489102164965, 51.507646049488045],
        [-0.085187454498671, 51.5076904570176],
        [-0.091104976599141, 51.50826172966332],
        [-0.091928126259063, 51.508357856201265],
        [-0.095304230703642, 51.509194188014924],
        [-0.095729898335603, 51.509284731051636],
        [-0.098545392294466, 51.50960558373806],
        [-0.099316457851599, 51.509672936769036],
        [-0.103613573402953, 51.50985220610687],
        [-0.10417988287463, 51.50985326826223],
        [-0.104183172834717, 51.50966987335355],
        [-0.104037361422747, 51.50964143789533],
        [-0.104058045554643, 51.50962918269181],
        [-0.104204222222725, 51.50957938881269],
        [-0.104196579385814, 51.50913863012922],
        [-0.104089182571358, 51.5090874350248],
        [-0.104213420052698, 51.509045379783025],
        [-0.104204634529688, 51.5084238522363],
        [-0.104687997730104, 51.5084091831455],
        [-0.104750240366992, 51.50961788895816],
        [-0.104772238216234, 51.50964342358105],
        [-0.104657237123527, 51.50967124059734],
        [-0.104640167302166, 51.50987419643493],
        [-0.111073478540892, 51.50979903384148],
        [-0.111463803135594, 51.50976934943755],
        [-0.111557419476236, 51.51144346995446],
        [-0.111530446690773, 51.51164267009539],
        [-0.111567167470097, 51.51173048900769],
        [-0.111710724647554, 51.511953117630874],
        [-0.111887424519605, 51.511966753400024],
        [-0.112157557053046, 51.512265157877145],
        [-0.112188973132893, 51.51230702923471],
        [-0.112058312949978, 51.512330105197435],
        [-0.112200554258422, 51.512514943324646],
        [-0.112414865619708, 51.51276928447261],
        [-0.112374893395717, 51.5128297904306],
        [-0.112213940965334, 51.51288834920102],
        [-0.11233754429199, 51.51303601773227],
        [-0.111738617847793, 51.51319543657775],
        [-0.11185827256066, 51.51347343386252],
        [-0.111980678347953, 51.513684930502286],
        [-0.111101484583058, 51.51382544617066],
        [-0.111137713382533, 51.51396001846497],
        [-0.111606772509664, 51.515338034298594],
        [-0.111868718697341, 51.51579997153674],
        [-0.113448579262132, 51.51764368374385],
        [-0.113719088879095, 51.51793399689156],
        [-0.113812505873787, 51.51821966315606],
        [-0.113821029388055, 51.518257568851745],
        [-0.112339100063374, 51.51826250456581],
        [-0.111626441726772, 51.518207868916015],
        [-0.108191643386771, 51.517791018968005],
        [-0.107826603652265, 51.5177653470264],
        [-0.10080270908382, 51.519987188870395],
        [-0.100430083645909, 51.52010884887118],
        [-0.098451280054015, 51.52058666257787],
        [-0.097670128210815, 51.5207223730132],
        [-0.097568074596066, 51.52130343476411],
        [-0.097516672215251, 51.52160295204592],
        [-0.097374543324533, 51.52172744154776],
        [-0.097383667155994, 51.52185438442641],
        [-0.097972410815338, 51.52287739250766],
        [-0.096786275636301, 51.52332126849249],
        [-0.096623651322456, 51.523176547485726],
        [-0.09646979721747, 51.522821543034645],
        [-0.095987564896766, 51.52290903709744],
        [-0.095088625394926, 51.52313724023105],
        [-0.094410129333398, 51.52174496402261],
        [-0.094344662056499, 51.52148311649676],
        [-0.093875277434959, 51.52153933663904],
        [-0.093615326898829, 51.521585470213694],
        [-0.093301537171222, 51.52133307462623],
        [-0.092516763635231, 51.521485777844966],
        [-0.092374468004252, 51.5210275413272],
        [-0.090263607794715, 51.52079985196465],
        [-0.089693459590328, 51.52071503009857],
        [-0.089704633412887, 51.52068913367154],
        [-0.090004267967259, 51.51997011258242],
        [-0.086357092683454, 51.51884414717124],
        [-0.086227409628961, 51.51880875879518],
        [-0.085376415227545, 51.52012846744923],
        [-0.085217864214879, 51.520334506648005],
        [-0.083325471531582, 51.519814402822064],
        [-0.081795013774894, 51.5207327035696],
        [-0.081762266305304, 51.52075734719293],
        [-0.081284173950153, 51.521432063012334],
        [-0.081050361427031, 51.5219534037536],
        [-0.079769235046785, 51.52167075358074],
        [-0.078471456521479, 51.521510115418195],
        [-0.079173588526952, 51.51945152667285],
        [-0.07942972551766, 51.51884512556304],
        [-0.078334388286586, 51.51894498756248],
        [-0.078082623445591, 51.518967840141315],
        [-0.078048166192559, 51.51848527367229],
        [-0.078146869114682, 51.51846890586283],
        [-0.076857622446976, 51.51663666928838],
        [-0.076819148081, 51.51659197480572],
        [-0.07396906207515, 51.514453532784835],
        [-0.073664148492515, 51.51413108701874],
        [-0.072763983162958, 51.510804329303305]
      ]
    ]
  }
}
