{
  "type": "Feature",
  "properties": {
    "name": "City of London",
    "level": 2,
    "londonBorough": true,
    "center": [-0.091799, 51.51422]
  },
  "geometry": {
    "type": "Polygon",
    "coordinates": [
      [
        [-0.072763983162958, 51.510804329303305],
        [-0.072749283487382, 51.510640422629955],
        [-0.072759675947561, 51.51036002461644],
        [-0.072781014363816, 51.51029832639058],
        [-0.072835361770495, 51.510239868342545],
        [-0.072914191983886, 51.510147640714266],
        [-0.072990936290159, 51.510104838004025],
        [-0.07314070863099, 51.51010729875598],
        [-0.073521127509333, 51.51010815260455],
        [-0.073833027154431, 51.51009349177766],
        [-0.07404957563902, 51.510050286580906],
        [-0.074196884443133, 51.510008641846184],
        [-0.074421466385447, 51.50994578418399],
        [-0.074618042261631, 51.50996609739774],
        [-0.074834476883796, 51.509993930331184],
        [-0.075411844294958, 51.50980107311137],
        [-0.07556654098455, 51.509755051607215],
        [-0.075584049510972, 51.50974994334505],
        [-0.075621379899841, 51.50978742548159],
        [-0.07564082197363, 51.50980483040419],
        [-0.075693539296361, 51.50985335608895],
        [-0.075699186149557, 51.5098561465159],
        [-0.075758459217432, 51.50988589530166],
        [-0.075776164620423, 51.510081324919675],
        [-0.075781396248303, 51.5101281722028],
        [-0.076082077365143, 51.5101061272654],
        [-0.076150877749094, 51.51045706744227],
        [-0.076172517592043, 51.510456523152506],
        [-0.076276396403619, 51.510453730778416],
        [-0.076285572048482, 51.510543807133395],
        [-0.076558703888346, 51.510525805374165],
        [-0.076895390667622, 51.5105043488286],
        [-0.07689394845282, 51.510470153359286],
        [-0.076886474575148, 51.510339638331494],
        [-0.076882642001862, 51.5102595414833],
        [-0.076919172864251, 51.51021337904625],
        [-0.077078116412791, 51.510203395525245],
        [-0.077578064328278, 51.51017202408202],
        [-0.077789454540745, 51.510114339309276],
        [-0.077963246897695, 51.51002546321934],
        [-0.078166745513518, 51.50988131963883],
        [-0.078398165710406, 51.50965580068143],
        [-0.078502218460758, 51.50951182563012],
        [-0.078515172773934, 51.50944369423021],
        [-0.078544126060578, 51.509440571550165],
        [-0.078882546568026, 51.50941194368379],
        [-0.078962478967917, 51.509121893269516],
        [-0.079049186922615, 51.509116119425755],
        [-0.079099204661686, 51.50905758760362],
        [-0.079089237421973, 51.50905472657861],
        [-0.07874826575514, 51.50893853262734],
        [-0.078790890699313, 51.50885020429916],
        [-0.078736885807975, 51.508832233707956],
        [-0.078721233918478, 51.50882748100969],
        [-0.078736390850263, 51.50880974413823],
        [-0.078871287018594, 51.50865188588834],
        [-0.079047063796813, 51.50841286455967],
        [-0.079054785843794, 51.50833205777649],
        [-0.07910271251827, 51.50822043545022],
        [-0.079243270843515, 51.50789360891421],
        [-0.07934502339856, 51.50790696568589],
        [-0.07937942556116, 51.507842782460415],
        [-0.079404582673627, 51.50779283596302],
        [-0.079550057386693, 51.50772597528536],
        [-0.079757142877245, 51.50759897363112],
        [-0.079780825909749, 51.507584074000754],
        [-0.080189852971354, 51.50686956495858],
        [-0.080295319272986, 51.506897369848396],
        [-0.080776642299568, 51.50699966962275],
        [-0.081059842132556, 51.50705016590111],
        [-0.081127070434161, 51.5070620569815],
        [-0.081397499532086, 51.50710784719721],
        [-0.081921305428029, 51.50719375131106],
        [-0.082668929260264, 51.50730309602448],
        [-0.083466468049985, 51.507424941999275],
        [-0.083935401742945, 51.5074793655808],
        [-0.08420705016224, 51.50753056474801],
        [-0.08489102164965, 51.507646049488045],
        [-0.085187454498671, 51.5076904570176],
        [-0.085675829530847, 51.50772810512058],
        [-0.085737601205727, 51.507732710413],
        [-0.085776407348646, 51.507735142320826],
        [-0.086101294866882, 51.50775393348326],
        [-0.086767410322484, 51.507814261110454],
        [-0.087659692404074, 51.507876474449674],
        [-0.087750228098525, 51.50788244695038],
        [-0.087757390776973, 51.50788346299465],
        [-0.088098582942169, 51.50792589514745],
        [-0.08862350225402, 51.507985708852175],
        [-0.088969467483617, 51.50801742516015],
        [-0.089064060649231, 51.50802975755901],
        [-0.089502728762196, 51.508084564899406],
        [-0.090326773394422, 51.5081591351322],
        [-0.091104976599141, 51.50826172966332],
        [-0.091928126259063, 51.508357856201265],
        [-0.092361092141882, 51.50844583253623],
        [-0.092650914380335, 51.50851079649254],
        [-0.092823475926089, 51.508554069295386],
        [-0.093170842340677, 51.5086559379707],
        [-0.094013962301485, 51.508895356280654],
        [-0.09494901750435, 51.5091074856264],
        [-0.095304230703642, 51.509194188014924],
        [-0.095729898335603, 51.509284731051636],
        [-0.096016122387663, 51.50933254232495],
        [-0.096850074489841, 51.50944679459683],
        [-0.097732715348588, 51.509533953686585],
        [-0.098545392294466, 51.50960558373806],
        [-0.099316457851599, 51.509672936769036],
        [-0.099951797765633, 51.50971200754203],
        [-0.100210609766175, 51.50972609196874],
        [-0.101587826525458, 51.50980684412502],
        [-0.103300855396657, 51.50981747383213],
        [-0.103613573402953, 51.50985220610687],
        [-0.10417988287463, 51.50985326826223],
        [-0.104183172834717, 51.50966987335355],
        [-0.104037361422747, 51.50964143789533],
        [-0.104058045554643, 51.50962918269181],
        [-0.104204222222725, 51.50957938881269],
        [-0.104196579385814, 51.50913863012922],
        [-0.104089182571358, 51.5090874350248],
        [-0.104213420052698, 51.509045379783025],
        [-0.104223417485352, 51.50880454092359],
        [-0.104235347672389, 51.508621285647976],
        [-0.104205895922106, 51.50849761157821],
        [-0.104204634529688, 51.5084238522363],
        [-0.104687997730104, 51.5084091831455],
        [-0.104734275750898, 51.50847467739641],
        [-0.104741880738663, 51.508569222113664],
        [-0.1047021632961, 51.50862343486152],
        [-0.104684425551452, 51.509016122829294],
        [-0.104682560808681, 51.50906105546353],
        [-0.104743143063539, 51.50909440766681],
        [-0.104764259950661, 51.509106439228226],
        [-0.104688889205039, 51.509116911565044],
        [-0.104657211748281, 51.50946351221071],
        [-0.104659959742146, 51.509605638959066],
        [-0.104743375367705, 51.50960968472454],
        [-0.104750240366992, 51.50961788895816],
        [-0.104772238216234, 51.50964342358105],
        [-0.104661594814084, 51.509670411764034],
        [-0.104657237123527, 51.50967124059734],
        [-0.104640167302166, 51.50987419643493],
        [-0.105179114572176, 51.50987481156993],
        [-0.105587890265474, 51.50988681053796],
        [-0.10651223636974, 51.50990713286381],
        [-0.106986266187899, 51.509909389371096],
        [-0.107359709671206, 51.50990462528127],
        [-0.107921848859046, 51.50990200503589],
        [-0.108494627361358, 51.50988606486001],
        [-0.109188414629608, 51.509871173563766],
        [-0.109939073737012, 51.50984010884612],
        [-0.110382163951879, 51.509823867925135],
        [-0.11061720440104, 51.50982046051444],
        [-0.111073478540892, 51.50979903384148],
        [-0.111463803135594, 51.50976934943755],
        [-0.111574364261374, 51.5107549139975],
        [-0.111586694733863, 51.5109097842772],
        [-0.111574180927742, 51.511316944984344],
        [-0.111557419476236, 51.51144346995446],
        [-0.111530446690773, 51.51164267009539],
        [-0.111567167470097, 51.51173048900769],
        [-0.111710724647554, 51.511953117630874],
        [-0.111770684204657, 51.512001743429174],
        [-0.111887424519605, 51.511966753400024],
        [-0.112157557053046, 51.512265157877145],
        [-0.112167118462635, 51.512277901334656],
        [-0.112188973132893, 51.51230702923471],
        [-0.112058312949978, 51.512330105197435],
        [-0.112200554258422, 51.512514943324646],
        [-0.112414865619708, 51.51276928447261],
        [-0.112347426014599, 51.51279697522094],
        [-0.112374893395717, 51.5128297904306],
        [-0.112213940965334, 51.51288834920102],
        [-0.11233754429199, 51.51303601773227],
        [-0.111738617847793, 51.51319543657775],
        [-0.11185827256066, 51.51347343386252],
        [-0.111980678347953, 51.513684930502286],
        [-0.11133204834792, 51.513791390476506],
        [-0.111101484583058, 51.51382544617066],
        [-0.111137713382533, 51.51396001846497],
        [-0.111410184131691, 51.514794417477425],
        [-0.111552439902293, 51.51522295428924],
        [-0.111575875300895, 51.515283581615684],
        [-0.111606772509664, 51.515338034298594],
        [-0.111868718697341, 51.51579997153674],
        [-0.112133271131032, 51.51619900232849],
        [-0.112153873034006, 51.51622361377482],
        [-0.112860855181006, 51.51704252045796],
        [-0.113448579262132, 51.51764368374385],
        [-0.113719088879095, 51.51793399689156],
        [-0.113742387561277, 51.51796314767751],
        [-0.113786935411085, 51.518105946064765],
        [-0.113812505873787, 51.51821966315606],
        [-0.113821029388055, 51.518257568851745],
        [-0.113029753643663, 51.518291602778156],
        [-0.112339100063374, 51.51826250456581],
        [-0.111626441726772, 51.518207868916015],
        [-0.110475959873204, 51.51807513554144],
        [-0.109532243108608, 51.517926839270224],
        [-0.109033803038612, 51.51788553210952],
        [-0.108191643386771, 51.517791018968005],
        [-0.107826603652265, 51.5177653470264],
        [-0.107591348554496, 51.51784248443149],
        [-0.107406146402478, 51.5178943506648],
        [-0.107049250568442, 51.518019882365195],
        [-0.106531089343907, 51.518176082138766],
        [-0.106199831432056, 51.518274148280256],
        [-0.105837316887555, 51.51839598858444],
        [-0.105349880835, 51.51854098905728],
        [-0.105341089186077, 51.518544444058584],
        [-0.104756083036306, 51.51874811597086],
        [-0.103256725550231, 51.519206778709666],
        [-0.102083958051062, 51.51957538649018],
        [-0.101820755227668, 51.51966554899242],
        [-0.101575098330778, 51.51974970011737],
        [-0.101072632039125, 51.51990882773828],
        [-0.10080270908382, 51.519987188870395],
        [-0.100430083645909, 51.52010884887118],
        [-0.100300985468676, 51.5201283401474],
        [-0.100257472566613, 51.52013482943082],
        [-0.100110171884798, 51.52014143611685],
        [-0.099654539280137, 51.520283331210535],
        [-0.09934830081969, 51.520368294674434],
        [-0.098901867811434, 51.52049684712038],
        [-0.098451280054015, 51.52058666257787],
        [-0.097670128210815, 51.5207223730132],
        [-0.097624077240186, 51.521031868952804],
        [-0.097568074596066, 51.52130343476411],
        [-0.097516672215251, 51.52160295204592],
        [-0.097403209671451, 51.52159301836536],
        [-0.097393105913867, 51.52162792540027],
        [-0.097374543324533, 51.52172744154776],
        [-0.097383667155994, 51.52185438442641],
        [-0.097512100143367, 51.52223145674712],
        [-0.097640053710537, 51.52248172625437],
        [-0.097701057621125, 51.52257443957872],
        [-0.097787204992141, 51.52268644497103],
        [-0.097901676770431, 51.52281059992215],
        [-0.097933498583072, 51.52284258984989],
        [-0.097972410815338, 51.52287739250766],
        [-0.096786275636301, 51.52332126849249],
        [-0.096713806492414, 51.52319239848415],
        [-0.096697718946384, 51.52316336130026],
        [-0.096684641579692, 51.523165846862234],
        [-0.096623651322456, 51.523176547485726],
        [-0.09646979721747, 51.522821543034645],
        [-0.096017382618236, 51.52295448383798],
        [-0.095987564896766, 51.52290903709744],
        [-0.095088625394926, 51.52313724023105],
        [-0.09462281570156, 51.52231315118177],
        [-0.094410129333398, 51.52174496402261],
        [-0.094344662056499, 51.52148311649676],
        [-0.093875277434959, 51.52153933663904],
        [-0.093615326898829, 51.521585470213694],
        [-0.093593150920269, 51.52149518428825],
        [-0.09341461883491, 51.52152465560459],
        [-0.093301537171222, 51.52133307462623],
        [-0.092516763635231, 51.521485777844966],
        [-0.092374468004252, 51.5210275413272],
        [-0.092176094997457, 51.52101442307018],
        [-0.091821461279737, 51.52098077735851],
        [-0.091372019705481, 51.52093929308198],
        [-0.090926249151122, 51.52087898246434],
        [-0.090263607794715, 51.52079985196465],
        [-0.089693459590328, 51.52071503009857],
        [-0.089704633412887, 51.52068913367154],
        [-0.090004267967259, 51.51997011258242],
        [-0.089780487251857, 51.51990981520085],
        [-0.089303016937213, 51.51978063862789],
        [-0.088129334299429, 51.51941080356322],
        [-0.08754287171827, 51.51919980932502],
        [-0.086357092683454, 51.51884414717124],
        [-0.086227409628961, 51.51880875879518],
        [-0.085904578895836, 51.519289089246605],
        [-0.085813753784203, 51.51942699172964],
        [-0.085556094005875, 51.51983104876251],
        [-0.085376415227545, 51.52012846744923],
        [-0.085217864214879, 51.520334506648005],
        [-0.083325471531582, 51.519814402822064],
        [-0.082733918801247, 51.52006821685317],
        [-0.082325749509112, 51.52031423523244],
        [-0.082017231570767, 51.52055558696931],
        [-0.081795013774894, 51.5207327035696],
        [-0.081762266305304, 51.52075734719293],
        [-0.081549347427687, 51.52102184328708],
        [-0.081284173950153, 51.521432063012334],
        [-0.081050361427031, 51.5219534037536],
        [-0.080758993334994, 51.52188928562105],
        [-0.079769235046785, 51.52167075358074],
        [-0.078471456521479, 51.521510115418195],
        [-0.078730546817431, 51.521039552058724],
        [-0.078810956347262, 51.52073871886747],
        [-0.078843244873609, 51.52065651610555],
        [-0.07884055305592, 51.520651975731504],
        [-0.078990040551453, 51.52011397076717],
        [-0.079173588526952, 51.51945152667285],
        [-0.07942972551766, 51.51884512556304],
        [-0.078334388286586, 51.51894498756248],
        [-0.078082623445591, 51.518967840141315],
        [-0.078048166192559, 51.51848527367229],
        [-0.078146869114682, 51.51846890586283],
        [-0.077965818049897, 51.518250117379026],
        [-0.077803158241197, 51.51810806687416],
        [-0.077734090800981, 51.518036792875705],
        [-0.077686288588312, 51.51797396067802],
        [-0.077643297022024, 51.51786534518069],
        [-0.077402954959673, 51.51744594884435],
        [-0.077370467864347, 51.51739595715373],
        [-0.076918082315488, 51.51670690345086],
        [-0.076876878584012, 51.516658567206676],
        [-0.076857622446976, 51.51663666928838],
        [-0.076819148081, 51.51659197480572],
        [-0.076433996923215, 51.51625742977455],
        [-0.075146073145563, 51.51535412823059],
        [-0.074813780952172, 51.51509957987055],
        [-0.074441998502045, 51.51479042672028],
        [-0.074306537385524, 51.51468748578366],
        [-0.07396906207515, 51.514453532784835],
        [-0.073664148492515, 51.51413108701874],
        [-0.073487346466573, 51.5136758560686],
        [-0.073391879517485, 51.513376633356074],
        [-0.073389226571667, 51.51337119422601],
        [-0.073267422664976, 51.51294474330285],
        [-0.073143047730701, 51.51234019676443],
        [-0.073063167843528, 51.51180832176761],
        [-0.073043993856459, 51.51168211051992],
        [-0.072983512863499, 51.51144191397504],
        [-0.072916512495321, 51.51125376727756],
        [-0.072827114018308, 51.51108413692848],
        [-0.072771181840381, 51.51087279127036],
        [-0.072763983162958, 51.510804329303305]
      ]
    ]
  }
}
