{
  "type": "Feature",
  "properties": {
    "name": "City of Westminster",
    "level": 2,
    "londonBorough": true
  },
  "geometry": {
    "type": "Polygon",
    "coordinates": [
      [
        [-0.122826043980215, 51.494536741099267],
        [-0.122882819624582, 51.494241794923433],
        [-0.122924385591666, 51.494071601748544],
        [-0.123009214597131, 51.493689876762986],
        [-0.123084297242947, 51.493510328173599],
        [-0.123184738729147, 51.493274532301008],
        [-0.123253323295323, 51.493112864709865],
        [-0.123372588733924, 51.49287467216115],
        [-0.123461695616977, 51.492704340306084],
        [-0.123524668304525, 51.492609127654568],
        [-0.123594838757787, 51.492514030141308],
        [-0.123726874400152, 51.49238575073371],
        [-0.123806123801818, 51.492244936328404],
        [-0.123875443128066, 51.49210036597951],
        [-0.123940110451798, 51.491928743500488],
        [-0.123953727797203, 51.491772490893091],
        [-0.123946745951653, 51.491521486900645],
        [-0.123948847313978, 51.491400121017016],
        [-0.123972874985046, 51.49130608357742],
        [-0.124030307692428, 51.491205386489078],
        [-0.124189355072507, 51.490980419076784],
        [-0.12455996688775, 51.490444095733075],
        [-0.124699300675958, 51.490278163222797],
        [-0.124846126085978, 51.490105156299684],
        [-0.12502609472925, 51.489896708905562],
        [-0.125487857878908, 51.489385220699724],
        [-0.12626841542937, 51.488546100446698],
        [-0.126615520521382, 51.488160470010435],
        [-0.126764768666104, 51.487998290483382],
        [-0.127144313236142, 51.487664434277718],
        [-0.127166752047314, 51.487644109772759],
        [-0.12723997346849, 51.487579633515708],
        [-0.127393244741831, 51.48745978246864],
        [-0.127527471048139, 51.487347720413737],
        [-0.1277435571625, 51.487206390541303],
        [-0.127904280714238, 51.487080363029371],
        [-0.128198486363671, 51.486825174747004],
        [-0.128417884071189, 51.486638034466203],
        [-0.128846791362542, 51.486329240570278],
        [-0.12913623208645, 51.486119835970165],
        [-0.129308499974687, 51.485993091485049],
        [-0.129491215607516, 51.485892591823628],
        [-0.12952646001353, 51.485876068164075],
        [-0.129583699941534, 51.485850003529521],
        [-0.129777010324769, 51.48577215381362],
        [-0.129967000059371, 51.485705041893652],
        [-0.129987671860629, 51.48572785294791],
        [-0.130371122537605, 51.485614366349317],
        [-0.130708694566541, 51.485495650873581],
        [-0.132293297655707, 51.484890522607536],
        [-0.132392460193874, 51.484860628063295],
        [-0.132627209721, 51.484790627722489],
        [-0.132791025664795, 51.484729389230907],
        [-0.132880001835031, 51.484702029839958],
        [-0.133061831505188, 51.484658163654458],
        [-0.135147288888003, 51.484272295263068],
        [-0.136665275425945, 51.483991579262245],
        [-0.137143520140016, 51.483919144175637],
        [-0.137376573303153, 51.483890473165388],
        [-0.13779289902241, 51.4838530220701],
        [-0.138110396959823, 51.483837380955713],
        [-0.138303305833152, 51.483839544602894],
        [-0.138566108422154, 51.48382303386456],
        [-0.138939411101119, 51.483816369654058],
        [-0.138989751597674, 51.483818067862551],
        [-0.140077348705092, 51.483848812645462],
        [-0.140356106808241, 51.483864924144086],
        [-0.140531085801657, 51.483882986354345],
        [-0.140745928091382, 51.483912471428951],
        [-0.141062160560648, 51.483963347099809],
        [-0.141695482483223, 51.484079497522046],
        [-0.142538589096756, 51.484207960314386],
        [-0.14292990709676, 51.48428969567707],
        [-0.143364772531489, 51.484363126691157],
        [-0.14345494159711, 51.484377143896495],
        [-0.144160320816393, 51.484421582160977],
        [-0.144276471867244, 51.484434211426269],
        [-0.14458968745451, 51.484488626803177],
        [-0.144789485141267, 51.484534052954857],
        [-0.144921068586728, 51.484556817531384],
        [-0.145170571460119, 51.484584145021401],
        [-0.146188519212891, 51.484628119290299],
        [-0.147255024996661, 51.484646773576806],
        [-0.147758132807996, 51.484635837332533],
        [-0.148856577273213, 51.484612716610542],
        [-0.149384626923242, 51.484590476831663],
        [-0.149843876983426, 51.484559955145542],
        [-0.150003790792139, 51.485484212977362],
        [-0.15008652464825, 51.485895577742866],
        [-0.150119236762621, 51.485977026598384],
        [-0.150195225488876, 51.486092430505494],
        [-0.150366710862066, 51.48623272128642],
        [-0.151413790333243, 51.486875112730196],
        [-0.151724786434338, 51.487056268556813],
        [-0.153485610135063, 51.488180197902267],
        [-0.154917457683127, 51.489034544217688],
        [-0.155873887258504, 51.489606226052345],
        [-0.155196294452555, 51.490048791440408],
        [-0.15546112079708, 51.490446829732193],
        [-0.155568803417033, 51.490669739471102],
        [-0.155654748263852, 51.490895904223819],
        [-0.155701811019961, 51.49105041649338],
        [-0.155821066522154, 51.491450660605452],
        [-0.154817960436755, 51.49196274225347],
        [-0.155989544527351, 51.493201455469226],
        [-0.156008901871484, 51.493221543388344],
        [-0.155015220429941, 51.493856073222318],
        [-0.156013733707651, 51.494494060342177],
        [-0.155938789240209, 51.49463766137255],
        [-0.155847340592457, 51.494726148479828],
        [-0.155781781150783, 51.494779971846881],
        [-0.155636591194195, 51.494879303910267],
        [-0.155319399041975, 51.495064056979317],
        [-0.155547472267631, 51.495338319022736],
        [-0.155633048717721, 51.495502429439199],
        [-0.155678397059357, 51.495628138575064],
        [-0.156047583827299, 51.497510681368979],
        [-0.1560964963243, 51.497762341471343],
        [-0.157239692983487, 51.498566255581245],
        [-0.157874142364644, 51.499017755125131],
        [-0.158436489145052, 51.501079575677402],
        [-0.158500569189168, 51.501205577671421],
        [-0.158517114465937, 51.501259792480639],
        [-0.158525771932817, 51.501330969189226],
        [-0.158525318999339, 51.501413693100233],
        [-0.158502506538488, 51.501514950178667],
        [-0.15846862542109, 51.502248206324218],
        [-0.158477192615514, 51.502250139347616],
        [-0.158600348400388, 51.50223318883301],
        [-0.159173298585307, 51.502102799583739],
        [-0.160588833184212, 51.501765309520515],
        [-0.160781508805135, 51.501703585315113],
        [-0.160888577133232, 51.501656704867585],
        [-0.161023835858289, 51.501589583615754],
        [-0.161187610237715, 51.5014941333135],
        [-0.161344329028402, 51.501394975169845],
        [-0.161570140276647, 51.501225859176202],
        [-0.162367045578269, 51.500470389208921],
        [-0.162598969407924, 51.500292374536372],
        [-0.162857634744476, 51.500130065567369],
        [-0.165505721015219, 51.498696748289355],
        [-0.165803680918363, 51.499241857871098],
        [-0.167643829079478, 51.498300332945107],
        [-0.167928904509375, 51.498520606623707],
        [-0.168051202577291, 51.498884015404663],
        [-0.168202273715061, 51.498996982848809],
        [-0.168414542452028, 51.499020980927526],
        [-0.169643922510673, 51.498902589412161],
        [-0.171499552769604, 51.498687839425109],
        [-0.171800980024058, 51.498608009295047],
        [-0.171805440577608, 51.498532541902158],
        [-0.172472152565904, 51.498469194833518],
        [-0.172482443212448, 51.498392019772531],
        [-0.173559429279366, 51.498300887683293],
        [-0.173566946169616, 51.498220971590612],
        [-0.179570784406172, 51.497778368468673],
        [-0.179749298590097, 51.498685783130306],
        [-0.180336082308999, 51.501460975902113],
        [-0.180931267843866, 51.501421649702849],
        [-0.18137473172232, 51.50142942649051],
        [-0.181657459663401, 51.501421220884851],
        [-0.182061258708554, 51.501448163536196],
        [-0.182408757715777, 51.501477829261653],
        [-0.182615429318555, 51.501498117770218],
        [-0.183080978559071, 51.501566479913343],
        [-0.184259202691047, 51.501793352661622],
        [-0.184409344376091, 51.502112212112912],
        [-0.185621680701772, 51.504890762538949],
        [-0.186883414238961, 51.507771676856507],
        [-0.187933515567751, 51.510179000459381],
        [-0.188562697224446, 51.510157245848198],
        [-0.189720228681057, 51.510076200439435],
        [-0.190937355230979, 51.510018543973715],
        [-0.191722984912479, 51.509939835193862],
        [-0.192143741166405, 51.509868087068853],
        [-0.192984737818292, 51.511813524673784],
        [-0.193655368698242, 51.5116916657704],
        [-0.194064975201054, 51.511756424194004],
        [-0.19436728380838, 51.512712479421133],
        [-0.195072585586659, 51.515031695469084],
        [-0.195767374323923, 51.514956057505159],
        [-0.199207744084053, 51.514551212570581],
        [-0.199893991924037, 51.516775684308797],
        [-0.199895396925342, 51.516776605114558],
        [-0.199944524355674, 51.51684660080047],
        [-0.200747479510419, 51.517976679918043],
        [-0.201488114023965, 51.517799197401629],
        [-0.202379404320592, 51.518846989680469],
        [-0.202970231622411, 51.519472923392648],
        [-0.203209563858849, 51.519764347442731],
        [-0.203278998841307, 51.519867924703377],
        [-0.203303610236607, 51.519938442614723],
        [-0.203353257659245, 51.520068694010774],
        [-0.203419192133976, 51.520261242579913],
        [-0.203453614307606, 51.520302235712151],
        [-0.203580309651449, 51.520452551133978],
        [-0.203715446244487, 51.520571522189904],
        [-0.203766766634327, 51.520622665666664],
        [-0.20372586525668, 51.520636427204678],
        [-0.203498167585925, 51.520708476474404],
        [-0.203109010426976, 51.520817618708406],
        [-0.202669052523024, 51.520899003991623],
        [-0.202225570910231, 51.520886812391602],
        [-0.201768144138014, 51.520862715174573],
        [-0.201546616060849, 51.520851225683963],
        [-0.201244487448296, 51.520836701323766],
        [-0.200767980305398, 51.520821300031194],
        [-0.200772336885489, 51.520710759989164],
        [-0.200633972516262, 51.520710436044602],
        [-0.200636405084639, 51.520795002186965],
        [-0.201132001503872, 51.521459950016848],
        [-0.201488212351831, 51.521931219881751],
        [-0.201528006925649, 51.521982187612309],
        [-0.201531503340203, 51.522039792744138],
        [-0.201555445041195, 51.522346801524932],
        [-0.201625533226678, 51.522616749596182],
        [-0.201639340024831, 51.522741955973466],
        [-0.202584140309998, 51.523019015830869],
        [-0.20269397205731, 51.523048575252048],
        [-0.202803733184473, 51.523079931971964],
        [-0.203017917890122, 51.523131772425835],
        [-0.203558392226987, 51.523317201615008],
        [-0.20388148373968, 51.523458834032589],
        [-0.204075970353419, 51.523608388300609],
        [-0.204365276524172, 51.523839426290451],
        [-0.204537051887685, 51.524053377526315],
        [-0.205044300591009, 51.524717587072857],
        [-0.205190255880763, 51.52492844446283],
        [-0.205490017880216, 51.525297223507451],
        [-0.205691210963923, 51.525533204770213],
        [-0.205902251472693, 51.525738762065657],
        [-0.206178232544332, 51.525942614332273],
        [-0.206507855254889, 51.526065455108792],
        [-0.206724657258905, 51.526124522611909],
        [-0.206976002173606, 51.52618501695288],
        [-0.207319872638587, 51.526238831616517],
        [-0.207341413103632, 51.526240959284621],
        [-0.207607455457216, 51.52625761404569],
        [-0.207831399009488, 51.526281718199108],
        [-0.208069750208125, 51.526306042013637],
        [-0.208236558540978, 51.526316683208989],
        [-0.208837684441601, 51.526427477784033],
        [-0.209223899944732, 51.526504414436928],
        [-0.20957852604199, 51.526578169942361],
        [-0.209994017361357, 51.52664386074143],
        [-0.210277982453008, 51.5266814654535],
        [-0.211261133761019, 51.526755811151112],
        [-0.211962392485197, 51.526813262778447],
        [-0.212698407312407, 51.526866743557541],
        [-0.213315684932376, 51.526896829500828],
        [-0.213753396782864, 51.526873820554236],
        [-0.214599512466115, 51.526803072206135],
        [-0.215071168721704, 51.526759892451096],
        [-0.21557297465917, 51.526719867159365],
        [-0.215674918634752, 51.526914754538218],
        [-0.215832914644038, 51.527261566720789],
        [-0.215887841577056, 51.527405381317728],
        [-0.215923159453285, 51.527497640965159],
        [-0.215923898588293, 51.527589374707055],
        [-0.215906820840842, 51.527657457230021],
        [-0.215889918251782, 51.527684177365622],
        [-0.215815104107892, 51.527827817164315],
        [-0.216028870217723, 51.527928186202701],
        [-0.216088485085936, 51.528874194103935],
        [-0.216076399244335, 51.529072742349044],
        [-0.216040381071072, 51.529256538799672],
        [-0.215947749407414, 51.529560871646048],
        [-0.215883650986658, 51.529725356947438],
        [-0.21584724316426, 51.529734694862093],
        [-0.215687132900408, 51.529773624657366],
        [-0.215562200297094, 51.529797802267261],
        [-0.215471004732752, 51.529844074725546],
        [-0.215375943270982, 51.529878598182243],
        [-0.215314091724209, 51.529911828330249],
        [-0.215264996958177, 51.529950647968384],
        [-0.215228729279404, 51.529993259702259],
        [-0.21517805271801, 51.530072521035464],
        [-0.215129449295246, 51.530172496408191],
        [-0.21510446197206, 51.530258443251661],
        [-0.215097011072009, 51.530338362235163],
        [-0.215103441903488, 51.530395112196359],
        [-0.2151675072074, 51.530563345572062],
        [-0.215292300292379, 51.530985189202177],
        [-0.215324772905222, 51.531076506443235],
        [-0.215360443692773, 51.531196647999558],
        [-0.215362763113185, 51.531247939950809],
        [-0.21535098981495, 51.531290924350387],
        [-0.215328111011824, 51.531322948920668],
        [-0.2153056890815, 51.531343290320521],
        [-0.215268822931188, 51.531364311204982],
        [-0.215207285604, 51.53138945292347],
        [-0.214694742680059, 51.531518338246435],
        [-0.214185783127628, 51.531592422262861],
        [-0.214046576328185, 51.531612784026422],
        [-0.213820070421748, 51.53165339818532],
        [-0.213632574350466, 51.531691908227153],
        [-0.213267773255212, 51.531766384914889],
        [-0.213062670467405, 51.531775850205825],
        [-0.212817081152712, 51.531788295305716],
        [-0.212662551080732, 51.531794933386365],
        [-0.212258214263098, 51.53181125321192],
        [-0.211735088070211, 51.531841947211191],
        [-0.211402440964485, 51.531905218143883],
        [-0.211051413294902, 51.531959215438924],
        [-0.210841736141912, 51.53201177062067],
        [-0.210185037977519, 51.532213074588626],
        [-0.210101741825979, 51.532241478628656],
        [-0.209687123562973, 51.532372735489574],
        [-0.209335732774603, 51.532472583386294],
        [-0.20895865048811, 51.532565743312766],
        [-0.208681979414602, 51.532635256613254],
        [-0.207946864067642, 51.532776900062863],
        [-0.2076481587635, 51.532819996367081],
        [-0.207336032000236, 51.532837708084926],
        [-0.207105233565356, 51.532840475637208],
        [-0.206797676536177, 51.532851961080894],
        [-0.206608559483616, 51.532858062507785],
        [-0.206259525311514, 51.532897688148026],
        [-0.205869091757199, 51.5329267879589],
        [-0.205530779246921, 51.532950389079673],
        [-0.205309925472301, 51.532956902184132],
        [-0.204604002745688, 51.532942503476484],
        [-0.204057185898968, 51.532915249326649],
        [-0.203598408879857, 51.532885743863503],
        [-0.203265550835947, 51.53288064627062],
        [-0.203073162163393, 51.532896583539404],
        [-0.202992186171557, 51.532902537074612],
        [-0.202849719876606, 51.532858989555756],
        [-0.202601898560606, 51.532781455016774],
        [-0.202291738988171, 51.532675987440832],
        [-0.202035203214304, 51.532600116628927],
        [-0.201877939937844, 51.532566232780397],
        [-0.201689319437521, 51.532559744505654],
        [-0.20155019610237, 51.53239484908881],
        [-0.201476034323709, 51.532301090274672],
        [-0.201434553559004, 51.532219522606894],
        [-0.201399604527131, 51.532155140649799],
        [-0.201297262731081, 51.532044763312641],
        [-0.201108017737223, 51.531907874536863],
        [-0.201007590766119, 51.531858674703862],
        [-0.200903053872754, 51.531804016304591],
        [-0.200675142779474, 51.531697108014328],
        [-0.200449015939153, 51.531618103125837],
        [-0.199843606571031, 51.531358825329171],
        [-0.199562919149088, 51.531237616332831],
        [-0.199412077224764, 51.531150772436526],
        [-0.199330881713298, 51.531089276944897],
        [-0.199329476290063, 51.53108835613034],
        [-0.199174631834133, 51.530993357308724],
        [-0.199018298421993, 51.530936103565658],
        [-0.198858564989348, 51.530855417125629],
        [-0.198767284629267, 51.53079376639154],
        [-0.198685913256212, 51.530736763949371],
        [-0.198595165487101, 51.530661632630355],
        [-0.198298074497744, 51.53044484902798],
        [-0.198215902142354, 51.530371647595821],
        [-0.197993717795952, 51.530120044020251],
        [-0.197975213715317, 51.530077495404832],
        [-0.19794044131968, 51.529935780272396],
        [-0.197925769544436, 51.529613626291876],
        [-0.198002728245856, 51.529161590574468],
        [-0.198001798248131, 51.529112117980411],
        [-0.197972385299089, 51.529017245744562],
        [-0.197954491648359, 51.528849711855209],
        [-0.197973534200469, 51.528769072601463],
        [-0.197995408774149, 51.528726245013218],
        [-0.198074730640385, 51.528615957480341],
        [-0.197950423123025, 51.52836855486224],
        [-0.197798791538443, 51.527900417986324],
        [-0.197500812539051, 51.52785267604078],
        [-0.19724980354457, 51.527929750605182],
        [-0.197182995058458, 51.52794221250786],
        [-0.197129437587928, 51.52794768409052],
        [-0.197021449862963, 51.52794422589222],
        [-0.196931355118115, 51.527925755505066],
        [-0.196846201338131, 51.527855204946526],
        [-0.196846636741683, 51.527734713173956],
        [-0.196568703845233, 51.527654005016231],
        [-0.19656253495678, 51.52770067077762],
        [-0.196527976668412, 51.527736109170753],
        [-0.196413135301231, 51.527906098808131],
        [-0.195696346548525, 51.528752053844151],
        [-0.19428351904783, 51.530464053621841],
        [-0.193516716951625, 51.531369474812756],
        [-0.193138596612444, 51.531815970186202],
        [-0.192892465391737, 51.532133208318733],
        [-0.192664635563048, 51.532461518805867],
        [-0.192558519914229, 51.532628941398187],
        [-0.192411058914996, 51.532893744211563],
        [-0.192384959299968, 51.533006646548607],
        [-0.192374031767065, 51.533209706868099],
        [-0.19238233837042, 51.533254796964528],
        [-0.192407900769218, 51.533301052191106],
        [-0.192769822395812, 51.533664526634936],
        [-0.193035258375225, 51.533988745606258],
        [-0.192983097913678, 51.534067974682003],
        [-0.191483479647746, 51.536289373216881],
        [-0.191427690365262, 51.536241752580658],
        [-0.191284464566217, 51.53610825514486],
        [-0.191082141442696, 51.535937876613858],
        [-0.190825345946856, 51.535759463736497],
        [-0.190406129708375, 51.535531784408093],
        [-0.189835632423168, 51.535264900411384],
        [-0.189669601714536, 51.535197592961538],
        [-0.189556532058063, 51.535140095038109],
        [-0.189425549858758, 51.535061637977563],
        [-0.189324722101614, 51.534986343922249],
        [-0.189216140316286, 51.534888449035783],
        [-0.189059100256866, 51.534776317371978],
        [-0.188773542701423, 51.534523718019017],
        [-0.188583289289135, 51.534594518319466],
        [-0.187978039958797, 51.5348765255616],
        [-0.187901765365522, 51.534945488282226],
        [-0.187841006980905, 51.534986814128523],
        [-0.187751178645322, 51.535033985567175],
        [-0.185490725090955, 51.537162621211642],
        [-0.185393338612545, 51.537254636075446],
        [-0.184701427304239, 51.537901277685428],
        [-0.184643115130296, 51.537953430653353],
        [-0.184468131442965, 51.538074818208202],
        [-0.184224296099302, 51.538187046672327],
        [-0.184078587124921, 51.538261226918024],
        [-0.183873480710009, 51.538378550351496],
        [-0.182749165388024, 51.538765798745558],
        [-0.181600618608292, 51.539145466917816],
        [-0.180419910428493, 51.539499446314075],
        [-0.18018094743778, 51.53956138443499],
        [-0.180036948444975, 51.539592422589251],
        [-0.179752154876304, 51.539646454906276],
        [-0.179312871736875, 51.539705282974275],
        [-0.17908892743151, 51.539752164839641],
        [-0.1790381646383, 51.5397594701016],
        [-0.178764604962484, 51.539784898637031],
        [-0.178571061350608, 51.539792684783073],
        [-0.178379245898949, 51.539793303502506],
        [-0.178353305339676, 51.539792900708463],
        [-0.178298541938746, 51.53979205034662],
        [-0.17579072700396, 51.53961459835277],
        [-0.173921606363296, 51.5394767109903],
        [-0.174152753575615, 51.538277121180357],
        [-0.174141435739656, 51.538199610102133],
        [-0.174123058813156, 51.538154361916291],
        [-0.1740947022231, 51.538106260671427],
        [-0.174035397169031, 51.538038793606468],
        [-0.173510929309229, 51.537632264351465],
        [-0.171981214700189, 51.538382686602283],
        [-0.170890201845994, 51.537792862834252],
        [-0.169542844528661, 51.538597353515229],
        [-0.169435988241869, 51.538565111896261],
        [-0.169261113541649, 51.538503032938607],
        [-0.169044088559286, 51.538413318555463],
        [-0.168450231153, 51.538119887442136],
        [-0.168206047837759, 51.537988382245445],
        [-0.168044149072909, 51.537890534292458],
        [-0.166582851000042, 51.53690011880866],
        [-0.16496103269152, 51.535779481023802],
        [-0.163792702742069, 51.536218915282916],
        [-0.163619117963257, 51.536304324136026],
        [-0.163390194870883, 51.536403254300993],
        [-0.161919824860317, 51.536858623622891],
        [-0.160486792729507, 51.537281288054693],
        [-0.159445287891836, 51.536362109963008],
        [-0.159438119051927, 51.536361098242423],
        [-0.158631462931722, 51.536519296058735],
        [-0.157579551554377, 51.536751871154451],
        [-0.155849399042461, 51.537104167467625],
        [-0.155481933739531, 51.537205400561092],
        [-0.155221407305357, 51.537265150419415],
        [-0.154994642056579, 51.537310143502339],
        [-0.154746515105458, 51.537348505424326],
        [-0.154423235191557, 51.53739108000417],
        [-0.154181307836729, 51.537418747318611],
        [-0.153928069991719, 51.537440840675245],
        [-0.153416411380064, 51.537470556235505],
        [-0.152732394033306, 51.537519137537743],
        [-0.151481133932415, 51.534627235303113],
        [-0.150885255784694, 51.53332023132262],
        [-0.149922788550015, 51.531205314499402],
        [-0.147195800277715, 51.525041094455496],
        [-0.145815556417239, 51.525270175112119],
        [-0.145198509863265, 51.523994277779984],
        [-0.144852940372011, 51.524055357323903],
        [-0.144708440229025, 51.524063862872779],
        [-0.144646603223188, 51.524060187049251],
        [-0.144154773160521, 51.523995753927537],
        [-0.14417896074512, 51.524641797180315],
        [-0.143989668241953, 51.524688260869652],
        [-0.143496428348124, 51.524622903469741],
        [-0.1434146841201, 51.52454157653343],
        [-0.143513495147304, 51.524026072393738],
        [-0.143520960328007, 51.523948855145427],
        [-0.143521201026796, 51.523907493508474],
        [-0.143311931693976, 51.523878103017353],
        [-0.143093141571841, 51.523870143405297],
        [-0.142901101577155, 51.523877894132625],
        [-0.141415920770927, 51.52264847789322],
        [-0.140473884049104, 51.521888069732803],
        [-0.139803991570019, 51.521347789891237],
        [-0.139179844925524, 51.520817224319117],
        [-0.138736858154396, 51.520439704847426],
        [-0.138344025039842, 51.520140315162351],
        [-0.138255583090987, 51.520082258667941],
        [-0.138206815269874, 51.520041018349374],
        [-0.138170828648098, 51.520004477137284],
        [-0.138035844472321, 51.519815290441827],
        [-0.137033114923813, 51.518884831106448],
        [-0.136321904687525, 51.519146904953217],
        [-0.135851753997768, 51.518694304852609],
        [-0.135258244352406, 51.518933063818608],
        [-0.134342758756117, 51.518021053651808],
        [-0.134473967168683, 51.517949402021486],
        [-0.134070378665236, 51.517561699970074],
        [-0.13401335014741, 51.517546404712057],
        [-0.133977340046267, 51.517545831826652],
        [-0.133942513237378, 51.517551572511437],
        [-0.133910273380099, 51.517564548350244],
        [-0.133867142567299, 51.517597134422537],
        [-0.133622524750878, 51.517728129897229],
        [-0.133004664281194, 51.517363991897817],
        [-0.132568887975116, 51.517164614902129],
        [-0.132474733043332, 51.516717986521314],
        [-0.131586284502279, 51.516943937250538],
        [-0.131162749978557, 51.517009129823464],
        [-0.131114775857415, 51.517019156444057],
        [-0.131076847626931, 51.517030242367923],
        [-0.130831772468763, 51.517101874190615],
        [-0.130427355228175, 51.516594545685528],
        [-0.130369430412779, 51.516495603974413],
        [-0.130372857941218, 51.516447099035169],
        [-0.130466071618792, 51.516177010911896],
        [-0.130471522838313, 51.516079079396484],
        [-0.130438373652641, 51.515938267794098],
        [-0.129852505620714, 51.514477535736908],
        [-0.12968963053036, 51.514126028936666],
        [-0.129361421065789, 51.513483225210962],
        [-0.129120154958393, 51.51346229120044],
        [-0.129008697537972, 51.513438931226183],
        [-0.128997359486297, 51.513434254100048],
        [-0.128869465937068, 51.513389949003447],
        [-0.128364384549707, 51.513124704111803],
        [-0.128272867315577, 51.513071986307558],
        [-0.127989005346188, 51.512859728727719],
        [-0.127714162398714, 51.512708763561413],
        [-0.127602630720743, 51.51265212871494],
        [-0.127452366236373, 51.512661420044083],
        [-0.127352768240246, 51.512665225384431],
        [-0.127278689228137, 51.51267932987875],
        [-0.127177948611168, 51.512710993646898],
        [-0.127042947654925, 51.512875199567077],
        [-0.126944462926313, 51.512957257287837],
        [-0.126867284201405, 51.513011778374988],
        [-0.126668723014768, 51.513144394190924],
        [-0.126198215254296, 51.513371583093416],
        [-0.125262095600273, 51.513776574668434],
        [-0.124492921628362, 51.51415185542546],
        [-0.123977227314299, 51.514461044157464],
        [-0.123584838509995, 51.514715550479053],
        [-0.123379982352871, 51.514790507925888],
        [-0.122894150005695, 51.515144233103449],
        [-0.12209818704959, 51.514627910330503],
        [-0.121843355226266, 51.514866628162949],
        [-0.121316205519871, 51.514788043987927],
        [-0.120346854951985, 51.514598058294439],
        [-0.119493133842036, 51.514505239305223],
        [-0.119321661324444, 51.514539359301999],
        [-0.118853587415603, 51.514671237186548],
        [-0.11870043044911, 51.514715541817139],
        [-0.118657798744664, 51.514840753415925],
        [-0.118623919743247, 51.514963407637602],
        [-0.11840546614525, 51.515018354766326],
        [-0.11837924427208, 51.515025128125821],
        [-0.117617181060159, 51.515226023138815],
        [-0.117276431626579, 51.515380620971428],
        [-0.114718323634117, 51.516040048693299],
        [-0.114685944792849, 51.515986472298657],
        [-0.11385925141735, 51.514820338213127],
        [-0.112307924167555, 51.515146988922666],
        [-0.112325190607479, 51.515217408598538],
        [-0.111707863905411, 51.515298296192249],
        [-0.111687690363291, 51.515333042300917],
        [-0.111606772509664, 51.515338034298594],
        [-0.111575875300895, 51.515283581615684],
        [-0.111552439902293, 51.515222954289243],
        [-0.111410184131691, 51.514794417477425],
        [-0.111137713382533, 51.513960018464971],
        [-0.111101484583058, 51.513825446170657],
        [-0.11133204834792, 51.513791390476506],
        [-0.111980678347953, 51.513684930502286],
        [-0.11185827256066, 51.513473433862522],
        [-0.111738617847793, 51.513195436577753],
        [-0.11233754429199, 51.513036017732269],
        [-0.112213940965334, 51.51288834920102],
        [-0.112374893395717, 51.512829790430601],
        [-0.112347426014599, 51.512796975220937],
        [-0.112414865619708, 51.512769284472611],
        [-0.112200554258422, 51.512514943324646],
        [-0.112058312949978, 51.512330105197435],
        [-0.112188973132893, 51.512307029234712],
        [-0.112167118462635, 51.512277901334656],
        [-0.112157557053046, 51.512265157877145],
        [-0.111887424519605, 51.511966753400024],
        [-0.111770684204657, 51.512001743429174],
        [-0.111710724647554, 51.511953117630874],
        [-0.111567167470097, 51.511730489007689],
        [-0.111530446690773, 51.511642670095391],
        [-0.111557419476236, 51.511443469954457],
        [-0.111574180927742, 51.511316944984344],
        [-0.111586694733863, 51.510909784277203],
        [-0.111574364261374, 51.510754913997502],
        [-0.111463803135594, 51.509769349437548],
        [-0.112049103384543, 51.509729313667549],
        [-0.1127234024089, 51.509662830259437],
        [-0.113911961647931, 51.509496703647649],
        [-0.114580834966581, 51.509386958133959],
        [-0.114958755783622, 51.509308502999218],
        [-0.115297458140635, 51.509237509718794],
        [-0.115565296712761, 51.509172570923383],
        [-0.115813269422967, 51.509100118338253],
        [-0.116316561371023, 51.508951732582304],
        [-0.116893787632318, 51.508722699687269],
        [-0.117458301937084, 51.508522236059548],
        [-0.11763965302505, 51.508457702796932],
        [-0.11780490323131, 51.508399205641787],
        [-0.118062549836712, 51.508266653572008],
        [-0.118340434201627, 51.508097556224435],
        [-0.118727481383814, 51.507797119731293],
        [-0.119240371425589, 51.507415069477346],
        [-0.119662233052084, 51.507038751642085],
        [-0.119987086508864, 51.506673466863589],
        [-0.120465440403486, 51.506114603927095],
        [-0.120548931737061, 51.506011628469267],
        [-0.120672745464919, 51.505874228190486],
        [-0.120803577556639, 51.505671294699262],
        [-0.120906277403915, 51.505381581939496],
        [-0.121052253329626, 51.505020622100631],
        [-0.12110879138208, 51.504837180811393],
        [-0.121215040590861, 51.50435598350812],
        [-0.121274798968435, 51.503954074962273],
        [-0.121334624163582, 51.503690652583273],
        [-0.121431564534986, 51.50319042157173],
        [-0.121759232692674, 51.501248784100731],
        [-0.122073688341747, 51.499417542053465],
        [-0.122140225091186, 51.498990562254768],
        [-0.12226033449597, 51.498241607721212],
        [-0.122337760236284, 51.497689805675783],
        [-0.122388899654839, 51.497111504289215],
        [-0.122395591074816, 51.496492923976945],
        [-0.122433323514274, 51.496205766474162],
        [-0.12250136369552, 51.495882224718137],
        [-0.122704480689929, 51.495006004884459],
        [-0.122791749200355, 51.494740323070609],
        [-0.122826043980215, 51.494536741099267]
      ]
    ]
  }
}
