{
  "type": "Feature",
  "properties": {
    "name": "Croydon",
    "level": 2,
    "londonBorough": true,
    "center": [-0.0947, 51.3714]
  },
  "geometry": {
    "type": "Polygon",
    "coordinates": [
      [
        [-0.151049628310773, 51.30072400908599],
        [-0.151075000149585, 51.3007352010778],
        [-0.151368355241465, 51.30086033639531],
        [-0.152524046688006, 51.30137407964445],
        [-0.152632163983399, 51.30143244006156],
        [-0.152690005298013, 51.301456733878524],
        [-0.153386847072886, 51.30167995555995],
        [-0.155343983983248, 51.301276453678774],
        [-0.155405788249438, 51.30138084435076],
        [-0.156710189876977, 51.30359112824131],
        [-0.156989326093, 51.30364228460371],
        [-0.157035336502007, 51.30371135390868],
        [-0.15776118832479, 51.3044296084689],
        [-0.157670989148735, 51.304532505516285],
        [-0.157728759324178, 51.30459456533469],
        [-0.155049534573776, 51.30579338453085],
        [-0.154535370547467, 51.3064507476524],
        [-0.155166143578527, 51.306427414002876],
        [-0.155789667690749, 51.30644173244593],
        [-0.15644194039404, 51.306454701637854],
        [-0.156598146386876, 51.306494930532814],
        [-0.156764706845505, 51.30656319981336],
        [-0.156909934250157, 51.30666260777793],
        [-0.157088044586972, 51.30669328873706],
        [-0.157189197254735, 51.30671106769681],
        [-0.156504512403672, 51.30729201478127],
        [-0.156422806439211, 51.30736177131917],
        [-0.156191723252029, 51.30765039799717],
        [-0.15559779682937, 51.30847197667245],
        [-0.155074866529215, 51.30927578613267],
        [-0.154371310026932, 51.310253904071246],
        [-0.154341397027494, 51.310319979107184],
        [-0.155376638553028, 51.310409133150664],
        [-0.155639451064799, 51.31036740977401],
        [-0.155826711476959, 51.31042071860368],
        [-0.156254202058051, 51.31042295399001],
        [-0.156492047182157, 51.31046716616589],
        [-0.156643280659561, 51.31052440287613],
        [-0.15704123346104, 51.310726709131906],
        [-0.15736363506456, 51.310845091709865],
        [-0.157664355096564, 51.31093165758306],
        [-0.158090909397408, 51.31099322376342],
        [-0.15835658546272, 51.310987510392444],
        [-0.158358050009325, 51.31102260521535],
        [-0.15829195868851, 51.31116814785268],
        [-0.15824096221605, 51.31129504305934],
        [-0.157847744861615, 51.31212068863971],
        [-0.157633415888911, 51.31267127107207],
        [-0.157298300221211, 51.3132280459354],
        [-0.157195595507114, 51.31339189658993],
        [-0.157441609576927, 51.31376986682056],
        [-0.157519995070899, 51.313890703928514],
        [-0.157607165224027, 51.31400718281018],
        [-0.157669099026333, 51.314108876165854],
        [-0.157771060693955, 51.31432181018828],
        [-0.157905364471412, 51.314515468802234],
        [-0.158330637826307, 51.31496819885442],
        [-0.15838461781548, 51.31505357974038],
        [-0.158566724003259, 51.31520032767336],
        [-0.158990796843493, 51.31561166963512],
        [-0.159193339410483, 51.315785716118754],
        [-0.159339989458021, 51.3159579844413],
        [-0.159511271469294, 51.316411213756375],
        [-0.159588281899429, 51.31671008435886],
        [-0.159606839789155, 51.31710695659745],
        [-0.159943223740311, 51.31705648758911],
        [-0.160276135502197, 51.31694930870534],
        [-0.160507290476111, 51.316874702982574],
        [-0.160944986102721, 51.31726916532599],
        [-0.161113803137868, 51.31746156349979],
        [-0.161203109233641, 51.31752501583958],
        [-0.161222785535883, 51.31760715886263],
        [-0.161199652771507, 51.317683234040636],
        [-0.161117219575857, 51.317734996880546],
        [-0.16120794389258, 51.317978326558325],
        [-0.161257100876595, 51.31796920638546],
        [-0.161405722917406, 51.31830786887614],
        [-0.161388369049771, 51.31831119351445],
        [-0.16147171244517, 51.3185238317085],
        [-0.16179473354136, 51.31934634374824],
        [-0.161798748758703, 51.319353600975525],
        [-0.161888620257422, 51.31958252823892],
        [-0.161905468840783, 51.31962775644757],
        [-0.158714603178807, 51.32068193953233],
        [-0.158524197010393, 51.320741894883035],
        [-0.156466058000116, 51.32138936548842],
        [-0.156509936804346, 51.32144041565109],
        [-0.156568836043788, 51.321510587021535],
        [-0.156515263454892, 51.32152233356377],
        [-0.156477648026121, 51.32152983490422],
        [-0.156204011446693, 51.32158937553719],
        [-0.155827307308313, 51.32171383889613],
        [-0.155805468692847, 51.321721588467554],
        [-0.155927496642257, 51.32186379703925],
        [-0.155648256716114, 51.32195562206631],
        [-0.155545047529827, 51.32184518424006],
        [-0.154781320226418, 51.322172179924344],
        [-0.153539732065385, 51.32267598868646],
        [-0.152731260282831, 51.323008560544935],
        [-0.152107181389021, 51.322288286902804],
        [-0.152089330207683, 51.322268221154864],
        [-0.151993727643817, 51.32229009372889],
        [-0.151760530281118, 51.32234306795266],
        [-0.151514279188548, 51.32239943277358],
        [-0.151508541998772, 51.32239934221553],
        [-0.151380069519803, 51.32238202659276],
        [-0.150722002306305, 51.32218638596992],
        [-0.150594820431106, 51.32217268696354],
        [-0.15050165215347, 51.322205388076426],
        [-0.150497276979137, 51.322207117530965],
        [-0.15032815152734, 51.32227279137141],
        [-0.149593176620468, 51.32249049587945],
        [-0.149453566830424, 51.32253595148385],
        [-0.14903724006141, 51.3227883634716],
        [-0.148769027766525, 51.32267711008408],
        [-0.148384127687194, 51.32268361489631],
        [-0.147956379430347, 51.32268494443767],
        [-0.147606512168935, 51.32278372689703],
        [-0.147159096025027, 51.32291693603572],
        [-0.146554981328706, 51.32312769915421],
        [-0.145936647539536, 51.323370608011714],
        [-0.14565249610251, 51.323476719995696],
        [-0.145585502124196, 51.323500838909375],
        [-0.145582379726963, 51.32350708440083],
        [-0.145094090398496, 51.324404023341756],
        [-0.144272612182271, 51.32590988666606],
        [-0.144472920517894, 51.32592565040867],
        [-0.144389723760816, 51.326315517306355],
        [-0.14445480617359, 51.326481116022066],
        [-0.146038772305698, 51.327244507394006],
        [-0.146518511582841, 51.32744994160073],
        [-0.146933393189468, 51.327626470050866],
        [-0.148580109794738, 51.328437581623334],
        [-0.149330519090157, 51.328765987073474],
        [-0.149170083171434, 51.32882909880813],
        [-0.148057169686128, 51.32926833733223],
        [-0.146244278455296, 51.32990781758692],
        [-0.144639069503261, 51.33045074071487],
        [-0.144067511698026, 51.33067010062093],
        [-0.145027227628837, 51.33139663207275],
        [-0.145172055020599, 51.33154280990087],
        [-0.145445167950794, 51.332102887056585],
        [-0.145617104786802, 51.332431147144],
        [-0.145750593495363, 51.33292966048559],
        [-0.145782764717321, 51.33334203776504],
        [-0.145890506433957, 51.333838344675335],
        [-0.145944914164535, 51.334091002947204],
        [-0.146162797327305, 51.33452610383248],
        [-0.146487539150911, 51.335372964651775],
        [-0.14686019940105, 51.336598277835826],
        [-0.147017021360159, 51.337373235652656],
        [-0.147209022511809, 51.338094793200376],
        [-0.147307457429213, 51.33807476774015],
        [-0.147547430312803, 51.338781795773556],
        [-0.147394000311596, 51.338812642130954],
        [-0.147383884200478, 51.33881428066681],
        [-0.145711452268097, 51.33916551000876],
        [-0.145156750185978, 51.33932039464024],
        [-0.144526598858075, 51.339494764730524],
        [-0.144263492912577, 51.33985929876743],
        [-0.144271504198844, 51.33990978505483],
        [-0.144324130865803, 51.3402064800684],
        [-0.144108997591177, 51.340307387196084],
        [-0.143804575727013, 51.34041497238976],
        [-0.143575309646049, 51.34051025892301],
        [-0.1434640818325, 51.34056245236965],
        [-0.143571698539969, 51.340706243460254],
        [-0.143853869444138, 51.34122060392993],
        [-0.143963523647594, 51.34138511022199],
        [-0.144114022104837, 51.34135602040864],
        [-0.14454945210331, 51.34202208687299],
        [-0.144595444335607, 51.342092059534295],
        [-0.144186064637801, 51.342238450392514],
        [-0.144181723605234, 51.34223928088487],
        [-0.144184339322002, 51.34224561724691],
        [-0.144197817221071, 51.34226741337019],
        [-0.144214019756647, 51.34229284975712],
        [-0.143896706920438, 51.34239933170877],
        [-0.143409946444345, 51.34261283841972],
        [-0.143000685636299, 51.34279160091525],
        [-0.142940981691351, 51.34274119425289],
        [-0.142140870659107, 51.342998287912124],
        [-0.142098676133103, 51.343012007004624],
        [-0.142226819282886, 51.343145333574306],
        [-0.142252956565292, 51.343173625631415],
        [-0.142059202319017, 51.343242494275295],
        [-0.141792755318421, 51.343333590491284],
        [-0.141556877370857, 51.34341437985456],
        [-0.141154052485482, 51.343540180901776],
        [-0.139018942510629, 51.344142063614015],
        [-0.137940123813695, 51.34443696611661],
        [-0.137086264775624, 51.34467248770276],
        [-0.136731049563339, 51.34475676495633],
        [-0.1365378869485, 51.34477527457527],
        [-0.136350500579416, 51.344792976508586],
        [-0.136272830899921, 51.3444068512059],
        [-0.136262676721519, 51.34440938745726],
        [-0.136181406794607, 51.34443057613033],
        [-0.135884380319405, 51.344460920991395],
        [-0.135492936980998, 51.344482567968576],
        [-0.13502576803332, 51.34449491445229],
        [-0.134779548357402, 51.344511677081385],
        [-0.134126489402979, 51.34450487266564],
        [-0.133470878448206, 51.34445485874776],
        [-0.133078525748084, 51.34439285060651],
        [-0.132595030351431, 51.344312301842926],
        [-0.132513712206375, 51.34429931476321],
        [-0.13267921733537, 51.34481993577385],
        [-0.132883857271018, 51.34540233101038],
        [-0.132892514299434, 51.3454366414481],
        [-0.131329077188875, 51.345464766109686],
        [-0.131126303358378, 51.34547232219],
        [-0.131147764421211, 51.34550953488481],
        [-0.131300241363594, 51.34578534718812],
        [-0.131421871405829, 51.34600760995873],
        [-0.131431295096798, 51.34602304796685],
        [-0.130559789951275, 51.34612604733313],
        [-0.130128715222972, 51.34620369824127],
        [-0.129856369910777, 51.346262299420054],
        [-0.129669239315354, 51.34630877158571],
        [-0.129462172206288, 51.346386399697835],
        [-0.129297415634726, 51.346447616979084],
        [-0.129092558521517, 51.34654146668891],
        [-0.128993036324163, 51.346587538561224],
        [-0.129020382698544, 51.34662124855708],
        [-0.129135999773559, 51.34681464087844],
        [-0.129152195451778, 51.34684007926137],
        [-0.12888704261419, 51.34700400825819],
        [-0.128747381760822, 51.347083611167214],
        [-0.128735608493298, 51.347090617278845],
        [-0.12886483652293, 51.34726714107699],
        [-0.128868922048037, 51.34727260199172],
        [-0.128371952052784, 51.34745171116155],
        [-0.128354248308964, 51.34742804712417],
        [-0.128287335883743, 51.34734334533223],
        [-0.128246861334227, 51.3473498927539],
        [-0.128200573303989, 51.34735814580976],
        [-0.127556544913775, 51.34744587316108],
        [-0.127443040094208, 51.34730646954211],
        [-0.127347348979397, 51.34718803393586],
        [-0.1271705568195, 51.34683988564029],
        [-0.127126773008139, 51.346645841395556],
        [-0.127037424128153, 51.34594927292942],
        [-0.127002831931783, 51.345705915439204],
        [-0.126781433924641, 51.34546586545532],
        [-0.12683095671551, 51.34544867194537],
        [-0.126924225561946, 51.345415091759484],
        [-0.126920616780606, 51.34539794781689],
        [-0.126895795094734, 51.345267155941976],
        [-0.127148371836999, 51.345165080343804],
        [-0.126884030186767, 51.34488657428849],
        [-0.12685650317826, 51.34485735725823],
        [-0.1263360424028, 51.345049571206445],
        [-0.126030448617362, 51.345184070033056],
        [-0.12592481982018, 51.345239034361136],
        [-0.125604083867586, 51.345251887608],
        [-0.124835562050837, 51.34529444232556],
        [-0.120717746888687, 51.345529703377046],
        [-0.11924470811787, 51.345594188840536],
        [-0.118930812566826, 51.34551001182726],
        [-0.118834704190905, 51.34561278434678],
        [-0.118663496269413, 51.34579618469344],
        [-0.118410350014424, 51.34563114789271],
        [-0.117312723543137, 51.34568005658309],
        [-0.117247485744616, 51.3456951949288],
        [-0.116919089214982, 51.34575466364817],
        [-0.116991238100434, 51.346656898516734],
        [-0.117365155298516, 51.34664312504951],
        [-0.117374462493842, 51.34669633194588],
        [-0.117556236771912, 51.3476219108512],
        [-0.117902643710739, 51.34870031386534],
        [-0.118022885710843, 51.34913030121494],
        [-0.118161309404614, 51.34950212757965],
        [-0.118289832937216, 51.35004555636777],
        [-0.118374494876514, 51.35060806443206],
        [-0.118518771952658, 51.35125786041981],
        [-0.118733081458927, 51.35202119036163],
        [-0.119009958760018, 51.35276484119709],
        [-0.119099529582595, 51.35306753671903],
        [-0.119115095917591, 51.35314332579125],
        [-0.120177569892799, 51.35304527425227],
        [-0.120310650399607, 51.353478162636044],
        [-0.12052223722142, 51.35416860385327],
        [-0.120731889207818, 51.35518724882374],
        [-0.120990569304264, 51.35613114060783],
        [-0.121429259121326, 51.35773079176468],
        [-0.124196374383095, 51.35743071324373],
        [-0.12427883289764, 51.357592104427496],
        [-0.124573720961252, 51.35835491390415],
        [-0.124535446254884, 51.358377682239485],
        [-0.124517780992997, 51.35838819069757],
        [-0.124703403036604, 51.358837202263196],
        [-0.124715147254914, 51.35886616703503],
        [-0.123456720995055, 51.359151767563745],
        [-0.123338444892581, 51.35891786011529],
        [-0.121919344596811, 51.35905788541404],
        [-0.121860198391462, 51.35906413132349],
        [-0.12272104793214, 51.359649868480396],
        [-0.122928396302625, 51.35991847698322],
        [-0.122434681081392, 51.35997890952311],
        [-0.122391397169223, 51.359983611399926],
        [-0.122358046792749, 51.3599210269413],
        [-0.121900364062841, 51.359978437686635],
        [-0.121839707697202, 51.35998645792772],
        [-0.122002309124653, 51.360506147320365],
        [-0.122008677757914, 51.36052603344515],
        [-0.121907018964285, 51.3605531804053],
        [-0.122053312351616, 51.36097998300747],
        [-0.121459874682582, 51.36105499971369],
        [-0.121380445263217, 51.361065416494206],
        [-0.121480055245285, 51.361299026539456],
        [-0.121343728889433, 51.36150637111728],
        [-0.121581238130553, 51.36212618236443],
        [-0.121476925121979, 51.362147890763566],
        [-0.12139580088692, 51.362164575301485],
        [-0.121353766459691, 51.36217379321167],
        [-0.121429413132102, 51.36232608431485],
        [-0.121437511443616, 51.36233880401355],
        [-0.121112464567178, 51.36252423703289],
        [-0.121192384459923, 51.362782711110405],
        [-0.121246317100358, 51.363009293765245],
        [-0.12127639374274, 51.36311678968308],
        [-0.12092800400854, 51.36331084057476],
        [-0.121302182150394, 51.36473319768041],
        [-0.121472501704892, 51.364713447164675],
        [-0.121464879659026, 51.36465397289899],
        [-0.121461676115242, 51.3646269433272],
        [-0.121528044287886, 51.364619914115615],
        [-0.122351957589328, 51.36453060571374],
        [-0.12237073051986, 51.364528208789025],
        [-0.122405556443959, 51.36458991755684],
        [-0.122496191179916, 51.36472716045009],
        [-0.122676531916201, 51.364848754685546],
        [-0.123064453444447, 51.36505820636653],
        [-0.123471256084262, 51.36519242024936],
        [-0.124064170282867, 51.36527205967503],
        [-0.124091233373846, 51.36534803197499],
        [-0.124107986759214, 51.365395062443234],
        [-0.123069500052356, 51.36560234743149],
        [-0.122094245387732, 51.365808838352024],
        [-0.122104743374797, 51.36593850196409],
        [-0.122098796879318, 51.36625944712842],
        [-0.122127414351246, 51.36654317687184],
        [-0.1222206426476, 51.366933157196854],
        [-0.122330988279913, 51.36729103794995],
        [-0.122369941409424, 51.367392380847505],
        [-0.122490406225424, 51.36764341013392],
        [-0.12251791122545, 51.36774367022483],
        [-0.122602478696792, 51.367888909150054],
        [-0.122677623886044, 51.36805378101662],
        [-0.122694013705312, 51.36817994184405],
        [-0.122915611207676, 51.369014420612245],
        [-0.1230244332995, 51.36955033208208],
        [-0.123087579539863, 51.36969252956195],
        [-0.123201870004499, 51.36995425031829],
        [-0.123270587289169, 51.37024131978685],
        [-0.123285945131683, 51.37032250032556],
        [-0.123302591814658, 51.37040729859666],
        [-0.123359923427238, 51.37055120129726],
        [-0.123355548036828, 51.37062307299358],
        [-0.123285714566276, 51.37067950774815],
        [-0.123293497420862, 51.37087567378498],
        [-0.123286431377853, 51.37090793439335],
        [-0.123292290100607, 51.37097547366686],
        [-0.123305957841588, 51.37109799364134],
        [-0.12333957715903, 51.371189358687886],
        [-0.1235820635289, 51.37144324047516],
        [-0.123671716939777, 51.37153460361858],
        [-0.124231272481939, 51.37225668686777],
        [-0.124724270805566, 51.372885076908624],
        [-0.124773464506288, 51.372947014820305],
        [-0.124675202123997, 51.37296072956855],
        [-0.12453066179232, 51.37298179684896],
        [-0.12456628593816, 51.37319999091631],
        [-0.124601873671477, 51.37341908365245],
        [-0.124744271094491, 51.37366146859971],
        [-0.125051303616998, 51.37377789243499],
        [-0.125770523562999, 51.37400432650646],
        [-0.12653847125214, 51.374304376323614],
        [-0.127764355307772, 51.37472055188585],
        [-0.127771461541602, 51.374722463990494],
        [-0.127849373514852, 51.37474978791108],
        [-0.127190526210779, 51.37483907683035],
        [-0.126673276860978, 51.37490904377545],
        [-0.126847395774003, 51.37543070733327],
        [-0.126865407927167, 51.375482253778536],
        [-0.126329033552009, 51.375492561557934],
        [-0.126231243168299, 51.375494594657056],
        [-0.125969581891285, 51.37556864604707],
        [-0.125949295262069, 51.3755728178992],
        [-0.12583306224137, 51.37560423161],
        [-0.126063978953395, 51.37607194935101],
        [-0.126140598251019, 51.37606058505597],
        [-0.126225943316709, 51.376046662454435],
        [-0.126228595045427, 51.37605210049261],
        [-0.126561418466056, 51.376663531827894],
        [-0.126646029840349, 51.376913982882705],
        [-0.126777039166022, 51.3771894560352],
        [-0.126959247706137, 51.377337151815496],
        [-0.127062939337732, 51.37761308714732],
        [-0.127317051555682, 51.37839321991927],
        [-0.127580925278986, 51.37914563061177],
        [-0.127798273263053, 51.379735428417256],
        [-0.127888500271042, 51.38002463675199],
        [-0.127963548711216, 51.380263243326475],
        [-0.12807895518348, 51.38049889757496],
        [-0.128241558327871, 51.38066965897298],
        [-0.128648839858083, 51.38097202485456],
        [-0.129653977045715, 51.381731771288784],
        [-0.130284138145635, 51.382207651089026],
        [-0.130296660614937, 51.38221774289341],
        [-0.130302258713645, 51.382221429307855],
        [-0.129134674806372, 51.382414119604974],
        [-0.128657151622483, 51.38249462201811],
        [-0.128795838850075, 51.382723453104504],
        [-0.128895281039105, 51.38299841931447],
        [-0.128995447859982, 51.38339659697156],
        [-0.129053195279868, 51.383425396495156],
        [-0.129106505809299, 51.38373919368885],
        [-0.129346606521069, 51.38465308837609],
        [-0.129437878245702, 51.3849171323162],
        [-0.129534880757354, 51.38528738146785],
        [-0.129462503494144, 51.38540582885568],
        [-0.129260732436182, 51.38541969357051],
        [-0.129173714566119, 51.3854389873668],
        [-0.129134532677706, 51.38544825369862],
        [-0.128939802665385, 51.38550089888417],
        [-0.128851164974533, 51.385524662923004],
        [-0.128761183914877, 51.38565182144787],
        [-0.128847659112851, 51.38568107984798],
        [-0.129786297001186, 51.38599462360958],
        [-0.130663546168003, 51.386263116155874],
        [-0.130585299340496, 51.38631402536752],
        [-0.13021906555161, 51.38655458130395],
        [-0.129981119265601, 51.38671535016185],
        [-0.129775700412243, 51.38692429902176],
        [-0.129566520443359, 51.387119698444295],
        [-0.129493429796942, 51.38718507755581],
        [-0.129722278119222, 51.38735329701603],
        [-0.129913923091309, 51.3874822536534],
        [-0.130157797040344, 51.387634525209755],
        [-0.130808399912771, 51.38806936110174],
        [-0.131140645506646, 51.38827519791793],
        [-0.131153243020159, 51.388283492269665],
        [-0.131871007130935, 51.388728385992984],
        [-0.131873742300709, 51.388767098162155],
        [-0.132079643995198, 51.38886390478607],
        [-0.132444690615051, 51.38911162708104],
        [-0.132907158578119, 51.38936719552283],
        [-0.133260519897374, 51.38954908239702],
        [-0.133066291502874, 51.38973033788349],
        [-0.132664609791356, 51.39009983128709],
        [-0.132634710987223, 51.39012813138491],
        [-0.132712432349781, 51.39016084441116],
        [-0.132836896517716, 51.390210489091274],
        [-0.13301650271401, 51.39028259471713],
        [-0.133487327886091, 51.39047444583929],
        [-0.133991570691241, 51.39069290601692],
        [-0.134182233262568, 51.39077597712466],
        [-0.134391460360269, 51.390862041307486],
        [-0.134402768967666, 51.390866717703844],
        [-0.134378981967648, 51.390886122869105],
        [-0.134319514379137, 51.39093463575997],
        [-0.134285270191505, 51.39096376635126],
        [-0.134072136176638, 51.39111504659194],
        [-0.13393813015474, 51.39119384665591],
        [-0.13379852420215, 51.391268960305105],
        [-0.133540810859195, 51.391385357371185],
        [-0.13331317842858, 51.39146896017496],
        [-0.132081258748638, 51.39200057935713],
        [-0.130251380595556, 51.39274296629762],
        [-0.129582484948347, 51.39303714277213],
        [-0.128756514934341, 51.39348168277338],
        [-0.128903001324483, 51.39348492130718],
        [-0.129119209694676, 51.393470388269215],
        [-0.129529703292515, 51.39359114886763],
        [-0.129689682631214, 51.393651255714616],
        [-0.129370482592679, 51.39382961103381],
        [-0.128601779981781, 51.39431463202374],
        [-0.127910402754811, 51.39473613613777],
        [-0.127103191461799, 51.39531855241256],
        [-0.12644141622287, 51.3958592245387],
        [-0.125189568324706, 51.39687336055354],
        [-0.124522258699652, 51.39740763853706],
        [-0.124351787663499, 51.397498433869956],
        [-0.124151406965054, 51.39761752674121],
        [-0.124545244926399, 51.39782976334134],
        [-0.124420046248421, 51.39793836946047],
        [-0.124490297442967, 51.39797816243957],
        [-0.124636439640987, 51.398095607802034],
        [-0.124777861848168, 51.398152726461994],
        [-0.12501377227021, 51.3982194503218],
        [-0.125277494117107, 51.39827402890109],
        [-0.125724552769359, 51.398309957072875],
        [-0.125693542166085, 51.398365215681544],
        [-0.125496354851711, 51.39872266799299],
        [-0.125434181726392, 51.39880170826401],
        [-0.125417423130398, 51.3988248211402],
        [-0.125396097323645, 51.39885415582601],
        [-0.125386562471734, 51.398911556452255],
        [-0.125378978663038, 51.3989563985357],
        [-0.12543788958907, 51.39902748389028],
        [-0.125645422138033, 51.399261016328886],
        [-0.125917285274416, 51.3995738135715],
        [-0.126142214228482, 51.39983909768373],
        [-0.126222237212423, 51.3999213114432],
        [-0.126312464303662, 51.40000009123598],
        [-0.126524751865509, 51.40018783540069],
        [-0.126647845400097, 51.40030670817422],
        [-0.126760106755687, 51.40040922082978],
        [-0.127034297069217, 51.400665398675166],
        [-0.127219256050518, 51.40085360398353],
        [-0.127510147141167, 51.40115860802848],
        [-0.127640917405858, 51.401336054773324],
        [-0.12771755290814, 51.401395731646105],
        [-0.127787151657616, 51.40145169897051],
        [-0.127769580372866, 51.40145951163993],
        [-0.127737311285521, 51.40147518288192],
        [-0.127989846238822, 51.40169863875092],
        [-0.128011324207743, 51.401700780400574],
        [-0.128034202241792, 51.40170384367967],
        [-0.128270520181019, 51.401866788935976],
        [-0.128336580484201, 51.401903814786735],
        [-0.128490417708879, 51.402079830426615],
        [-0.128648853755979, 51.40221365372903],
        [-0.128881232942699, 51.40236754213917],
        [-0.129253508325956, 51.40258121661868],
        [-0.129429109744563, 51.40268203997913],
        [-0.130481106932626, 51.403256373701446],
        [-0.130506163223016, 51.40327655731576],
        [-0.130526579278717, 51.403304760299896],
        [-0.130621226957884, 51.40348702287395],
        [-0.130634796536489, 51.40354209462645],
        [-0.130678136247692, 51.40360753321217],
        [-0.130911607552443, 51.40380549897874],
        [-0.131169946639763, 51.40399306965017],
        [-0.131215786781454, 51.404032469164605],
        [-0.131279426634087, 51.40409373491465],
        [-0.131314549716974, 51.40414915028663],
        [-0.131328962866684, 51.40418355226349],
        [-0.131533058220514, 51.404926003905686],
        [-0.131551049756779, 51.4049784482374],
        [-0.131407371667848, 51.405011228681005],
        [-0.131442784873911, 51.40520063935544],
        [-0.131481039132456, 51.40524980972339],
        [-0.131500569234329, 51.40526450939509],
        [-0.131668077351345, 51.40535261049035],
        [-0.132318493189298, 51.406927702038224],
        [-0.132481095621446, 51.40840688845847],
        [-0.132259069683613, 51.4084213353502],
        [-0.132257632712218, 51.4084213124478],
        [-0.131955657547793, 51.40845696616231],
        [-0.13200809699306, 51.40879322831202],
        [-0.132042463890378, 51.40890258730875],
        [-0.132051387417282, 51.40893060679426],
        [-0.132073407593971, 51.409025380719044],
        [-0.132089065898266, 51.40917041213004],
        [-0.131316492042629, 51.40921564831313],
        [-0.131314761927765, 51.40922281485348],
        [-0.131285939561205, 51.40950652332593],
        [-0.130956425786173, 51.409512059585865],
        [-0.130512545523221, 51.40953645363783],
        [-0.130500792889863, 51.40954256101351],
        [-0.129478539223682, 51.40957480908786],
        [-0.129478738919455, 51.40985178627022],
        [-0.129357442887813, 51.40986423839781],
        [-0.129171922954718, 51.41007620150474],
        [-0.128942495740812, 51.41037738992276],
        [-0.128761839309526, 51.41061101242531],
        [-0.128608032642955, 51.410785711847005],
        [-0.128640576860204, 51.410833892642266],
        [-0.128543536058517, 51.41092137035112],
        [-0.128522169709889, 51.4109516041914],
        [-0.128480873976299, 51.411012094808505],
        [-0.128322242314413, 51.410987978982384],
        [-0.128227538278935, 51.410947797956226],
        [-0.128193599695092, 51.41093376688917],
        [-0.128041023062554, 51.41121909496301],
        [-0.12780960586652, 51.41185028006914],
        [-0.127726758979146, 51.41201262294992],
        [-0.127615358516142, 51.412205084617604],
        [-0.127534750076276, 51.412312607894734],
        [-0.127751713899581, 51.41231697356542],
        [-0.127428210141951, 51.41249165805378],
        [-0.127339151906528, 51.41252440709663],
        [-0.126615000969057, 51.412790706560585],
        [-0.126271512912433, 51.41292639997963],
        [-0.126259832331378, 51.41293070955461],
        [-0.126230387956384, 51.41291225345331],
        [-0.126018603080385, 51.41278117126416],
        [-0.125785997992639, 51.41263177038829],
        [-0.125676903427696, 51.41276761335514],
        [-0.125589033991403, 51.41291188910124],
        [-0.124937948435202, 51.41328995663056],
        [-0.124936474546882, 51.41329083231478],
        [-0.124497901659769, 51.41336025201865],
        [-0.124467501465618, 51.413365161099655],
        [-0.124508928732997, 51.41347733310618],
        [-0.124547849725423, 51.413580472324234],
        [-0.124527958892611, 51.41367997255907],
        [-0.124495838040367, 51.413832333773044],
        [-0.124458669931467, 51.41400259952436],
        [-0.124393814725548, 51.41400605790391],
        [-0.124310620647289, 51.41417648624631],
        [-0.124192274653473, 51.41439761006129],
        [-0.124074295382095, 51.41460974696442],
        [-0.12391521455234, 51.41463148062625],
        [-0.123675726225546, 51.414650128206944],
        [-0.123405617607183, 51.4147141475647],
        [-0.123122690829497, 51.414915548752354],
        [-0.123015866625848, 51.415030742507355],
        [-0.122993315171954, 51.41505466150794],
        [-0.122582836411453, 51.415034597469365],
        [-0.122480944573793, 51.41502936807866],
        [-0.122494289986038, 51.41519504687254],
        [-0.122531584112799, 51.41523251425258],
        [-0.122504168464653, 51.415269844228696],
        [-0.122481358877677, 51.41530005386038],
        [-0.122274411095802, 51.415507166557276],
        [-0.12220572269754, 51.415569014626605],
        [-0.121936089136853, 51.41579670469825],
        [-0.121703635377423, 51.41599441499611],
        [-0.121603697292132, 51.41618705473909],
        [-0.121574143132984, 51.41624143628189],
        [-0.121484742639856, 51.41635241159568],
        [-0.121334057823017, 51.416519957493676],
        [-0.121211968773935, 51.416656487312125],
        [-0.121135022547337, 51.41677935247874],
        [-0.121050484367069, 51.41687691642323],
        [-0.120968156965248, 51.416955631163546],
        [-0.120921797006839, 51.41699895189511],
        [-0.120856532051402, 51.41697722231727],
        [-0.120771661382049, 51.41704780274615],
        [-0.120795615199669, 51.417059877302506],
        [-0.120852367406889, 51.41707877261964],
        [-0.120846397340154, 51.41708407249098],
        [-0.120849198096516, 51.41708591593151],
        [-0.120786291172209, 51.41714695661375],
        [-0.120684099246998, 51.41725412914889],
        [-0.120473189988035, 51.41755739665434],
        [-0.120334510510858, 51.41778268684739],
        [-0.120228481115626, 51.418018392498205],
        [-0.120132918468108, 51.41817423125705],
        [-0.120052723441623, 51.418306036265086],
        [-0.120021908376055, 51.41856632912466],
        [-0.11984662755818, 51.41880721839232],
        [-0.119507053116577, 51.41898611978199],
        [-0.119095500479959, 51.419166562840516],
        [-0.118866965137712, 51.41926810899074],
        [-0.118452348336623, 51.41945299695896],
        [-0.118369940033303, 51.419498435749134],
        [-0.11823453351795, 51.419573598587675],
        [-0.118108230293207, 51.41963721698674],
        [-0.117847476355095, 51.419787703455604],
        [-0.117782794609217, 51.41982173605681],
        [-0.11774627352658, 51.41980046639653],
        [-0.117107785438121, 51.420077975449374],
        [-0.116925571291797, 51.42013709725122],
        [-0.116559297893576, 51.42026520228788],
        [-0.116166415210779, 51.420375792419016],
        [-0.115907831193604, 51.420473252783],
        [-0.115715067981167, 51.420578964975604],
        [-0.115593953435412, 51.42065615310622],
        [-0.115448505863775, 51.42080039481392],
        [-0.115382050865401, 51.42084249098558],
        [-0.115327016160358, 51.42092164068743],
        [-0.11485423303096, 51.42122608234402],
        [-0.114872068195883, 51.421247052345045],
        [-0.114580429112059, 51.42151843578398],
        [-0.114536262400315, 51.42161304748112],
        [-0.114512667630865, 51.42166212754056],
        [-0.114492433464978, 51.42166449981431],
        [-0.114462137692488, 51.4216667102115],
        [-0.114456351217341, 51.42166751638345],
        [-0.114220875766436, 51.421937104701996],
        [-0.114130526656192, 51.422035469482644],
        [-0.114082310708075, 51.42208864960503],
        [-0.113986311461477, 51.42225436832614],
        [-0.113959951966248, 51.42230070598542],
        [-0.113822711316365, 51.422454969696005],
        [-0.113295021770195, 51.4227648163494],
        [-0.113026825075403, 51.42292056799367],
        [-0.112753419334925, 51.423132888926936],
        [-0.112712048015856, 51.42322934348955],
        [-0.112685545060417, 51.42324420423654],
        [-0.112052865175339, 51.423204338564716],
        [-0.111524710383691, 51.42317604567195],
        [-0.110904709941607, 51.423142672956644],
        [-0.110491030908635, 51.42312881023918],
        [-0.110067318836635, 51.42314895640112],
        [-0.109940678020075, 51.42315051124303],
        [-0.109850009648901, 51.42315174683007],
        [-0.109603321722574, 51.423169350526976],
        [-0.109373669112951, 51.42315755271207],
        [-0.109211983105171, 51.423136959029435],
        [-0.108688199641494, 51.423037681780045],
        [-0.10788701937705, 51.42286378133118],
        [-0.107020753938042, 51.422698716083694],
        [-0.106515072299086, 51.42261410969862],
        [-0.106185511659299, 51.42258360538076],
        [-0.106054894578991, 51.42257699835723],
        [-0.105987299924615, 51.42257680528099],
        [-0.105797526827663, 51.4225746375677],
        [-0.105115818583755, 51.42260768183131],
        [-0.10461680727875, 51.42264007981531],
        [-0.104228190204812, 51.422646384124576],
        [-0.100773221398204, 51.42257785752747],
        [-0.100144411619994, 51.42258385278442],
        [-0.098812756251498, 51.42257754611481],
        [-0.098388726976023, 51.422570666845026],
        [-0.098108100752186, 51.42257420665282],
        [-0.097809890029975, 51.42258555380033],
        [-0.097512818004132, 51.42260411281855],
        [-0.097235607904886, 51.422629288426066],
        [-0.096906091546818, 51.42266710306248],
        [-0.096186014622971, 51.422757924794645],
        [-0.094839476026527, 51.42279809316716],
        [-0.094591422443229, 51.42281384453364],
        [-0.094346692080187, 51.42281885818966],
        [-0.094101047711971, 51.4228112667126],
        [-0.093918910365741, 51.42279841270572],
        [-0.093644202906113, 51.422763369541705],
        [-0.093434365340945, 51.42272488468816],
        [-0.093206403188702, 51.42267261554867],
        [-0.093008589225374, 51.42262173578545],
        [-0.092734391723785, 51.42253993680366],
        [-0.092307749671943, 51.42235403851557],
        [-0.092140653914503, 51.422221823818916],
        [-0.091768854328783, 51.421928004753475],
        [-0.091394790374952, 51.42172317521539],
        [-0.091101399938749, 51.421584405841905],
        [-0.09084282143608, 51.42147318088161],
        [-0.090197244275603, 51.421226154890284],
        [-0.090043959955749, 51.421176894946655],
        [-0.089909436256162, 51.421126142023574],
        [-0.089814783488527, 51.42108503149104],
        [-0.089720393189732, 51.421037630274355],
        [-0.089584119814847, 51.42095987037565],
        [-0.089367367752468, 51.42081155459166],
        [-0.089047653539116, 51.42054555385336],
        [-0.088452092558694, 51.4200655235336],
        [-0.088190342221356, 51.41992726278185],
        [-0.088010880946328, 51.41985059501865],
        [-0.087764505254903, 51.41975754760366],
        [-0.086970730054585, 51.419478409450356],
        [-0.086826641674393, 51.419415806288946],
        [-0.086619426120599, 51.41934947452066],
        [-0.086425645579182, 51.419305843494946],
        [-0.086185309603568, 51.41927494095155],
        [-0.086079139069973, 51.41926871078545],
        [-0.085863435474923, 51.41926788575345],
        [-0.085538960123381, 51.419288664546116],
        [-0.085011350572514, 51.419351986163456],
        [-0.083895216079586, 51.41955945994696],
        [-0.083333988613087, 51.41966988571293],
        [-0.082887123063208, 51.419728223395985],
        [-0.08287698686143, 51.419729856126494],
        [-0.082345959730506, 51.41977152739287],
        [-0.081742864228779, 51.41974816847842],
        [-0.080595107812373, 51.41967991659999],
        [-0.080291992073045, 51.419671354779794],
        [-0.080092059401834, 51.41967167673139],
        [-0.07971462558421, 51.419686176217425],
        [-0.079324826827839, 51.41972115506955],
        [-0.079103566352737, 51.419749902461206],
        [-0.078674663718685, 51.4198256046695],
        [-0.078548602385852, 51.41984781824731],
        [-0.078456078381342, 51.419790546479916],
        [-0.078529030415795, 51.419731491440416],
        [-0.07867595665199, 51.41962328996204],
        [-0.078879571128993, 51.41946655768343],
        [-0.079295457144667, 51.41915233468717],
        [-0.079542405300106, 51.418956743543696],
        [-0.079658422684572, 51.41883094820394],
        [-0.079847833842897, 51.41860114060314],
        [-0.080057772391958, 51.41832760472588],
        [-0.080229932636334, 51.41809751389901],
        [-0.080455419029464, 51.41786469918779],
        [-0.08081085494074, 51.41761962386131],
        [-0.080935533254061, 51.4175272421209],
        [-0.080995769363087, 51.417462581715206],
        [-0.081089950262978, 51.417308550016195],
        [-0.081111976385106, 51.41719470328176],
        [-0.081072976645915, 51.41716438877279],
        [-0.080993653031648, 51.41710104021996],
        [-0.08095299042358, 51.41707609406543],
        [-0.080972405825325, 51.41695590970564],
        [-0.080931386604891, 51.41666477353921],
        [-0.080843409587454, 51.41625866096485],
        [-0.080762955199188, 51.41601633880167],
        [-0.080498757841248, 51.415697266952215],
        [-0.080426397413267, 51.41563942765786],
        [-0.080469385848485, 51.41557448500163],
        [-0.080475473264749, 51.415566491269914],
        [-0.080415978727967, 51.4155448335424],
        [-0.080128228066914, 51.41544479715448],
        [-0.079725199726437, 51.41531589306394],
        [-0.079403079514882, 51.41524676619025],
        [-0.079036785714061, 51.415167921642755],
        [-0.078102993589551, 51.41493858495319],
        [-0.077955755926406, 51.41488311320253],
        [-0.077664679156858, 51.41472546276883],
        [-0.077318579132407, 51.41457680086341],
        [-0.076878650142708, 51.41440231787409],
        [-0.076756001352018, 51.414377823332366],
        [-0.076643604872221, 51.414383172889146],
        [-0.076527734329065, 51.41443702598774],
        [-0.076423047733333, 51.41439573975],
        [-0.076029142400046, 51.41415276503606],
        [-0.075903010303319, 51.41407425609961],
        [-0.075751391356677, 51.414020508147175],
        [-0.075706234361346, 51.41399998268792],
        [-0.075567395804936, 51.413915869107555],
        [-0.075509871235684, 51.413881651399464],
        [-0.07532848677387, 51.41378334975803],
        [-0.075176338299704, 51.413708009826316],
        [-0.075032435359346, 51.41364179785424],
        [-0.075044309548745, 51.413633000180006],
        [-0.075176211429724, 51.41353984389168],
        [-0.074456099359759, 51.4132231607444],
        [-0.074125602379291, 51.413080141245345],
        [-0.073927698718301, 51.41299865208148],
        [-0.073771396759667, 51.41295381727578],
        [-0.073678931918151, 51.41292981559971],
        [-0.073654766256722, 51.41292312346428],
        [-0.073657146091831, 51.412866508434696],
        [-0.073341633403715, 51.41281186167623],
        [-0.072757011861676, 51.41269343674632],
        [-0.072907929961001, 51.4123532958226],
        [-0.073017438550639, 51.41207452358749],
        [-0.073184915507682, 51.41171666913423],
        [-0.073326301013785, 51.411466298167255],
        [-0.073454673316366, 51.41114916693269],
        [-0.073490102872177, 51.41105892286373],
        [-0.073512593103558, 51.41083177665048],
        [-0.073543509876872, 51.41047257588797],
        [-0.073525265162799, 51.41008558874878],
        [-0.073439252249892, 51.409600366032514],
        [-0.073292024722184, 51.40923733713064],
        [-0.073206180255789, 51.40909024350031],
        [-0.073038310125606, 51.40873946463714],
        [-0.072856567791295, 51.40847928393153],
        [-0.072636825276172, 51.408233765570955],
        [-0.072319600698844, 51.40791290285106],
        [-0.071950198680408, 51.40760197203531],
        [-0.071523099374847, 51.407295486148],
        [-0.071037434236824, 51.40697994115535],
        [-0.070635643518218, 51.406653185246796],
        [-0.070209509314065, 51.4062558836844],
        [-0.069770416501173, 51.4057567491292],
        [-0.069678916775458, 51.4056419334273],
        [-0.069626816129719, 51.40554755070878],
        [-0.069526582679186, 51.40543528882722],
        [-0.069393078558427, 51.405259529553135],
        [-0.069250235393097, 51.40510070244322],
        [-0.069229518974786, 51.40501223227398],
        [-0.069219353906261, 51.40487807298784],
        [-0.068975525054959, 51.40462495634225],
        [-0.068980709559494, 51.40453601366189],
        [-0.069004009616881, 51.40435834138549],
        [-0.068927978484809, 51.404251873412086],
        [-0.068904953783105, 51.4042182208401],
        [-0.068912478425505, 51.40421025137749],
        [-0.068942690535995, 51.40417567757154],
        [-0.068740870384453, 51.40398350400513],
        [-0.068688129848875, 51.40390439793469],
        [-0.068597351841672, 51.40384085183256],
        [-0.06853307764044, 51.40379662727434],
        [-0.068313300166032, 51.40362124315811],
        [-0.068307403820965, 51.40359057063859],
        [-0.068279085033894, 51.403580211790356],
        [-0.068229401860314, 51.403599176781036],
        [-0.06816890846747, 51.40356760418332],
        [-0.068157679432428, 51.40356112414214],
        [-0.068139455926426, 51.40355003241689],
        [-0.068204339856305, 51.40351153402939],
        [-0.068242566703463, 51.40349148091427],
        [-0.068131410369922, 51.40343389341127],
        [-0.068100594563069, 51.403448673028386],
        [-0.068037563999557, 51.40347730989972],
        [-0.068024936115231, 51.40346990750832],
        [-0.067770036056664, 51.40330923092415],
        [-0.067606291730379, 51.40320311422203],
        [-0.0673506369138, 51.403060409740085],
        [-0.067198612735071, 51.40298326253163],
        [-0.067079217391816, 51.4029165453693],
        [-0.067012034571892, 51.40287317124908],
        [-0.066929388760306, 51.40282144853299],
        [-0.066817894653074, 51.40277194765519],
        [-0.066648669384614, 51.402693616665175],
        [-0.06640753575258, 51.40258172499619],
        [-0.066231617305235, 51.40252576480981],
        [-0.066057363482466, 51.402464436182235],
        [-0.065835285081887, 51.40237803749252],
        [-0.065585833936068, 51.4022929850526],
        [-0.065121937593191, 51.40217921161943],
        [-0.064934225103319, 51.40213024891341],
        [-0.064499516643917, 51.402040336136146],
        [-0.064585255972057, 51.40184840823147],
        [-0.064639566995218, 51.40171980969554],
        [-0.063977408750905, 51.40163692937553],
        [-0.063799268765797, 51.401565641109805],
        [-0.063779192926507, 51.40156441010848],
        [-0.063453479762511, 51.401549135628166],
        [-0.062933622787826, 51.40153514738999],
        [-0.062186084380713, 51.40153357876495],
        [-0.060714512913459, 51.400091076330334],
        [-0.060178240917653, 51.39954803004086],
        [-0.060714775584522, 51.399269142839756],
        [-0.060726990776153, 51.39925225876715],
        [-0.060585776892015, 51.39912402298782],
        [-0.060324736018471, 51.3992456007082],
        [-0.059412965991358, 51.399252986006175],
        [-0.059265804104988, 51.3993332820835],
        [-0.058857615086965, 51.39960259836579],
        [-0.058218597447047, 51.39992474267567],
        [-0.057464971100244, 51.40027106262478],
        [-0.056854166484001, 51.4005037396907],
        [-0.0561069216921, 51.40069907845779],
        [-0.055724112817273, 51.40084380562578],
        [-0.055260630945289, 51.40095841585291],
        [-0.054666752434769, 51.40106276604612],
        [-0.053957441113338, 51.401176886815385],
        [-0.053566829005724, 51.40123424760432],
        [-0.053233187153765, 51.40130424419625],
        [-0.052990701666172, 51.401462085041615],
        [-0.052477236316939, 51.40099312275693],
        [-0.051933664137333, 51.400488585818174],
        [-0.051494672985725, 51.39999297957143],
        [-0.051141143265501, 51.399820734053804],
        [-0.05065461345517, 51.39956444073713],
        [-0.052130490773422, 51.398292227387216],
        [-0.051391674076867, 51.397917534628235],
        [-0.050859620880368, 51.39771803863538],
        [-0.050472205197109, 51.398038930304665],
        [-0.050347773384154, 51.397990097553105],
        [-0.050824439644091, 51.39759874884296],
        [-0.050978209057951, 51.397126488432114],
        [-0.051811809752999, 51.396454202982945],
        [-0.053427426546526, 51.395171706941674],
        [-0.05327983785429, 51.395092816406326],
        [-0.053509931916169, 51.39492128001219],
        [-0.053232476776039, 51.39478627532453],
        [-0.053137985946105, 51.394844956910696],
        [-0.052619499092671, 51.39463130562932],
        [-0.052639776053457, 51.3945938729892],
        [-0.052617454981247, 51.39454404176942],
        [-0.052533726199208, 51.394349305564134],
        [-0.052451281904098, 51.3941581877481],
        [-0.05205205129727, 51.394081407625485],
        [-0.051725026472669, 51.39399683399913],
        [-0.051720311868167, 51.39370179262208],
        [-0.051718245641979, 51.3935812550912],
        [-0.051562370296891, 51.3936299219316],
        [-0.051553904382567, 51.39362618404045],
        [-0.051388352128447, 51.39349663279284],
        [-0.050494545309166, 51.39332079408618],
        [-0.050340289616858, 51.39329754404259],
        [-0.049694944491333, 51.39322835089711],
        [-0.049139703221125, 51.393271265606195],
        [-0.048769334485335, 51.39325970274845],
        [-0.048445199294098, 51.39324261384078],
        [-0.04806594062028, 51.39316974978805],
        [-0.047763978436943, 51.3930370215124],
        [-0.047625191912419, 51.39285305485678],
        [-0.047255130296573, 51.39232800451461],
        [-0.047210369545101, 51.39226520832623],
        [-0.047021599636297, 51.39203994032654],
        [-0.046831492033023, 51.391846124443035],
        [-0.046823141656306, 51.391839690295804],
        [-0.046498140648979, 51.39197815663783],
        [-0.046235761608759, 51.3919962637484],
        [-0.046145323472661, 51.39182479206693],
        [-0.046013211437454, 51.39161935202637],
        [-0.045712086956549, 51.39129868310801],
        [-0.04526294570578, 51.39090989672098],
        [-0.044709649020421, 51.3905031834142],
        [-0.043711683402918, 51.38987321682142],
        [-0.043179146452076, 51.38962061938565],
        [-0.042772392649054, 51.38945195512928],
        [-0.042277699605433, 51.38932318692828],
        [-0.041838044032555, 51.389251991051594],
        [-0.041774595163278, 51.38929049890921],
        [-0.041683165883328, 51.38934472609338],
        [-0.041279287010141, 51.38924355059132],
        [-0.041042858040959, 51.389192835306055],
        [-0.040476527747124, 51.38909253789221],
        [-0.039877150121062, 51.38895841151858],
        [-0.039563841291877, 51.38885694665761],
        [-0.03927627784581, 51.38885932894245],
        [-0.039129854071894, 51.38885507992539],
        [-0.038671166732663, 51.38882581972024],
        [-0.038242190792121, 51.38874040057441],
        [-0.037799996288657, 51.38869522605879],
        [-0.037115276801525, 51.388574044651264],
        [-0.036525046801401, 51.388461636977546],
        [-0.036535741737133, 51.388413255090214],
        [-0.036722168413897, 51.38758364587741],
        [-0.03715361655581, 51.3860324223826],
        [-0.037196558206078, 51.38586857351381],
        [-0.037470023834334, 51.38485157219818],
        [-0.037898595205287, 51.38323195211909],
        [-0.03785666882506, 51.38256578237065],
        [-0.037687155051401, 51.381589921606405],
        [-0.037167461185978, 51.379864488695034],
        [-0.036929070866831, 51.37895401910553],
        [-0.036352145247422, 51.37900370319819],
        [-0.036951883791472, 51.37701015518383],
        [-0.036791561963823, 51.376995778029375],
        [-0.036763716282677, 51.377042074035586],
        [-0.036649458821677, 51.37702577077149],
        [-0.036652919434623, 51.376944893434455],
        [-0.036556046927788, 51.37692528430045],
        [-0.036206570797117, 51.37689874322301],
        [-0.035724338098327, 51.37688526307095],
        [-0.0347447301038, 51.37694347454798],
        [-0.033386640467487, 51.37704838263837],
        [-0.032642746488906, 51.3771051374862],
        [-0.03134858967034, 51.37715983651842],
        [-0.031342846039813, 51.37715974000197],
        [-0.031240819488424, 51.37715982405641],
        [-0.031140151727758, 51.3771617294218],
        [-0.031038009492209, 51.377164509201734],
        [-0.030937187464085, 51.37717000892847],
        [-0.030836326848781, 51.3771764072021],
        [-0.03073538907299, 51.377184602656264],
        [-0.030635848602216, 51.377193720794686],
        [-0.030534795043241, 51.377204611976516],
        [-0.030436536109281, 51.37721734861861],
        [-0.030336764063512, 51.377231858303425],
        [-0.030238350711873, 51.377248189312425],
        [-0.030173233269089, 51.377258785108715],
        [-0.03010369232765, 51.37727200433594],
        [-0.030034151347163, 51.377285223521426],
        [-0.029964610327628, 51.37729844266515],
        [-0.029896466596217, 51.37731258454746],
        [-0.029828284238448, 51.37732762502298],
        [-0.029760063250252, 51.37734356409161],
        [-0.029693239540036, 51.37736042590266],
        [-0.029626377192238, 51.377378186308235],
        [-0.029560950707007, 51.3773959708261],
        [-0.029495446987958, 51.37741555257314],
        [-0.029431301941884, 51.37743695570178],
        [-0.029368592751914, 51.37745838294802],
        [-0.029307242228436, 51.37748163158029],
        [-0.029245853046372, 51.37750577881264],
        [-0.02918586111939, 51.37753084880073],
        [-0.02917410359159, 51.37753694598528],
        [-0.029106661795364, 51.37756818558291],
        [-0.029042014544391, 51.37760127072131],
        [-0.028978764518559, 51.37763527861397],
        [-0.028918347638543, 51.37767023342218],
        [-0.028857853456905, 51.37770698546357],
        [-0.028800231025797, 51.377743785793484],
        [-0.028743967212672, 51.37778240752043],
        [-0.028689100622383, 51.377821952013626],
        [-0.028635631255115, 51.37786241927505],
        [-0.028584995039745, 51.377903833469766],
        [-0.028534358732523, 51.37794524764135],
        [-0.028512008935204, 51.37796375646536],
        [-0.028474682007252, 51.377996401760356],
        [-0.028438790958182, 51.37802907120776],
        [-0.028404297176756, 51.37806266344136],
        [-0.028369841959349, 51.378095357031626],
        [-0.028335309461161, 51.37812984787591],
        [-0.028303687399806, 51.378163488410344],
        [-0.028272026674642, 51.37819802756792],
        [-0.028241763222209, 51.37823348951611],
        [-0.028212974280321, 51.37826807699131],
        [-0.028186979938225, 51.37830451005983],
        [-0.028161024173564, 51.378340044489626],
        [-0.028136465691105, 51.378376501714165],
        [-0.028113304492612, 51.378413881734325],
        [-0.028093015146123, 51.378451310088096],
        [-0.02807416171217, 51.37848876260741],
        [-0.028058180141766, 51.37852626346289],
        [-0.02804212130046, 51.37856556158005],
        [-0.028033821513847, 51.37859150106288],
        [-0.02802207047975, 51.378630871686894],
        [-0.028011793999334, 51.378669367847564],
        [-0.028004350784238, 51.37870881098024],
        [-0.027996907555425, 51.37874825411206],
        [-0.027992336224231, 51.37878774558453],
        [-0.027989200841144, 51.3788272612273],
        [-0.027988937368002, 51.37886682521132],
        [-0.027988635269954, 51.37890728782723],
        [-0.027991243715268, 51.37894690015238],
        [-0.027995326749536, 51.37898563801597],
        [-0.028000807129448, 51.379025298682095],
        [-0.028007723482259, 51.37906498351844],
        [-0.028041083314395, 51.379358711032836],
        [-0.026821793911654, 51.37937505215021],
        [-0.026821871205669, 51.379373254887376],
        [-0.026769973597715, 51.379109790350334],
        [-0.026695023945206, 51.37884773606402],
        [-0.026634479153639, 51.37861829852051],
        [-0.026530259381063, 51.37830179411533],
        [-0.026420279959336, 51.37788537220207],
        [-0.026210865279133, 51.377408821540286],
        [-0.026151683670919, 51.377415018699544],
        [-0.026105634981544, 51.37728294757163],
        [-0.026052224776038, 51.37722179571887],
        [-0.026012328933647, 51.37698011572536],
        [-0.025972759164663, 51.37683106732654],
        [-0.025937541938812, 51.37648065290374],
        [-0.026152918612424, 51.376451008421405],
        [-0.02591608765559, 51.37604413920754],
        [-0.025866726887807, 51.37605589739776],
        [-0.025822856094337, 51.375940049910255],
        [-0.025687069282662, 51.37568955953838],
        [-0.025474786987115, 51.3753802256111],
        [-0.025403404750961, 51.37526930994805],
        [-0.025200060519935, 51.37501947881662],
        [-0.02513799060935, 51.374892532858475],
        [-0.02510716604799, 51.37480748061673],
        [-0.025061156612245, 51.374641236892934],
        [-0.025016090169832, 51.374553246680165],
        [-0.024986281225204, 51.37451137711488],
        [-0.02440688324974, 51.37371833196736],
        [-0.024271076027118, 51.37320165153851],
        [-0.024185596062118, 51.37295110835598],
        [-0.023944969174369, 51.37263319977601],
        [-0.02359351046616, 51.37221989537621],
        [-0.023620391196389, 51.37179588697048],
        [-0.023644891464388, 51.3715939614656],
        [-0.023738813091059, 51.37141478991001],
        [-0.023804186447472, 51.37133136005659],
        [-0.023816330008387, 51.371316277085285],
        [-0.023734416673636, 51.371316693811515],
        [-0.023682692119454, 51.371316720495685],
        [-0.023688860661712, 51.37130693243927],
        [-0.023732117774996, 51.371236618772194],
        [-0.023726413608274, 51.37123562325934],
        [-0.02363767012295, 51.371227831138064],
        [-0.023647383280553, 51.37100227476706],
        [-0.023630638190267, 51.37049029974145],
        [-0.02361899765437, 51.370160066151925],
        [-0.023616722076183, 51.36994599817609],
        [-0.023579878227597, 51.369767318342404],
        [-0.023567065563472, 51.36969785730435],
        [-0.023509561467703, 51.369698685674976],
        [-0.023506988252346, 51.369591627459165],
        [-0.023564101375772, 51.36956651182522],
        [-0.023564256164688, 51.3695629173006],
        [-0.023582196076991, 51.36934649251715],
        [-0.02358608108145, 51.369056089302454],
        [-0.023564136137843, 51.36886507082269],
        [-0.023507883205727, 51.36860332932054],
        [-0.023363910444492, 51.368410251841745],
        [-0.023302480688538, 51.368335473985795],
        [-0.023261135148914, 51.368127940934514],
        [-0.023246513755644, 51.36783362824236],
        [-0.023177966193238, 51.367590564026266],
        [-0.023155710252438, 51.367373460917584],
        [-0.023155748954631, 51.367372562286306],
        [-0.023119703486494, 51.36700864309517],
        [-0.023279865899771, 51.36699246087136],
        [-0.023350209452732, 51.36699364785339],
        [-0.023355065499677, 51.367047686857845],
        [-0.023356230199392, 51.36705400150152],
        [-0.024045612007976, 51.36699189058407],
        [-0.024044692398253, 51.36677964396595],
        [-0.02449573429797, 51.366780956219884],
        [-0.024479892472857, 51.36641468033727],
        [-0.023729780530223, 51.36568529815159],
        [-0.023796014685904, 51.365414831612384],
        [-0.023587150004757, 51.365294400843055],
        [-0.023311930342465, 51.36541385830139],
        [-0.023002921395671, 51.36558400408983],
        [-0.022270398227539, 51.365880992999756],
        [-0.022142855228125, 51.36574034975601],
        [-0.021959122275913, 51.36547015984053],
        [-0.021852655006494, 51.36540721063369],
        [-0.021568177342218, 51.36527470792696],
        [-0.021344571973551, 51.36509646992019],
        [-0.021248186955305, 51.36493297053682],
        [-0.021074711134068, 51.36475827662187],
        [-0.020965098279226, 51.364601747801395],
        [-0.020800892486101, 51.36434537512794],
        [-0.02076065592911, 51.36427904747618],
        [-0.020367980708759, 51.36409075647227],
        [-0.020164563014956, 51.3639776058146],
        [-0.020073930735716, 51.36391402328702],
        [-0.019948532991609, 51.36375722666122],
        [-0.01988645593036, 51.36369772379641],
        [-0.019811692330517, 51.36363261072704],
        [-0.019740537611261, 51.36358374575208],
        [-0.019610138813639, 51.36347632489407],
        [-0.019476753385338, 51.36337155124547],
        [-0.019382242370328, 51.363264736885256],
        [-0.019169051541054, 51.363045303517396],
        [-0.019085094150147, 51.36292697665411],
        [-0.018934407915419, 51.36279043479746],
        [-0.018877298440242, 51.36268245396613],
        [-0.018798850970841, 51.362536342216806],
        [-0.018771302953875, 51.36234252988643],
        [-0.018599707403058, 51.36209142464039],
        [-0.018477112484132, 51.36190319874486],
        [-0.018370191736458, 51.36171793572821],
        [-0.018355449472059, 51.3616934056171],
        [-0.018282397999813, 51.36158875190932],
        [-0.018209308064505, 51.36148499678729],
        [-0.018166051696026, 51.36142221422951],
        [-0.018400293528745, 51.36135333494285],
        [-0.018288292761281, 51.36125251875417],
        [-0.01815561495958, 51.36113156833366],
        [-0.017854492846923, 51.36098618467955],
        [-0.017671385125835, 51.36076905602094],
        [-0.017325848288691, 51.360587847175246],
        [-0.016536570334222, 51.35980559544306],
        [-0.016138452711968, 51.35934561316638],
        [-0.015650267187426, 51.358876010101994],
        [-0.015047843471752, 51.35849080060811],
        [-0.014455008118376, 51.35814981550986],
        [-0.014222617071169, 51.35801008373001],
        [-0.013974675319546, 51.3578314184827],
        [-0.013611766732714, 51.35755457942044],
        [-0.013362122371922, 51.35738217896887],
        [-0.013131060599234, 51.357211891749955],
        [-0.013122604528253, 51.35720815116641],
        [-0.012877371807798, 51.35716622109863],
        [-0.012441404916916, 51.35711745708304],
        [-0.012329341615241, 51.357084979742766],
        [-0.012182348802039, 51.35719579546147],
        [-0.012107585639644, 51.35729704539542],
        [-0.012018793440256, 51.35729104202072],
        [-0.011894197349373, 51.3572826323113],
        [-0.011882715195293, 51.35728243742444],
        [-0.011525697297882, 51.35716846273041],
        [-0.0111183011609, 51.35699068143499],
        [-0.010110166305727, 51.35652301633769],
        [-0.009715153289322, 51.3563580304659],
        [-0.009442638255228, 51.356216707944164],
        [-0.009301809174787, 51.3561189901183],
        [-0.009040979848551, 51.35594009516109],
        [-0.008685414813949, 51.35582613636917],
        [-0.008450501380067, 51.355645882071165],
        [-0.008246951386395, 51.35537173538723],
        [-0.008051253068321, 51.35521462927099],
        [-0.007817958125837, 51.35493098306747],
        [-0.007690379715588, 51.35475974699537],
        [-0.007397116184455, 51.35450115922073],
        [-0.007045786147734, 51.35425687060211],
        [-0.006660921163392, 51.35395805290865],
        [-0.006596823257743, 51.35387962327861],
        [-0.006455149137094, 51.353801671872],
        [-0.006275506633807, 51.35370508825324],
        [-0.006088901187168, 51.353537342046],
        [-0.006096428074233, 51.35352937658185],
        [-0.006141862452035, 51.35347529341682],
        [-0.005901074278604, 51.35329853095314],
        [-0.005544984057925, 51.35293275269854],
        [-0.005540912835381, 51.35292728764368],
        [-0.00548201236053, 51.35286153591012],
        [-0.005443858333666, 51.35281412320193],
        [-0.005384997169432, 51.35274747279759],
        [-0.005332110836562, 51.35267552838041],
        [-0.005330909900367, 51.35267011219774],
        [-0.005291447198916, 51.35258670560891],
        [-0.005339274417301, 51.35257672863593],
        [-0.005374068480532, 51.35256922756394],
        [-0.005286124167616, 51.352477801043605],
        [-0.005221181001408, 51.35238586689221],
        [-0.005192800160834, 51.35234491555827],
        [-0.005129358947186, 51.35215228660743],
        [-0.005092434266758, 51.352010469405066],
        [-0.004991709209703, 51.35171738430223],
        [-0.004920185187138, 51.35144637941711],
        [-0.004857253749866, 51.35124206820721],
        [-0.00474549006313, 51.3509056289431],
        [-0.004733627148833, 51.350748950600156],
        [-0.004745902764157, 51.350268040162554],
        [-0.004674819764895, 51.34982168120842],
        [-0.004632772030206, 51.34956646609991],
        [-0.004507807139348, 51.34943483949895],
        [-0.004372797362359, 51.349170846112074],
        [-0.004343500986709, 51.34895271897743],
        [-0.004258132813061, 51.348835256087774],
        [-0.004205662558723, 51.348687777878375],
        [-0.004004189031879, 51.3482679737054],
        [-0.003914403015303, 51.34775654652564],
        [-0.003789572171586, 51.34758894978789],
        [-0.003467723306425, 51.34680018275468],
        [-0.003304520136615, 51.346326172866654],
        [-0.00324439399536, 51.346123706948156],
        [-0.003009624671591, 51.34571052744884],
        [-0.002922216363605, 51.345574143598924],
        [-0.002920177608957, 51.34552195002859],
        [-0.002985021308541, 51.34551676064896],
        [-0.002837923549683, 51.34503583024966],
        [-0.0027321195091, 51.34482718935517],
        [-0.002676508401578, 51.34458702988913],
        [-0.002606560085797, 51.34431335214782],
        [-0.00260099196459, 51.344144190669454],
        [-0.00260759511397, 51.34399232326795],
        [-0.002579516758077, 51.34387853386778],
        [-0.00241093375565, 51.34342961077804],
        [-0.00214562376309, 51.34279468294672],
        [-0.001998118285121, 51.34242255836053],
        [-0.001979985224244, 51.34237728450121],
        [-0.001854857760945, 51.34211795275355],
        [-0.001717841446339, 51.341702840761066],
        [-0.001651894372526, 51.34143642486144],
        [-0.001765056785589, 51.34140957836258],
        [-0.001580202010774, 51.340740949278],
        [-0.001483526946072, 51.34075188970492],
        [-0.001424389727112, 51.34075807488631],
        [-0.001397953623288, 51.34050762096505],
        [-0.001446159887779, 51.34048865919856],
        [-0.001485601347556, 51.340473145010876],
        [-0.001408551363898, 51.34036301601942],
        [-0.001300418507314, 51.340208291278614],
        [-0.001094296150308, 51.33973174651243],
        [-0.001016889454424, 51.339431860785496],
        [-0.000890779112773, 51.33903042307155],
        [-0.000779303372506, 51.33858966620168],
        [-0.000559433187879, 51.33809939624931],
        [-0.000391754482344, 51.337828544692776],
        [-5.5769245479e-5, 51.3368066085271],
        [5.0071197607e-5, 51.336467566795996],
        [0.000128770124182, 51.33613168635858],
        [0.000392323427537, 51.33545811206624],
        [0.000556154146002, 51.33490134994199],
        [0.000546009426543, 51.33453641082237],
        [0.000830635767666, 51.33395150519469],
        [0.00091068175169, 51.33371272454795],
        [0.000924113910073, 51.333658537539655],
        [0.000840807291134, 51.3335916146838],
        [0.000959728568628, 51.33352033737623],
        [0.001324940704904, 51.33330276316808],
        [0.00167100380958, 51.3330081759781],
        [0.001935414008022, 51.33271768144489],
        [0.002270021210014, 51.33248983586054],
        [0.002608110100528, 51.33234196676272],
        [0.002944972735107, 51.332231887920685],
        [0.003281848566279, 51.33215508168822],
        [0.003212914206794, 51.331627476952654],
        [0.003085849959885, 51.33141292092054],
        [0.002885541955509, 51.331263467210704],
        [0.002882629500922, 51.33116369556323],
        [0.002842015593826, 51.33102230196378],
        [0.002846706191135, 51.330932292498055],
        [0.002846432070418, 51.33092600213903],
        [0.002891479466727, 51.330477384045494],
        [0.00289558253682, 51.33037389522991],
        [0.002886961532267, 51.33034076885098],
        [0.002864153038324, 51.330311482287655],
        [0.002819632580676, 51.33027807058568],
        [0.002316155036092, 51.329924265292284],
        [0.002181760142744, 51.32977188480325],
        [0.002197138561756, 51.329465862408796],
        [0.002223670431024, 51.32931702550856],
        [0.002256135388482, 51.32917258361886],
        [0.002266122862983, 51.32913823973559],
        [0.001056419293825, 51.32901502996682],
        [-3.74413762e-7, 51.32890898079617],
        [-0.0005314532804, 51.32877776000199],
        [-0.00077757289542, 51.329356609739264],
        [-0.001184308483183, 51.329840177567895],
        [-0.001705192071148, 51.330306806607176],
        [-0.002329085102583, 51.33068256338151],
        [-0.003558331955561, 51.331431952067824],
        [-0.004692064077736, 51.33213383631788],
        [-0.005057187864152, 51.3323208142602],
        [-0.005666729460543, 51.33263155935213],
        [-0.00672841448707, 51.33314244602672],
        [-0.00723749844241, 51.33338672395072],
        [-0.007146629335379, 51.33369453375666],
        [-0.008130339427221, 51.33385245780982],
        [-0.008256072140581, 51.333866287023106],
        [-0.008381921767438, 51.33387742021694],
        [-0.008507849343515, 51.33388675601922],
        [-0.008635289390168, 51.33389431882235],
        [-0.008762807357213, 51.333900084229995],
        [-0.008888968693163, 51.333904027851986],
        [-0.008914790351789, 51.33390446686441],
        [-0.00904250304975, 51.33390573882452],
        [-0.009168859080496, 51.33390518900141],
        [-0.009296766429574, 51.33390196753997],
        [-0.009423317076502, 51.333896924297456],
        [-0.00955138007996, 51.33389010804141],
        [-0.00967804743206, 51.33388236863569],
        [-0.009804792579059, 51.33387283183409],
        [-0.009930142055423, 51.33386237188849],
        [-0.009953211376494, 51.333860066030006],
        [-0.010114618741, 51.33384572215121],
        [-0.01027753836149, 51.33382960516261],
        [-0.010436387695341, 51.33380802305657],
        [-0.010484116384196, 51.33379984098623],
        [-0.010550727418387, 51.33378658392166],
        [-0.010615903881087, 51.33377330245018],
        [-0.010681158106226, 51.33375822368264],
        [-0.010686974039561, 51.333756523894095],
        [-0.010902133559435, 51.33362798280427],
        [-0.011021480785867, 51.333557167289584],
        [-0.010883940124596, 51.33341813911664],
        [-0.010691450192569, 51.33308932638008],
        [-0.010946198460919, 51.332908399543314],
        [-0.011914495183197, 51.332891567703854],
        [-0.013348344040197, 51.331536388693046],
        [-0.013631594253866, 51.33152590547793],
        [-0.013712405484927, 51.331316842182964],
        [-0.01371488221711, 51.33086094393081],
        [-0.013773590254186, 51.330698268793434],
        [-0.013975316610009, 51.33051463757927],
        [-0.014231124704095, 51.33030854152657],
        [-0.014335472153666, 51.32995329253071],
        [-0.014356260860044, 51.32980436278819],
        [-0.014513571021286, 51.32998419021061],
        [-0.01463796644804, 51.33019493457042],
        [-0.014856760527035, 51.330480121524026],
        [-0.01510033539409, 51.33065691392476],
        [-0.015180815007159, 51.330754502025364],
        [-0.015249812449728, 51.3310182641733],
        [-0.015376926342105, 51.331265924648754],
        [-0.0155568452707, 51.3315207748012],
        [-0.015967633053015, 51.33201425088236],
        [-0.01624429037098, 51.332223076399174],
        [-0.016561967940029, 51.3325126327878],
        [-0.0170575670599, 51.33290412288734],
        [-0.017233508113293, 51.33298534002488],
        [-0.017386342199763, 51.33300321542779],
        [-0.017809988719554, 51.33293304779226],
        [-0.017841742720272, 51.33299563623664],
        [-0.017970078894059, 51.333315257562845],
        [-0.018162005425496, 51.33382480566234],
        [-0.018312173517858, 51.33410432796783],
        [-0.018800632843916, 51.33452896328992],
        [-0.019014279431085, 51.33486801228017],
        [-0.01912982958966, 51.3350848969097],
        [-0.019187915640883, 51.33520278697325],
        [-0.019405685878757, 51.335712769863825],
        [-0.019473271829877, 51.33581013677443],
        [-0.019542525047288, 51.33590213610252],
        [-0.019765516072045, 51.3360246129368],
        [-0.020074666708628, 51.33621329478411],
        [-0.020441056804814, 51.33650636153861],
        [-0.020529079320072, 51.336595979639206],
        [-0.020537106441399, 51.33660960464653],
        [-0.020472525287762, 51.33684232819372],
        [-0.020584409571798, 51.33714458172598],
        [-0.021229968949105, 51.33768966830617],
        [-0.021448166066313, 51.33782375157636],
        [-0.022083791049863, 51.338099778182766],
        [-0.022397958056142, 51.33820580387299],
        [-0.022898631739816, 51.33828170369891],
        [-0.023656386914427, 51.338355644889184],
        [-0.023913312099936, 51.338357282357364],
        [-0.024096411246042, 51.338372961647124],
        [-0.024285133364341, 51.33839143337186],
        [-0.024693175490268, 51.338451374181474],
        [-0.025130045327975, 51.33860892278195],
        [-0.025497117226917, 51.33851978738064],
        [-0.025984958501766, 51.33856038537186],
        [-0.026207330122952, 51.338530859598],
        [-0.026466533790767, 51.338479471866634],
        [-0.026894676510753, 51.338405749796316],
        [-0.027458180350204, 51.338322615326284],
        [-0.027727617201004, 51.338266900729096],
        [-0.027991468932543, 51.33820749432197],
        [-0.028479616156282, 51.33807362525392],
        [-0.02881665658774, 51.33794800244166],
        [-0.028996090394629, 51.33788177719408],
        [-0.029141755249926, 51.33783296916211],
        [-0.029502458177458, 51.33775810269696],
        [-0.030211699121214, 51.337657622666676],
        [-0.030389618120658, 51.33759316839621],
        [-0.030511748159391, 51.33755745218433],
        [-0.030707354204542, 51.33751577705739],
        [-0.030893543198972, 51.33749282831276],
        [-0.031036075894613, 51.337483533929316],
        [-0.031844910240876, 51.337471049966595],
        [-0.032101831264693, 51.33747266941758],
        [-0.032324628135521, 51.33746652068896],
        [-0.032796738260656, 51.33743848018759],
        [-0.033356281964326, 51.3375144247706],
        [-0.033701253737097, 51.33760564938932],
        [-0.034304656114017, 51.337998874818275],
        [-0.03452070360634, 51.33808343660514],
        [-0.034655244380357, 51.33805961509376],
        [-0.034893056822031, 51.33807169917725],
        [-0.035374921091059, 51.33818499996325],
        [-0.035832167448893, 51.3383032816068],
        [-0.036300891083283, 51.33832103376697],
        [-0.036847543361671, 51.33849746551032],
        [-0.036971402824514, 51.3385220237758],
        [-0.037096812298198, 51.33854391002769],
        [-0.037397961525455, 51.33858582768851],
        [-0.037668814223181, 51.338597560492296],
        [-0.037918344575243, 51.33870515911679],
        [-0.037992727853801, 51.338644354470176],
        [-0.038502602711282, 51.338337245445864],
        [-0.039308404431382, 51.33779048287059],
        [-0.039495331643765, 51.33761555340179],
        [-0.039842098444403, 51.33722747018852],
        [-0.040015063462226, 51.336975866861145],
        [-0.040182846296551, 51.336677413660425],
        [-0.040430353658144, 51.33639468277523],
        [-0.040534291838989, 51.33621296735346],
        [-0.040632528976098, 51.33603025717306],
        [-0.04070406081145, 51.335867783734614],
        [-0.040922194889689, 51.33533096157787],
        [-0.041086048659461, 51.33495600198596],
        [-0.041331671063654, 51.334582409723616],
        [-0.041993330743494, 51.333811094331544],
        [-0.042908909906437, 51.33365013804388],
        [-0.043406854702773, 51.333654861041644],
        [-0.044520915287071, 51.33372113035197],
        [-0.045006885750746, 51.33366989083989],
        [-0.045450756110022, 51.3336296374217],
        [-0.045904417622954, 51.33356166781955],
        [-0.046579572464376, 51.33348390183469],
        [-0.04691593645486, 51.33333843173319],
        [-0.04738907120007, 51.333116103929804],
        [-0.047808350113152, 51.33301248156701],
        [-0.048181203337121, 51.33288650111685],
        [-0.048499679338406, 51.332790189118086],
        [-0.048691846228601, 51.33276101682024],
        [-0.04909150140514, 51.33271371794533],
        [-0.049293289782014, 51.3326945970882],
        [-0.049685565854898, 51.33268584257765],
        [-0.05028756480888, 51.33264011057542],
        [-0.050127135280616, 51.332158120179805],
        [-0.05009856408631, 51.33205332729848],
        [-0.050634431784938, 51.33187429742465],
        [-0.050860415063461, 51.331758453732654],
        [-0.051068333853674, 51.331594646831164],
        [-0.051125618034192, 51.331360886476226],
        [-0.051132569181095, 51.33106153990483],
        [-0.051107248792165, 51.33084618917232],
        [-0.050686295043948, 51.330211481407005],
        [-0.050470905425794, 51.33001005305483],
        [-0.050260226207075, 51.3298329834419],
        [-0.049818313297101, 51.32962508443545],
        [-0.049467765114059, 51.32939532405203],
        [-0.048970480772771, 51.328936497857384],
        [-0.048775872985166, 51.328719225328776],
        [-0.049096363338246, 51.3286085568017],
        [-0.048572341489848, 51.32803597323505],
        [-0.048399888155316, 51.32783795420834],
        [-0.048145160336346, 51.32744791484332],
        [-0.048034595132214, 51.32721225738349],
        [-0.048013126960931, 51.327109380835346],
        [-0.048060705458975, 51.32707060525459],
        [-0.047983214538147, 51.326901146951315],
        [-0.047854831620628, 51.32651051491956],
        [-0.0478502421093, 51.32631439383314],
        [-0.047909107947038, 51.325536592452224],
        [-0.047895616322848, 51.32524589778819],
        [-0.048214100267274, 51.325181961238776],
        [-0.04823252428221, 51.32525511057004],
        [-0.048443580008143, 51.32528740517338],
        [-0.048784722910099, 51.32536593204483],
        [-0.049264757451719, 51.325384720828886],
        [-0.049552738897363, 51.32532926540267],
        [-0.049792182118378, 51.32526760523417],
        [-0.050021684104714, 51.324966568703566],
        [-0.05047148079416, 51.32461524210409],
        [-0.050710367136222, 51.324329648345866],
        [-0.050852961577783, 51.32414856728654],
        [-0.050894239550055, 51.32408900209828],
        [-0.050916580701032, 51.32400214310286],
        [-0.050970594505098, 51.32370987451425],
        [-0.051001832145814, 51.32365014218043],
        [-0.051038692417557, 51.323593201276715],
        [-0.051293522064186, 51.32343916759298],
        [-0.051320045041148, 51.32288115166106],
        [-0.05134033082495, 51.32263958098236],
        [-0.051334063622318, 51.32244882780907],
        [-0.051789674983427, 51.32239975346557],
        [-0.052251733128971, 51.32236787103661],
        [-0.052508000675964, 51.32238292463241],
        [-0.052615324795745, 51.32232265863468],
        [-0.052905376356374, 51.322217768708704],
        [-0.053107559446008, 51.32212041011971],
        [-0.053659044854723, 51.32180673348592],
        [-0.054205524575654, 51.32154333117954],
        [-0.054909350424289, 51.32125825925197],
        [-0.055047259967983, 51.32125515415028],
        [-0.055741004360886, 51.321344013157585],
        [-0.055954478785917, 51.32145457241969],
        [-0.056278548540253, 51.3216649892999],
        [-0.056511514677419, 51.32158612155925],
        [-0.056735153207367, 51.32152418501897],
        [-0.057040186964004, 51.32137007277225],
        [-0.057689414056579, 51.320950084611226],
        [-0.057844595568647, 51.32084384473349],
        [-0.058137754548134, 51.3205969061876],
        [-0.058419429236342, 51.32038394939756],
        [-0.05878207389566, 51.32025866574006],
        [-0.058874732344447, 51.320239518128844],
        [-0.058951121848353, 51.32023179150166],
        [-0.059063289281286, 51.32022645641559],
        [-0.059618979291112, 51.3200836861209],
        [-0.059769382212328, 51.320056501755445],
        [-0.059956541951519, 51.320042516172116],
        [-0.060141812467941, 51.32003929043206],
        [-0.060246505286595, 51.32004102468551],
        [-0.060489590282097, 51.320062137509126],
        [-0.060684634582806, 51.320065367793745],
        [-0.060881921036758, 51.31998140409864],
        [-0.061002477074253, 51.319913256018296],
        [-0.061404954329442, 51.319625853001035],
        [-0.061566092198759, 51.319480138248785],
        [-0.061767942101034, 51.31938995361312],
        [-0.062033720897606, 51.31931521522587],
        [-0.062105972839422, 51.31920130228219],
        [-0.062448477941671, 51.319110746233484],
        [-0.063306679990519, 51.31887224346398],
        [-0.063819544613497, 51.318723349365776],
        [-0.064021197655116, 51.31863765405532],
        [-0.064075281196034, 51.31861426745765],
        [-0.064113286836256, 51.31859780932879],
        [-0.064152268972618, 51.31862633164257],
        [-0.064153703080088, 51.318626355350546],
        [-0.067765014883288, 51.31881729574166],
        [-0.070055113599389, 51.31889373062885],
        [-0.071043326339744, 51.32123376627665],
        [-0.071192856378375, 51.321158890765005],
        [-0.071411302453508, 51.32108335150299],
        [-0.071536112841277, 51.32105033484045],
        [-0.071955155643166, 51.3209825942676],
        [-0.072074190951792, 51.32095038123558],
        [-0.07262222537969, 51.32078404195196],
        [-0.072773941750474, 51.32072538755238],
        [-0.072949885192451, 51.32063655595438],
        [-0.073236563842474, 51.3205765246895],
        [-0.073577213255265, 51.32052997058448],
        [-0.073916427829852, 51.32048339189165],
        [-0.07406573246794, 51.320482250392224],
        [-0.07410596461642, 51.32048111349529],
        [-0.07489040282956, 51.32035821989266],
        [-0.075377733942302, 51.320201661258714],
        [-0.075462119256213, 51.32017427102062],
        [-0.07589310570056, 51.320060849189375],
        [-0.076232577831894, 51.320007973053166],
        [-0.077202610266763, 51.31987372428327],
        [-0.077368365078253, 51.31985666156811],
        [-0.077641531235337, 51.3198449590774],
        [-0.078895871486983, 51.31977561523979],
        [-0.078893274121303, 51.319631687127114],
        [-0.078829764926257, 51.31843819398781],
        [-0.078853628099411, 51.31814182157333],
        [-0.079048658860466, 51.31811084825595],
        [-0.079125079319574, 51.31810220972161],
        [-0.079210179450395, 51.31809191494033],
        [-0.07929535461913, 51.31807982275903],
        [-0.079380604815693, 51.318065933177444],
        [-0.07946445839369, 51.318051121343935],
        [-0.079484685962068, 51.31804785595052],
        [-0.079539669774445, 51.31803706700282],
        [-0.079594653561637, 51.31802627802898],
        [-0.079649674853851, 51.31801459035997],
        [-0.079703299546693, 51.31800198047833],
        [-0.079756999266828, 51.31798757323354],
        [-0.079806359125838, 51.31797399408468],
        [-0.079893643486598, 51.31794574893477],
        [-0.079979531166295, 51.31791658153533],
        [-0.080062625586436, 51.317885569707165],
        [-0.080138474370179, 51.31785623759769],
        [-0.080220209517528, 51.31782340480437],
        [-0.080439592041675, 51.31769030997734],
        [-0.080584221820616, 51.31759465871287],
        [-0.080826276178454, 51.31743405696693],
        [-0.081130360199195, 51.31723130554206],
        [-0.081053239463238, 51.3171536025903],
        [-0.081102092441349, 51.31708335967146],
        [-0.081158528118526, 51.317003348856026],
        [-0.08115890311209, 51.316994362155825],
        [-0.081160787174701, 51.31698360161477],
        [-0.081164105306617, 51.316972864572776],
        [-0.081167423436919, 51.31696212753067],
        [-0.081170741565608, 51.316951390488434],
        [-0.081175493761943, 51.31694067694509],
        [-0.081180208457159, 51.31693086207152],
        [-0.081186394717682, 51.31692017202655],
        [-0.081193977545028, 51.31691040415002],
        [-0.081200126301074, 51.3169006127743],
        [-0.081209143189927, 51.31689086839535],
        [-0.081216726007479, 51.3168811005172],
        [-0.081225705391034, 51.31687225480697],
        [-0.08123611883801, 51.31686343259421],
        [-0.081246532280971, 51.31685461038049],
        [-0.081256945719914, 51.31684578816574],
        [-0.081268755723958, 51.316837888118],
        [-0.081280565723938, 51.31682998806898],
        [-0.081292375719856, 51.31682208801873],
        [-0.081305582280901, 51.31681511013472],
        [-0.081318788837948, 51.316808132249186],
        [-0.081329052269383, 51.316802904708275],
        [-0.081337844137964, 51.31679855233965],
        [-0.081346636004888, 51.316794199970325],
        [-0.081355390374921, 51.31679074627049],
        [-0.081364182238705, 51.31678639389982],
        [-0.081374370670464, 51.31678296369515],
        [-0.081384559100719, 51.31677953348957],
        [-0.081393313465155, 51.31677607978681],
        [-0.081403501892501, 51.31677264957957],
        [-0.081413615330208, 51.31677101671179],
        [-0.08142520032519, 51.316768508668815],
        [-0.081435313761262, 51.316766875799146],
        [-0.081451163452731, 51.31676533691097],
        [-0.081469843778223, 51.31676474368154],
        [-0.081488486610715, 51.316765049119375],
        [-0.081505657887193, 51.31676622972959],
        [-0.081524225736869, 51.31676833250223],
        [-0.08154279358832, 51.316770435271934],
        [-0.081561361441543, 51.316772538038705],
        [-0.081577061167694, 51.31677459381455],
        [-0.081594157469254, 51.31677757175241],
        [-0.08161265034753, 51.31678147185167],
        [-0.081629709164213, 51.31678534845466],
        [-0.081646767983828, 51.31678922505522],
        [-0.081663789317166, 51.31679400032363],
        [-0.081750752005587, 51.31684218771254],
        [-0.081761999614885, 51.31684776766951],
        [-0.081924547323562, 51.317010502915025],
        [-0.082188049720142, 51.31692039387997],
        [-0.082195295025566, 51.316918713971525],
        [-0.082225897703263, 51.31690752446643],
        [-0.082521473010531, 51.31680534996725],
        [-0.082882312470089, 51.3167555024366],
        [-0.083338125767728, 51.316664941985074],
        [-0.08367058167707, 51.31660743318086],
        [-0.083593354671875, 51.316325592639956],
        [-0.083827168992409, 51.31629344755727],
        [-0.083985663511596, 51.31627805531362],
        [-0.08420029916818, 51.316224012857404],
        [-0.084474568111184, 51.31608191637492],
        [-0.084829305106895, 51.3158682933273],
        [-0.08428834802088, 51.31545386741627],
        [-0.083898267550193, 51.31513813127967],
        [-0.083494156793052, 51.31471155216954],
        [-0.083221043990766, 51.31430959809918],
        [-0.082902631470765, 51.31396175807458],
        [-0.082345540088523, 51.31321252471064],
        [-0.082189179483214, 51.31300492697222],
        [-0.081920089882303, 51.31261022980717],
        [-0.081853039319074, 51.31236002951498],
        [-0.081748902489701, 51.31186371679307],
        [-0.081849498426013, 51.311584787746675],
        [-0.08192393593492, 51.31127935085145],
        [-0.081958847378407, 51.310648624480045],
        [-0.082270342582155, 51.3105422150961],
        [-0.082466237987603, 51.31048966756457],
        [-0.082579990401394, 51.31044566677625],
        [-0.082742783341687, 51.31036110174241],
        [-0.083417051517142, 51.31005379310678],
        [-0.083722118914294, 51.30992928897808],
        [-0.084039602679977, 51.30981667793409],
        [-0.085469887688389, 51.30927082505769],
        [-0.086604676265431, 51.30886041501025],
        [-0.086676615673133, 51.30882112271653],
        [-0.08674382891964, 51.30875747246042],
        [-0.086826552322344, 51.30870037058255],
        [-0.087568648464545, 51.3082097930561],
        [-0.088430361314868, 51.307602458119476],
        [-0.088509152623196, 51.30753629802359],
        [-0.088637872289022, 51.30740800295328],
        [-0.088852289006895, 51.3072199551332],
        [-0.088751275262055, 51.30685409593111],
        [-0.088751305122919, 51.30674977935487],
        [-0.08878033113864, 51.306603669674686],
        [-0.088779569292401, 51.306414807375],
        [-0.088788783709694, 51.30608941657063],
        [-0.0887688456002, 51.30587865840463],
        [-0.088667140991276, 51.305218721483946],
        [-0.088759338876036, 51.30510601723225],
        [-0.088818725485481, 51.30502335305199],
        [-0.08885936898017, 51.3048738358054],
        [-0.0888852200862, 51.30480411349503],
        [-0.08917424144795, 51.30451206637578],
        [-0.089196567941573, 51.30449264645372],
        [-0.089523305786119, 51.30443233030096],
        [-0.089604158071697, 51.30435091525487],
        [-0.089633226595313, 51.30430732454976],
        [-0.089678833513704, 51.30421094583427],
        [-0.089710178099625, 51.30411253584186],
        [-0.089733054040603, 51.30397621769387],
        [-0.09074392624523, 51.30395493549038],
        [-0.090891602771784, 51.3038188535104],
        [-0.091199063601032, 51.30339310861214],
        [-0.091067490006637, 51.303279452214376],
        [-0.090903817442656, 51.30317876157731],
        [-0.090986155685699, 51.30275024568637],
        [-0.090932203613405, 51.302667531061395],
        [-0.090979450722599, 51.30246236505354],
        [-0.090989808924915, 51.30235102254917],
        [-0.090994502158653, 51.301995881330726],
        [-0.091195476993603, 51.30147397519707],
        [-0.093694402488101, 51.300783568547196],
        [-0.094414371078419, 51.300614532036434],
        [-0.094807283290811, 51.300687473198344],
        [-0.095307252537827, 51.30132780494912],
        [-0.095669843598245, 51.30140564562127],
        [-0.095746703232137, 51.30148962988531],
        [-0.096058186806086, 51.30151987531794],
        [-0.096386658924048, 51.30138222984762],
        [-0.097404750329844, 51.301115503059485],
        [-0.097287051864254, 51.30094362561493],
        [-0.097381492549213, 51.30084533967332],
        [-0.097401519724797, 51.30077731945874],
        [-0.097374982016128, 51.30069055687886],
        [-0.097202739475154, 51.30034602955877],
        [-0.097272198150996, 51.30029679838017],
        [-0.096950098034348, 51.30010721012749],
        [-0.09635314268258, 51.29979984257609],
        [-0.096134289348008, 51.299715348433],
        [-0.095803265513444, 51.29960295037947],
        [-0.095547868979298, 51.299534947221346],
        [-0.095357188339562, 51.29949767268403],
        [-0.095148598730137, 51.29947719289427],
        [-0.094440469032874, 51.29946477086572],
        [-0.094303780088767, 51.29944006402331],
        [-0.094351755401705, 51.299355412758864],
        [-0.097857407011088, 51.29773075459301],
        [-0.099279063040553, 51.2971027599183],
        [-0.099376961132221, 51.29705938490168],
        [-0.099596657090275, 51.296949641139136],
        [-0.100177775783005, 51.29663263154351],
        [-0.100390077981763, 51.296528162043046],
        [-0.100572634606592, 51.29644928886861],
        [-0.10072699082954, 51.29639333936787],
        [-0.100847561555138, 51.29635662591643],
        [-0.100930232110897, 51.29633458545226],
        [-0.101129827280721, 51.296294657038814],
        [-0.101167393436715, 51.296288072012615],
        [-0.101505525444348, 51.29622790754506],
        [-0.102157702972225, 51.296135063097466],
        [-0.1023167523746, 51.296104367567416],
        [-0.102473194082722, 51.296067334565045],
        [-0.102664964283814, 51.296008391743484],
        [-0.103029657643751, 51.29586052340126],
        [-0.106447425742483, 51.29433580554235],
        [-0.108287884025962, 51.29352832307158],
        [-0.109001064022002, 51.293206209517656],
        [-0.109388507391585, 51.29302721402096],
        [-0.110191762441942, 51.29264179930069],
        [-0.111079717805079, 51.29225414855036],
        [-0.114675119376373, 51.29243710122751],
        [-0.114762368681954, 51.292443002593615],
        [-0.114850170143473, 51.292435423524246],
        [-0.114905925097056, 51.29240484630944],
        [-0.114879321881031, 51.29231898598026],
        [-0.114861424756939, 51.29230071213044],
        [-0.114716393931272, 51.29184963405604],
        [-0.114621742801383, 51.29153425969314],
        [-0.114823070350471, 51.29148624242002],
        [-0.11490079573604, 51.29154954452792],
        [-0.115143764486141, 51.291465326520765],
        [-0.115077063679659, 51.29141299347787],
        [-0.115085737098128, 51.29141133454886],
        [-0.115161704061341, 51.29137748548338],
        [-0.115314300022621, 51.29129361074816],
        [-0.115561129967533, 51.29111502920342],
        [-0.115447169077593, 51.29102596431072],
        [-0.115756184598571, 51.2907296778081],
        [-0.115857694291955, 51.290632390201274],
        [-0.115967289542364, 51.29051275051742],
        [-0.116280636939213, 51.29014548890252],
        [-0.116382587506865, 51.28996727235901],
        [-0.116429702109667, 51.289937454700954],
        [-0.116458073995947, 51.28991003334343],
        [-0.116481227655729, 51.28986993804962],
        [-0.116618343764356, 51.289813690407904],
        [-0.116749947141401, 51.28975195822597],
        [-0.116895811508311, 51.28955196550845],
        [-0.117007717488845, 51.28937570712046],
        [-0.117085372003781, 51.28919530063279],
        [-0.117098933664821, 51.28910918745323],
        [-0.117044729582278, 51.28899680444034],
        [-0.117083908544756, 51.28867009507071],
        [-0.117124297965769, 51.28848908920797],
        [-0.117440562210334, 51.288049928665764],
        [-0.117626216683463, 51.287718380045604],
        [-0.117741128499989, 51.28750350004753],
        [-0.117807311384426, 51.28732290862808],
        [-0.117802239197915, 51.28709620740211],
        [-0.118278933376415, 51.28708228740626],
        [-0.118675296351341, 51.287068873182484],
        [-0.121233936637942, 51.28695888157958],
        [-0.124319626906406, 51.28676015665204],
        [-0.124378475394901, 51.28686451709997],
        [-0.124486350128515, 51.28699754071421],
        [-0.124537253979705, 51.28705051463087],
        [-0.124639537970556, 51.2871447793359],
        [-0.124777175975148, 51.287251300917646],
        [-0.125474541578255, 51.28787578014776],
        [-0.125789535797986, 51.288205464508806],
        [-0.12594724461063, 51.28831230596609],
        [-0.126083339699379, 51.28838642705637],
        [-0.126136041722513, 51.288606695728745],
        [-0.12618253812659, 51.28904988729713],
        [-0.126239201344365, 51.28941950030548],
        [-0.1262749725283, 51.2894920154572],
        [-0.126304967646542, 51.28953026539602],
        [-0.127084588502258, 51.29028464833999],
        [-0.127283667730322, 51.29046768947499],
        [-0.127981590491067, 51.291080471217654],
        [-0.128137807746555, 51.291189084306154],
        [-0.128255537627459, 51.291256614163274],
        [-0.128637603286005, 51.29156038421577],
        [-0.129517128543085, 51.29222282172599],
        [-0.130121215906342, 51.2926047740687],
        [-0.130155990900269, 51.29263140864117],
        [-0.130215507529463, 51.292684517520264],
        [-0.130557867746889, 51.293118942190944],
        [-0.130657841293169, 51.293270718567875],
        [-0.130858205149945, 51.2937406448854],
        [-0.131194052865388, 51.294229819777144],
        [-0.131357303902504, 51.29444825307753],
        [-0.131479508618742, 51.29468851312621],
        [-0.131485690558469, 51.294712892395104],
        [-0.131492138342476, 51.29476605292621],
        [-0.131489912635771, 51.29482087360039],
        [-0.131476401971787, 51.29487101776757],
        [-0.131448301613048, 51.294927224065134],
        [-0.131402854107824, 51.29498675062909],
        [-0.131354941016006, 51.295036345724114],
        [-0.131257305925153, 51.2951094278104],
        [-0.131104683030323, 51.29530033730536],
        [-0.131077019893664, 51.29534575911107],
        [-0.131110274805579, 51.29544521093766],
        [-0.131136305854101, 51.29547530274644],
        [-0.131288693141493, 51.295608130901805],
        [-0.131416994212726, 51.29569830820727],
        [-0.131960503544045, 51.295983959837805],
        [-0.13215097828583, 51.296132682295685],
        [-0.132333860286023, 51.29632714667707],
        [-0.13279929117788, 51.296769822348814],
        [-0.13291091853367, 51.296882214094566],
        [-0.132977647654308, 51.29693453721747],
        [-0.1330641905783, 51.29699347120867],
        [-0.133174884354975, 51.2970581858933],
        [-0.133320443324727, 51.297182808902114],
        [-0.133917909254363, 51.29780114619227],
        [-0.134436326636163, 51.29831750132267],
        [-0.134435124310552, 51.29834715844041],
        [-0.134458182774383, 51.29837989995483],
        [-0.134480682134479, 51.29839104981124],
        [-0.134513398418842, 51.298397866041576],
        [-0.134549309672584, 51.29839663963694],
        [-0.135586494059915, 51.298324131048034],
        [-0.135780885823867, 51.29837668673891],
        [-0.135949382928843, 51.29828944131626],
        [-0.136007998381968, 51.29825889965375],
        [-0.136204742387495, 51.298217966877104],
        [-0.136299428255426, 51.29821767551103],
        [-0.136354694912603, 51.29826981421078],
        [-0.136539365001679, 51.29909379679837],
        [-0.136635620977835, 51.299515292775794],
        [-0.136670250130969, 51.299793721585914],
        [-0.136671647319422, 51.2997946431015],
        [-0.136821895771055, 51.30001645852852],
        [-0.13734029190001, 51.300782799905974],
        [-0.137402825146349, 51.30079728388812],
        [-0.137468771330713, 51.30079833292107],
        [-0.137558346475062, 51.300782671443],
        [-0.137852737116771, 51.30066864875168],
        [-0.137926869510431, 51.30064464786984],
        [-0.13804856544671, 51.30061510835335],
        [-0.138551683309044, 51.30044774829216],
        [-0.13871578891692, 51.300398198857174],
        [-0.138814800563235, 51.30036200298373],
        [-0.138994477397957, 51.300282125145436],
        [-0.139729509606857, 51.29998445315383],
        [-0.140010878594845, 51.299872916031475],
        [-0.140306545735249, 51.299762504617036],
        [-0.140487469662865, 51.2996871407154],
        [-0.140586768935016, 51.29964375368165],
        [-0.140687012176857, 51.29957700026955],
        [-0.140724684630039, 51.299567706411416],
        [-0.140801099954073, 51.29955812845772],
        [-0.140881598118351, 51.29955401096314],
        [-0.140988862226731, 51.29956200902653],
        [-0.141239810081745, 51.299635237674515],
        [-0.141394763470217, 51.29967007154658],
        [-0.141723797495767, 51.299763423519856],
        [-0.142155760872346, 51.29986560204293],
        [-0.14239335597513, 51.29991433576386],
        [-0.142485886256498, 51.299931990772414],
        [-0.142795306739441, 51.29997826599368],
        [-0.142859709545084, 51.29998198535358],
        [-0.143585556589699, 51.301262379557556],
        [-0.144449468231803, 51.300543160635385],
        [-0.144878655242007, 51.300714529547484],
        [-0.14565164352022, 51.29983019236089],
        [-0.145675797238096, 51.29983597056576],
        [-0.146583607915842, 51.30005537984978],
        [-0.148090772522951, 51.30060260804435],
        [-0.148478243971573, 51.300705857940486],
        [-0.149522714094302, 51.3007025853773],
        [-0.149841071026227, 51.30020581857766],
        [-0.150019959153015, 51.300287781689484],
        [-0.150082170717052, 51.300310347307025],
        [-0.150271167213111, 51.30039067117608],
        [-0.151049628310773, 51.30072400908599]
      ]
    ]
  }
}
