{
  "type": "Feature",
  "properties": {
    "name": "Croydon",
    "level": 2,
    "londonBorough": true,
    "center": [-0.0947, 51.3714]
  },
  "geometry": {
    "type": "Polygon",
    "coordinates": [
      [
        [-0.151049628310773, 51.30072400908599],
        [-0.153386847072886, 51.30167995555995],
        [-0.155343983983248, 51.301276453678774],
        [-0.155405788249438, 51.30138084435076],
        [-0.156710189876977, 51.30359112824131],
        [-0.157035336502007, 51.30371135390868],
        [-0.15776118832479, 51.3044296084689],
        [-0.157670989148735, 51.304532505516285],
        [-0.157728759324178, 51.30459456533469],
        [-0.155049534573776, 51.30579338453085],
        [-0.154535370547467, 51.3064507476524],
        [-0.155789667690749, 51.30644173244593],
        [-0.15644194039404, 51.306454701637854],
        [-0.157088044586972, 51.30669328873706],
        [-0.157189197254735, 51.30671106769681],
        [-0.156422806439211, 51.30736177131917],
        [-0.156191723252029, 51.30765039799717],
        [-0.154371310026932, 51.310253904071246],
        [-0.154341397027494, 51.310319979107184],
        [-0.155826711476959, 51.31042071860368],
        [-0.156254202058051, 51.31042295399001],
        [-0.158090909397408, 51.31099322376342],
        [-0.15835658546272, 51.310987510392444],
        [-0.157298300221211, 51.3132280459354],
        [-0.157195595507114, 51.31339189658993],
        [-0.157771060693955, 51.31432181018828],
        [-0.157905364471412, 51.314515468802234],
        [-0.159193339410483, 51.315785716118754],
        [-0.159339989458021, 51.3159579844413],
        [-0.159588281899429, 51.31671008435886],
        [-0.159606839789155, 51.31710695659745],
        [-0.160276135502197, 51.31694930870534],
        [-0.160507290476111, 51.316874702982574],
        [-0.161113803137868, 51.31746156349979],
        [-0.161203109233641, 51.31752501583958],
        [-0.161199652771507, 51.317683234040636],
        [-0.161117219575857, 51.317734996880546],
        [-0.161888620257422, 51.31958252823892],
        [-0.161905468840783, 51.31962775644757],
        [-0.158524197010393, 51.320741894883035],
        [-0.156466058000116, 51.32138936548842],
        [-0.156509936804346, 51.32144041565109],
        [-0.156568836043788, 51.321510587021535],
        [-0.155805468692847, 51.321721588467554],
        [-0.155927496642257, 51.32186379703925],
        [-0.155648256716114, 51.32195562206631],
        [-0.155545047529827, 51.32184518424006],
        [-0.153539732065385, 51.32267598868646],
        [-0.152731260282831, 51.323008560544935],
        [-0.152107181389021, 51.322288286902804],
        [-0.152089330207683, 51.322268221154864],
        [-0.151514279188548, 51.32239943277358],
        [-0.151508541998772, 51.32239934221553],
        [-0.150722002306305, 51.32218638596992],
        [-0.150594820431106, 51.32217268696354],
        [-0.149453566830424, 51.32253595148385],
        [-0.14903724006141, 51.3227883634716],
        [-0.148384127687194, 51.32268361489631],
        [-0.147956379430347, 51.32268494443767],
        [-0.14565249610251, 51.323476719995696],
        [-0.145585502124196, 51.323500838909375],
        [-0.145094090398496, 51.324404023341756],
        [-0.144272612182271, 51.32590988666606],
        [-0.144472920517894, 51.32592565040867],
        [-0.144389723760816, 51.326315517306355],
        [-0.14445480617359, 51.326481116022066],
        [-0.148580109794738, 51.328437581623334],
        [-0.149330519090157, 51.328765987073474],
        [-0.144639069503261, 51.33045074071487],
        [-0.144067511698026, 51.33067010062093],
        [-0.145027227628837, 51.33139663207275],
        [-0.145172055020599, 51.33154280990087],
        [-0.145445167950794, 51.332102887056585],
        [-0.145617104786802, 51.332431147144],
        [-0.145890506433957, 51.333838344675335],
        [-0.145944914164535, 51.334091002947204],
        [-0.147307457429213, 51.33807476774015],
        [-0.147547430312803, 51.338781795773556],
        [-0.145156750185978, 51.33932039464024],
        [-0.144526598858075, 51.339494764730524],
        [-0.144271504198844, 51.33990978505483],
        [-0.144324130865803, 51.3402064800684],
        [-0.143575309646049, 51.34051025892301],
        [-0.1434640818325, 51.34056245236965],
        [-0.14454945210331, 51.34202208687299],
        [-0.144595444335607, 51.342092059534295],
        [-0.144197817221071, 51.34226741337019],
        [-0.144214019756647, 51.34229284975712],
        [-0.142140870659107, 51.342998287912124],
        [-0.142098676133103, 51.343012007004624],
        [-0.142226819282886, 51.343145333574306],
        [-0.142252956565292, 51.343173625631415],
        [-0.141792755318421, 51.343333590491284],
        [-0.141556877370857, 51.34341437985456],
        [-0.137086264775624, 51.34467248770276],
        [-0.136731049563339, 51.34475676495633],
        [-0.136350500579416, 51.344792976508586],
        [-0.136272830899921, 51.3444068512059],
        [-0.134779548357402, 51.344511677081385],
        [-0.134126489402979, 51.34450487266564],
        [-0.132595030351431, 51.344312301842926],
        [-0.132513712206375, 51.34429931476321],
        [-0.132883857271018, 51.34540233101038],
        [-0.132892514299434, 51.3454366414481],
        [-0.131329077188875, 51.345464766109686],
        [-0.131126303358378, 51.34547232219],
        [-0.131421871405829, 51.34600760995873],
        [-0.131431295096798, 51.34602304796685],
        [-0.130128715222972, 51.34620369824127],
        [-0.129856369910777, 51.346262299420054],
        [-0.129092558521517, 51.34654146668891],
        [-0.128993036324163, 51.346587538561224],
        [-0.129135999773559, 51.34681464087844],
        [-0.129152195451778, 51.34684007926137],
        [-0.128747381760822, 51.347083611167214],
        [-0.128735608493298, 51.347090617278845],
        [-0.128868922048037, 51.34727260199172],
        [-0.128371952052784, 51.34745171116155],
        [-0.128200573303989, 51.34735814580976],
        [-0.127556544913775, 51.34744587316108],
        [-0.127443040094208, 51.34730646954211],
        [-0.127347348979397, 51.34718803393586],
        [-0.127002831931783, 51.345705915439204],
        [-0.126781433924641, 51.34546586545532],
        [-0.126895795094734, 51.345267155941976],
        [-0.127148371836999, 51.345165080343804],
        [-0.126884030186767, 51.34488657428849],
        [-0.12685650317826, 51.34485735725823],
        [-0.126030448617362, 51.345184070033056],
        [-0.12592481982018, 51.345239034361136],
        [-0.118834704190905, 51.34561278434678],
        [-0.118663496269413, 51.34579618469344],
        [-0.118410350014424, 51.34563114789271],
        [-0.117247485744616, 51.3456951949288],
        [-0.116919089214982, 51.34575466364817],
        [-0.116991238100434, 51.346656898516734],
        [-0.117365155298516, 51.34664312504951],
        [-0.119099529582595, 51.35306753671903],
        [-0.119115095917591, 51.35314332579125],
        [-0.120177569892799, 51.35304527425227],
        [-0.120990569304264, 51.35613114060783],
        [-0.121429259121326, 51.35773079176468],
        [-0.124196374383095, 51.35743071324373],
        [-0.12427883289764, 51.357592104427496],
        [-0.124573720961252, 51.35835491390415],
        [-0.124703403036604, 51.358837202263196],
        [-0.124715147254914, 51.35886616703503],
        [-0.123456720995055, 51.359151767563745],
        [-0.123338444892581, 51.35891786011529],
        [-0.121919344596811, 51.35905788541404],
        [-0.121860198391462, 51.35906413132349],
        [-0.12272104793214, 51.359649868480396],
        [-0.122928396302625, 51.35991847698322],
        [-0.121900364062841, 51.359978437686635],
        [-0.121839707697202, 51.35998645792772],
        [-0.122002309124653, 51.360506147320365],
        [-0.122008677757914, 51.36052603344515],
        [-0.121907018964285, 51.3605531804053],
        [-0.122053312351616, 51.36097998300747],
        [-0.121459874682582, 51.36105499971369],
        [-0.121380445263217, 51.361065416494206],
        [-0.121480055245285, 51.361299026539456],
        [-0.121343728889433, 51.36150637111728],
        [-0.121581238130553, 51.36212618236443],
        [-0.12139580088692, 51.362164575301485],
        [-0.121353766459691, 51.36217379321167],
        [-0.121437511443616, 51.36233880401355],
        [-0.121112464567178, 51.36252423703289],
        [-0.12127639374274, 51.36311678968308],
        [-0.12092800400854, 51.36331084057476],
        [-0.121302182150394, 51.36473319768041],
        [-0.122351957589328, 51.36453060571374],
        [-0.12237073051986, 51.364528208789025],
        [-0.122496191179916, 51.36472716045009],
        [-0.122676531916201, 51.364848754685546],
        [-0.123471256084262, 51.36519242024936],
        [-0.124064170282867, 51.36527205967503],
        [-0.124091233373846, 51.36534803197499],
        [-0.124107986759214, 51.365395062443234],
        [-0.123069500052356, 51.36560234743149],
        [-0.122094245387732, 51.365808838352024],
        [-0.122104743374797, 51.36593850196409],
        [-0.122098796879318, 51.36625944712842],
        [-0.123302591814658, 51.37040729859666],
        [-0.123359923427238, 51.37055120129726],
        [-0.123292290100607, 51.37097547366686],
        [-0.123305957841588, 51.37109799364134],
        [-0.124724270805566, 51.372885076908624],
        [-0.124773464506288, 51.372947014820305],
        [-0.124675202123997, 51.37296072956855],
        [-0.12453066179232, 51.37298179684896],
        [-0.124601873671477, 51.37341908365245],
        [-0.124744271094491, 51.37366146859971],
        [-0.127771461541602, 51.374722463990494],
        [-0.127849373514852, 51.37474978791108],
        [-0.127190526210779, 51.37483907683035],
        [-0.126673276860978, 51.37490904377545],
        [-0.126847395774003, 51.37543070733327],
        [-0.126865407927167, 51.375482253778536],
        [-0.125949295262069, 51.3755728178992],
        [-0.12583306224137, 51.37560423161],
        [-0.126140598251019, 51.37606058505597],
        [-0.126225943316709, 51.376046662454435],
        [-0.126777039166022, 51.3771894560352],
        [-0.126959247706137, 51.377337151815496],
        [-0.127963548711216, 51.380263243326475],
        [-0.12807895518348, 51.38049889757496],
        [-0.130296660614937, 51.38221774289341],
        [-0.130302258713645, 51.382221429307855],
        [-0.129134674806372, 51.382414119604974],
        [-0.128657151622483, 51.38249462201811],
        [-0.129437878245702, 51.3849171323162],
        [-0.129534880757354, 51.38528738146785],
        [-0.128851164974533, 51.385524662923004],
        [-0.128761183914877, 51.38565182144787],
        [-0.129786297001186, 51.38599462360958],
        [-0.130663546168003, 51.386263116155874],
        [-0.129566520443359, 51.387119698444295],
        [-0.129493429796942, 51.38718507755581],
        [-0.132907158578119, 51.38936719552283],
        [-0.133260519897374, 51.38954908239702],
        [-0.132664609791356, 51.39009983128709],
        [-0.132634710987223, 51.39012813138491],
        [-0.134391460360269, 51.390862041307486],
        [-0.134402768967666, 51.390866717703844],
        [-0.13379852420215, 51.391268960305105],
        [-0.133540810859195, 51.391385357371185],
        [-0.129582484948347, 51.39303714277213],
        [-0.128756514934341, 51.39348168277338],
        [-0.129529703292515, 51.39359114886763],
        [-0.129689682631214, 51.393651255714616],
        [-0.128601779981781, 51.39431463202374],
        [-0.127910402754811, 51.39473613613777],
        [-0.124351787663499, 51.397498433869956],
        [-0.124151406965054, 51.39761752674121],
        [-0.124545244926399, 51.39782976334134],
        [-0.124490297442967, 51.39797816243957],
        [-0.124636439640987, 51.398095607802034],
        [-0.125277494117107, 51.39827402890109],
        [-0.125724552769359, 51.398309957072875],
        [-0.125386562471734, 51.398911556452255],
        [-0.125378978663038, 51.3989563985357],
        [-0.125917285274416, 51.3995738135715],
        [-0.126142214228482, 51.39983909768373],
        [-0.127737311285521, 51.40147518288192],
        [-0.127989846238822, 51.40169863875092],
        [-0.129429109744563, 51.40268203997913],
        [-0.130481106932626, 51.403256373701446],
        [-0.131215786781454, 51.404032469164605],
        [-0.131279426634087, 51.40409373491465],
        [-0.131533058220514, 51.404926003905686],
        [-0.131551049756779, 51.4049784482374],
        [-0.131407371667848, 51.405011228681005],
        [-0.131442784873911, 51.40520063935544],
        [-0.131668077351345, 51.40535261049035],
        [-0.132318493189298, 51.406927702038224],
        [-0.132481095621446, 51.40840688845847],
        [-0.132257632712218, 51.4084213124478],
        [-0.131955657547793, 51.40845696616231],
        [-0.132073407593971, 51.409025380719044],
        [-0.132089065898266, 51.40917041213004],
        [-0.131314761927765, 51.40922281485348],
        [-0.131285939561205, 51.40950652332593],
        [-0.130500792889863, 51.40954256101351],
        [-0.129478539223682, 51.40957480908786],
        [-0.129478738919455, 51.40985178627022],
        [-0.128522169709889, 51.4109516041914],
        [-0.128480873976299, 51.411012094808505],
        [-0.128227538278935, 51.410947797956226],
        [-0.128193599695092, 51.41093376688917],
        [-0.127534750076276, 51.412312607894734],
        [-0.127751713899581, 51.41231697356542],
        [-0.126271512912433, 51.41292639997963],
        [-0.126259832331378, 51.41293070955461],
        [-0.126018603080385, 51.41278117126416],
        [-0.125785997992639, 51.41263177038829],
        [-0.125676903427696, 51.41276761335514],
        [-0.125589033991403, 51.41291188910124],
        [-0.124937948435202, 51.41328995663056],
        [-0.124936474546882, 51.41329083231478],
        [-0.124497901659769, 51.41336025201865],
        [-0.124467501465618, 51.413365161099655],
        [-0.124495838040367, 51.413832333773044],
        [-0.124458669931467, 51.41400259952436],
        [-0.124192274653473, 51.41439761006129],
        [-0.124074295382095, 51.41460974696442],
        [-0.123675726225546, 51.414650128206944],
        [-0.123405617607183, 51.4147141475647],
        [-0.123015866625848, 51.415030742507355],
        [-0.122993315171954, 51.41505466150794],
        [-0.122582836411453, 51.415034597469365],
        [-0.122480944573793, 51.41502936807866],
        [-0.122504168464653, 51.415269844228696],
        [-0.122481358877677, 51.41530005386038],
        [-0.120856532051402, 51.41697722231727],
        [-0.120771661382049, 51.41704780274615],
        [-0.120021908376055, 51.41856632912466],
        [-0.11984662755818, 51.41880721839232],
        [-0.117847476355095, 51.419787703455604],
        [-0.117782794609217, 51.41982173605681],
        [-0.115907831193604, 51.420473252783],
        [-0.115715067981167, 51.420578964975604],
        [-0.115327016160358, 51.42092164068743],
        [-0.11485423303096, 51.42122608234402],
        [-0.113959951966248, 51.42230070598542],
        [-0.113822711316365, 51.422454969696005],
        [-0.112712048015856, 51.42322934348955],
        [-0.112685545060417, 51.42324420423654],
        [-0.109603321722574, 51.423169350526976],
        [-0.109373669112951, 51.42315755271207],
        [-0.106185511659299, 51.42258360538076],
        [-0.106054894578991, 51.42257699835723],
        [-0.098388726976023, 51.422570666845026],
        [-0.098108100752186, 51.42257420665282],
        [-0.094101047711971, 51.4228112667126],
        [-0.093918910365741, 51.42279841270572],
        [-0.092734391723785, 51.42253993680366],
        [-0.092307749671943, 51.42235403851557],
        [-0.091768854328783, 51.421928004753475],
        [-0.091394790374952, 51.42172317521539],
        [-0.089720393189732, 51.421037630274355],
        [-0.089584119814847, 51.42095987037565],
        [-0.088452092558694, 51.4200655235336],
        [-0.088190342221356, 51.41992726278185],
        [-0.086619426120599, 51.41934947452066],
        [-0.086425645579182, 51.419305843494946],
        [-0.085863435474923, 51.41926788575345],
        [-0.085538960123381, 51.419288664546116],
        [-0.08287698686143, 51.419729856126494],
        [-0.082345959730506, 51.41977152739287],
        [-0.080291992073045, 51.419671354779794],
        [-0.080092059401834, 51.41967167673139],
        [-0.078674663718685, 51.4198256046695],
        [-0.078548602385852, 51.41984781824731],
        [-0.078456078381342, 51.419790546479916],
        [-0.079295457144667, 51.41915233468717],
        [-0.079542405300106, 51.418956743543696],
        [-0.080229932636334, 51.41809751389901],
        [-0.080455419029464, 51.41786469918779],
        [-0.080935533254061, 51.4175272421209],
        [-0.080995769363087, 51.417462581715206],
        [-0.081089950262978, 51.417308550016195],
        [-0.081111976385106, 51.41719470328176],
        [-0.080993653031648, 51.41710104021996],
        [-0.08095299042358, 51.41707609406543],
        [-0.080843409587454, 51.41625866096485],
        [-0.080762955199188, 51.41601633880167],
        [-0.080469385848485, 51.41557448500163],
        [-0.080475473264749, 51.415566491269914],
        [-0.079036785714061, 51.415167921642755],
        [-0.078102993589551, 51.41493858495319],
        [-0.076643604872221, 51.414383172889146],
        [-0.076527734329065, 51.41443702598774],
        [-0.075044309548745, 51.413633000180006],
        [-0.075176211429724, 51.41353984389168],
        [-0.073341633403715, 51.41281186167623],
        [-0.072757011861676, 51.41269343674632],
        [-0.073454673316366, 51.41114916693269],
        [-0.073490102872177, 51.41105892286373],
        [-0.073439252249892, 51.409600366032514],
        [-0.073292024722184, 51.40923733713064],
        [-0.072636825276172, 51.408233765570955],
        [-0.072319600698844, 51.40791290285106],
        [-0.070635643518218, 51.406653185246796],
        [-0.070209509314065, 51.4062558836844],
        [-0.069393078558427, 51.405259529553135],
        [-0.069250235393097, 51.40510070244322],
        [-0.068912478425505, 51.40421025137749],
        [-0.068942690535995, 51.40417567757154],
        [-0.068204339856305, 51.40351153402939],
        [-0.068242566703463, 51.40349148091427],
        [-0.066648669384614, 51.402693616665175],
        [-0.06640753575258, 51.40258172499619],
        [-0.064934225103319, 51.40213024891341],
        [-0.064499516643917, 51.402040336136146],
        [-0.064585255972057, 51.40184840823147],
        [-0.064639566995218, 51.40171980969554],
        [-0.062933622787826, 51.40153514738999],
        [-0.062186084380713, 51.40153357876495],
        [-0.060714512913459, 51.400091076330334],
        [-0.060178240917653, 51.39954803004086],
        [-0.060726990776153, 51.39925225876715],
        [-0.060585776892015, 51.39912402298782],
        [-0.060324736018471, 51.3992456007082],
        [-0.059412965991358, 51.399252986006175],
        [-0.058218597447047, 51.39992474267567],
        [-0.057464971100244, 51.40027106262478],
        [-0.0561069216921, 51.40069907845779],
        [-0.055724112817273, 51.40084380562578],
        [-0.053233187153765, 51.40130424419625],
        [-0.052990701666172, 51.401462085041615],
        [-0.051933664137333, 51.400488585818174],
        [-0.051494672985725, 51.39999297957143],
        [-0.05065461345517, 51.39956444073713],
        [-0.052130490773422, 51.398292227387216],
        [-0.051391674076867, 51.397917534628235],
        [-0.050859620880368, 51.39771803863538],
        [-0.050472205197109, 51.398038930304665],
        [-0.050347773384154, 51.397990097553105],
        [-0.050824439644091, 51.39759874884296],
        [-0.050978209057951, 51.397126488432114],
        [-0.051811809752999, 51.396454202982945],
        [-0.053427426546526, 51.395171706941674],
        [-0.05327983785429, 51.395092816406326],
        [-0.053509931916169, 51.39492128001219],
        [-0.053137985946105, 51.394844956910696],
        [-0.052619499092671, 51.39463130562932],
        [-0.052533726199208, 51.394349305564134],
        [-0.052451281904098, 51.3941581877481],
        [-0.05205205129727, 51.394081407625485],
        [-0.051725026472669, 51.39399683399913],
        [-0.051720311868167, 51.39370179262208],
        [-0.051718245641979, 51.3935812550912],
        [-0.050494545309166, 51.39332079408618],
        [-0.050340289616858, 51.39329754404259],
        [-0.04806594062028, 51.39316974978805],
        [-0.047763978436943, 51.3930370215124],
        [-0.046831492033023, 51.391846124443035],
        [-0.046823141656306, 51.391839690295804],
        [-0.046498140648979, 51.39197815663783],
        [-0.046235761608759, 51.3919962637484],
        [-0.045712086956549, 51.39129868310801],
        [-0.04526294570578, 51.39090989672098],
        [-0.043179146452076, 51.38962061938565],
        [-0.042772392649054, 51.38945195512928],
        [-0.037115276801525, 51.388574044651264],
        [-0.036525046801401, 51.388461636977546],
        [-0.037470023834334, 51.38485157219818],
        [-0.037898595205287, 51.38323195211909],
        [-0.03785666882506, 51.38256578237065],
        [-0.037687155051401, 51.381589921606405],
        [-0.037167461185978, 51.379864488695034],
        [-0.036929070866831, 51.37895401910553],
        [-0.036352145247422, 51.37900370319819],
        [-0.036951883791472, 51.37701015518383],
        [-0.036206570797117, 51.37689874322301],
        [-0.035724338098327, 51.37688526307095],
        [-0.029760063250252, 51.37734356409161],
        [-0.029693239540036, 51.37736042590266],
        [-0.028978764518559, 51.37763527861397],
        [-0.028918347638543, 51.37767023342218],
        [-0.028241763222209, 51.37823348951611],
        [-0.028212974280321, 51.37826807699131],
        [-0.028004350784238, 51.37870881098024],
        [-0.027996907555425, 51.37874825411206],
        [-0.028041083314395, 51.379358711032836],
        [-0.026821793911654, 51.37937505215021],
        [-0.026530259381063, 51.37830179411533],
        [-0.026420279959336, 51.37788537220207],
        [-0.026105634981544, 51.37728294757163],
        [-0.026052224776038, 51.37722179571887],
        [-0.025937541938812, 51.37648065290374],
        [-0.026152918612424, 51.376451008421405],
        [-0.024986281225204, 51.37451137711488],
        [-0.02440688324974, 51.37371833196736],
        [-0.023944969174369, 51.37263319977601],
        [-0.02359351046616, 51.37221989537621],
        [-0.023804186447472, 51.37133136005659],
        [-0.023816330008387, 51.371316277085285],
        [-0.023726413608274, 51.37123562325934],
        [-0.02363767012295, 51.371227831138064],
        [-0.02358608108145, 51.369056089302454],
        [-0.023564136137843, 51.36886507082269],
        [-0.023363910444492, 51.368410251841745],
        [-0.023302480688538, 51.368335473985795],
        [-0.023155748954631, 51.367372562286306],
        [-0.023119703486494, 51.36700864309517],
        [-0.023356230199392, 51.36705400150152],
        [-0.024045612007976, 51.36699189058407],
        [-0.024044692398253, 51.36677964396595],
        [-0.02449573429797, 51.366780956219884],
        [-0.024479892472857, 51.36641468033727],
        [-0.023729780530223, 51.36568529815159],
        [-0.023796014685904, 51.365414831612384],
        [-0.023587150004757, 51.365294400843055],
        [-0.023002921395671, 51.36558400408983],
        [-0.022270398227539, 51.365880992999756],
        [-0.022142855228125, 51.36574034975601],
        [-0.021959122275913, 51.36547015984053],
        [-0.021568177342218, 51.36527470792696],
        [-0.021344571973551, 51.36509646992019],
        [-0.020800892486101, 51.36434537512794],
        [-0.02076065592911, 51.36427904747618],
        [-0.020164563014956, 51.3639776058146],
        [-0.020073930735716, 51.36391402328702],
        [-0.019085094150147, 51.36292697665411],
        [-0.018934407915419, 51.36279043479746],
        [-0.018166051696026, 51.36142221422951],
        [-0.018400293528745, 51.36135333494285],
        [-0.017671385125835, 51.36076905602094],
        [-0.017325848288691, 51.360587847175246],
        [-0.016138452711968, 51.35934561316638],
        [-0.015650267187426, 51.358876010101994],
        [-0.013362122371922, 51.35738217896887],
        [-0.013131060599234, 51.357211891749955],
        [-0.012441404916916, 51.35711745708304],
        [-0.012329341615241, 51.357084979742766],
        [-0.012182348802039, 51.35719579546147],
        [-0.012107585639644, 51.35729704539542],
        [-0.011894197349373, 51.3572826323113],
        [-0.011882715195293, 51.35728243742444],
        [-0.009040979848551, 51.35594009516109],
        [-0.008685414813949, 51.35582613636917],
        [-0.007817958125837, 51.35493098306747],
        [-0.007690379715588, 51.35475974699537],
        [-0.006455149137094, 51.353801671872],
        [-0.006275506633807, 51.35370508825324],
        [-0.005443858333666, 51.35281412320193],
        [-0.005384997169432, 51.35274747279759],
        [-0.004857253749866, 51.35124206820721],
        [-0.00474549006313, 51.3509056289431],
        [-0.004674819764895, 51.34982168120842],
        [-0.004632772030206, 51.34956646609991],
        [-0.003009624671591, 51.34571052744884],
        [-0.002922216363605, 51.345574143598924],
        [-0.00260759511397, 51.34399232326795],
        [-0.002579516758077, 51.34387853386778],
        [-0.001854857760945, 51.34211795275355],
        [-0.001717841446339, 51.341702840761066],
        [-0.001651894372526, 51.34143642486144],
        [-0.001765056785589, 51.34140957836258],
        [-0.001580202010774, 51.340740949278],
        [-0.001483526946072, 51.34075188970492],
        [-0.001424389727112, 51.34075807488631],
        [-0.001446159887779, 51.34048865919856],
        [-0.001485601347556, 51.340473145010876],
        [-0.000559433187879, 51.33809939624931],
        [-0.000391754482344, 51.337828544692776],
        [0.000924113910073, 51.333658537539655],
        [0.000840807291134, 51.3335916146838],
        [0.001935414008022, 51.33271768144489],
        [0.002270021210014, 51.33248983586054],
        [0.002944972735107, 51.332231887920685],
        [0.003281848566279, 51.33215508168822],
        [0.003085849959885, 51.33141292092054],
        [0.002885541955509, 51.331263467210704],
        [0.00289558253682, 51.33037389522991],
        [0.002886961532267, 51.33034076885098],
        [0.002316155036092, 51.329924265292284],
        [0.002181760142744, 51.32977188480325],
        [0.002256135388482, 51.32917258361886],
        [0.002266122862983, 51.32913823973559],
        [-3.74413762e-7, 51.32890898079617],
        [-0.0005314532804, 51.32877776000199],
        [-0.001184308483183, 51.329840177567895],
        [-0.001705192071148, 51.330306806607176],
        [-0.003558331955561, 51.331431952067824],
        [-0.004692064077736, 51.33213383631788],
        [-0.00723749844241, 51.33338672395072],
        [-0.007146629335379, 51.33369453375666],
        [-0.008507849343515, 51.33388675601922],
        [-0.008635289390168, 51.33389431882235],
        [-0.010114618741, 51.33384572215121],
        [-0.01027753836149, 51.33382960516261],
        [-0.010902133559435, 51.33362798280427],
        [-0.011021480785867, 51.333557167289584],
        [-0.010883940124596, 51.33341813911664],
        [-0.010691450192569, 51.33308932638008],
        [-0.010946198460919, 51.332908399543314],
        [-0.011914495183197, 51.332891567703854],
        [-0.013348344040197, 51.331536388693046],
        [-0.013631594253866, 51.33152590547793],
        [-0.01371488221711, 51.33086094393081],
        [-0.013773590254186, 51.330698268793434],
        [-0.013975316610009, 51.33051463757927],
        [-0.014231124704095, 51.33030854152657],
        [-0.014335472153666, 51.32995329253071],
        [-0.014356260860044, 51.32980436278819],
        [-0.01510033539409, 51.33065691392476],
        [-0.015180815007159, 51.330754502025364],
        [-0.0155568452707, 51.3315207748012],
        [-0.015967633053015, 51.33201425088236],
        [-0.016561967940029, 51.3325126327878],
        [-0.0170575670599, 51.33290412288734],
        [-0.017386342199763, 51.33300321542779],
        [-0.017809988719554, 51.33293304779226],
        [-0.018162005425496, 51.33382480566234],
        [-0.018312173517858, 51.33410432796783],
        [-0.018800632843916, 51.33452896328992],
        [-0.019405685878757, 51.335712769863825],
        [-0.019473271829877, 51.33581013677443],
        [-0.020441056804814, 51.33650636153861],
        [-0.020529079320072, 51.336595979639206],
        [-0.020472525287762, 51.33684232819372],
        [-0.020584409571798, 51.33714458172598],
        [-0.021448166066313, 51.33782375157636],
        [-0.022083791049863, 51.338099778182766],
        [-0.024693175490268, 51.338451374181474],
        [-0.025130045327975, 51.33860892278195],
        [-0.025497117226917, 51.33851978738064],
        [-0.025984958501766, 51.33856038537186],
        [-0.030511748159391, 51.33755745218433],
        [-0.030707354204542, 51.33751577705739],
        [-0.032324628135521, 51.33746652068896],
        [-0.032796738260656, 51.33743848018759],
        [-0.033356281964326, 51.3375144247706],
        [-0.033701253737097, 51.33760564938932],
        [-0.034304656114017, 51.337998874818275],
        [-0.03452070360634, 51.33808343660514],
        [-0.037668814223181, 51.338597560492296],
        [-0.037918344575243, 51.33870515911679],
        [-0.039495331643765, 51.33761555340179],
        [-0.039842098444403, 51.33722747018852],
        [-0.040430353658144, 51.33639468277523],
        [-0.040534291838989, 51.33621296735346],
        [-0.041331671063654, 51.334582409723616],
        [-0.041993330743494, 51.333811094331544],
        [-0.042908909906437, 51.33365013804388],
        [-0.043406854702773, 51.333654861041644],
        [-0.044520915287071, 51.33372113035197],
        [-0.045904417622954, 51.33356166781955],
        [-0.046579572464376, 51.33348390183469],
        [-0.048181203337121, 51.33288650111685],
        [-0.048499679338406, 51.332790189118086],
        [-0.049685565854898, 51.33268584257765],
        [-0.05028756480888, 51.33264011057542],
        [-0.050127135280616, 51.332158120179805],
        [-0.05009856408631, 51.33205332729848],
        [-0.050860415063461, 51.331758453732654],
        [-0.051068333853674, 51.331594646831164],
        [-0.051132569181095, 51.33106153990483],
        [-0.051107248792165, 51.33084618917232],
        [-0.050686295043948, 51.330211481407005],
        [-0.050470905425794, 51.33001005305483],
        [-0.048970480772771, 51.328936497857384],
        [-0.048775872985166, 51.328719225328776],
        [-0.049096363338246, 51.3286085568017],
        [-0.048145160336346, 51.32744791484332],
        [-0.048034595132214, 51.32721225738349],
        [-0.047983214538147, 51.326901146951315],
        [-0.047854831620628, 51.32651051491956],
        [-0.047909107947038, 51.325536592452224],
        [-0.047895616322848, 51.32524589778819],
        [-0.049552738897363, 51.32532926540267],
        [-0.049792182118378, 51.32526760523417],
        [-0.050710367136222, 51.324329648345866],
        [-0.050852961577783, 51.32414856728654],
        [-0.051038692417557, 51.323593201276715],
        [-0.051293522064186, 51.32343916759298],
        [-0.05134033082495, 51.32263958098236],
        [-0.051334063622318, 51.32244882780907],
        [-0.052251733128971, 51.32236787103661],
        [-0.052508000675964, 51.32238292463241],
        [-0.054205524575654, 51.32154333117954],
        [-0.054909350424289, 51.32125825925197],
        [-0.055954478785917, 51.32145457241969],
        [-0.056278548540253, 51.3216649892999],
        [-0.056735153207367, 51.32152418501897],
        [-0.057040186964004, 51.32137007277225],
        [-0.058137754548134, 51.3205969061876],
        [-0.058419429236342, 51.32038394939756],
        [-0.059618979291112, 51.3200836861209],
        [-0.059769382212328, 51.320056501755445],
        [-0.060489590282097, 51.320062137509126],
        [-0.060684634582806, 51.320065367793745],
        [-0.062033720897606, 51.31931521522587],
        [-0.062105972839422, 51.31920130228219],
        [-0.064075281196034, 51.31861426745765],
        [-0.064113286836256, 51.31859780932879],
        [-0.070055113599389, 51.31889373062885],
        [-0.071043326339744, 51.32123376627665],
        [-0.072773941750474, 51.32072538755238],
        [-0.072949885192451, 51.32063655595438],
        [-0.077641531235337, 51.3198449590774],
        [-0.078895871486983, 51.31977561523979],
        [-0.078829764926257, 51.31843819398781],
        [-0.078853628099411, 51.31814182157333],
        [-0.080138474370179, 51.31785623759769],
        [-0.080220209517528, 51.31782340480437],
        [-0.080826276178454, 51.31743405696693],
        [-0.081130360199195, 51.31723130554206],
        [-0.081053239463238, 51.3171536025903],
        [-0.081355390374921, 51.31679074627049],
        [-0.081364182238705, 51.31678639389982],
        [-0.081761999614885, 51.31684776766951],
        [-0.081924547323562, 51.317010502915025],
        [-0.083338125767728, 51.316664941985074],
        [-0.08367058167707, 51.31660743318086],
        [-0.083593354671875, 51.316325592639956],
        [-0.084474568111184, 51.31608191637492],
        [-0.084829305106895, 51.3158682933273],
        [-0.083898267550193, 51.31513813127967],
        [-0.083494156793052, 51.31471155216954],
        [-0.082189179483214, 51.31300492697222],
        [-0.081920089882303, 51.31261022980717],
        [-0.081853039319074, 51.31236002951498],
        [-0.081748902489701, 51.31186371679307],
        [-0.08192393593492, 51.31127935085145],
        [-0.081958847378407, 51.310648624480045],
        [-0.085469887688389, 51.30927082505769],
        [-0.086604676265431, 51.30886041501025],
        [-0.088637872289022, 51.30740800295328],
        [-0.088852289006895, 51.3072199551332],
        [-0.0887688456002, 51.30587865840463],
        [-0.088667140991276, 51.305218721483946],
        [-0.08885936898017, 51.3048738358054],
        [-0.0888852200862, 51.30480411349503],
        [-0.089196567941573, 51.30449264645372],
        [-0.089523305786119, 51.30443233030096],
        [-0.089710178099625, 51.30411253584186],
        [-0.089733054040603, 51.30397621769387],
        [-0.09074392624523, 51.30395493549038],
        [-0.090891602771784, 51.3038188535104],
        [-0.091199063601032, 51.30339310861214],
        [-0.091067490006637, 51.303279452214376],
        [-0.090903817442656, 51.30317876157731],
        [-0.090994502158653, 51.301995881330726],
        [-0.091195476993603, 51.30147397519707],
        [-0.093694402488101, 51.300783568547196],
        [-0.094414371078419, 51.300614532036434],
        [-0.094807283290811, 51.300687473198344],
        [-0.095307252537827, 51.30132780494912],
        [-0.095746703232137, 51.30148962988531],
        [-0.096058186806086, 51.30151987531794],
        [-0.096386658924048, 51.30138222984762],
        [-0.097404750329844, 51.301115503059485],
        [-0.097272198150996, 51.30029679838017],
        [-0.096950098034348, 51.30010721012749],
        [-0.095803265513444, 51.29960295037947],
        [-0.095547868979298, 51.299534947221346],
        [-0.094303780088767, 51.29944006402331],
        [-0.094351755401705, 51.299355412758864],
        [-0.100390077981763, 51.296528162043046],
        [-0.100572634606592, 51.29644928886861],
        [-0.102473194082722, 51.296067334565045],
        [-0.102664964283814, 51.296008391743484],
        [-0.110191762441942, 51.29264179930069],
        [-0.111079717805079, 51.29225414855036],
        [-0.114762368681954, 51.292443002593615],
        [-0.114850170143473, 51.292435423524246],
        [-0.114716393931272, 51.29184963405604],
        [-0.114621742801383, 51.29153425969314],
        [-0.11490079573604, 51.29154954452792],
        [-0.115143764486141, 51.291465326520765],
        [-0.115314300022621, 51.29129361074816],
        [-0.115561129967533, 51.29111502920342],
        [-0.115447169077593, 51.29102596431072],
        [-0.116618343764356, 51.289813690407904],
        [-0.116749947141401, 51.28975195822597],
        [-0.117007717488845, 51.28937570712046],
        [-0.117085372003781, 51.28919530063279],
        [-0.117083908544756, 51.28867009507071],
        [-0.117124297965769, 51.28848908920797],
        [-0.117807311384426, 51.28732290862808],
        [-0.117802239197915, 51.28709620740211],
        [-0.121233936637942, 51.28695888157958],
        [-0.124319626906406, 51.28676015665204],
        [-0.12594724461063, 51.28831230596609],
        [-0.126083339699379, 51.28838642705637],
        [-0.1262749725283, 51.2894920154572],
        [-0.126304967646542, 51.28953026539602],
        [-0.127283667730322, 51.29046768947499],
        [-0.127981590491067, 51.291080471217654],
        [-0.130215507529463, 51.292684517520264],
        [-0.130557867746889, 51.293118942190944],
        [-0.131479508618742, 51.29468851312621],
        [-0.131485690558469, 51.294712892395104],
        [-0.131110274805579, 51.29544521093766],
        [-0.131136305854101, 51.29547530274644],
        [-0.131960503544045, 51.295983959837805],
        [-0.13215097828583, 51.296132682295685],
        [-0.134435124310552, 51.29834715844041],
        [-0.134458182774383, 51.29837989995483],
        [-0.135586494059915, 51.298324131048034],
        [-0.135780885823867, 51.29837668673891],
        [-0.136204742387495, 51.298217966877104],
        [-0.136299428255426, 51.29821767551103],
        [-0.136821895771055, 51.30001645852852],
        [-0.13734029190001, 51.300782799905974],
        [-0.140801099954073, 51.29955812845772],
        [-0.140881598118351, 51.29955401096314],
        [-0.142859709545084, 51.29998198535358],
        [-0.143585556589699, 51.301262379557556],
        [-0.144449468231803, 51.300543160635385],
        [-0.144878655242007, 51.300714529547484],
        [-0.14565164352022, 51.29983019236089],
        [-0.148090772522951, 51.30060260804435],
        [-0.148478243971573, 51.300705857940486],
        [-0.149522714094302, 51.3007025853773],
        [-0.149841071026227, 51.30020581857766],
        [-0.151049628310773, 51.30072400908599]
      ]
    ]
  }
}
