{
  "type": "Feature",
  "properties": {
    "name": "Ealing",
    "level": 2,
    "londonBorough": true,
    "center": [-0.3089, 51.513]
  },
  "geometry": {
    "type": "Polygon",
    "coordinates": [
      [
        [-0.411832647313571, 51.53408385717232],
        [-0.411883151971388, 51.534124106461725],
        [-0.411920907753231, 51.53419925269634],
        [-0.411961639775361, 51.53427174154611],
        [-0.412009984246681, 51.534332643571815],
        [-0.41205037003456, 51.53437365504274],
        [-0.412099246404556, 51.53441927750888],
        [-0.412154325302916, 51.53445239483562],
        [-0.412202417443376, 51.53447912304883],
        [-0.41226927586791, 51.53450520598859],
        [-0.412326233933915, 51.534525759600875],
        [-0.41242479784289, 51.53455227150122],
        [-0.412520979831181, 51.534564363588686],
        [-0.412700873797995, 51.534573991316535],
        [-0.413086852791173, 51.534586406456995],
        [-0.41321333052667, 51.534598008533166],
        [-0.413316187336272, 51.53462547696039],
        [-0.413404695211373, 51.53465095281544],
        [-0.413481142716446, 51.53469155223261],
        [-0.413504767456233, 51.534717049820756],
        [-0.413543807513093, 51.53475534491304],
        [-0.413602437920068, 51.53489371815141],
        [-0.413647125670968, 51.53501841455668],
        [-0.413676687229992, 51.535204952502355],
        [-0.413714661909981, 51.53556425413737],
        [-0.413850965899765, 51.53574953752952],
        [-0.413904169107534, 51.53579521771311],
        [-0.413946873795934, 51.5358110817393],
        [-0.414027049542635, 51.535827452283925],
        [-0.41418320257027, 51.53585653958557],
        [-0.414553563064497, 51.53590380824739],
        [-0.414646647518316, 51.53592215124213],
        [-0.414708119379946, 51.53593736936149],
        [-0.41485820118924, 51.536016729951065],
        [-0.414942737504227, 51.536073623603755],
        [-0.415022638225856, 51.53613944675311],
        [-0.415111815961703, 51.53622877484048],
        [-0.415172013767284, 51.536322207490024],
        [-0.415266031214031, 51.53652130545105],
        [-0.415339413783466, 51.53656725753137],
        [-0.41545819215543, 51.53659314065107],
        [-0.415619296568039, 51.536604308527274],
        [-0.415789298019372, 51.53660840257128],
        [-0.415939372047124, 51.536605033576194],
        [-0.416114258768535, 51.5365930071811],
        [-0.416508484938332, 51.536534484074],
        [-0.416757309935629, 51.53651086556174],
        [-0.416876930944296, 51.53651247972506],
        [-0.417029637599131, 51.5365163386041],
        [-0.417157407099406, 51.53653244991001],
        [-0.417218880645287, 51.53654766672624],
        [-0.417307456819406, 51.53657134208388],
        [-0.417396913191758, 51.53661121517081],
        [-0.417480199604735, 51.53666269479994],
        [-0.417594164544638, 51.536744262336235],
        [-0.417639005834318, 51.536781735052166],
        [-0.417668118369117, 51.53681539875095],
        [-0.417700276769326, 51.536885971454545],
        [-0.417680309094346, 51.53700439892458],
        [-0.41767377246239, 51.53706815523833],
        [-0.417612982399091, 51.537199520400186],
        [-0.41753973427337, 51.53739905805679],
        [-0.417509888042206, 51.53746969370604],
        [-0.417466104112086, 51.53756801710501],
        [-0.417426355921896, 51.537633123864005],
        [-0.417414809235103, 51.53771659537232],
        [-0.417431768659496, 51.53776807954817],
        [-0.417466646686399, 51.537801821057585],
        [-0.417506097920593, 51.53782843049708],
        [-0.417554009732072, 51.53786054934243],
        [-0.417564005039209, 51.53786338180752],
        [-0.417602513849329, 51.53787559101836],
        [-0.417678339622267, 51.53789279958575],
        [-0.417854648630899, 51.53792305299146],
        [-0.418163335997266, 51.53796138549915],
        [-0.418454167949907, 51.53801566242276],
        [-0.418746481478706, 51.53811042338275],
        [-0.418852169846358, 51.538139723480164],
        [-0.418946857637654, 51.53815358854296],
        [-0.419083124351236, 51.538174308313394],
        [-0.419192100446213, 51.538191962574096],
        [-0.419305151346483, 51.5382168653718],
        [-0.419380231090688, 51.538255644002234],
        [-0.419474719573567, 51.53835852848772],
        [-0.419593573015962, 51.53854896519121],
        [-0.419614102660201, 51.53858071433729],
        [-0.419621629633666, 51.53861318755398],
        [-0.419613240204503, 51.53864724481374],
        [-0.419590002037492, 51.53869369110451],
        [-0.419459267780727, 51.53876296821077],
        [-0.419339525152796, 51.53880631594759],
        [-0.419136810163342, 51.538830561278246],
        [-0.418689145959685, 51.53889107072195],
        [-0.418564050355902, 51.53896401970389],
        [-0.418407214644013, 51.539037439914374],
        [-0.418328605626792, 51.53905886066634],
        [-0.418249560310301, 51.539092864529614],
        [-0.418176435881218, 51.53912245207836],
        [-0.418161056892104, 51.539150120480386],
        [-0.41817738653067, 51.539178216382915],
        [-0.418229748765464, 51.53920679806669],
        [-0.418236830643207, 51.53921049041186],
        [-0.418269482076732, 51.539225318080355],
        [-0.418332619022706, 51.539234262188536],
        [-0.418412646618429, 51.539255123778496],
        [-0.418568324076302, 51.53933995022628],
        [-0.418616954707927, 51.539351396305],
        [-0.418698432335736, 51.539413641245],
        [-0.418826227556254, 51.53951247903285],
        [-0.418892193904993, 51.53956462340341],
        [-0.418959539429313, 51.53961858475538],
        [-0.419045155090774, 51.53968628051286],
        [-0.419162044082382, 51.53976698661805],
        [-0.419408163483932, 51.53990518507753],
        [-0.419468935272527, 51.53998243722013],
        [-0.419494794873118, 51.5400268472188],
        [-0.419521513405173, 51.54012971790452],
        [-0.419520018916634, 51.54017286020202],
        [-0.419507563279023, 51.540241032929536],
        [-0.41948147261733, 51.5402865415495],
        [-0.419452094446217, 51.54034369570157],
        [-0.419407897994052, 51.540412340047524],
        [-0.419344923844518, 51.5404402666295],
        [-0.419307137534766, 51.54044874973937],
        [-0.419266686508253, 51.54045090241558],
        [-0.419201981779461, 51.54044553456726],
        [-0.419121827161034, 51.540428268689624],
        [-0.419064889793671, 51.540406819510714],
        [-0.418955050323398, 51.54033070440543],
        [-0.4189196397911, 51.540312242885676],
        [-0.418796961821952, 51.540273721748996],
        [-0.418716745361115, 51.540258253193],
        [-0.418644927752037, 51.54025009152037],
        [-0.41853397601478, 51.54024769684578],
        [-0.41851999882311, 51.5402349194045],
        [-0.418591216195073, 51.54021879419515],
        [-0.418545209854163, 51.540173213224584],
        [-0.418385836873861, 51.540111716606994],
        [-0.418321693597023, 51.54009016992516],
        [-0.41807672966977, 51.540085068937046],
        [-0.417709096877924, 51.540082809279134],
        [-0.417574367343168, 51.540100775026914],
        [-0.417406300024498, 51.54012368625154],
        [-0.417293252594413, 51.5401401457006],
        [-0.416833124728684, 51.54014382928859],
        [-0.416703380251672, 51.54018434174219],
        [-0.416462303335356, 51.54019187888268],
        [-0.416150544688312, 51.54024162384294],
        [-0.416041602115922, 51.540264432024415],
        [-0.415828733001174, 51.540331697034176],
        [-0.415458700328469, 51.54044000169674],
        [-0.415370091805349, 51.540458587781714],
        [-0.415252406631582, 51.54048397480983],
        [-0.414811245852934, 51.54060570418264],
        [-0.414446407243134, 51.54068889774895],
        [-0.413963470395539, 51.54076779615842],
        [-0.413400882505886, 51.54085640613478],
        [-0.412599562160448, 51.54096786106137],
        [-0.411945915734174, 51.541103789838964],
        [-0.41075247821043, 51.54133581473177],
        [-0.409456127415048, 51.541541254357966],
        [-0.408726509094469, 51.541704910332015],
        [-0.407876469882174, 51.54180668016494],
        [-0.407950444991549, 51.54195965182631],
        [-0.407093941271182, 51.542122475136786],
        [-0.405415949196165, 51.542435989896916],
        [-0.404852512098359, 51.54250656311691],
        [-0.404349868291626, 51.54252940262554],
        [-0.403853272642227, 51.5425442292945],
        [-0.403263394767427, 51.542546094589575],
        [-0.402264254446968, 51.542539686874726],
        [-0.402190246171641, 51.54251170248998],
        [-0.40152491237227, 51.54252691895008],
        [-0.401308419478778, 51.542532062276926],
        [-0.400409532514821, 51.542463160188575],
        [-0.400054044234924, 51.54244302646677],
        [-0.399168944257196, 51.54239228723163],
        [-0.397672982080562, 51.542325107619355],
        [-0.397266910334993, 51.54234923558462],
        [-0.395272744230398, 51.54254768222644],
        [-0.395375542600791, 51.54298700794751],
        [-0.395507176994744, 51.543713578781166],
        [-0.395581935152204, 51.54404821135434],
        [-0.395592012570121, 51.54408971323219],
        [-0.395715881717925, 51.5440941046304],
        [-0.395741827668921, 51.54409445938918],
        [-0.395766541599539, 51.544334888778394],
        [-0.395832887525728, 51.54462174752156],
        [-0.395858157611061, 51.544682340682854],
        [-0.395926729323739, 51.544864920388015],
        [-0.396094398204242, 51.54522330318236],
        [-0.396197807897602, 51.54544052924004],
        [-0.396242185318111, 51.54553195691861],
        [-0.396342326654535, 51.5456780998758],
        [-0.396557310589931, 51.54596249344966],
        [-0.397087311888834, 51.545860030422666],
        [-0.397050886584522, 51.54578849452811],
        [-0.397886018515751, 51.545662320283704],
        [-0.397905841578154, 51.54571384641512],
        [-0.39806927830636, 51.5461521989065],
        [-0.398442407317658, 51.547190494527804],
        [-0.398407557850752, 51.547197212591556],
        [-0.398318992597349, 51.54721398802737],
        [-0.398329388753186, 51.54724650180068],
        [-0.398326474106195, 51.54724736123272],
        [-0.398337122758479, 51.54727268470507],
        [-0.398428805526027, 51.54757787196345],
        [-0.398464939044022, 51.54757566751013],
        [-0.398538679180697, 51.5475703794577],
        [-0.398553621129156, 51.54759666072397],
        [-0.398558008905328, 51.54759492217393],
        [-0.398582189745162, 51.547645608425846],
        [-0.398720677484981, 51.5478911866013],
        [-0.398698770041421, 51.54789898059124],
        [-0.39860092301405, 51.54793361393795],
        [-0.398372966391156, 51.54793589785882],
        [-0.397841429280049, 51.54783512246372],
        [-0.397539806607678, 51.54779953091063],
        [-0.397237963343767, 51.54777023009469],
        [-0.396966203670552, 51.547746734816954],
        [-0.39650287520061, 51.54771612499638],
        [-0.39567578232601, 51.54765356358425],
        [-0.394888883776245, 51.54763740633297],
        [-0.395008128621736, 51.54801940697715],
        [-0.395084987174899, 51.54845837769886],
        [-0.39508002991708, 51.54847629426331],
        [-0.394986518751639, 51.54875647056213],
        [-0.394188476614458, 51.548646637547996],
        [-0.393944391527242, 51.54869724995362],
        [-0.3934851634931, 51.54883663669682],
        [-0.392829305825898, 51.54898951448357],
        [-0.3919554924223, 51.54926978853772],
        [-0.390199360286814, 51.549784340392506],
        [-0.389094913575091, 51.55014145933868],
        [-0.388953608146013, 51.550058589588694],
        [-0.388903913246096, 51.55003632600889],
        [-0.388575514726334, 51.550146017265234],
        [-0.388067773134153, 51.55035125885908],
        [-0.387535995772727, 51.55054267968656],
        [-0.386999421628537, 51.55066569153719],
        [-0.386193129137041, 51.5509108823329],
        [-0.385269481007893, 51.55117063864436],
        [-0.384688452278967, 51.551408128260206],
        [-0.38391573231809, 51.551763470399784],
        [-0.382972163581349, 51.552218064933825],
        [-0.381958934580227, 51.5527247453154],
        [-0.381957492875509, 51.55272472543508],
        [-0.381838680296888, 51.552821101906034],
        [-0.381509071047477, 51.553004492793185],
        [-0.380852913839772, 51.553325453874855],
        [-0.380657755231819, 51.553459442077916],
        [-0.380193996757228, 51.553683241206635],
        [-0.378471381933182, 51.55438242126197],
        [-0.377688788057053, 51.55468812919768],
        [-0.37777659041822, 51.5548961635336],
        [-0.37780020819298, 51.55496213305301],
        [-0.377807995535834, 51.55498651963111],
        [-0.377700856656183, 51.55499762750068],
        [-0.377694223357506, 51.554981349844304],
        [-0.377636991712721, 51.554846574891684],
        [-0.377633018154567, 51.55483662854028],
        [-0.377675181177536, 51.55482732007048],
        [-0.377565334523728, 51.55459020583555],
        [-0.377290095667929, 51.5542177198991],
        [-0.376920380619348, 51.55386550775632],
        [-0.376550671248102, 51.55351329447789],
        [-0.376489318813629, 51.55353492611189],
        [-0.375861416637022, 51.55306134017159],
        [-0.374931486116974, 51.55349447796164],
        [-0.373908401985158, 51.55391013159828],
        [-0.373706848710115, 51.553818315538145],
        [-0.373364832488955, 51.554024891469986],
        [-0.372855108099643, 51.553716585574506],
        [-0.372471405056926, 51.55395944886236],
        [-0.372167806149635, 51.55397861720441],
        [-0.372110746269803, 51.55396074042935],
        [-0.372039429505169, 51.5539381697283],
        [-0.371923866010753, 51.55394286089395],
        [-0.371798946075446, 51.55396720495757],
        [-0.371688443383758, 51.55399174895625],
        [-0.37152994596408, 51.55402731663924],
        [-0.371444177239652, 51.55404590912994],
        [-0.371406306840124, 51.55405617416233],
        [-0.371011550113784, 51.55416399628479],
        [-0.370725275701902, 51.55426343200084],
        [-0.370625949032635, 51.55433848650956],
        [-0.370355178632576, 51.554448028036965],
        [-0.370128944551343, 51.55452221876267],
        [-0.370094053349907, 51.55452982709513],
        [-0.36984247732417, 51.55458658007552],
        [-0.369640788033719, 51.55461974672567],
        [-0.369446564346425, 51.554645823010674],
        [-0.369207967400885, 51.55466229008298],
        [-0.368874622322438, 51.55474667959046],
        [-0.36861849326944, 51.55480966120814],
        [-0.367925883822498, 51.554936711309445],
        [-0.367711601841053, 51.55495890886056],
        [-0.367587127414943, 51.554970665572625],
        [-0.367558195578963, 51.5549729607372],
        [-0.367308062196726, 51.554989263460136],
        [-0.366993371041125, 51.55499567502534],
        [-0.366736658617939, 51.55507483039974],
        [-0.366488821315158, 51.55514781422479],
        [-0.366589363049475, 51.5553209649284],
        [-0.366148615779152, 51.5553831695474],
        [-0.366041344541112, 51.55539786182296],
        [-0.365274391083561, 51.5555058766715],
        [-0.365221012976088, 51.555506032246754],
        [-0.3649828291433, 51.555510806640754],
        [-0.364723590071087, 51.55553956607932],
        [-0.364700263707113, 51.55554643476231],
        [-0.364672740924181, 51.55554964807502],
        [-0.364543519758739, 51.55557302528183],
        [-0.364374918975168, 51.55560844252546],
        [-0.363993914881944, 51.55569395233812],
        [-0.363510468160934, 51.55582029562349],
        [-0.36315894183819, 51.55588822943107],
        [-0.362970024691892, 51.55592695814422],
        [-0.362540952026129, 51.55602528095447],
        [-0.362640006473955, 51.556199313553],
        [-0.362698389330024, 51.55630084091342],
        [-0.362601175241201, 51.55631656960771],
        [-0.362498129313471, 51.55633401527982],
        [-0.362532011915148, 51.556394735889725],
        [-0.362568616843832, 51.556459990580336],
        [-0.362430515253407, 51.55648953609765],
        [-0.362299590259006, 51.556520080835426],
        [-0.362252429798233, 51.55662822831982],
        [-0.362201008222927, 51.556734517868925],
        [-0.362321507116906, 51.55699427597897],
        [-0.362427007982027, 51.557270010612804],
        [-0.362245810196305, 51.55729445838231],
        [-0.361467572282731, 51.5573941980306],
        [-0.360318474668085, 51.557537308841326],
        [-0.360205190229819, 51.55759867126084],
        [-0.359293498133033, 51.557678547093275],
        [-0.35716006408581, 51.558115393304284],
        [-0.355413418663601, 51.55842633615854],
        [-0.353665164366684, 51.558701261687396],
        [-0.351594732757722, 51.55898872105592],
        [-0.350713062528682, 51.55911481242006],
        [-0.34884604132703, 51.55944105109302],
        [-0.347554752054466, 51.55968364845216],
        [-0.34725397244491, 51.55946449847379],
        [-0.347183351818279, 51.559303442309485],
        [-0.346000953792859, 51.558651931250516],
        [-0.345680799025711, 51.55849005423652],
        [-0.345580220623051, 51.5584391790072],
        [-0.345493806917504, 51.55843526295868],
        [-0.345373075461084, 51.558383204172024],
        [-0.345371398576348, 51.55834990930862],
        [-0.344628598512541, 51.558028301971646],
        [-0.343980785252137, 51.55779255732405],
        [-0.34298320677316, 51.55757525022338],
        [-0.342543999851237, 51.55751419465901],
        [-0.342545666107928, 51.5574683578464],
        [-0.342158864568081, 51.55747368429418],
        [-0.341443813748799, 51.557421316174],
        [-0.341018606545532, 51.55741170844801],
        [-0.339054514755231, 51.55731378415422],
        [-0.338866258633717, 51.557294034034946],
        [-0.33857039038237, 51.557258372418836],
        [-0.338324953396642, 51.557224323447606],
        [-0.337852037590821, 51.55713849387748],
        [-0.337597426666364, 51.55707913518033],
        [-0.337176812185606, 51.55698325314909],
        [-0.336395916795084, 51.55671950284347],
        [-0.33632753031973, 51.55669605268781],
        [-0.336294500157085, 51.556691987483326],
        [-0.335903971465538, 51.556641488580574],
        [-0.335832178465651, 51.556592811569814],
        [-0.335600674777865, 51.55653287699333],
        [-0.335584419626142, 51.55658300293175],
        [-0.334732792108568, 51.55636050163174],
        [-0.334233913237086, 51.556196056463094],
        [-0.334204158269271, 51.556220812315495],
        [-0.33417584505053, 51.55624558862828],
        [-0.334153495943956, 51.55626505426408],
        [-0.334117809573598, 51.55629422200581],
        [-0.333212089693128, 51.55613118960791],
        [-0.332235142572386, 51.55594375801716],
        [-0.331400669811163, 51.55580510399615],
        [-0.33041475158579, 51.55566608768143],
        [-0.329404296786546, 51.55552761293502],
        [-0.328652506863433, 51.555416193924295],
        [-0.327964454206268, 51.5552975853045],
        [-0.327022925949162, 51.55501080084898],
        [-0.326124143546647, 51.554699440265026],
        [-0.325587157585972, 51.55447416633847],
        [-0.32475406507446, 51.55414215110484],
        [-0.323942664502511, 51.55384820717248],
        [-0.322772696184824, 51.55342054349976],
        [-0.322263914256935, 51.553213641799005],
        [-0.321996715332169, 51.55310551081959],
        [-0.321291590187166, 51.55286432393144],
        [-0.32049609325379, 51.55257058338663],
        [-0.319683141326716, 51.5522810835411],
        [-0.319053884997139, 51.552056256339135],
        [-0.318372355127834, 51.55180190132843],
        [-0.317979023828606, 51.551633503614816],
        [-0.317779168581707, 51.55161625085764],
        [-0.317652406487612, 51.551533503074324],
        [-0.317371210257994, 51.551414370011145],
        [-0.316562560706908, 51.55104847574535],
        [-0.316620194719944, 51.55097196918244],
        [-0.315817870890134, 51.55063043954645],
        [-0.314539525639253, 51.550056361545984],
        [-0.314444640951695, 51.550126037403544],
        [-0.313772998991463, 51.549800758443105],
        [-0.312808107018694, 51.549293212223375],
        [-0.312598337754986, 51.549154412388894],
        [-0.312522398255529, 51.54890693209615],
        [-0.312384051810942, 51.54859201134822],
        [-0.312240762205891, 51.548332771377595],
        [-0.312106234331277, 51.54810962633712],
        [-0.311945472540326, 51.547932863505714],
        [-0.311729935112379, 51.54775531228889],
        [-0.311494917193581, 51.54755859654967],
        [-0.311368044673049, 51.547479437120124],
        [-0.311292910308959, 51.54744418512111],
        [-0.311223209232412, 51.54741800354841],
        [-0.309792687109141, 51.546984659442764],
        [-0.309656037902297, 51.546935931022446],
        [-0.309414719118156, 51.54683174067273],
        [-0.308601115836494, 51.54644773454584],
        [-0.308177213996418, 51.546211420599],
        [-0.307696877593303, 51.54586368609594],
        [-0.307268532510691, 51.545475335191895],
        [-0.307167211252429, 51.54536866369057],
        [-0.307124161712868, 51.545323980388],
        [-0.307170079733128, 51.545291371477546],
        [-0.307193742749088, 51.54527552678698],
        [-0.307221896758257, 51.5452552507471],
        [-0.307287127273853, 51.54524630035098],
        [-0.308063508362484, 51.545233219622574],
        [-0.308890471911038, 51.54521726592715],
        [-0.308895710567897, 51.544959263067305],
        [-0.308475036757368, 51.544869570742634],
        [-0.308055617095305, 51.54451282429512],
        [-0.307999487047017, 51.54443198355936],
        [-0.308038725223706, 51.54403509065175],
        [-0.308215241717035, 51.543708518599836],
        [-0.308336475453603, 51.543511537267186],
        [-0.308467739267155, 51.54335516567854],
        [-0.308489676182922, 51.54326915605539],
        [-0.308575882329268, 51.543238925889916],
        [-0.30765965609439, 51.54239662518642],
        [-0.307064181986237, 51.541810729733605],
        [-0.306961227722982, 51.54170942975444],
        [-0.306343304926622, 51.54106835359157],
        [-0.305922367820926, 51.54075384086996],
        [-0.30552952734254, 51.54045951541968],
        [-0.305030067208503, 51.540124082252824],
        [-0.304725459364193, 51.53986160247493],
        [-0.30474449607133, 51.539853784487235],
        [-0.304782502676407, 51.539839945995155],
        [-0.30596723481279, 51.53942902550382],
        [-0.305985459559224, 51.53917120996329],
        [-0.305885165609204, 51.53763927398793],
        [-0.305896010939318, 51.53734718112256],
        [-0.30588618981894, 51.536718478087295],
        [-0.305960320985199, 51.53608109573174],
        [-0.305969088508974, 51.53600029169015],
        [-0.306032808578612, 51.535449084921574],
        [-0.306094131275464, 51.535001254854706],
        [-0.306191552834401, 51.53459081433495],
        [-0.306256842108093, 51.53423026667448],
        [-0.306335580161233, 51.53393465765037],
        [-0.306377050385978, 51.53382734878157],
        [-0.306430529334419, 51.533784957786494],
        [-0.30652402405307, 51.5337521367002],
        [-0.306814701890319, 51.533689789302436],
        [-0.306984397702079, 51.53362389688164],
        [-0.307083741235859, 51.53351112832483],
        [-0.307158112430415, 51.533371921685834],
        [-0.307233524132213, 51.53324352076783],
        [-0.307385884347288, 51.53313960999231],
        [-0.307422843517019, 51.53311496479645],
        [-0.307501084824968, 51.53306573673675],
        [-0.307464151402948, 51.53305081622599],
        [-0.30738978460103, 51.533034456399996],
        [-0.306056822079234, 51.532743649766275],
        [-0.304749147272919, 51.532471177894124],
        [-0.302731525639334, 51.53198249854576],
        [-0.302536972395305, 51.53213525049728],
        [-0.301442170800307, 51.53241974734972],
        [-0.300421691032084, 51.53283749764763],
        [-0.299557024821414, 51.5332521023043],
        [-0.298498539905267, 51.53387610813144],
        [-0.298088207542057, 51.53416959989713],
        [-0.297685175804774, 51.53446049848523],
        [-0.297324296107625, 51.53485811666966],
        [-0.297201064470176, 51.53495344497998],
        [-0.297116843353361, 51.535007974813176],
        [-0.296997499322987, 51.53507638242841],
        [-0.296874133578653, 51.53513663846555],
        [-0.29672489500866, 51.53519472028207],
        [-0.296589095585284, 51.53524040781619],
        [-0.296398433759596, 51.53528799622772],
        [-0.296299768421967, 51.53530454805144],
        [-0.296176772241366, 51.535316250282506],
        [-0.296055418461093, 51.53532258085648],
        [-0.295961713909557, 51.53532211906856],
        [-0.295881247708072, 51.53531465565823],
        [-0.295825447919356, 51.535303054350194],
        [-0.295784159769491, 51.535288966127936],
        [-0.295689352243779, 51.53524082888155],
        [-0.295399745076292, 51.53496505367636],
        [-0.295363116349953, 51.534942040697125],
        [-0.295276452814639, 51.534907509900336],
        [-0.295226384417256, 51.534896890815574],
        [-0.295173232418962, 51.53489162228303],
        [-0.295112606409859, 51.53489343895739],
        [-0.2950459138585, 51.534903260512394],
        [-0.294368428928034, 51.5350139096948],
        [-0.293523627919924, 51.534933282886755],
        [-0.293294391316745, 51.534971312847496],
        [-0.292911117490077, 51.535079938761875],
        [-0.292138267227687, 51.53527281587096],
        [-0.292058233687956, 51.535292333059],
        [-0.290366011786871, 51.53573978132165],
        [-0.290188345209766, 51.53578664982076],
        [-0.288743317926919, 51.5361009940753],
        [-0.286751997093827, 51.53675534665024],
        [-0.285711989873328, 51.53714930469927],
        [-0.285138640096191, 51.53740350096208],
        [-0.284162430501241, 51.53786402178514],
        [-0.282773619541369, 51.53852082306555],
        [-0.282563436817601, 51.538626553420634],
        [-0.282485565307893, 51.53866497962814],
        [-0.282375467157571, 51.53856355309916],
        [-0.28160159242008, 51.53790027773839],
        [-0.280529567840685, 51.53703749434576],
        [-0.279705424212356, 51.53633210457684],
        [-0.279169782029021, 51.535891718284624],
        [-0.278842786717336, 51.53565402026431],
        [-0.278669719688046, 51.53550220851745],
        [-0.278451776881931, 51.5353551333859],
        [-0.278217474965353, 51.5352213062332],
        [-0.277997805207403, 51.53512006574458],
        [-0.277797785069983, 51.53507126877701],
        [-0.277881741237521, 51.53498617490387],
        [-0.27796345855826, 51.53496039745005],
        [-0.277963492475457, 51.53495949871545],
        [-0.278064248802492, 51.53492590756321],
        [-0.278146476664739, 51.53458090995306],
        [-0.278153224362729, 51.534554931247],
        [-0.278472968964493, 51.534564119856576],
        [-0.278590794689774, 51.53403979780369],
        [-0.278683612966834, 51.53375790147369],
        [-0.278795638539601, 51.53354013237983],
        [-0.278900254559528, 51.53332764986931],
        [-0.279009990626779, 51.53320876256333],
        [-0.279276778433533, 51.533054411059545],
        [-0.279759884343713, 51.53289873496527],
        [-0.280250244335973, 51.53278003176753],
        [-0.280951423196065, 51.53257629113811],
        [-0.281028665764041, 51.53266914468453],
        [-0.281508878361417, 51.53324089801662],
        [-0.281603390459322, 51.53321980163209],
        [-0.282276399337768, 51.5330749897887],
        [-0.283538982786559, 51.532818304675956],
        [-0.284038927001755, 51.53351802709599],
        [-0.284189346484341, 51.53346717248138],
        [-0.285293857263497, 51.53308136476427],
        [-0.285670805881675, 51.533064392931934],
        [-0.285730651681127, 51.53296815039996],
        [-0.28578482377647, 51.53290779420926],
        [-0.285838421814549, 51.53286271654826],
        [-0.285916685629187, 51.53281350309671],
        [-0.286479325728238, 51.53265086840438],
        [-0.287313437000462, 51.53236180596102],
        [-0.288391443327283, 51.532027737779885],
        [-0.289388241877354, 51.53166729716574],
        [-0.289076803460079, 51.53143704834921],
        [-0.288774721613655, 51.53118805129435],
        [-0.288190807586831, 51.530842320448905],
        [-0.287594945678388, 51.530469435266],
        [-0.286984930067047, 51.53005137869804],
        [-0.286368544441513, 51.52968807898969],
        [-0.286116190903204, 51.52953601913372],
        [-0.285751873689527, 51.52917909614835],
        [-0.284253656558017, 51.528918896781754],
        [-0.284266127671046, 51.52900900244095],
        [-0.284193632267375, 51.52905829916408],
        [-0.283359431693112, 51.528929194834724],
        [-0.282980573719237, 51.5288445178191],
        [-0.282457223843788, 51.52876851495405],
        [-0.28212624228043, 51.5287142107919],
        [-0.280635131019859, 51.52845766596338],
        [-0.280478498294527, 51.52840591234498],
        [-0.280250928398072, 51.52843854575691],
        [-0.280137626697719, 51.52846116401454],
        [-0.279731730256481, 51.52855862436718],
        [-0.279582745112866, 51.528571726483825],
        [-0.279246653651881, 51.52872955826125],
        [-0.279090462155598, 51.52866611922761],
        [-0.278972752561583, 51.528729137197246],
        [-0.278857314331187, 51.5288083745725],
        [-0.277196350191892, 51.52923271114952],
        [-0.275321860637057, 51.529469542473855],
        [-0.273557608498238, 51.5296881831752],
        [-0.272281680296668, 51.52984115234614],
        [-0.271461739469785, 51.52994507485828],
        [-0.271460298565933, 51.529945053627095],
        [-0.270592974501197, 51.53004377572926],
        [-0.270417588001547, 51.52976422598737],
        [-0.269676173846562, 51.53000238040093],
        [-0.26938695698217, 51.52983535277491],
        [-0.269245866378771, 51.529754138674186],
        [-0.26914602618766, 51.52972568861171],
        [-0.269021563819257, 51.52973823992476],
        [-0.268703664303888, 51.529833363733374],
        [-0.268722916370331, 51.52985792717889],
        [-0.268798381664037, 51.52995885585954],
        [-0.268182272510948, 51.530010010802854],
        [-0.267877295148421, 51.53006845454754],
        [-0.267525082153844, 51.530155874657915],
        [-0.266969449119404, 51.53036078618163],
        [-0.266610451692863, 51.53051284820512],
        [-0.266119187467588, 51.53080683178531],
        [-0.265359722646346, 51.53125331465138],
        [-0.265334645914663, 51.531268230834705],
        [-0.265284355752497, 51.5313016581013],
        [-0.265234031353125, 51.53133598407458],
        [-0.265185113657546, 51.53137123006314],
        [-0.265137602665968, 51.53140739606872],
        [-0.265092973491466, 51.53144360467379],
        [-0.265048275911282, 51.53148161071902],
        [-0.264928626401464, 51.531594943137605],
        [-0.264928592231684, 51.53159584186655],
        [-0.264921148287237, 51.53160202640947],
        [-0.264913704340763, 51.531608210951894],
        [-0.264906260392262, 51.53161439549381],
        [-0.264898850612131, 51.531619681306324],
        [-0.26489140665973, 51.53162586584726],
        [-0.264883962705303, 51.53163205038769],
        [-0.264876518748849, 51.531638234927634],
        [-0.264870515742851, 51.53164444077968],
        [-0.264864512735208, 51.53165064663141],
        [-0.264858509725918, 51.531656852482804],
        [-0.264855354449797, 51.5316639996884],
        [-0.264852267515412, 51.531669349436115],
        [-0.264849112237407, 51.53167649664148],
        [-0.264845956958387, 51.53168364384677],
        [-0.264844242632281, 51.53169081236491],
        [-0.26484252830561, 51.53169798088299],
        [-0.264842220761137, 51.531706069442905],
        [-0.264841947388152, 51.53171325927392],
        [-0.264841674015054, 51.53172044910493],
        [-0.2648428074253, 51.531728558977775],
        [-0.264843975007534, 51.53173577012175],
        [-0.264846583545686, 51.531743002578615],
        [-0.26478299924579, 51.53189852886445],
        [-0.264781319073987, 51.53190479865242],
        [-0.264774871767673, 51.53192268797346],
        [-0.264768424456141, 51.53194057729405],
        [-0.264763418101711, 51.53195848792819],
        [-0.264758411743185, 51.531976398562044],
        [-0.264755188080808, 51.53198534322179],
        [-0.264854301570345, 51.532184640760214],
        [-0.264445014157992, 51.532293688381564],
        [-0.264434722267279, 51.532298931526554],
        [-0.263869509592275, 51.53248929903557],
        [-0.26337791923853, 51.53267715677486],
        [-0.262908221643282, 51.53293367845296],
        [-0.2620748598732, 51.53342580621609],
        [-0.261229369794367, 51.53393303534247],
        [-0.260625501057308, 51.53430445975475],
        [-0.260545458403362, 51.53436172320887],
        [-0.260433616081467, 51.53453451631941],
        [-0.260318159593116, 51.534499532585464],
        [-0.260128735966603, 51.534589344590614],
        [-0.259662563924526, 51.5347146174564],
        [-0.258455041030085, 51.535072578047924],
        [-0.258105756944364, 51.5351950837295],
        [-0.258044374706286, 51.535216653178985],
        [-0.257809069727591, 51.53533725340193],
        [-0.257368003399655, 51.535182328838395],
        [-0.257218614526881, 51.53512975255],
        [-0.256534564004614, 51.53495682716302],
        [-0.256451738565275, 51.53493581307179],
        [-0.256442269353192, 51.53491948611385],
        [-0.256428717389471, 51.5348968038329],
        [-0.256413690049527, 51.53487499885742],
        [-0.256398662723745, 51.53485319388007],
        [-0.25639591799629, 51.53484955614739],
        [-0.256377974252026, 51.53482860705653],
        [-0.256358555135748, 51.53480853526931],
        [-0.256337694991194, 51.534788442060666],
        [-0.256319716954049, 51.534768391685525],
        [-0.256301738932561, 51.5347483413077],
        [-0.256292132436976, 51.53473560923536],
        [-0.256263656424062, 51.53468842577049],
        [-0.256241013320226, 51.53463953052822],
        [-0.256219845647596, 51.534589757977045],
        [-0.25620152574925, 51.534540926986274],
        [-0.256183240234468, 51.534491197268316],
        [-0.256166395792449, 51.53444148896777],
        [-0.256152467797029, 51.534390924781455],
        [-0.256141421893025, 51.53434040343456],
        [-0.256049555202854, 51.5339523668103],
        [-0.255669090105575, 51.53398537745298],
        [-0.255271263519972, 51.53401992713107],
        [-0.25403764127999, 51.53407980737513],
        [-0.25286069772211, 51.53412792948039],
        [-0.252341069505488, 51.534142670499264],
        [-0.252165712377611, 51.53412836797557],
        [-0.252088482473559, 51.534111930323014],
        [-0.252030123594104, 51.5340921768553],
        [-0.251817069414051, 51.534008070996705],
        [-0.251799983796322, 51.53400242097832],
        [-0.251565964245924, 51.53393868464744],
        [-0.251455763751523, 51.53391725900396],
        [-0.25135678150997, 51.533904093591104],
        [-0.251254676208504, 51.53389717618869],
        [-0.251140836172503, 51.53389547917519],
        [-0.251006477499709, 51.533902468502994],
        [-0.250931131438859, 51.53391213599801],
        [-0.250773674850085, 51.53418315591844],
        [-0.249024058910938, 51.53386210575958],
        [-0.248020708658913, 51.53366997645377],
        [-0.247655944787881, 51.53359438805548],
        [-0.247359116175509, 51.53351441805766],
        [-0.247226691311835, 51.53347107472882],
        [-0.247158559135282, 51.53344307967204],
        [-0.247151457723136, 51.5334402758581],
        [-0.247118970756739, 51.533422704963655],
        [-0.246777045488908, 51.53312804146506],
        [-0.246521228392048, 51.53288142430232],
        [-0.2463946141568, 51.532799499712496],
        [-0.246311358077234, 51.53275239411814],
        [-0.246371132427893, 51.53258513049718],
        [-0.246435426919214, 51.5324503069128],
        [-0.246582703245555, 51.53221960610618],
        [-0.246938641339621, 51.53184904489505],
        [-0.246944612265665, 51.53184373870463],
        [-0.246994511030702, 51.53178333629548],
        [-0.246372495420234, 51.531536641409026],
        [-0.246286685918331, 51.53155604109379],
        [-0.245340178504908, 51.53123704660194],
        [-0.245269030742194, 51.5312126022536],
        [-0.24540644358526, 51.53105099654212],
        [-0.245550708229929, 51.5310486580018],
        [-0.245840125687359, 51.53105838145282],
        [-0.245922707159121, 51.53104792619525],
        [-0.246006764054921, 51.53103659370329],
        [-0.246048827028521, 51.53103002871457],
        [-0.246329687185955, 51.530962288684044],
        [-0.246634913267057, 51.53086074118481],
        [-0.246955686358359, 51.530729750425664],
        [-0.247725915011607, 51.530307825962474],
        [-0.248508120379687, 51.529798849384434],
        [-0.248477187556437, 51.529740836413794],
        [-0.248854474379521, 51.52948928738258],
        [-0.24932590292099, 51.52918878488151],
        [-0.249342883014467, 51.52919713141041],
        [-0.249434815539205, 51.529243465135785],
        [-0.249568698639059, 51.52913575611576],
        [-0.249644560851639, 51.529074840762696],
        [-0.250392374709301, 51.52840887147363],
        [-0.250468475756757, 51.528341664501035],
        [-0.25013573039938, 51.528221599241846],
        [-0.250066059950246, 51.52819628058167],
        [-0.25023675789938, 51.52803066961579],
        [-0.250560463336469, 51.52782237851214],
        [-0.250621087101873, 51.52778281695245],
        [-0.250295633582626, 51.52735981817064],
        [-0.250294715774092, 51.52730854800151],
        [-0.250294975557898, 51.52718895342246],
        [-0.250295320082724, 51.52717996619618],
        [-0.250364904206963, 51.52709467735472],
        [-0.250667949017753, 51.52689866712028],
        [-0.251134923955413, 51.52652525286547],
        [-0.252303541956108, 51.525334095503744],
        [-0.252392778129153, 51.525224818870136],
        [-0.252529218442918, 51.525087469795515],
        [-0.252639092174328, 51.524777970650106],
        [-0.252660552034499, 51.52459394680757],
        [-0.252641159852602, 51.52438503504881],
        [-0.252452474268817, 51.523966776912516],
        [-0.252255177834928, 51.52358525884034],
        [-0.252092977044062, 51.52319077479629],
        [-0.252018595307635, 51.5227616296667],
        [-0.251923440604068, 51.522235057294395],
        [-0.250691862277803, 51.52063224148561],
        [-0.250589132917931, 51.520416690941424],
        [-0.250305035228002, 51.520157070167684],
        [-0.250485349643607, 51.519927756381705],
        [-0.250499038018906, 51.51990907655262],
        [-0.250534168605472, 51.51985744473352],
        [-0.250567858543489, 51.51980579141795],
        [-0.25059866727146, 51.51975409512281],
        [-0.250628069800434, 51.51970147861056],
        [-0.250637367482365, 51.51968453175926],
        [-0.250651400082555, 51.51965686467083],
        [-0.250666873227783, 51.51962921906396],
        [-0.250679499666373, 51.5196006317641],
        [-0.250692091653458, 51.5195729431866],
        [-0.25070327750013, 51.51954433440045],
        [-0.250713022773498, 51.51951570413007],
        [-0.250721465214668, 51.51948345747977],
        [-0.250727129833023, 51.51944847169112],
        [-0.25073279444205, 51.5194134859019],
        [-0.25073561236682, 51.51937755842294],
        [-0.25073695529895, 51.519342508185176],
        [-0.250736892110124, 51.519306537740576],
        [-0.250736995412354, 51.519303841568416],
        [-0.250735457237681, 51.5192687483651],
        [-0.250732512948805, 51.51923273495495],
        [-0.25072809368095, 51.51919759878601],
        [-0.250720793323778, 51.51916241965138],
        [-0.250713492977211, 51.519127240516205],
        [-0.250704752095751, 51.51909203989762],
        [-0.250604821283907, 51.51854021614772],
        [-0.250226529639369, 51.51735387448056],
        [-0.249752148955047, 51.51581719311801],
        [-0.24943988673624, 51.51520284974618],
        [-0.249361193041985, 51.51492470987561],
        [-0.249283996009575, 51.51472032981942],
        [-0.249132774226877, 51.51422888694017],
        [-0.249091857677936, 51.514055622386365],
        [-0.249070500071005, 51.51401124088557],
        [-0.24905185096647, 51.513971396004706],
        [-0.248996275912255, 51.513879743292634],
        [-0.248813417953569, 51.51368727407198],
        [-0.248401767935127, 51.51322251578836],
        [-0.247721321055164, 51.5124767751081],
        [-0.247208542449308, 51.511943957904776],
        [-0.246650239274623, 51.5112458970727],
        [-0.24644760245323, 51.51081842687325],
        [-0.246439719945343, 51.51079852576404],
        [-0.246230249220215, 51.51028642447265],
        [-0.24621670937447, 51.51026374103764],
        [-0.246053930987843, 51.50996186029444],
        [-0.245951183871955, 51.50944775731842],
        [-0.24585036483615, 51.509183671621244],
        [-0.245775781577388, 51.5089118850577],
        [-0.245779764544627, 51.508620591007464],
        [-0.245746539962193, 51.50847261879019],
        [-0.245466556974519, 51.50780838892264],
        [-0.245356402675705, 51.507599915916856],
        [-0.24508676921248, 51.50674160399985],
        [-0.245176231260877, 51.506738446338595],
        [-0.24651372782478, 51.5067314727327],
        [-0.246517169069717, 51.50667936827307],
        [-0.246511055702263, 51.506575864300544],
        [-0.246476640384827, 51.50638381169459],
        [-0.246435420746632, 51.50625640260942],
        [-0.24638014503191, 51.50611979094862],
        [-0.246281200891526, 51.505919579525326],
        [-0.246229107688508, 51.505812690285424],
        [-0.246022729524067, 51.50537077505208],
        [-0.24571150220439, 51.50465751914408],
        [-0.245715856978642, 51.5046566850399],
        [-0.245702664141306, 51.50462501430384],
        [-0.246284545942904, 51.50455638168746],
        [-0.246644989653293, 51.50451321170714],
        [-0.248011150015265, 51.504358275285924],
        [-0.248034141581505, 51.50443505412188],
        [-0.248080806722371, 51.50460840524141],
        [-0.249039759788546, 51.50447614927855],
        [-0.249280363645618, 51.50443927521786],
        [-0.249348146112881, 51.50466329844877],
        [-0.249431051353229, 51.504680722207944],
        [-0.2494404151666, 51.50466197793382],
        [-0.249487406318168, 51.50456376292129],
        [-0.249676740133067, 51.50458637188355],
        [-0.249868954318869, 51.504609023519556],
        [-0.249875334464105, 51.50459293240858],
        [-0.249891560267258, 51.50454551482183],
        [-0.249928951788801, 51.50443456703668],
        [-0.250027766623586, 51.50445042928882],
        [-0.250334607672149, 51.50445230941493],
        [-0.250838110229588, 51.50454884428829],
        [-0.251046430872993, 51.504640076404804],
        [-0.251246396968776, 51.50464845353925],
        [-0.252515339278341, 51.50451089913915],
        [-0.252527199881485, 51.50453985151579],
        [-0.252543674634707, 51.50471185170546],
        [-0.252591472756338, 51.50470536992861],
        [-0.252794220228193, 51.5046787155222],
        [-0.25371228984529, 51.5045602001847],
        [-0.253764407921552, 51.504553782251485],
        [-0.253684121206525, 51.50435475420932],
        [-0.253659164700248, 51.50429143586531],
        [-0.254307446615066, 51.50421925596536],
        [-0.254539713718246, 51.50417415389974],
        [-0.25455826303138, 51.50417892614763],
        [-0.25456800017787, 51.504188063447685],
        [-0.254868003500198, 51.50444431465503],
        [-0.255090331502381, 51.50431993056129],
        [-0.255067839460688, 51.504305208108924],
        [-0.255072262699353, 51.50430257619841],
        [-0.25456245915234, 51.50395597725194],
        [-0.254511921545938, 51.503921054049364],
        [-0.254502081443242, 51.50391461292959],
        [-0.254479761497751, 51.50389539672597],
        [-0.254425350269696, 51.50384872572389],
        [-0.25437217551718, 51.503769700482486],
        [-0.254175242680882, 51.50356893658483],
        [-0.253923489247032, 51.50333228587467],
        [-0.253666078371629, 51.5031306207044],
        [-0.253492323261085, 51.50300213987919],
        [-0.253407504614607, 51.502921743716016],
        [-0.253365815420808, 51.50288155633479],
        [-0.25335594452137, 51.50283824583417],
        [-0.253325304251299, 51.50269750814641],
        [-0.253243335415301, 51.50258028547234],
        [-0.253258944927604, 51.5024735084326],
        [-0.25318310025046, 51.50212077611976],
        [-0.253110308511114, 51.50176359300563],
        [-0.253073287669022, 51.501676714570856],
        [-0.253075896123299, 51.5016461792711],
        [-0.253080700626011, 51.50159589340571],
        [-0.253110222216586, 51.501577449087016],
        [-0.253114645298294, 51.50157481724773],
        [-0.253144826450842, 51.5014637610456],
        [-0.253083872440095, 51.50139990637274],
        [-0.253077053900662, 51.50135214510082],
        [-0.253067664695971, 51.501296252379504],
        [-0.253022705415626, 51.50104019858261],
        [-0.252960741905494, 51.50077669754235],
        [-0.252941108290827, 51.500649612248665],
        [-0.252862199306993, 51.5004901705471],
        [-0.252796315608771, 51.50036689242956],
        [-0.25274791428691, 51.5002762473628],
        [-0.252745568105533, 51.50007388340447],
        [-0.252786588412343, 51.49990543738631],
        [-0.252911846454733, 51.49971936219124],
        [-0.253115453822776, 51.4994058625571],
        [-0.253376661206662, 51.499017684231276],
        [-0.253593215499566, 51.49877991275261],
        [-0.253922436300074, 51.498345985487504],
        [-0.254235468694256, 51.49792080873327],
        [-0.254622273768063, 51.49744996858095],
        [-0.254682889416892, 51.49737173752345],
        [-0.255026657901695, 51.496971295556285],
        [-0.255034341016166, 51.49688328432905],
        [-0.255041509271287, 51.496808754043556],
        [-0.255094587381972, 51.4965883306629],
        [-0.255105148349012, 51.49653813033624],
        [-0.255116434796999, 51.49635575247887],
        [-0.255118286464948, 51.496344989144575],
        [-0.255268715310286, 51.49632924234225],
        [-0.25551280296431, 51.496275321966],
        [-0.255398651434658, 51.496095574353404],
        [-0.25548020801729, 51.4960725080537],
        [-0.255627345658635, 51.496029734630255],
        [-0.255588334417685, 51.49599498324593],
        [-0.255529886289044, 51.49594105868588],
        [-0.255472195744932, 51.495791825888844],
        [-0.25538498878563, 51.49566103802502],
        [-0.25540714030789, 51.4954959073174],
        [-0.255434447621971, 51.49493159054162],
        [-0.255575615419816, 51.49493189193201],
        [-0.255889351943836, 51.49494015511614],
        [-0.256348850194867, 51.49494159230295],
        [-0.257533007632307, 51.494904338480296],
        [-0.258541405292674, 51.494829392596195],
        [-0.259757847669625, 51.49473864131759],
        [-0.260093830848832, 51.49473013780112],
        [-0.260356074208933, 51.49469086459695],
        [-0.261282669099631, 51.49460748779652],
        [-0.261326033529417, 51.494603634498766],
        [-0.261470083779386, 51.49464173960304],
        [-0.261652180226301, 51.494626454086955],
        [-0.261741788624144, 51.494618789882246],
        [-0.26185559580072, 51.49458091010393],
        [-0.261895016844627, 51.494567106513514],
        [-0.262299210656584, 51.49450745167337],
        [-0.262673651164491, 51.494472533399524],
        [-0.263773728123651, 51.49437282273423],
        [-0.264439472904466, 51.49429185366933],
        [-0.265549169924328, 51.49416619080244],
        [-0.266689130300957, 51.49404006550703],
        [-0.267675549692805, 51.49393594072277],
        [-0.267718215293529, 51.494026494869125],
        [-0.268061936136093, 51.49400369501163],
        [-0.268420462995753, 51.4939703218877],
        [-0.268923121910675, 51.49401101437015],
        [-0.269400386703259, 51.49407560942111],
        [-0.270050073059033, 51.494228173741],
        [-0.270731971885701, 51.494443256899125],
        [-0.271000974156984, 51.49456772107068],
        [-0.271289047000563, 51.494721241364765],
        [-0.271425681190423, 51.49480328757125],
        [-0.271557860498114, 51.49488886491371],
        [-0.271798945804053, 51.49506597085905],
        [-0.272017960022242, 51.49525534044022],
        [-0.27216707072572, 51.495426594212375],
        [-0.272302930945032, 51.495643513751716],
        [-0.272481227257099, 51.49614791529372],
        [-0.272731959975076, 51.49633685143538],
        [-0.272949510248659, 51.49652709686233],
        [-0.27330438507499, 51.496781411209554],
        [-0.273734021317345, 51.49700175461189],
        [-0.274260670864673, 51.497285571400774],
        [-0.275708076800782, 51.49794711797073],
        [-0.276307692164031, 51.49828325468494],
        [-0.276738881056468, 51.49853957919494],
        [-0.277295567344689, 51.498982988472605],
        [-0.277896039147652, 51.49948818609187],
        [-0.27805889028147, 51.49963985059495],
        [-0.278211493436204, 51.499795860602575],
        [-0.278391034238443, 51.5000017238783],
        [-0.278541777217566, 51.50020716417882],
        [-0.278690912252362, 51.50041707685877],
        [-0.278834051691362, 51.50063319600828],
        [-0.278971330929253, 51.50085192668708],
        [-0.279219871624748, 51.50129170350321],
        [-0.27943037972078, 51.5016320057369],
        [-0.279551516689217, 51.50178215685511],
        [-0.279678448394713, 51.5019314936001],
        [-0.279851988269983, 51.502105793177726],
        [-0.279895967538573, 51.50208575573847],
        [-0.280256620795925, 51.502418366722964],
        [-0.280736045198893, 51.502811168034384],
        [-0.280783552691711, 51.502850531601965],
        [-0.281037788934983, 51.50271847327563],
        [-0.282376887052218, 51.50209064138346],
        [-0.28249316289399, 51.50198713348543],
        [-0.28321064487469, 51.501643338794615],
        [-0.283903612629369, 51.501376515407095],
        [-0.284732112418785, 51.501068506819195],
        [-0.285072750440756, 51.500975471334954],
        [-0.285165922500335, 51.50094985656315],
        [-0.285627865964619, 51.500810933509634],
        [-0.285732793405485, 51.500779195465896],
        [-0.286152077683748, 51.50074036130731],
        [-0.286810544114673, 51.500662755564754],
        [-0.287784593923233, 51.50077589562147],
        [-0.28812901440002, 51.50081239652612],
        [-0.288699616306689, 51.500849499147606],
        [-0.289236351668349, 51.500944555341114],
        [-0.289963930810875, 51.50109904362933],
        [-0.290680331124407, 51.50124437209233],
        [-0.291374368052031, 51.50137138564326],
        [-0.292058232726197, 51.501462277504224],
        [-0.293034861741246, 51.50154573654476],
        [-0.293415595368856, 51.501574657233384],
        [-0.293642649473728, 51.501590550109256],
        [-0.293814381822799, 51.501583156888344],
        [-0.293945961205769, 51.501570683173156],
        [-0.294050012233876, 51.501562305082885],
        [-0.294169403102366, 51.50152897141621],
        [-0.29422767522628, 51.50151183421953],
        [-0.294350080100179, 51.501474947263304],
        [-0.295052858413729, 51.501252263525686],
        [-0.295612197201533, 51.50105087134217],
        [-0.296127492992443, 51.50087131755938],
        [-0.296765118527287, 51.500656669446556],
        [-0.298544042134338, 51.50004942836048],
        [-0.299772494142782, 51.499637408868054],
        [-0.300112991502344, 51.499547025542626],
        [-0.300718299383148, 51.49934807389936],
        [-0.300671377200502, 51.49925387360277],
        [-0.300564222042152, 51.49880360264924],
        [-0.300401365232479, 51.49865017122331],
        [-0.300308903679064, 51.49857959017381],
        [-0.300243600548865, 51.49851479806557],
        [-0.300171632920128, 51.498435521564126],
        [-0.300100367725042, 51.49833737125674],
        [-0.300050597238059, 51.49816489593064],
        [-0.299997642245019, 51.49792313329705],
        [-0.299945565217143, 51.497812671717284],
        [-0.299818445990848, 51.49770561845995],
        [-0.299787838175248, 51.497676399216104],
        [-0.299636239583544, 51.4975303237562],
        [-0.299539493535308, 51.497420113592035],
        [-0.299357219393557, 51.49716928167066],
        [-0.299076360930147, 51.49678033591341],
        [-0.298929387125569, 51.496587566311284],
        [-0.298830534584769, 51.49645664255266],
        [-0.298392905770644, 51.49594492338946],
        [-0.298213524497799, 51.495771465820845],
        [-0.297981372228977, 51.49554508645962],
        [-0.298078946081225, 51.49551682767276],
        [-0.297553438321538, 51.4948896269283],
        [-0.298278736720651, 51.49479404341742],
        [-0.299423952743553, 51.494640699354754],
        [-0.301110523005825, 51.49441785311949],
        [-0.301250710677815, 51.49471573231833],
        [-0.301338254923084, 51.49491842911696],
        [-0.30136817013287, 51.495082523281965],
        [-0.301355625579101, 51.49522621928408],
        [-0.302229623503981, 51.49543221038668],
        [-0.302676349484768, 51.49550611909952],
        [-0.303307348502455, 51.49562225848168],
        [-0.303945277753341, 51.495707021436914],
        [-0.304650521707673, 51.495841312693884],
        [-0.30524112111343, 51.49599822241784],
        [-0.305388899918463, 51.49605341266511],
        [-0.305647488698903, 51.49615066922151],
        [-0.305850949722283, 51.49618058549213],
        [-0.305879525927622, 51.49607039237691],
        [-0.305892256481734, 51.49592130326048],
        [-0.305858950133293, 51.49561508223856],
        [-0.305822504960943, 51.49535467683777],
        [-0.305659567680068, 51.49497014806816],
        [-0.30544077354848, 51.494538051743255],
        [-0.306560405506719, 51.494180142062895],
        [-0.307530256967447, 51.493859626690465],
        [-0.30803267586172, 51.49371310691607],
        [-0.308403339283027, 51.493584467836456],
        [-0.308843965269214, 51.49339478925766],
        [-0.309691117289142, 51.49300234640915],
        [-0.310960079452696, 51.49242173843742],
        [-0.311924631926132, 51.49196982236054],
        [-0.311976242371996, 51.492015526971706],
        [-0.31247999206832, 51.49245620778568],
        [-0.312630673661832, 51.49258876490737],
        [-0.31268411057857, 51.49258503756185],
        [-0.31282769392297, 51.492714794592864],
        [-0.313305961347246, 51.4931047479934],
        [-0.313650873235762, 51.49340016077342],
        [-0.313936185742686, 51.49359310218596],
        [-0.313947903014268, 51.493587875232436],
        [-0.314044653296737, 51.49354250592546],
        [-0.314061466550983, 51.49355533690838],
        [-0.314111906370214, 51.49359382984301],
        [-0.314122150676928, 51.49358948093267],
        [-0.314414039137611, 51.49344800047528],
        [-0.314693757744579, 51.49371459684686],
        [-0.314746021191253, 51.49370365781793],
        [-0.314887165132443, 51.49382168715403],
        [-0.315103757694642, 51.49396418036763],
        [-0.315083037129461, 51.49397916966624],
        [-0.314924736274296, 51.49409199728873],
        [-0.314475385470066, 51.49436250430635],
        [-0.314546893368405, 51.494415687577145],
        [-0.314776758925277, 51.49458894608623],
        [-0.31573276235257, 51.49534634586992],
        [-0.315680000331477, 51.49537076669536],
        [-0.315291449508661, 51.49555492428399],
        [-0.315319716395762, 51.49556971807293],
        [-0.315381943372334, 51.49560118587534],
        [-0.315446983879605, 51.49563449252416],
        [-0.31578856953609, 51.49590377316216],
        [-0.315847224072907, 51.495875839967624],
        [-0.31724587531157, 51.49521609541707],
        [-0.318228613020207, 51.494700542997414],
        [-0.318595000600894, 51.49449177868776],
        [-0.319211380039342, 51.494222750655574],
        [-0.319914245825155, 51.494579026647465],
        [-0.320536934716061, 51.494882893918636],
        [-0.320966349155543, 51.49503651668893],
        [-0.321478584252972, 51.495210207130114],
        [-0.322514882042639, 51.49554965729395],
        [-0.323434137336421, 51.495899115136254],
        [-0.324025405441393, 51.49576458789676],
        [-0.324758237592618, 51.49601245545984],
        [-0.324870765051969, 51.49592953483529],
        [-0.325696531511526, 51.495371212615325],
        [-0.326158506621028, 51.49502980368703],
        [-0.326926152249061, 51.495625258478896],
        [-0.327418180447925, 51.4960369312193],
        [-0.329975866560975, 51.49507523091408],
        [-0.330553704066738, 51.49534693275719],
        [-0.330974260094064, 51.495468020189875],
        [-0.331135356035929, 51.495514375018764],
        [-0.331260849561362, 51.495549432271424],
        [-0.331772707825408, 51.49569519591468],
        [-0.331831389093968, 51.49562678969729],
        [-0.332095172852006, 51.4957015807157],
        [-0.332670062079675, 51.495857229104985],
        [-0.333257099737322, 51.49595639567083],
        [-0.334046147547492, 51.496086305139265],
        [-0.334696318309293, 51.49615308964646],
        [-0.334705937644945, 51.49620538168784],
        [-0.33531366831372, 51.49621131160143],
        [-0.33544617071762, 51.496212293012896],
        [-0.335999251365244, 51.49621564526271],
        [-0.336787263531865, 51.49625559834044],
        [-0.337596972469121, 51.49625358976373],
        [-0.338637358155649, 51.496246750383506],
        [-0.339323233777587, 51.49620340947342],
        [-0.340291816208278, 51.496150577115365],
        [-0.34138156660384, 51.496014023418525],
        [-0.341415969776147, 51.4960981384597],
        [-0.342113881737277, 51.496040563759884],
        [-0.343498217407495, 51.4965600968091],
        [-0.344739236409759, 51.497020039944125],
        [-0.344740676329688, 51.49702006026616],
        [-0.346183654017994, 51.49755297805733],
        [-0.347257868886027, 51.49792601430896],
        [-0.348278508341902, 51.49834684455172],
        [-0.349486203451045, 51.498894392051504],
        [-0.349644689620155, 51.49897395604503],
        [-0.34978821292541, 51.49902903008228],
        [-0.349932255910338, 51.49906972357224],
        [-0.350055251058938, 51.49909483388001],
        [-0.350194443219862, 51.4991102803649],
        [-0.350364134874067, 51.49911896182617],
        [-0.350537031042953, 51.4991186958089],
        [-0.350700204157463, 51.49910840127979],
        [-0.350956444823379, 51.49907423665622],
        [-0.352291366567247, 51.49877197306309],
        [-0.353322077742502, 51.4985553466224],
        [-0.354557675624834, 51.49832989579253],
        [-0.354585229217998, 51.49832488697165],
        [-0.354607848538584, 51.49825686284454],
        [-0.35460945033086, 51.498252389167654],
        [-0.35477698785741, 51.49828081708644],
        [-0.354873465645425, 51.49828217039223],
        [-0.354987514267488, 51.498275676997075],
        [-0.355150100748501, 51.49820152276164],
        [-0.35527461711294, 51.49818438513582],
        [-0.355507551193734, 51.49815707760235],
        [-0.355649460700528, 51.49817705186604],
        [-0.355841784488714, 51.498157267368235],
        [-0.356077031158829, 51.49810571192659],
        [-0.356118029148623, 51.49808740274568],
        [-0.356241087587571, 51.49803067756212],
        [-0.356306726415509, 51.49800821750852],
        [-0.356389838664503, 51.49798060691168],
        [-0.356597692315055, 51.497929565777234],
        [-0.356926225331073, 51.49784784270285],
        [-0.357301177023373, 51.49779734266656],
        [-0.357551890494889, 51.497796357757196],
        [-0.358027721245785, 51.49778503569588],
        [-0.358179252631214, 51.497737699399025],
        [-0.358443209810021, 51.497648773499],
        [-0.358497359726475, 51.49762525219327],
        [-0.358719034012447, 51.49747009013936],
        [-0.359193753773158, 51.497208762057895],
        [-0.359582758182302, 51.49700738082521],
        [-0.360109680916738, 51.49677645376932],
        [-0.360575314501661, 51.496687645124126],
        [-0.360773400714426, 51.49662746780425],
        [-0.360962212948011, 51.496544679816694],
        [-0.361165230237573, 51.49646748539452],
        [-0.361501782276021, 51.49636248166434],
        [-0.361591453736984, 51.496312478307026],
        [-0.361657248636503, 51.496285521311485],
        [-0.3617289319834, 51.49625504961493],
        [-0.361731338577269, 51.496228106353946],
        [-0.361734679627138, 51.49617509849736],
        [-0.361918147500292, 51.49608054435001],
        [-0.362159835423469, 51.49604974901036],
        [-0.362275317492372, 51.496043268574084],
        [-0.362418544173025, 51.49602638466367],
        [-0.362517455893466, 51.495999889580766],
        [-0.362634161575855, 51.495959255166305],
        [-0.362810827560243, 51.49593384531995],
        [-0.362875268806521, 51.49594463637493],
        [-0.362912512989443, 51.49595055162455],
        [-0.362998143204613, 51.495932863040466],
        [-0.363187141751435, 51.495844678720964],
        [-0.363250740066281, 51.49575834105725],
        [-0.363292490968811, 51.495638426997324],
        [-0.363497141904464, 51.495515390676466],
        [-0.363535447979295, 51.49549164598444],
        [-0.363554263047487, 51.49548921082439],
        [-0.363626675715469, 51.49547853119414],
        [-0.363698351883465, 51.495005637440336],
        [-0.36373236386987, 51.49469947479232],
        [-0.363878546278881, 51.494599901264024],
        [-0.364075967508279, 51.494437196999826],
        [-0.364376131202737, 51.494261537638515],
        [-0.36455501665375, 51.49413364401313],
        [-0.364745362899928, 51.49396724305712],
        [-0.36498093577344, 51.493704355545674],
        [-0.365381977347303, 51.49332597488108],
        [-0.365800816485769, 51.49365823195969],
        [-0.366063494680132, 51.49352341052924],
        [-0.366493015365442, 51.493274911873144],
        [-0.36666217137822, 51.49309652271382],
        [-0.36674473371376, 51.493003253441586],
        [-0.366844316438275, 51.49291741495845],
        [-0.366973267543463, 51.49285626451159],
        [-0.366982034835081, 51.49285278967103],
        [-0.366964409319224, 51.49282197045887],
        [-0.366974589699635, 51.49277894920984],
        [-0.367015450120655, 51.49276423125027],
        [-0.367028601026155, 51.492759018984074],
        [-0.367371706458614, 51.49263070983543],
        [-0.36774130408071, 51.49248658227465],
        [-0.368031225091276, 51.492395298624245],
        [-0.368274847101048, 51.492309664714384],
        [-0.368377585491842, 51.49229670640709],
        [-0.368248787525683, 51.492151937040425],
        [-0.367931402057722, 51.49180221671223],
        [-0.367921644611839, 51.491793088634346],
        [-0.368684398199469, 51.49153033504514],
        [-0.369381488250159, 51.491290942765104],
        [-0.369809649802057, 51.491160212190465],
        [-0.371169085898806, 51.49068542382583],
        [-0.371872484485824, 51.490470383632235],
        [-0.371863364800827, 51.49052421077002],
        [-0.371851269567854, 51.49058069428515],
        [-0.371808171359562, 51.490658328882475],
        [-0.371724342822426, 51.49078755326266],
        [-0.371857244302939, 51.4908982050714],
        [-0.371947946412778, 51.490980394828476],
        [-0.372161989673972, 51.49095638908214],
        [-0.372313163293502, 51.490958487279244],
        [-0.372420280283551, 51.49098425306018],
        [-0.372657837995684, 51.491108945503385],
        [-0.372794037742163, 51.491288882615066],
        [-0.3730383169406, 51.491467621253214],
        [-0.373221647484242, 51.49157807181368],
        [-0.373313377068176, 51.49163149941851],
        [-0.373493734200575, 51.49182553657126],
        [-0.373612755935203, 51.491840675602276],
        [-0.373708197602651, 51.491870774423106],
        [-0.373733537944752, 51.491887311924096],
        [-0.373796952841448, 51.49192685808266],
        [-0.373806807441331, 51.49193328932638],
        [-0.374005023367897, 51.49223278303804],
        [-0.374627975534604, 51.49326743775069],
        [-0.374798172916949, 51.49354496021802],
        [-0.375006802300231, 51.493876069380946],
        [-0.374974935659949, 51.49392148849147],
        [-0.374965753276811, 51.49393664814304],
        [-0.375086162203893, 51.49407499912984],
        [-0.375228714766365, 51.49423883514411],
        [-0.375480576147381, 51.49452917780729],
        [-0.37567155298155, 51.494870831912735],
        [-0.375839953646635, 51.495401910138256],
        [-0.376425664406283, 51.495338081451074],
        [-0.376773025848438, 51.49529253275421],
        [-0.377073033425138, 51.49528229688877],
        [-0.377220639767255, 51.4953041223313],
        [-0.377885434729913, 51.49544730373408],
        [-0.377757632574046, 51.49604442172836],
        [-0.377740944207055, 51.496189865779456],
        [-0.37771412051769, 51.496417898575096],
        [-0.377688173973234, 51.49645890414907],
        [-0.377651541599984, 51.49651684722999],
        [-0.377674101799981, 51.496530647707374],
        [-0.377836335101504, 51.496546380079884],
        [-0.377853039936975, 51.49656279721955],
        [-0.377893330241749, 51.496604718929966],
        [-0.378501244546861, 51.49640270586438],
        [-0.378965713966169, 51.496264350756604],
        [-0.379146910219885, 51.496192219115784],
        [-0.379140762680095, 51.49616245964971],
        [-0.379705468335115, 51.49595984323461],
        [-0.380103566488349, 51.49582416361418],
        [-0.381184516170287, 51.495444327581204],
        [-0.381846313224156, 51.49522505644284],
        [-0.382190940056734, 51.49513449262518],
        [-0.382413660780104, 51.49506922334274],
        [-0.382641949547913, 51.49500942578794],
        [-0.383030955118331, 51.49492666531386],
        [-0.38333740925094, 51.49485625408449],
        [-0.383527464144712, 51.49481840846514],
        [-0.383720175963396, 51.49478689374485],
        [-0.383932982227943, 51.494757454049875],
        [-0.384407231966758, 51.494708235770474],
        [-0.384762680366917, 51.49467806171847],
        [-0.385169836752578, 51.49465219545871],
        [-0.385474253605824, 51.49463930115004],
        [-0.385712023361721, 51.494637178691846],
        [-0.385987071120459, 51.494640064899656],
        [-0.387104712149817, 51.49468781232863],
        [-0.387554258632734, 51.494848660703056],
        [-0.387670933691665, 51.49488983070537],
        [-0.388212311705881, 51.49493863635085],
        [-0.389319497462416, 51.49516066890127],
        [-0.390721461967613, 51.49548025556689],
        [-0.392289892759136, 51.49585965782725],
        [-0.394032460638105, 51.49632684998002],
        [-0.395701406324749, 51.49679930357655],
        [-0.397914728235808, 51.497401465091244],
        [-0.398561963327229, 51.49755507955132],
        [-0.399962431456782, 51.49792129416548],
        [-0.400190500864894, 51.4979909479404],
        [-0.400241065370669, 51.49794577715036],
        [-0.401538791050228, 51.498284493844345],
        [-0.402798593240626, 51.49863706722813],
        [-0.403458661282627, 51.49883668966996],
        [-0.404840112070557, 51.49921337737417],
        [-0.406640888027262, 51.49962991641999],
        [-0.406905196963529, 51.49969375475307],
        [-0.40634157473404, 51.50032184950157],
        [-0.40516438164222, 51.50156296417226],
        [-0.405141901547105, 51.50158783677933],
        [-0.404272955739, 51.502540885670214],
        [-0.403889369755322, 51.50292143360234],
        [-0.40369386404716, 51.503114803856775],
        [-0.403639008027473, 51.50315901847867],
        [-0.40358274315198, 51.50320231467573],
        [-0.403525069420171, 51.50324469244588],
        [-0.403464546672371, 51.50328613218426],
        [-0.403402615065275, 51.50332665349005],
        [-0.403339306011529, 51.50336535756457],
        [-0.403276028264361, 51.50340316280725],
        [-0.40320987008443, 51.5034409288027],
        [-0.403142303046608, 51.50347777635644],
        [-0.403073358569613, 51.503512806669676],
        [-0.40300300523928, 51.50354691853639],
        [-0.402931243056798, 51.503580111954086],
        [-0.402856663276659, 51.503611468513554],
        [-0.402782114818519, 51.50364192622835],
        [-0.402770436337715, 51.50364626331833],
        [-0.40270478019574, 51.50366964828174],
        [-0.402636275070672, 51.50369209518539],
        [-0.402566361134854, 51.50371362363832],
        [-0.402496509992924, 51.50373335445677],
        [-0.402425218618054, 51.503753065617325],
        [-0.40235399004721, 51.50377097914196],
        [-0.402282729987483, 51.50378979141876],
        [-0.402210061130186, 51.50380768523739],
        [-0.402150448104909, 51.50382305919546],
        [-0.40194111355698, 51.50387595920039],
        [-0.401730432687207, 51.503926142815594],
        [-0.401518436978158, 51.50397271123858],
        [-0.40130509502325, 51.504016563258205],
        [-0.401225287436631, 51.50403256072059],
        [-0.400489884400792, 51.50421316997976],
        [-0.399869903367209, 51.50443041905406],
        [-0.399070243435507, 51.50475851485359],
        [-0.397755557075106, 51.50526840819169],
        [-0.396494571880461, 51.5057664318982],
        [-0.395735045327209, 51.50605818555967],
        [-0.395002937047098, 51.50634851106543],
        [-0.394359970603233, 51.506603184112485],
        [-0.39409527106619, 51.506713761890936],
        [-0.394044103558502, 51.50673464272802],
        [-0.393992904404061, 51.50675642233417],
        [-0.393943082261267, 51.50678001922183],
        [-0.393893260067188, 51.50680361608778],
        [-0.393723345007598, 51.506882219555195],
        [-0.39358627105839, 51.506969365577156],
        [-0.393415771963588, 51.50710551097487],
        [-0.393297262262932, 51.5071974070554],
        [-0.393117410017604, 51.50739457117278],
        [-0.393020520600914, 51.50752722826221],
        [-0.392946833360808, 51.507655707040065],
        [-0.392861275489183, 51.50779391459537],
        [-0.392769737180162, 51.508020164141584],
        [-0.392639976238579, 51.508308835552],
        [-0.392248182319217, 51.50916402378091],
        [-0.39154730006135, 51.51073435210573],
        [-0.391086860898109, 51.511818796402245],
        [-0.390916428531415, 51.51219772960678],
        [-0.3907578335226, 51.51256783271135],
        [-0.390633159533783, 51.51283409100906],
        [-0.390518695555761, 51.51301506298306],
        [-0.390442869728411, 51.5132037588183],
        [-0.390441270878386, 51.51320823299943],
        [-0.390385199134559, 51.51340888976103],
        [-0.390170908863383, 51.51372337512197],
        [-0.390017847437432, 51.51393618895292],
        [-0.389569015783507, 51.514362554542195],
        [-0.389383627915793, 51.51451107884331],
        [-0.38902261939075, 51.51473542357725],
        [-0.388618441910449, 51.51491691068547],
        [-0.386776817436061, 51.51564424848097],
        [-0.386108962433394, 51.515904829076995],
        [-0.385240597616232, 51.51625166911185],
        [-0.384988753233963, 51.516363302735684],
        [-0.384844749078708, 51.516441350979775],
        [-0.384650875013707, 51.516543890595],
        [-0.384587468122176, 51.51658438173504],
        [-0.384258621176207, 51.51679476723867],
        [-0.383930616521532, 51.517062713772845],
        [-0.38372999815209, 51.51723349999394],
        [-0.383442546575175, 51.51749570935426],
        [-0.383402345902542, 51.5175320235367],
        [-0.382866017350341, 51.51794366951801],
        [-0.382618519500222, 51.51793216431975],
        [-0.382609525655122, 51.51794193177919],
        [-0.382569228411995, 51.51798094201946],
        [-0.382572563266454, 51.518008863947195],
        [-0.382471863649713, 51.5180848087126],
        [-0.38209137177894, 51.51836911164725],
        [-0.381901207343106, 51.51852924826119],
        [-0.381776404235845, 51.518634534347],
        [-0.381733964222906, 51.518693297672634],
        [-0.381404906992869, 51.519152757403575],
        [-0.380920972387388, 51.519711690998456],
        [-0.380831530220359, 51.51975451845505],
        [-0.380209091279103, 51.520357397727274],
        [-0.379929829127283, 51.52063140153886],
        [-0.379337466493748, 51.521279652777665],
        [-0.379107369269121, 51.52154893852232],
        [-0.378916424230275, 51.521811571073684],
        [-0.378547772944408, 51.52224799506922],
        [-0.378375643089519, 51.522467724058714],
        [-0.377700489096637, 51.523335132420975],
        [-0.377154550895086, 51.524013689073136],
        [-0.37698362464577, 51.52423972724211],
        [-0.376633043103641, 51.524450690081906],
        [-0.376547978835, 51.524572706577345],
        [-0.376374480919456, 51.52470878590256],
        [-0.37618119835821, 51.524914730569],
        [-0.376096933357184, 51.52505474227649],
        [-0.375969768402445, 51.525306563000704],
        [-0.375929148487612, 51.52555688407188],
        [-0.375954483658741, 51.52573618031374],
        [-0.375987119210708, 51.52591287993582],
        [-0.376111856230049, 51.52637770679044],
        [-0.37615064611738, 51.5266650960227],
        [-0.376238168697208, 51.52691988848736],
        [-0.37627082107553, 51.527379843587354],
        [-0.376203011118597, 51.52879967779181],
        [-0.376202659388447, 51.5288095643783],
        [-0.376204100333609, 51.5288095843228],
        [-0.376205317450787, 51.52881589573143],
        [-0.376282073363131, 51.528846632467754],
        [-0.376377241974846, 51.528886616213526],
        [-0.376524700521568, 51.528915633606616],
        [-0.376968195931097, 51.52897122735094],
        [-0.377664916826904, 51.529041112157756],
        [-0.379052341529657, 51.529147514934586],
        [-0.379633568382269, 51.52922208674359],
        [-0.380990564702202, 51.52941437162396],
        [-0.381627167569251, 51.52951307749534],
        [-0.382474577283705, 51.52964346173865],
        [-0.383998898014214, 51.52991535167016],
        [-0.384531699876101, 51.53001441027442],
        [-0.385683250875769, 51.53030991962257],
        [-0.385868387499832, 51.53037451331554],
        [-0.386637564786065, 51.53039408584505],
        [-0.386640828052285, 51.530383340058854],
        [-0.386722388771802, 51.53015605929188],
        [-0.386878042611055, 51.52991271205681],
        [-0.387115541406323, 51.52955628866412],
        [-0.387155190013902, 51.529576616633605],
        [-0.387861697808676, 51.5299415200395],
        [-0.388390332306905, 51.530199666052546],
        [-0.388873812443875, 51.53043021289538],
        [-0.389273705132773, 51.530619145150155],
        [-0.389278889205017, 51.53079906064426],
        [-0.389603068594746, 51.53084577443041],
        [-0.389844081691232, 51.530879656036404],
        [-0.390569117776942, 51.53100650346314],
        [-0.392345827739599, 51.53140134288907],
        [-0.39355564250246, 51.531600456944155],
        [-0.394464301532863, 51.53175407331724],
        [-0.3953420536356, 51.53188477936346],
        [-0.395881249207325, 51.53192632344814],
        [-0.396268356811417, 51.531946902506654],
        [-0.396826497549119, 51.53202377081646],
        [-0.396978587080791, 51.53204473265264],
        [-0.398605741326254, 51.532307945368075],
        [-0.400104761478545, 51.53252532631661],
        [-0.401399917543442, 51.53271832908679],
        [-0.402530051290137, 51.53288928778465],
        [-0.404396873795508, 51.53310352817578],
        [-0.404583902681707, 51.53311506387174],
        [-0.404658714264494, 51.533119678066846],
        [-0.404827696068859, 51.53315254923969],
        [-0.404959460739892, 51.533177720431006],
        [-0.405061496376544, 51.53318720058788],
        [-0.405249684224686, 51.53320684395182],
        [-0.405500024731952, 51.53326330052329],
        [-0.40565024189889, 51.53329681469486],
        [-0.406941307350401, 51.533525669198085],
        [-0.407417907276627, 51.53358519370666],
        [-0.409395781182817, 51.5340067828289],
        [-0.409570126926242, 51.53401004562042],
        [-0.410284962948413, 51.534142926815015],
        [-0.410681590098797, 51.534180672308054],
        [-0.41093842585665, 51.53417515908032],
        [-0.410965087668134, 51.53419620223101],
        [-0.41108445508353, 51.534287740794234],
        [-0.411832647313571, 51.53408385717232]
      ]
    ]
  }
}
