{
  "type": "Feature",
  "properties": {
    "name": "Ealing",
    "level": 2,
    "londonBorough": true
  },
  "geometry": {
    "type": "Polygon",
    "coordinates": [
      [
        [-0.411832647313571, 51.53408385717232],
        [-0.41226927586791, 51.53450520598859],
        [-0.412326233933915, 51.534525759600875],
        [-0.413404695211373, 51.53465095281544],
        [-0.413481142716446, 51.53469155223261],
        [-0.413714661909981, 51.53556425413737],
        [-0.413850965899765, 51.53574953752952],
        [-0.414708119379946, 51.53593736936149],
        [-0.41485820118924, 51.536016729951065],
        [-0.415266031214031, 51.53652130545105],
        [-0.415339413783466, 51.53656725753137],
        [-0.416876930944296, 51.53651247972506],
        [-0.417029637599131, 51.5365163386041],
        [-0.417480199604735, 51.53666269479994],
        [-0.417594164544638, 51.536744262336235],
        [-0.417680309094346, 51.53700439892458],
        [-0.41767377246239, 51.53706815523833],
        [-0.417431768659496, 51.53776807954817],
        [-0.417466646686399, 51.537801821057585],
        [-0.419192100446213, 51.538191962574096],
        [-0.419305151346483, 51.5382168653718],
        [-0.419593573015962, 51.53854896519121],
        [-0.419614102660201, 51.53858071433729],
        [-0.419590002037492, 51.53869369110451],
        [-0.419459267780727, 51.53876296821077],
        [-0.418176435881218, 51.53912245207836],
        [-0.418161056892104, 51.539150120480386],
        [-0.419162044082382, 51.53976698661805],
        [-0.419408163483932, 51.53990518507753],
        [-0.419494794873118, 51.5400268472188],
        [-0.419521513405173, 51.54012971790452],
        [-0.419407897994052, 51.540412340047524],
        [-0.419344923844518, 51.5404402666295],
        [-0.418385836873861, 51.540111716606994],
        [-0.418321693597023, 51.54009016992516],
        [-0.416703380251672, 51.54018434174219],
        [-0.416462303335356, 51.54019187888268],
        [-0.414811245852934, 51.54060570418264],
        [-0.414446407243134, 51.54068889774895],
        [-0.408726509094469, 51.541704910332015],
        [-0.407876469882174, 51.54180668016494],
        [-0.407950444991549, 51.54195965182631],
        [-0.405415949196165, 51.542435989896916],
        [-0.404852512098359, 51.54250656311691],
        [-0.397266910334993, 51.54234923558462],
        [-0.395272744230398, 51.54254768222644],
        [-0.395581935152204, 51.54404821135434],
        [-0.395592012570121, 51.54408971323219],
        [-0.395715881717925, 51.5440941046304],
        [-0.395741827668921, 51.54409445938918],
        [-0.396197807897602, 51.54544052924004],
        [-0.396242185318111, 51.54553195691861],
        [-0.396342326654535, 51.5456780998758],
        [-0.396557310589931, 51.54596249344966],
        [-0.397050886584522, 51.54578849452811],
        [-0.397886018515751, 51.545662320283704],
        [-0.39806927830636, 51.5461521989065],
        [-0.398442407317658, 51.547190494527804],
        [-0.398337122758479, 51.54727268470507],
        [-0.398428805526027, 51.54757787196345],
        [-0.398582189745162, 51.547645608425846],
        [-0.398720677484981, 51.5478911866013],
        [-0.39567578232601, 51.54765356358425],
        [-0.394888883776245, 51.54763740633297],
        [-0.39508002991708, 51.54847629426331],
        [-0.394986518751639, 51.54875647056213],
        [-0.394188476614458, 51.548646637547996],
        [-0.393944391527242, 51.54869724995362],
        [-0.386193129137041, 51.5509108823329],
        [-0.385269481007893, 51.55117063864436],
        [-0.380657755231819, 51.553459442077916],
        [-0.380193996757228, 51.553683241206635],
        [-0.378471381933182, 51.55438242126197],
        [-0.377688788057053, 51.55468812919768],
        [-0.37780020819298, 51.55496213305301],
        [-0.377807995535834, 51.55498651963111],
        [-0.377565334523728, 51.55459020583555],
        [-0.377290095667929, 51.5542177198991],
        [-0.376489318813629, 51.55353492611189],
        [-0.375861416637022, 51.55306134017159],
        [-0.374931486116974, 51.55349447796164],
        [-0.373908401985158, 51.55391013159828],
        [-0.373706848710115, 51.553818315538145],
        [-0.373364832488955, 51.554024891469986],
        [-0.372855108099643, 51.553716585574506],
        [-0.372471405056926, 51.55395944886236],
        [-0.37152994596408, 51.55402731663924],
        [-0.371444177239652, 51.55404590912994],
        [-0.370355178632576, 51.554448028036965],
        [-0.370128944551343, 51.55452221876267],
        [-0.366488821315158, 51.55514781422479],
        [-0.366589363049475, 51.5553209649284],
        [-0.362970024691892, 51.55592695814422],
        [-0.362540952026129, 51.55602528095447],
        [-0.362640006473955, 51.556199313553],
        [-0.362698389330024, 51.55630084091342],
        [-0.362430515253407, 51.55648953609765],
        [-0.362299590259006, 51.556520080835426],
        [-0.362252429798233, 51.55662822831982],
        [-0.362201008222927, 51.556734517868925],
        [-0.362321507116906, 51.55699427597897],
        [-0.362427007982027, 51.557270010612804],
        [-0.34884604132703, 51.55944105109302],
        [-0.347554752054466, 51.55968364845216],
        [-0.34725397244491, 51.55946449847379],
        [-0.347183351818279, 51.559303442309485],
        [-0.345680799025711, 51.55849005423652],
        [-0.345580220623051, 51.5584391790072],
        [-0.344628598512541, 51.558028301971646],
        [-0.343980785252137, 51.55779255732405],
        [-0.342543999851237, 51.55751419465901],
        [-0.342545666107928, 51.5574683578464],
        [-0.33857039038237, 51.557258372418836],
        [-0.338324953396642, 51.557224323447606],
        [-0.334732792108568, 51.55636050163174],
        [-0.334233913237086, 51.556196056463094],
        [-0.334153495943956, 51.55626505426408],
        [-0.334117809573598, 51.55629422200581],
        [-0.328652506863433, 51.555416193924295],
        [-0.327964454206268, 51.5552975853045],
        [-0.317979023828606, 51.551633503614816],
        [-0.317779168581707, 51.55161625085764],
        [-0.312808107018694, 51.549293212223375],
        [-0.312598337754986, 51.549154412388894],
        [-0.312240762205891, 51.548332771377595],
        [-0.312106234331277, 51.54810962633712],
        [-0.311729935112379, 51.54775531228889],
        [-0.311494917193581, 51.54755859654967],
        [-0.309414719118156, 51.54683174067273],
        [-0.308601115836494, 51.54644773454584],
        [-0.307167211252429, 51.54536866369057],
        [-0.307124161712868, 51.545323980388],
        [-0.308063508362484, 51.545233219622574],
        [-0.308890471911038, 51.54521726592715],
        [-0.308895710567897, 51.544959263067305],
        [-0.308475036757368, 51.544869570742634],
        [-0.308055617095305, 51.54451282429512],
        [-0.307999487047017, 51.54443198355936],
        [-0.308038725223706, 51.54403509065175],
        [-0.308489676182922, 51.54326915605539],
        [-0.308575882329268, 51.543238925889916],
        [-0.306961227722982, 51.54170942975444],
        [-0.306343304926622, 51.54106835359157],
        [-0.305030067208503, 51.540124082252824],
        [-0.304725459364193, 51.53986160247493],
        [-0.304782502676407, 51.539839945995155],
        [-0.30596723481279, 51.53942902550382],
        [-0.305896010939318, 51.53734718112256],
        [-0.30588618981894, 51.536718478087295],
        [-0.306191552834401, 51.53459081433495],
        [-0.306256842108093, 51.53423026667448],
        [-0.306335580161233, 51.53393465765037],
        [-0.306377050385978, 51.53382734878157],
        [-0.306814701890319, 51.533689789302436],
        [-0.306984397702079, 51.53362389688164],
        [-0.307501084824968, 51.53306573673675],
        [-0.307464151402948, 51.53305081622599],
        [-0.304749147272919, 51.532471177894124],
        [-0.302731525639334, 51.53198249854576],
        [-0.300421691032084, 51.53283749764763],
        [-0.299557024821414, 51.5332521023043],
        [-0.29672489500866, 51.53519472028207],
        [-0.296589095585284, 51.53524040781619],
        [-0.295881247708072, 51.53531465565823],
        [-0.295825447919356, 51.535303054350194],
        [-0.295276452814639, 51.534907509900336],
        [-0.295226384417256, 51.534896890815574],
        [-0.293523627919924, 51.534933282886755],
        [-0.293294391316745, 51.534971312847496],
        [-0.288743317926919, 51.5361009940753],
        [-0.286751997093827, 51.53675534665024],
        [-0.282563436817601, 51.538626553420634],
        [-0.282485565307893, 51.53866497962814],
        [-0.279705424212356, 51.53633210457684],
        [-0.279169782029021, 51.535891718284624],
        [-0.277997805207403, 51.53512006574458],
        [-0.277797785069983, 51.53507126877701],
        [-0.277963492475457, 51.53495949871545],
        [-0.278064248802492, 51.53492590756321],
        [-0.278153224362729, 51.534554931247],
        [-0.278472968964493, 51.534564119856576],
        [-0.278795638539601, 51.53354013237983],
        [-0.278900254559528, 51.53332764986931],
        [-0.279276778433533, 51.533054411059545],
        [-0.279759884343713, 51.53289873496527],
        [-0.280250244335973, 51.53278003176753],
        [-0.280951423196065, 51.53257629113811],
        [-0.281028665764041, 51.53266914468453],
        [-0.281508878361417, 51.53324089801662],
        [-0.283538982786559, 51.532818304675956],
        [-0.284038927001755, 51.53351802709599],
        [-0.288391443327283, 51.532027737779885],
        [-0.289388241877354, 51.53166729716574],
        [-0.285751873689527, 51.52917909614835],
        [-0.284253656558017, 51.528918896781754],
        [-0.284266127671046, 51.52900900244095],
        [-0.284193632267375, 51.52905829916408],
        [-0.280635131019859, 51.52845766596338],
        [-0.280478498294527, 51.52840591234498],
        [-0.278857314331187, 51.5288083745725],
        [-0.277196350191892, 51.52923271114952],
        [-0.272281680296668, 51.52984115234614],
        [-0.271461739469785, 51.52994507485828],
        [-0.271460298565933, 51.529945053627095],
        [-0.270592974501197, 51.53004377572926],
        [-0.270417588001547, 51.52976422598737],
        [-0.269676173846562, 51.53000238040093],
        [-0.26914602618766, 51.52972568861171],
        [-0.269021563819257, 51.52973823992476],
        [-0.268722916370331, 51.52985792717889],
        [-0.268798381664037, 51.52995885585954],
        [-0.266969449119404, 51.53036078618163],
        [-0.266610451692863, 51.53051284820512],
        [-0.265185113657546, 51.53137123006314],
        [-0.265137602665968, 51.53140739606872],
        [-0.264755188080808, 51.53198534322179],
        [-0.264854301570345, 51.532184640760214],
        [-0.263869509592275, 51.53248929903557],
        [-0.26337791923853, 51.53267715677486],
        [-0.260545458403362, 51.53436172320887],
        [-0.260433616081467, 51.53453451631941],
        [-0.258044374706286, 51.535216653178985],
        [-0.257809069727591, 51.53533725340193],
        [-0.256534564004614, 51.53495682716302],
        [-0.256451738565275, 51.53493581307179],
        [-0.256141421893025, 51.53434040343456],
        [-0.256049555202854, 51.5339523668103],
        [-0.25286069772211, 51.53412792948039],
        [-0.252341069505488, 51.534142670499264],
        [-0.250931131438859, 51.53391213599801],
        [-0.250773674850085, 51.53418315591844],
        [-0.247158559135282, 51.53344307967204],
        [-0.247151457723136, 51.5334402758581],
        [-0.2463946141568, 51.532799499712496],
        [-0.246311358077234, 51.53275239411814],
        [-0.246944612265665, 51.53184373870463],
        [-0.246994511030702, 51.53178333629548],
        [-0.245340178504908, 51.53123704660194],
        [-0.245269030742194, 51.5312126022536],
        [-0.24540644358526, 51.53105099654212],
        [-0.246634913267057, 51.53086074118481],
        [-0.246955686358359, 51.530729750425664],
        [-0.249568698639059, 51.52913575611576],
        [-0.249644560851639, 51.529074840762696],
        [-0.250392374709301, 51.52840887147363],
        [-0.250468475756757, 51.528341664501035],
        [-0.25013573039938, 51.528221599241846],
        [-0.250066059950246, 51.52819628058167],
        [-0.250560463336469, 51.52782237851214],
        [-0.250621087101873, 51.52778281695245],
        [-0.250294975557898, 51.52718895342246],
        [-0.250295320082724, 51.52717996619618],
        [-0.251134923955413, 51.52652525286547],
        [-0.252303541956108, 51.525334095503744],
        [-0.252639092174328, 51.524777970650106],
        [-0.252660552034499, 51.52459394680757],
        [-0.252018595307635, 51.5227616296667],
        [-0.251923440604068, 51.522235057294395],
        [-0.250589132917931, 51.520416690941424],
        [-0.250305035228002, 51.520157070167684],
        [-0.250692091653458, 51.5195729431866],
        [-0.25070327750013, 51.51954433440045],
        [-0.250704752095751, 51.51909203989762],
        [-0.250604821283907, 51.51854021614772],
        [-0.249132774226877, 51.51422888694017],
        [-0.249091857677936, 51.514055622386365],
        [-0.247208542449308, 51.511943957904776],
        [-0.246650239274623, 51.5112458970727],
        [-0.24621670937447, 51.51026374103764],
        [-0.246053930987843, 51.50996186029444],
        [-0.245779764544627, 51.508620591007464],
        [-0.245746539962193, 51.50847261879019],
        [-0.245356402675705, 51.507599915916856],
        [-0.24508676921248, 51.50674160399985],
        [-0.245176231260877, 51.506738446338595],
        [-0.24651372782478, 51.5067314727327],
        [-0.245715856978642, 51.5046566850399],
        [-0.245702664141306, 51.50462501430384],
        [-0.246644989653293, 51.50451321170714],
        [-0.248011150015265, 51.504358275285924],
        [-0.248034141581505, 51.50443505412188],
        [-0.248080806722371, 51.50460840524141],
        [-0.249039759788546, 51.50447614927855],
        [-0.249280363645618, 51.50443927521786],
        [-0.249348146112881, 51.50466329844877],
        [-0.249431051353229, 51.504680722207944],
        [-0.249891560267258, 51.50454551482183],
        [-0.249928951788801, 51.50443456703668],
        [-0.251046430872993, 51.504640076404804],
        [-0.251246396968776, 51.50464845353925],
        [-0.252527199881485, 51.50453985151579],
        [-0.252543674634707, 51.50471185170546],
        [-0.25371228984529, 51.5045602001847],
        [-0.253764407921552, 51.504553782251485],
        [-0.253684121206525, 51.50435475420932],
        [-0.253659164700248, 51.50429143586531],
        [-0.254307446615066, 51.50421925596536],
        [-0.254539713718246, 51.50417415389974],
        [-0.254868003500198, 51.50444431465503],
        [-0.255090331502381, 51.50431993056129],
        [-0.253407504614607, 51.502921743716016],
        [-0.253365815420808, 51.50288155633479],
        [-0.253114645298294, 51.50157481724773],
        [-0.253144826450842, 51.5014637610456],
        [-0.25274791428691, 51.5002762473628],
        [-0.252745568105533, 51.50007388340447],
        [-0.253115453822776, 51.4994058625571],
        [-0.253376661206662, 51.499017684231276],
        [-0.254682889416892, 51.49737173752345],
        [-0.255026657901695, 51.496971295556285],
        [-0.255116434796999, 51.49635575247887],
        [-0.255118286464948, 51.496344989144575],
        [-0.255268715310286, 51.49632924234225],
        [-0.25551280296431, 51.496275321966],
        [-0.25548020801729, 51.4960725080537],
        [-0.255627345658635, 51.496029734630255],
        [-0.25540714030789, 51.4954959073174],
        [-0.255434447621971, 51.49493159054162],
        [-0.261326033529417, 51.494603634498766],
        [-0.261470083779386, 51.49464173960304],
        [-0.266689130300957, 51.49404006550703],
        [-0.267675549692805, 51.49393594072277],
        [-0.269400386703259, 51.49407560942111],
        [-0.270050073059033, 51.494228173741],
        [-0.271557860498114, 51.49488886491371],
        [-0.271798945804053, 51.49506597085905],
        [-0.272302930945032, 51.495643513751716],
        [-0.272481227257099, 51.49614791529372],
        [-0.272949510248659, 51.49652709686233],
        [-0.27330438507499, 51.496781411209554],
        [-0.276738881056468, 51.49853957919494],
        [-0.277295567344689, 51.498982988472605],
        [-0.278211493436204, 51.499795860602575],
        [-0.278391034238443, 51.5000017238783],
        [-0.279551516689217, 51.50178215685511],
        [-0.279678448394713, 51.5019314936001],
        [-0.280736045198893, 51.502811168034384],
        [-0.280783552691711, 51.502850531601965],
        [-0.28249316289399, 51.50198713348543],
        [-0.28321064487469, 51.501643338794615],
        [-0.285627865964619, 51.500810933509634],
        [-0.285732793405485, 51.500779195465896],
        [-0.286152077683748, 51.50074036130731],
        [-0.286810544114673, 51.500662755564754],
        [-0.28812901440002, 51.50081239652612],
        [-0.288699616306689, 51.500849499147606],
        [-0.290680331124407, 51.50124437209233],
        [-0.291374368052031, 51.50137138564326],
        [-0.293642649473728, 51.501590550109256],
        [-0.293814381822799, 51.501583156888344],
        [-0.300112991502344, 51.499547025542626],
        [-0.300718299383148, 51.49934807389936],
        [-0.300671377200502, 51.49925387360277],
        [-0.300564222042152, 51.49880360264924],
        [-0.300171632920128, 51.498435521564126],
        [-0.300100367725042, 51.49833737125674],
        [-0.299997642245019, 51.49792313329705],
        [-0.299945565217143, 51.497812671717284],
        [-0.298078946081225, 51.49551682767276],
        [-0.297553438321538, 51.4948896269283],
        [-0.299423952743553, 51.494640699354754],
        [-0.301110523005825, 51.49441785311949],
        [-0.30136817013287, 51.495082523281965],
        [-0.301355625579101, 51.49522621928408],
        [-0.305647488698903, 51.49615066922151],
        [-0.305850949722283, 51.49618058549213],
        [-0.305858950133293, 51.49561508223856],
        [-0.305822504960943, 51.49535467683777],
        [-0.305659567680068, 51.49497014806816],
        [-0.30544077354848, 51.494538051743255],
        [-0.30803267586172, 51.49371310691607],
        [-0.308403339283027, 51.493584467836456],
        [-0.310960079452696, 51.49242173843742],
        [-0.311924631926132, 51.49196982236054],
        [-0.313650873235762, 51.49340016077342],
        [-0.313936185742686, 51.49359310218596],
        [-0.314122150676928, 51.49358948093267],
        [-0.314414039137611, 51.49344800047528],
        [-0.314887165132443, 51.49382168715403],
        [-0.315103757694642, 51.49396418036763],
        [-0.314924736274296, 51.49409199728873],
        [-0.314475385470066, 51.49436250430635],
        [-0.314776758925277, 51.49458894608623],
        [-0.31573276235257, 51.49534634586992],
        [-0.315680000331477, 51.49537076669536],
        [-0.315291449508661, 51.49555492428399],
        [-0.315446983879605, 51.49563449252416],
        [-0.31578856953609, 51.49590377316216],
        [-0.318595000600894, 51.49449177868776],
        [-0.319211380039342, 51.494222750655574],
        [-0.319914245825155, 51.494579026647465],
        [-0.320536934716061, 51.494882893918636],
        [-0.322514882042639, 51.49554965729395],
        [-0.323434137336421, 51.495899115136254],
        [-0.324025405441393, 51.49576458789676],
        [-0.324758237592618, 51.49601245545984],
        [-0.325696531511526, 51.495371212615325],
        [-0.326158506621028, 51.49502980368703],
        [-0.326926152249061, 51.495625258478896],
        [-0.327418180447925, 51.4960369312193],
        [-0.329975866560975, 51.49507523091408],
        [-0.331260849561362, 51.495549432271424],
        [-0.331772707825408, 51.49569519591468],
        [-0.334696318309293, 51.49615308964646],
        [-0.334705937644945, 51.49620538168784],
        [-0.337596972469121, 51.49625358976373],
        [-0.338637358155649, 51.496246750383506],
        [-0.341415969776147, 51.4960981384597],
        [-0.342113881737277, 51.496040563759884],
        [-0.346183654017994, 51.49755297805733],
        [-0.347257868886027, 51.49792601430896],
        [-0.349644689620155, 51.49897395604503],
        [-0.34978821292541, 51.49902903008228],
        [-0.350364134874067, 51.49911896182617],
        [-0.350537031042953, 51.4991186958089],
        [-0.357551890494889, 51.497796357757196],
        [-0.358027721245785, 51.49778503569588],
        [-0.361734679627138, 51.49617509849736],
        [-0.361918147500292, 51.49608054435001],
        [-0.362912512989443, 51.49595055162455],
        [-0.362998143204613, 51.495932863040466],
        [-0.363554263047487, 51.49548921082439],
        [-0.363626675715469, 51.49547853119414],
        [-0.363698351883465, 51.495005637440336],
        [-0.36373236386987, 51.49469947479232],
        [-0.36498093577344, 51.493704355545674],
        [-0.365381977347303, 51.49332597488108],
        [-0.365800816485769, 51.49365823195969],
        [-0.366964409319224, 51.49282197045887],
        [-0.366974589699635, 51.49277894920984],
        [-0.368274847101048, 51.492309664714384],
        [-0.368377585491842, 51.49229670640709],
        [-0.367931402057722, 51.49180221671223],
        [-0.367921644611839, 51.491793088634346],
        [-0.371169085898806, 51.49068542382583],
        [-0.371872484485824, 51.490470383632235],
        [-0.371808171359562, 51.490658328882475],
        [-0.371724342822426, 51.49078755326266],
        [-0.371857244302939, 51.4908982050714],
        [-0.371947946412778, 51.490980394828476],
        [-0.372313163293502, 51.490958487279244],
        [-0.372420280283551, 51.49098425306018],
        [-0.373796952841448, 51.49192685808266],
        [-0.373806807441331, 51.49193328932638],
        [-0.37567155298155, 51.494870831912735],
        [-0.375839953646635, 51.495401910138256],
        [-0.377220639767255, 51.4953041223313],
        [-0.377885434729913, 51.49544730373408],
        [-0.377688173973234, 51.49645890414907],
        [-0.377651541599984, 51.49651684722999],
        [-0.377853039936975, 51.49656279721955],
        [-0.377893330241749, 51.496604718929966],
        [-0.382413660780104, 51.49506922334274],
        [-0.382641949547913, 51.49500942578794],
        [-0.383720175963396, 51.49478689374485],
        [-0.383932982227943, 51.494757454049875],
        [-0.385987071120459, 51.494640064899656],
        [-0.387104712149817, 51.49468781232863],
        [-0.390721461967613, 51.49548025556689],
        [-0.392289892759136, 51.49585965782725],
        [-0.406640888027262, 51.49962991641999],
        [-0.406905196963529, 51.49969375475307],
        [-0.405141901547105, 51.50158783677933],
        [-0.404272955739, 51.502540885670214],
        [-0.403276028264361, 51.50340316280725],
        [-0.40320987008443, 51.5034409288027],
        [-0.400489884400792, 51.50421316997976],
        [-0.399869903367209, 51.50443041905406],
        [-0.395002937047098, 51.50634851106543],
        [-0.394359970603233, 51.506603184112485],
        [-0.393415771963588, 51.50710551097487],
        [-0.393297262262932, 51.5071974070554],
        [-0.392946833360808, 51.507655707040065],
        [-0.392861275489183, 51.50779391459537],
        [-0.390170908863383, 51.51372337512197],
        [-0.390017847437432, 51.51393618895292],
        [-0.389383627915793, 51.51451107884331],
        [-0.38902261939075, 51.51473542357725],
        [-0.384844749078708, 51.516441350979775],
        [-0.384650875013707, 51.516543890595],
        [-0.382866017350341, 51.51794366951801],
        [-0.382618519500222, 51.51793216431975],
        [-0.381901207343106, 51.51852924826119],
        [-0.381776404235845, 51.518634534347],
        [-0.380209091279103, 51.520357397727274],
        [-0.379929829127283, 51.52063140153886],
        [-0.377154550895086, 51.524013689073136],
        [-0.37698362464577, 51.52423972724211],
        [-0.376374480919456, 51.52470878590256],
        [-0.37618119835821, 51.524914730569],
        [-0.375969768402445, 51.525306563000704],
        [-0.375929148487612, 51.52555688407188],
        [-0.37615064611738, 51.5266650960227],
        [-0.376238168697208, 51.52691988848736],
        [-0.376204100333609, 51.5288095843228],
        [-0.376205317450787, 51.52881589573143],
        [-0.381627167569251, 51.52951307749534],
        [-0.382474577283705, 51.52964346173865],
        [-0.385683250875769, 51.53030991962257],
        [-0.385868387499832, 51.53037451331554],
        [-0.386637564786065, 51.53039408584505],
        [-0.386878042611055, 51.52991271205681],
        [-0.387115541406323, 51.52955628866412],
        [-0.389273705132773, 51.530619145150155],
        [-0.389278889205017, 51.53079906064426],
        [-0.390569117776942, 51.53100650346314],
        [-0.392345827739599, 51.53140134288907],
        [-0.405061496376544, 51.53318720058788],
        [-0.405249684224686, 51.53320684395182],
        [-0.410965087668134, 51.53419620223101],
        [-0.41108445508353, 51.534287740794234],
        [-0.411832647313571, 51.53408385717232]
      ]
    ]
  }
}
