{
  "type": "Feature",
  "properties": {
    "name": "Enfield",
    "level": 2,
    "londonBorough": true,
    "center": [-0.0799, 51.6538]
  },
  "geometry": {
    "type": "Polygon",
    "coordinates": [
      [
        [-0.105804689707355, 51.6918727388232],
        [-0.104190269442272, 51.69179633633943],
        [-0.103841111997947, 51.69177271581991],
        [-0.100299130425645, 51.691185837348556],
        [-0.099561436932597, 51.69111185721727],
        [-0.09532067857007, 51.69018170335668],
        [-0.094802778245027, 51.69011125707358],
        [-0.091141422343243, 51.68992591953197],
        [-0.090176211605986, 51.68989584179947],
        [-0.086631546871897, 51.69013490003047],
        [-0.086233758134993, 51.6901670864549],
        [-0.084846851559981, 51.69008423249842],
        [-0.083936155733798, 51.68996237130758],
        [-0.081657381636006, 51.689312798058836],
        [-0.081610087985551, 51.689302134067006],
        [-0.079294478626637, 51.688943264575144],
        [-0.079020919580925, 51.68891181386754],
        [-0.072016330542069, 51.686169481729316],
        [-0.071600678882383, 51.686009788151324],
        [-0.068557725718094, 51.684628919468274],
        [-0.06798728027255, 51.68440192229751],
        [-0.067210583497375, 51.68412656659997],
        [-0.066367704094616, 51.68384292223517],
        [-0.063275920863735, 51.68320657742459],
        [-0.062043313685137, 51.68300549893822],
        [-0.060463367040744, 51.68287600641258],
        [-0.059767480188512, 51.68284383015024],
        [-0.059321818751512, 51.68284635869372],
        [-0.059070175450083, 51.6830139546511],
        [-0.057056399840571, 51.68298245684651],
        [-0.056626600094665, 51.68298613679936],
        [-0.055140998742707, 51.68325469730326],
        [-0.05482372388848, 51.68333307216635],
        [-0.05218742601955, 51.6834809183135],
        [-0.05172084421949, 51.683532529167735],
        [-0.049830271518876, 51.68410094443841],
        [-0.049206754017763, 51.68426953810436],
        [-0.049093395858854, 51.68407971446609],
        [-0.04860638639508, 51.684000584149096],
        [-0.048345706143875, 51.68407448645456],
        [-0.047287999885917, 51.68347419942287],
        [-0.047240720737016, 51.683463521727184],
        [-0.044693168991276, 51.683431029024945],
        [-0.044269263732592, 51.68343206417573],
        [-0.043684047964062, 51.683349479504734],
        [-0.043655562405403, 51.683339113397224],
        [-0.043663348377511, 51.68315849607711],
        [-0.043697940009, 51.68309432706433],
        [-0.037126961596358, 51.68280394526676],
        [-0.03710387150304, 51.68280266012685],
        [-0.037036196153187, 51.68259470391226],
        [-0.036920746247762, 51.682588278083735],
        [-0.030699099657861, 51.682417577631554],
        [-0.030660432251628, 51.682541923708165],
        [-0.020960574484607, 51.681290794241164],
        [-0.019797944984836, 51.68114890043999],
        [-0.011239385303733, 51.68086849985155],
        [-0.011091907410297, 51.68086690166998],
        [-0.011154868229097, 51.68068452226319],
        [-0.01114718887567, 51.68006751131219],
        [-0.01035478039634, 51.67666214244482],
        [-0.010350298777915, 51.67663239146933],
        [-0.011121091815952, 51.67333443100095],
        [-0.011377022301106, 51.67191616055637],
        [-0.011411503746754, 51.67076571149543],
        [-0.011397034970444, 51.67069982163212],
        [-0.010584765279164, 51.66916993736618],
        [-0.01058485564634, 51.66913486834611],
        [-0.011213707236521, 51.66775348881582],
        [-0.011244845670022, 51.667603842245185],
        [-0.01151805909815, 51.66384153058867],
        [-0.011514403998188, 51.66379290943725],
        [-0.011065348304858, 51.66295260296484],
        [-0.010801111392962, 51.662646879799425],
        [-0.009290143174839, 51.66125981587296],
        [-0.009250329996068, 51.66121148086788],
        [-0.00894937089911, 51.66049057821901],
        [-0.008948490197189, 51.66044470172553],
        [-0.011818403004082, 51.65298372204243],
        [-0.011820122859733, 51.65297745643553],
        [-0.011625933409218, 51.65034566875127],
        [-0.011660396376525, 51.64975634610034],
        [-0.013168074251745, 51.640566376344616],
        [-0.013277561224663, 51.63984703184119],
        [-0.014589525746413, 51.63700871594397],
        [-0.014791996082321, 51.63674056667522],
        [-0.014848157938555, 51.63624872799473],
        [-0.014997868088957, 51.63593112678847],
        [-0.022428474912386, 51.62646694085934],
        [-0.02294814409306, 51.62581294735093],
        [-0.024050799989725, 51.62464270520461],
        [-0.024282304992313, 51.62436873372631],
        [-0.02534208548533, 51.62235426209957],
        [-0.025574662991772, 51.622055127155114],
        [-0.028671300510712, 51.61950564280899],
        [-0.029463348062996, 51.61882921726476],
        [-0.032093179432677, 51.61690937451162],
        [-0.032310721417699, 51.616722380513025],
        [-0.035018934581557, 51.613650949335415],
        [-0.035074000298198, 51.6135799311893],
        [-0.035537791524913, 51.61260661296966],
        [-0.035552449804456, 51.612568190562826],
        [-0.035603368806303, 51.612124813470736],
        [-0.035596415991845, 51.61208513013119],
        [-0.034137594021809, 51.61021364753175],
        [-0.034114961109089, 51.61016920521646],
        [-0.033995265032282, 51.609663620398386],
        [-0.033998727162968, 51.609616917383725],
        [-0.034202508081271, 51.60911225415621],
        [-0.034230155209111, 51.60907404943006],
        [-0.035343915219949, 51.60819884252071],
        [-0.035413219258305, 51.60816583103041],
        [-0.040631567538145, 51.606145217228466],
        [-0.040694782648272, 51.606119295002564],
        [-0.041414732119151, 51.60566549956932],
        [-0.041447834131778, 51.60563457819535],
        [-0.049943642626965, 51.60728857288698],
        [-0.050231063555503, 51.60735539587436],
        [-0.05260613001203, 51.608079153005406],
        [-0.052915725725444, 51.608100475607884],
        [-0.052968676594984, 51.60844936292571],
        [-0.05290996902484, 51.608505041688794],
        [-0.053979637720241, 51.60878715984834],
        [-0.054379338423024, 51.608863028011896],
        [-0.062980469872964, 51.60861051486656],
        [-0.065045285299659, 51.60858701975089],
        [-0.06547680138949, 51.6086283038635],
        [-0.06630414496734, 51.608667115552755],
        [-0.067072006900001, 51.6089162647344],
        [-0.067140366243615, 51.60893897234125],
        [-0.067476810987696, 51.60866844356805],
        [-0.067508225521608, 51.60864288264312],
        [-0.067819657884521, 51.60865520361872],
        [-0.067994713760237, 51.608818150940166],
        [-0.06835729624101, 51.608680239060305],
        [-0.070876262532012, 51.60877741922855],
        [-0.070869880052842, 51.60879170226198],
        [-0.076143905003962, 51.60842414509258],
        [-0.076673076781615, 51.608410336101464],
        [-0.084842079720377, 51.60846837127025],
        [-0.085851584379052, 51.60846865182251],
        [-0.08971617432379, 51.6088166704987],
        [-0.090876647619441, 51.608902094998925],
        [-0.090908857450107, 51.60878841497924],
        [-0.091443125340257, 51.60879080862445],
        [-0.092085721269024, 51.60893074640889],
        [-0.09210140873798, 51.608935497613636],
        [-0.092091879525596, 51.60905943827523],
        [-0.092471582704407, 51.60909708298133],
        [-0.092472825804951, 51.609067428161566],
        [-0.092486422258418, 51.60884643531742],
        [-0.092964993333364, 51.60890277071159],
        [-0.093580462248776, 51.60900089435986],
        [-0.094024043696309, 51.608823753207304],
        [-0.095157534179591, 51.60865690917874],
        [-0.095592960561016, 51.60926107173267],
        [-0.095812389970516, 51.60929790362239],
        [-0.09707065330094, 51.60904853636117],
        [-0.097263410427613, 51.608894293713085],
        [-0.097681017483256, 51.60892354353999],
        [-0.097485538984329, 51.60852111163926],
        [-0.10220396559584, 51.60841404943427],
        [-0.102538586667172, 51.60804357601421],
        [-0.10301872256251, 51.60823568120469],
        [-0.103514775776272, 51.608427142335195],
        [-0.103947527099513, 51.60843952894768],
        [-0.104155243340598, 51.60844558179214],
        [-0.109287706639178, 51.60827927678531],
        [-0.109889593082237, 51.60825300065515],
        [-0.110480482072688, 51.608352438154995],
        [-0.110534878071847, 51.60836410468021],
        [-0.110467656797671, 51.60852218825234],
        [-0.110454842029839, 51.60855255615795],
        [-0.110813493971029, 51.60861048509269],
        [-0.110823522211567, 51.608612444976046],
        [-0.110836411365222, 51.60858027974708],
        [-0.110876820418721, 51.608476618153155],
        [-0.113837799673686, 51.60839924094534],
        [-0.113838367748146, 51.60835069107921],
        [-0.117289459406793, 51.60843487148663],
        [-0.117517243587815, 51.608200226161934],
        [-0.118140657493247, 51.60842154401755],
        [-0.118736246688537, 51.60865230420865],
        [-0.119203097195869, 51.608363935616794],
        [-0.123492396749219, 51.60871494679194],
        [-0.123543282061947, 51.60870676787007],
        [-0.12501647538845, 51.60986155225718],
        [-0.124897529216758, 51.60994418069268],
        [-0.125355208415998, 51.61001803467109],
        [-0.125994711394382, 51.609639774891825],
        [-0.125888609763559, 51.60958592505014],
        [-0.126336477506218, 51.60930172143606],
        [-0.126467929468601, 51.60937126256242],
        [-0.127403485378231, 51.60937899746899],
        [-0.127902204297831, 51.60943820917223],
        [-0.128692400877478, 51.609538934683314],
        [-0.133283244919289, 51.61078194157059],
        [-0.134966528329817, 51.61118817685129],
        [-0.135283185165257, 51.611214789315206],
        [-0.13596671310957, 51.610888431545085],
        [-0.136199630248634, 51.61080850092464],
        [-0.137729112391793, 51.61042092525465],
        [-0.138785572324254, 51.610192189402895],
        [-0.140845301306799, 51.61184885263316],
        [-0.141417160350755, 51.61234619411326],
        [-0.143836657498005, 51.614783640512385],
        [-0.144536065494914, 51.615484411808815],
        [-0.142711060942432, 51.61596092182624],
        [-0.142057328121885, 51.616158300361874],
        [-0.14202559487035, 51.61622793853319],
        [-0.142120917102075, 51.61636972806919],
        [-0.141317694056687, 51.61739742923625],
        [-0.141291389104263, 51.61754628593876],
        [-0.140776262002546, 51.61767391311595],
        [-0.140639548433553, 51.617731996585164],
        [-0.139751940195458, 51.6184903781565],
        [-0.139832498408463, 51.61853391881065],
        [-0.13617016098005, 51.621223894810086],
        [-0.135461999377586, 51.62168924452843],
        [-0.135468709193782, 51.62173701062114],
        [-0.135571826012173, 51.62239329231269],
        [-0.135350399909291, 51.62229715412939],
        [-0.135069993506892, 51.62233586323985],
        [-0.134279914258881, 51.62384661545159],
        [-0.134221997337776, 51.623955401790305],
        [-0.134366097964903, 51.624281416890454],
        [-0.134349939840979, 51.62439356461114],
        [-0.13418070917874, 51.624539249027954],
        [-0.134123848373553, 51.62455183384408],
        [-0.133539914841755, 51.62635361268059],
        [-0.133536732094627, 51.626360755966104],
        [-0.132855674576707, 51.62683191654626],
        [-0.132700605467317, 51.626949048537554],
        [-0.131511865628525, 51.62831226039083],
        [-0.131305667617327, 51.62851310496987],
        [-0.131395415568678, 51.62854420826797],
        [-0.131108249161627, 51.628781531638644],
        [-0.131140409677718, 51.629018542607746],
        [-0.130850394617428, 51.629325061162284],
        [-0.130553719128747, 51.629301453423366],
        [-0.130466793363358, 51.629377403492285],
        [-0.130656919559834, 51.62946226143891],
        [-0.13114717627327, 51.62966250309654],
        [-0.13020560939522, 51.631020643822296],
        [-0.129803509417846, 51.630960284984226],
        [-0.129315863280227, 51.63182027824366],
        [-0.129147234627761, 51.63226630976593],
        [-0.130834437409363, 51.632490116197374],
        [-0.131356817685536, 51.63257756447726],
        [-0.132985698445332, 51.63313133002262],
        [-0.13329522779104, 51.633264842478894],
        [-0.133638578997725, 51.63348971449121],
        [-0.133871840369738, 51.63365078846548],
        [-0.133687942266161, 51.63376566505725],
        [-0.134003240127618, 51.63404044714804],
        [-0.134004647335945, 51.63404136874842],
        [-0.134278995260066, 51.633870378041294],
        [-0.134436676751225, 51.63397179951754],
        [-0.134255888184548, 51.63408133099513],
        [-0.134532256457301, 51.63424848404234],
        [-0.134265164546107, 51.63441869141301],
        [-0.134334425488805, 51.634526800964416],
        [-0.134534148156367, 51.63469543370237],
        [-0.137684689600235, 51.636133867880766],
        [-0.138129654373096, 51.63634864809932],
        [-0.13988740838416, 51.63732520117247],
        [-0.140437864681474, 51.637681924148794],
        [-0.14176530804759, 51.63879371101422],
        [-0.142054203495851, 51.63904467283532],
        [-0.142319259376619, 51.639313241388955],
        [-0.142143743831979, 51.63936441822527],
        [-0.143944239860221, 51.64099802503529],
        [-0.145102536006854, 51.64264663790643],
        [-0.147920785388459, 51.64208144715446],
        [-0.148157771329209, 51.64240171476259],
        [-0.148505345674318, 51.642952130647174],
        [-0.148881510140323, 51.64386538651097],
        [-0.149047991221685, 51.644178245954635],
        [-0.149158025935297, 51.64523837596408],
        [-0.149174444505816, 51.645261115553836],
        [-0.151330165589324, 51.64528068831006],
        [-0.151751804190564, 51.645361962203104],
        [-0.151599812383733, 51.64565181973221],
        [-0.152168136267356, 51.645822626550036],
        [-0.151273818006337, 51.646985642438864],
        [-0.151068296311576, 51.64720541565329],
        [-0.151386367263302, 51.64731023833239],
        [-0.152383340550364, 51.64763976167689],
        [-0.15227393333469, 51.647984243905924],
        [-0.1517285932217, 51.648171693436666],
        [-0.149919598848194, 51.648792449391834],
        [-0.15101943884562, 51.650075890046736],
        [-0.151818434672734, 51.64990772336798],
        [-0.152270522141307, 51.64984559746751],
        [-0.152512396462524, 51.651362807889384],
        [-0.152564536131524, 51.651467039690885],
        [-0.153448697766626, 51.652618472902866],
        [-0.15350193661576, 51.652695744635274],
        [-0.15405094905391, 51.65256139900931],
        [-0.154230743883915, 51.652975173315134],
        [-0.153801610851372, 51.65325438218349],
        [-0.153490249949547, 51.65330344023722],
        [-0.153697739720304, 51.654458616071],
        [-0.15378191438413, 51.65466406464252],
        [-0.154401922211252, 51.65495347133651],
        [-0.154722740682425, 51.65502775386688],
        [-0.154713353975554, 51.65518766919659],
        [-0.154787615676634, 51.655530543304415],
        [-0.157851257265978, 51.65620360835457],
        [-0.157979552626974, 51.656319822976364],
        [-0.158300254413333, 51.65625471332199],
        [-0.160515276355349, 51.65675073617315],
        [-0.161401521146653, 51.65721512896308],
        [-0.162779439465831, 51.657963271328164],
        [-0.163286237986644, 51.65808719961243],
        [-0.163504252697715, 51.65816614449871],
        [-0.165041673375437, 51.65822434879876],
        [-0.183913485667312, 51.662423055091686],
        [-0.185891041472782, 51.66283309320233],
        [-0.183200240378182, 51.66691534075404],
        [-0.182110401323698, 51.668600707859],
        [-0.176736518335557, 51.67209631662171],
        [-0.177031399938901, 51.67267639775583],
        [-0.176410908424399, 51.672641586670764],
        [-0.175465719588072, 51.67258913937549],
        [-0.175682862981426, 51.67315992321216],
        [-0.175354625679362, 51.67344617290076],
        [-0.174983666908341, 51.6732120060603],
        [-0.172498179522639, 51.6730879308795],
        [-0.164692296622927, 51.68132540605493],
        [-0.163631923060742, 51.68239959157177],
        [-0.16352159116059, 51.687485677384856],
        [-0.163517965466935, 51.68811148050858],
        [-0.159253383307159, 51.68749440116286],
        [-0.158016724442135, 51.687237619221975],
        [-0.156906131436534, 51.68676249231585],
        [-0.156229555274953, 51.68653695914812],
        [-0.153991539818736, 51.68600273711076],
        [-0.153282929793057, 51.68585401669779],
        [-0.149839945393524, 51.685531864725576],
        [-0.149395060189226, 51.68551496463796],
        [-0.145044550517032, 51.68626733255482],
        [-0.144683136086474, 51.68633176397298],
        [-0.140346992714042, 51.68771814031988],
        [-0.139611095800626, 51.68791780523549],
        [-0.13617739925342, 51.688600735912104],
        [-0.135404162647842, 51.68872244859213],
        [-0.131266588507387, 51.688893190882375],
        [-0.130274748944657, 51.68891247674372],
        [-0.122208321296277, 51.68854280397787],
        [-0.122121460844151, 51.688544113003545],
        [-0.118442308459616, 51.68903286489151],
        [-0.118272759489202, 51.68893483050311],
        [-0.117995965722012, 51.68898075266622],
        [-0.118013806306833, 51.68910872904389],
        [-0.117819743187605, 51.68921802312883],
        [-0.113404860496866, 51.690592256926706],
        [-0.112922305351034, 51.69081920419544],
        [-0.109646171253135, 51.69149040501104],
        [-0.109774597998416, 51.69167231771595],
        [-0.105804689707355, 51.6918727388232]
      ]
    ]
  }
}
