{
  "type": "Feature",
  "properties": {
    "name": "Enfield",
    "level": 2,
    "londonBorough": true,
    "center": [-0.0799, 51.6538]
  },
  "geometry": {
    "type": "Polygon",
    "coordinates": [
      [
        [-0.105804689707355, 51.6918727388232],
        [-0.105567448385153, 51.691871610470564],
        [-0.104873938767372, 51.69184783411449],
        [-0.104190269442272, 51.69179633633943],
        [-0.103841111997947, 51.69177271581991],
        [-0.103365936895586, 51.69168321415886],
        [-0.102838392845288, 51.691565887819884],
        [-0.102332783086578, 51.69147768883945],
        [-0.101706773466244, 51.691362363465636],
        [-0.101015606170552, 51.69128284980104],
        [-0.100299130425645, 51.691185837348556],
        [-0.099561436932597, 51.69111185721727],
        [-0.09937590427806, 51.691016234450224],
        [-0.098745059069979, 51.69094757496105],
        [-0.098462496788051, 51.69092321784452],
        [-0.098208484149367, 51.69083907381061],
        [-0.09725458104906, 51.69060780970238],
        [-0.096887997652207, 51.69055151380212],
        [-0.096674323234614, 51.690471616907146],
        [-0.096560641787526, 51.69049135628918],
        [-0.095881679874274, 51.69032838150944],
        [-0.09532067857007, 51.69018170335668],
        [-0.094802778245027, 51.69011125707358],
        [-0.094315102858495, 51.69007906661244],
        [-0.093087272208793, 51.69003216246867],
        [-0.092056833808837, 51.689970467354776],
        [-0.091483092540697, 51.6899206808754],
        [-0.091141422343243, 51.68992591953197],
        [-0.090176211605986, 51.68989584179947],
        [-0.089521447512796, 51.689914868404955],
        [-0.089025875801282, 51.68993288451179],
        [-0.088513036739468, 51.68998298989289],
        [-0.087876240386606, 51.69005625368688],
        [-0.087126515316175, 51.69013127191033],
        [-0.086631546871897, 51.69013490003047],
        [-0.086233758134993, 51.6901670864549],
        [-0.085850725281418, 51.690158147297794],
        [-0.085399965874492, 51.69014270754846],
        [-0.084846851559981, 51.69008423249842],
        [-0.083936155733798, 51.68996237130758],
        [-0.083384025830796, 51.68981218362116],
        [-0.082681268826379, 51.68966582927228],
        [-0.082107988968433, 51.68946853015339],
        [-0.082078006785615, 51.68945904825365],
        [-0.082038283794126, 51.6894404149552],
        [-0.081998522849782, 51.689422680256655],
        [-0.081957278141734, 51.689405820548224],
        [-0.081914549669316, 51.689389835828386],
        [-0.081871821227271, 51.68937385109326],
        [-0.081829016837789, 51.68935966356878],
        [-0.081793327539099, 51.68934828992644],
        [-0.081749001411811, 51.689335875987375],
        [-0.081703229503409, 51.689323438419045],
        [-0.081657381636006, 51.689312798058836],
        [-0.081610087985551, 51.689302134067006],
        [-0.081564202168295, 51.68929239228367],
        [-0.081503972314288, 51.689279718492735],
        [-0.08140071035961, 51.689258248669326],
        [-0.081295926703596, 51.68923855236368],
        [-0.081262901242265, 51.68923261747393],
        [-0.081169494113412, 51.6892176030648],
        [-0.081074603243247, 51.689203463574074],
        [-0.080979636423157, 51.68919112123231],
        [-0.080963808625022, 51.68918906416795],
        [-0.080884593641962, 51.689180576039256],
        [-0.080788067097596, 51.68917090575813],
        [-0.080691464574106, 51.689163032622865],
        [-0.080596231859562, 51.68915698025952],
        [-0.080531246913375, 51.689154119830434],
        [-0.079880521797833, 51.68907783986145],
        [-0.079851643898738, 51.68907646854297],
        [-0.079824211797798, 51.68907512085326],
        [-0.079799709319675, 51.68907292181755],
        [-0.079770907485206, 51.68906975325541],
        [-0.079743551450824, 51.68906660832309],
        [-0.079716233450734, 51.68906256477254],
        [-0.079704743146064, 51.68906057845088],
        [-0.07968754572189, 51.68905670035441],
        [-0.079670348300717, 51.68905282225547],
        [-0.079654634709324, 51.689048069180096],
        [-0.079637475326212, 51.68904329246452],
        [-0.079616092658977, 51.689035748995856],
        [-0.079586111297478, 51.68902626646748],
        [-0.079556167982105, 51.689015885319755],
        [-0.079527708508322, 51.68900462919218],
        [-0.079507809705764, 51.688996210731766],
        [-0.079294478626637, 51.688943264575144],
        [-0.079020919580925, 51.68891181386754],
        [-0.078196215400149, 51.68857100193107],
        [-0.07786958659046, 51.68842627594089],
        [-0.077484711331877, 51.68825631634258],
        [-0.076849383821107, 51.687987835373086],
        [-0.076428562785337, 51.68781278751949],
        [-0.075969393540898, 51.687655094642],
        [-0.0755219483897, 51.68745982419941],
        [-0.075077929443398, 51.68728618979965],
        [-0.07427446811426, 51.68702572988196],
        [-0.073988107195783, 51.68695539036025],
        [-0.073047213752818, 51.68659285319555],
        [-0.072458346560498, 51.68635568429736],
        [-0.072016330542069, 51.686169481729316],
        [-0.071600678882383, 51.686009788151324],
        [-0.070783095220583, 51.685606093758],
        [-0.070072530470327, 51.685271594748],
        [-0.069492224209664, 51.6850039773851],
        [-0.068983282228215, 51.68479328302233],
        [-0.068557725718094, 51.684628919468274],
        [-0.06798728027255, 51.68440192229751],
        [-0.067912910545155, 51.684381814979766],
        [-0.06756453742141, 51.68427357080264],
        [-0.067210583497375, 51.68412656659997],
        [-0.066367704094616, 51.68384292223517],
        [-0.065891023880489, 51.683724467470384],
        [-0.065507544754779, 51.68362553060176],
        [-0.065080622494852, 51.68352767525018],
        [-0.064541404920372, 51.683417177038265],
        [-0.064130799042637, 51.68334386646143],
        [-0.063808851929128, 51.68332866792642],
        [-0.06377001243223, 51.683323531459486],
        [-0.063590949833053, 51.68331608319058],
        [-0.063492085411869, 51.683293770723445],
        [-0.063275920863735, 51.68320657742459],
        [-0.062043313685137, 51.68300549893822],
        [-0.061539085270193, 51.682956712265025],
        [-0.061130496870878, 51.68290410687475],
        [-0.060996211159098, 51.68289829304495],
        [-0.06064817119566, 51.682884453510134],
        [-0.060463367040744, 51.68287600641258],
        [-0.059767480188512, 51.68284383015024],
        [-0.059321818751512, 51.68284635869372],
        [-0.059070175450083, 51.6830139546511],
        [-0.058845279099538, 51.68299585007988],
        [-0.05879638981619, 51.68292130461073],
        [-0.057864435399361, 51.68292927771566],
        [-0.057295190287218, 51.68298011221455],
        [-0.057056399840571, 51.68298245684651],
        [-0.056626600094665, 51.68298613679936],
        [-0.055926155560987, 51.68309414337402],
        [-0.055465923984143, 51.68316655663968],
        [-0.055140998742707, 51.68325469730326],
        [-0.05482372388848, 51.68333307216635],
        [-0.054415720305803, 51.6833344073144],
        [-0.054161450307528, 51.68332659803169],
        [-0.053465678170225, 51.68335913143521],
        [-0.052871713463585, 51.683378960769886],
        [-0.05218742601955, 51.6834809183135],
        [-0.05172084421949, 51.683532529167735],
        [-0.051490395298432, 51.68357636580766],
        [-0.051143832092092, 51.683696509050506],
        [-0.051113050001437, 51.68370588989203],
        [-0.050661860949886, 51.6838368849106],
        [-0.050490293324734, 51.68389068923048],
        [-0.050221963944981, 51.68397436033319],
        [-0.049830271518876, 51.68410094443841],
        [-0.049206754017763, 51.68426953810436],
        [-0.049093395858854, 51.68407971446609],
        [-0.048955930727313, 51.684046856919494],
        [-0.048781266335289, 51.684004388835824],
        [-0.048607832003026, 51.68400060816744],
        [-0.04860638639508, 51.684000584149096],
        [-0.048345706143875, 51.68407448645456],
        [-0.048103847929388, 51.68387892952794],
        [-0.047894119590713, 51.683709984023494],
        [-0.047857423076743, 51.68368869161126],
        [-0.047820687942869, 51.68366829778361],
        [-0.047781061650074, 51.683647855888026],
        [-0.047741396737194, 51.68362831257513],
        [-0.047701693201956, 51.68360966784486],
        [-0.047660505447965, 51.68359189766734],
        [-0.04761783347465, 51.68357500204098],
        [-0.047603570832113, 51.68357026875783],
        [-0.04756089890068, 51.68355337311115],
        [-0.0475167040886, 51.68353825060897],
        [-0.047472470645213, 51.683524026686044],
        [-0.04742675297662, 51.68351067730962],
        [-0.047381035335302, 51.68349732791567],
        [-0.047335240393773, 51.683485775695296],
        [-0.047287999885917, 51.68347419942287],
        [-0.047240720737016, 51.683463521727184],
        [-0.047234977044065, 51.683462526991626],
        [-0.047186213664407, 51.68345272383469],
        [-0.047135927382127, 51.68344469381238],
        [-0.047085641118188, 51.683436663768724],
        [-0.047035277533381, 51.683430430894504],
        [-0.04698491396297, 51.68342419799885],
        [-0.04693306614739, 51.68341883963835],
        [-0.046882625259816, 51.68341440388979],
        [-0.046845155997897, 51.683411083074176],
        [-0.046771663078839, 51.68340446544797],
        [-0.046698092829956, 51.68339964496647],
        [-0.046622999655553, 51.68339659758688],
        [-0.04654786781332, 51.68339444875453],
        [-0.046474142885569, 51.6833932225137],
        [-0.046398895012087, 51.683393769371484],
        [-0.046325054041147, 51.68339523882228],
        [-0.046249728794878, 51.68339758277446],
        [-0.046175771755692, 51.68340174791622],
        [-0.046101776016121, 51.68340681160618],
        [-0.046091618219763, 51.683407541857804],
        [-0.045864080710872, 51.683417244851356],
        [-0.045239523397729, 51.68344192201207],
        [-0.044693168991276, 51.683431029024945],
        [-0.044269263732592, 51.68343206417573],
        [-0.044152984524562, 51.68341124385177],
        [-0.043684047964062, 51.683349479504734],
        [-0.043655562405403, 51.683339113397224],
        [-0.043745281450029, 51.683170651669904],
        [-0.043663348377511, 51.68315849607711],
        [-0.043697940009, 51.68309432706433],
        [-0.042524626236219, 51.683029815752],
        [-0.042513832588352, 51.68311236584767],
        [-0.042471988450336, 51.683109869956255],
        [-0.04149109245615, 51.683044958240046],
        [-0.041090076998993, 51.68301848716758],
        [-0.039653589373962, 51.682918083991375],
        [-0.037167398411156, 51.68280552030802],
        [-0.037126961596358, 51.68280394526676],
        [-0.03710387150304, 51.68280266012685],
        [-0.037108037628936, 51.6827397829733],
        [-0.037109708828871, 51.68270114359491],
        [-0.03710998088432, 51.68269485346351],
        [-0.037109390359275, 51.68267506031968],
        [-0.037032775904074, 51.682673779847086],
        [-0.037036196153187, 51.68259470391226],
        [-0.036920746247762, 51.682588278083735],
        [-0.034521898253898, 51.682463629462866],
        [-0.034267871251519, 51.682450385656615],
        [-0.034264134828554, 51.682536650171784],
        [-0.033418367385026, 51.682491917227516],
        [-0.033119606569426, 51.68247612340713],
        [-0.032994038804403, 51.68246952426745],
        [-0.032960601030141, 51.68250673233993],
        [-0.030699099657861, 51.682417577631554],
        [-0.030660432251628, 51.682541923708165],
        [-0.029438589685584, 51.682429707117116],
        [-0.028402837384858, 51.682329594242944],
        [-0.027713471210532, 51.6822478789487],
        [-0.027587239968134, 51.682190006136935],
        [-0.027128771539037, 51.68212115728838],
        [-0.026628501358139, 51.68208217848073],
        [-0.025977038726295, 51.681993895871216],
        [-0.025227284442125, 51.6818706850406],
        [-0.024717683946093, 51.68178028441626],
        [-0.024485622427123, 51.68172782219781],
        [-0.024179059824895, 51.68165881908759],
        [-0.02339939107036, 51.68152520158897],
        [-0.023196819115297, 51.68159283224229],
        [-0.022916354047239, 51.68155573853335],
        [-0.022150124491443, 51.681478991166145],
        [-0.020960574484607, 51.681290794241164],
        [-0.019797944984836, 51.68114890043999],
        [-0.019655154937419, 51.681139298887004],
        [-0.018215733381999, 51.681042180130916],
        [-0.017797680230424, 51.68100904707717],
        [-0.01750991081141, 51.6810068875686],
        [-0.016021760839759, 51.680998843555486],
        [-0.015069030072558, 51.68098634234211],
        [-0.014034929896638, 51.68094907716805],
        [-0.012203872284375, 51.68087673493814],
        [-0.011945013877609, 51.68087505110454],
        [-0.011239385303733, 51.68086849985155],
        [-0.011091907410297, 51.68086690166998],
        [-0.011138287208848, 51.68073280060922],
        [-0.011154868229097, 51.68068452226319],
        [-0.01114718887567, 51.68006751131219],
        [-0.011011517364314, 51.679598506382696],
        [-0.010989004149991, 51.67951809243732],
        [-0.010803332479257, 51.67893583495258],
        [-0.010692605548276, 51.67842588682399],
        [-0.010596638033289, 51.6779422666214],
        [-0.010460064656843, 51.67729609452285],
        [-0.010384521526859, 51.67684159584179],
        [-0.01035478039634, 51.67666214244482],
        [-0.010350298777915, 51.67663239146933],
        [-0.010376280239603, 51.67640262519436],
        [-0.010476315610756, 51.67619929229207],
        [-0.010550621760811, 51.6759559567146],
        [-0.010572718894218, 51.67588079454745],
        [-0.010680430939138, 51.67550223892868],
        [-0.010760488185905, 51.67522662783981],
        [-0.010828537436726, 51.67499397701651],
        [-0.010863529826841, 51.674789542059465],
        [-0.010914729989963, 51.67447927079735],
        [-0.011121091815952, 51.67333443100095],
        [-0.011377022301106, 51.67191616055637],
        [-0.011438256165978, 51.67124456260055],
        [-0.011442574394519, 51.671178990873045],
        [-0.011444041633934, 51.67111247162383],
        [-0.011442618539839, 51.67104590343119],
        [-0.011438305124953, 51.670979286295186],
        [-0.01143748967121, 51.67096488457416],
        [-0.011431731109736, 51.67089824296585],
        [-0.011428418910224, 51.67087480652063],
        [-0.011423082249634, 51.67083155241373],
        [-0.011411503746754, 51.67076571149543],
        [-0.011397034970444, 51.67069982163212],
        [-0.011376746275732, 51.670634732456996],
        [-0.011370268318696, 51.67061753711247],
        [-0.011353213120394, 51.67057768153688],
        [-0.011333267657144, 51.67053777701385],
        [-0.011311877082379, 51.670497848014826],
        [-0.011289002041047, 51.67045879311713],
        [-0.011266166397593, 51.67041883963704],
        [-0.011243291433783, 51.67037978473077],
        [-0.011229863374223, 51.67035617696407],
        [-0.01091598922585, 51.66979602703095],
        [-0.010661948662474, 51.669487779084236],
        [-0.010647509118247, 51.669454262416124],
        [-0.010634554075962, 51.66941987164914],
        [-0.010623044162341, 51.6693855053616],
        [-0.01061301874481, 51.66935026497602],
        [-0.010605844186203, 51.66931597212958],
        [-0.010604635303808, 51.6693105561811],
        [-0.010597500127936, 51.66927536475617],
        [-0.010591810067452, 51.66924019781194],
        [-0.010587565118983, 51.66920505534856],
        [-0.010584765279164, 51.66916993736618],
        [-0.01058485564634, 51.66913486834611],
        [-0.010587836213817, 51.669099848288305],
        [-0.01059226187544, 51.66906485271131],
        [-0.010592379987652, 51.66906215697751],
        [-0.01059926276182, 51.66903709471955],
        [-0.010606106157625, 51.66901293103894],
        [-0.010615839739973, 51.66898881631945],
        [-0.010627018407977, 51.668964726079636],
        [-0.010639642159367, 51.66894066031905],
        [-0.010652265897061, 51.66891659455689],
        [-0.010664889621059, 51.66889252879312],
        [-0.010692987844638, 51.668845344798534],
        [-0.010705572158164, 51.6688221776077],
        [-0.010711864310002, 51.668810594011724],
        [-0.01075579117985, 51.668732204562936],
        [-0.010804013788536, 51.6686547871085],
        [-0.010853681313871, 51.668577394109334],
        [-0.010906199466659, 51.6685009486188],
        [-0.010936951169808, 51.668459204980955],
        [-0.010961332060793, 51.668430842102374],
        [-0.010984307204262, 51.668401556163936],
        [-0.011004392162077, 51.66837222126891],
        [-0.011024477093506, 51.66834288637004],
        [-0.01104315628334, 51.6683126284137],
        [-0.011060390372803, 51.66828234597886],
        [-0.011065079840326, 51.66827433219929],
        [-0.011079463112368, 51.66824310223272],
        [-0.011092361931653, 51.66821274636765],
        [-0.011102409948865, 51.66818144297339],
        [-0.011112497310808, 51.66814924099961],
        [-0.011121100229107, 51.668117913128704],
        [-0.01113834538687, 51.66805435880575],
        [-0.01114690890931, 51.6680239295105],
        [-0.011181556453246, 51.66789322653613],
        [-0.01121190796851, 51.66776155154903],
        [-0.011213707236521, 51.66775348881582],
        [-0.011244845670022, 51.667603842245185],
        [-0.01126875864078, 51.667454073299346],
        [-0.01128837566259, 51.66730333234887],
        [-0.011302212383431, 51.66715249350316],
        [-0.011311713895215, 51.66700158123647],
        [-0.011315435211406, 51.66685057107881],
        [-0.011314759979466, 51.66676692984737],
        [-0.011406364130814, 51.66540162840631],
        [-0.011521073850758, 51.66393780090715],
        [-0.011520308613926, 51.66388922869248],
        [-0.01151805909815, 51.66384153058867],
        [-0.011514403998188, 51.66379290943725],
        [-0.011507859042587, 51.66374423934924],
        [-0.011498384895422, 51.66369641890355],
        [-0.011492419299399, 51.66366754202618],
        [-0.01148150025528, 51.66361969711061],
        [-0.011467691381815, 51.663571803256865],
        [-0.01145239826626, 51.663524783512],
        [-0.01143566025862, 51.663477739296226],
        [-0.011416032442458, 51.66343064613986],
        [-0.011393475479984, 51.66338440262083],
        [-0.011369473644302, 51.663338134627914],
        [-0.011346720034477, 51.66329638399641],
        [-0.011319631719717, 51.66325455994996],
        [-0.011289614277434, 51.66321358553558],
        [-0.011258112626642, 51.66317348522206],
        [-0.011225126769549, 51.663134259008224],
        [-0.011190696058683, 51.663095008313725],
        [-0.011156265406689, 51.663055757609506],
        [-0.011120389906034, 51.66301648242295],
        [-0.011085959373064, 51.66297723169889],
        [-0.011065348304858, 51.66295260296484],
        [-0.010801111392962, 51.662646879799425],
        [-0.010645277366803, 51.66247428242563],
        [-0.010210124790998, 51.66204336476719],
        [-0.009857789369113, 51.66176851935072],
        [-0.009724937327389, 51.66166555213314],
        [-0.009668954209011, 51.661623237931046],
        [-0.009615860915726, 51.6615809726844],
        [-0.009562846481837, 51.66153691025746],
        [-0.00951272186564, 51.66149289679117],
        [-0.009464081584565, 51.66144800921816],
        [-0.009418370491597, 51.661402272033335],
        [-0.009372698873929, 51.661355636252885],
        [-0.009329956437327, 51.66130815086505],
        [-0.009290143174839, 51.66125981587296],
        [-0.009250329996068, 51.66121148086788],
        [-0.009247637230412, 51.66120693898575],
        [-0.009210753222547, 51.66115775437944],
        [-0.009175353526131, 51.66110769567955],
        [-0.009141398750035, 51.66105766146572],
        [-0.009111817961817, 51.661006802154155],
        [-0.009082276627676, 51.66095504425706],
        [-0.009055625036482, 51.66090333534749],
        [-0.009031863178228, 51.66085167542728],
        [-0.009011030433295, 51.66079916591979],
        [-0.008993126792565, 51.660745806826405],
        [-0.008984234073529, 51.66071777941117],
        [-0.008973200129773, 51.66067263001024],
        [-0.008963611036412, 51.66062750510655],
        [-0.00895695100846, 51.66058153062047],
        [-0.00895169642829, 51.660536479210634],
        [-0.00894937089911, 51.66049057821901],
        [-0.008948490197189, 51.66044470172553],
        [-0.00894905431815, 51.6603988497302],
        [-0.008951063257618, 51.660353022232954],
        [-0.008954517011227, 51.660307219233644],
        [-0.008960860392634, 51.6602614652304],
        [-0.00896720376, 51.66021571122632],
        [-0.008974991928446, 51.66016998171952],
        [-0.008980468685872, 51.66014399643924],
        [-0.008992985162531, 51.66008935463985],
        [-0.009008391228993, 51.660034761833565],
        [-0.009025242065793, 51.65998019352179],
        [-0.00904498247518, 51.65992567420096],
        [-0.009066128253197, 51.65987207795119],
        [-0.00909016358775, 51.65981853068971],
        [-0.00911560427955, 51.65976590649702],
        [-0.009143934512352, 51.659713331289446],
        [-0.009173709477172, 51.65966078056935],
        [-0.009196956866656, 51.659625204854066],
        [-0.009828577876285, 51.65798039906315],
        [-0.010382675687501, 51.65658606525635],
        [-0.010387639509726, 51.65657176141898],
        [-0.011128076012999, 51.65478401346621],
        [-0.011478204411181, 51.653886200479725],
        [-0.011735319703152, 51.653230507346976],
        [-0.011754778438629, 51.65318227751265],
        [-0.011774276456378, 51.65313314909325],
        [-0.011790924570511, 51.65308307316665],
        [-0.011806088731669, 51.653033871357096],
        [-0.011818403004082, 51.65298372204243],
        [-0.011820122859733, 51.65297745643553],
        [-0.011829547925008, 51.65292725819758],
        [-0.011837567705494, 51.65287613691673],
        [-0.011842658975041, 51.65282586529518],
        [-0.011844929343708, 51.65280701955201],
        [-0.011847288723135, 51.65275310468441],
        [-0.011848164192263, 51.65270006393716],
        [-0.011846150500758, 51.652646974269],
        [-0.011844136812258, 51.65259388460039],
        [-0.011844490717081, 51.65258579737001],
        [-0.011836346979432, 51.652408507817306],
        [-0.011822425025554, 51.652231120418236],
        [-0.01180268560043, 51.652054533752654],
        [-0.011777128771202, 51.65187874781843],
        [-0.011744349379521, 51.65170283957013],
        [-0.011707000651258, 51.65153224941321],
        [-0.011615488858881, 51.6507825260588],
        [-0.011625933409218, 51.65034566875127],
        [-0.011660396376525, 51.64975634610034],
        [-0.011863570586361, 51.64884615117553],
        [-0.011899418734508, 51.648687591373466],
        [-0.012100149495669, 51.647304350320255],
        [-0.012103903137312, 51.64728463042443],
        [-0.01228410357793, 51.64623825916837],
        [-0.01228601961403, 51.64622750063258],
        [-0.012720814413533, 51.643523628239855],
        [-0.013164203866602, 51.64058879205779],
        [-0.013168074251745, 51.640566376344616],
        [-0.013277561224663, 51.63984703184119],
        [-0.013343977676651, 51.63961704884892],
        [-0.013514543888035, 51.639186497153766],
        [-0.013986434547471, 51.63811088607515],
        [-0.014589525746413, 51.63700871594397],
        [-0.014791996082321, 51.63674056667522],
        [-0.014793714853044, 51.636734300997496],
        [-0.014862473102928, 51.63645040178559],
        [-0.014848157938555, 51.63624872799473],
        [-0.014997868088957, 51.63593112678847],
        [-0.015266480707295, 51.63550492796622],
        [-0.01543720335798, 51.63526861382811],
        [-0.015977221036873, 51.634583521069],
        [-0.016651774080155, 51.633762214453625],
        [-0.016835400173437, 51.63352791479539],
        [-0.017046936221065, 51.633250023080066],
        [-0.017819117103608, 51.6322765872432],
        [-0.018693253305912, 51.63118436777078],
        [-0.019891213099995, 51.62968934518378],
        [-0.022428474912386, 51.62646694085934],
        [-0.02294814409306, 51.62581294735093],
        [-0.023181650889115, 51.62555969446031],
        [-0.023363492207123, 51.625331649402796],
        [-0.023525000003921, 51.625172503911394],
        [-0.023817810450519, 51.624884278267814],
        [-0.024050799989725, 51.62464270520461],
        [-0.024282304992313, 51.62436873372631],
        [-0.024452898707706, 51.624133303706714],
        [-0.024591066227881, 51.623912615021695],
        [-0.024686936257762, 51.62373437840784],
        [-0.024772739200527, 51.62352180084953],
        [-0.024976336906403, 51.62312506052509],
        [-0.025126165095257, 51.62276878074205],
        [-0.025247313506061, 51.62250733874033],
        [-0.02534208548533, 51.62235426209957],
        [-0.025574662991772, 51.622055127155114],
        [-0.025956865205549, 51.6217369260262],
        [-0.026000603094438, 51.62176104202054],
        [-0.026124126753318, 51.621644418221514],
        [-0.026275156213381, 51.62152645827587],
        [-0.026995919900925, 51.620963055249156],
        [-0.027031774277967, 51.6209357811433],
        [-0.027338035157118, 51.62066935489082],
        [-0.027450551076082, 51.62057322746773],
        [-0.027810957252431, 51.62025735187308],
        [-0.027962639990182, 51.62012411352223],
        [-0.028671300510712, 51.61950564280899],
        [-0.029463348062996, 51.61882921726476],
        [-0.029793536240461, 51.61857667510079],
        [-0.030286549080724, 51.61820007017933],
        [-0.031229341750125, 51.61757741951159],
        [-0.03146951950042, 51.61740159768986],
        [-0.031621925484136, 51.617284553293],
        [-0.0317040770281, 51.617222084145546],
        [-0.031867091479304, 51.617093527076946],
        [-0.032093179432677, 51.61690937451162],
        [-0.032310721417699, 51.616722380513025],
        [-0.032420524388511, 51.616621706668184],
        [-0.032523265078099, 51.616517317352475],
        [-0.032621752677276, 51.61641105816601],
        [-0.03271598720306, 51.616302929119556],
        [-0.032810182418341, 51.61619569858896],
        [-0.032907264056444, 51.6160885163545],
        [-0.0329330846798, 51.61605927382601],
        [-0.033374767735912, 51.61559906498701],
        [-0.033412523581614, 51.61556102982429],
        [-0.033998950559007, 51.6148262747874],
        [-0.034620271056627, 51.61408580636046],
        [-0.035018934581557, 51.613650949335415],
        [-0.035074000298198, 51.6135799311893],
        [-0.035124774580681, 51.613507941932],
        [-0.035172700799546, 51.61343500572964],
        [-0.035194343595319, 51.6134020957794],
        [-0.035239421692062, 51.613328212626136],
        [-0.035281612943473, 51.61325428113517],
        [-0.035319512821443, 51.61317937855135],
        [-0.035343491204513, 51.613125824929405],
        [-0.035361540948962, 51.61307576906977],
        [-0.035376742772926, 51.613024766291076],
        [-0.035386954906824, 51.6129889672371],
        [-0.035390462419965, 51.612974637952114],
        [-0.035405664174729, 51.61292363516817],
        [-0.035417241994736, 51.61288965746788],
        [-0.035449872402415, 51.61280297640242],
        [-0.035451509739518, 51.612798507558836],
        [-0.035486832674998, 51.612716367794306],
        [-0.03552664066067, 51.61263070608359],
        [-0.035537791524913, 51.61260661296966],
        [-0.035552449804456, 51.612568190562826],
        [-0.035565664733085, 51.612529743998415],
        [-0.035577436314426, 51.61249127327693],
        [-0.035586360026707, 51.61245185564371],
        [-0.035595283722613, 51.61241243800938],
        [-0.035601281964295, 51.61237387066468],
        [-0.03560182512338, 51.612361290261624],
        [-0.035606418829735, 51.61232180016123],
        [-0.035609569209679, 51.61228228590569],
        [-0.035609832950708, 51.61224272334056],
        [-0.035610057893662, 51.6122040593754],
        [-0.035607435004421, 51.612164448500536],
        [-0.035603368806303, 51.612124813470736],
        [-0.035596415991845, 51.61208513013119],
        [-0.035586537771705, 51.61204629708171],
        [-0.03557521625879, 51.612007439876386],
        [-0.035574044529858, 51.612001125519576],
        [-0.035560969351982, 51.611969432959945],
        [-0.035547894191764, 51.61193774039886],
        [-0.035530450334839, 51.61190687397021],
        [-0.035513006501085, 51.61187600753911],
        [-0.035494119386962, 51.61184511694956],
        [-0.035473750196621, 51.61181510080119],
        [-0.035453419831913, 51.611784186049206],
        [-0.035431607394205, 51.61175414573739],
        [-0.035409794984877, 51.6117241054217],
        [-0.035389425902592, 51.61169408925926],
        [-0.035375807728518, 51.61167497708263],
        [-0.035311814101819, 51.61158488025201],
        [-0.035244934140268, 51.61149473507016],
        [-0.03517505144888, 51.61140723733276],
        [-0.035102282449786, 51.61131969123424],
        [-0.03502510626256, 51.61123386980814],
        [-0.034945004993232, 51.61114889860836],
        [-0.034874424823545, 51.61107757549962],
        [-0.034381456702646, 51.61055315179658],
        [-0.03434419669219, 51.6105129608304],
        [-0.034309862084874, 51.610471919593095],
        [-0.034277009616958, 51.610430003916726],
        [-0.034244196029909, 51.61038718963174],
        [-0.034215712268316, 51.61034444785142],
        [-0.034187228559343, 51.61030170606444],
        [-0.034161709052326, 51.61025721541486],
        [-0.034137594021809, 51.61021364753175],
        [-0.034114961109089, 51.61016920521646],
        [-0.034095253558787, 51.61012391264231],
        [-0.034076950468895, 51.61007954283742],
        [-0.034060129482783, 51.61003429860297],
        [-0.034044790596914, 51.609988179939485],
        [-0.03403233822479, 51.60994210962055],
        [-0.034019885876655, 51.60989603930021],
        [-0.034010320030492, 51.60985001732549],
        [-0.034003679502559, 51.609803145097274],
        [-0.033998443397916, 51.609757195641855],
        [-0.033997109930596, 51.60972120330423],
        [-0.033996132596841, 51.60971039593348],
        [-0.033995265032282, 51.609663620398386],
        [-0.033998727162968, 51.609616917383725],
        [-0.034003593690619, 51.609571137141806],
        [-0.034005502817183, 51.60956037811781],
        [-0.034012945191302, 51.60952183502021],
        [-0.034020115781871, 51.609489582120425],
        [-0.034021830779313, 51.60948331609501],
        [-0.03403212075357, 51.60944571994165],
        [-0.034045335983712, 51.609407273533044],
        [-0.0340585123673, 51.6093697257223],
        [-0.034074575173593, 51.60933222625474],
        [-0.034092081174083, 51.60929475095679],
        [-0.034110991543062, 51.60925819842767],
        [-0.034131383921847, 51.609220771466866],
        [-0.034153141841814, 51.60918516587331],
        [-0.034176381764749, 51.60914868584648],
        [-0.034201026045299, 51.60911312858529],
        [-0.034202508081271, 51.60911225415621],
        [-0.034230155209111, 51.60907404943006],
        [-0.034262054292212, 51.60903771440718],
        [-0.034295396536138, 51.60900140354459],
        [-0.03433014312007, 51.608966015441084],
        [-0.034366332859627, 51.60893065149535],
        [-0.03440392693564, 51.60889621030613],
        [-0.034442925347301, 51.608862691872055],
        [-0.034481962515446, 51.60882827482409],
        [-0.034520960810725, 51.6087947563625],
        [-0.034561441065772, 51.60876036345332],
        [-0.034600439243641, 51.60872684496371],
        [-0.034610968598244, 51.60871712952168],
        [-0.034732641619307, 51.60860855904901],
        [-0.034858604840425, 51.60850095953053],
        [-0.034993032606552, 51.60839799783714],
        [-0.035022750148708, 51.608378711840885],
        [-0.03508366715114, 51.60833926538411],
        [-0.035145910837415, 51.60830253885519],
        [-0.035211002003799, 51.608266759209066],
        [-0.035277497459043, 51.60823190228362],
        [-0.035343915219949, 51.60819884252071],
        [-0.035413219258305, 51.60816583103041],
        [-0.035483927588852, 51.60813374225358],
        [-0.035553192635307, 51.60810162927898],
        [-0.035623900768411, 51.6080695404154],
        [-0.035694570013087, 51.608038350108934],
        [-0.035765277949232, 51.60800626115774],
        [-0.035780020069794, 51.607999313862116],
        [-0.0358315398836, 51.6079767955144],
        [-0.035983212662566, 51.607909192034725],
        [-0.036189213249703, 51.60782091534031],
        [-0.036393537218649, 51.60773800573929],
        [-0.03645519742444, 51.60771475751319],
        [-0.037944970750752, 51.6071605534218],
        [-0.038671688378851, 51.606885838491564],
        [-0.040568391046931, 51.6061702408156],
        [-0.040631567538145, 51.606145217228466],
        [-0.040694782648272, 51.606119295002564],
        [-0.040755188808723, 51.60609152735515],
        [-0.040766927245973, 51.60608722704954],
        [-0.040815594895827, 51.606063759675756],
        [-0.040874635153968, 51.606034170668465],
        [-0.040933675335604, 51.60600458163052],
        [-0.040989906560069, 51.60597314718091],
        [-0.041026951640536, 51.60595128423288],
        [-0.041044733266528, 51.60594079001351],
        [-0.041080296493925, 51.60591980156638],
        [-0.041132314190717, 51.6058855989775],
        [-0.041184331809232, 51.605851396364535],
        [-0.041233540468337, 51.605815348352294],
        [-0.04127986281684, 51.605779252152814],
        [-0.041326262441306, 51.60574135872544],
        [-0.041371180200319, 51.6057043398014],
        [-0.041414732119151, 51.60566549956932],
        [-0.041447834131778, 51.60563457819535],
        [-0.041797440208262, 51.605698862651785],
        [-0.04286092759917, 51.60588655883415],
        [-0.044315255730337, 51.60612032517151],
        [-0.045354979013915, 51.60632378912646],
        [-0.047631257439574, 51.60678881759186],
        [-0.048056135451679, 51.60688311126304],
        [-0.048463140496845, 51.60695642349776],
        [-0.048825811745626, 51.607053277048294],
        [-0.049086233097575, 51.60710976229729],
        [-0.049313770419829, 51.60715850646877],
        [-0.049637576898824, 51.60721874163268],
        [-0.049943642626965, 51.60728857288698],
        [-0.050231063555503, 51.60735539587436],
        [-0.051552130230855, 51.6077352341184],
        [-0.051530501993488, 51.60776814726678],
        [-0.051508989154367, 51.60779836458231],
        [-0.051776192280198, 51.607899019545826],
        [-0.052183886633625, 51.60799031516886],
        [-0.05260613001203, 51.608079153005406],
        [-0.052915725725444, 51.608100475607884],
        [-0.05291500326951, 51.60831988012539],
        [-0.052990916508142, 51.60833462810497],
        [-0.052983857055122, 51.608398357606724],
        [-0.052979202005521, 51.60843964579367],
        [-0.052968676594984, 51.60844936292571],
        [-0.05290996902484, 51.608505041688794],
        [-0.052948282129154, 51.60852096445386],
        [-0.053012073282942, 51.60854900005193],
        [-0.053071573317589, 51.608576065189624],
        [-0.053979637720241, 51.60878715984834],
        [-0.054379338423024, 51.608863028011896],
        [-0.055615722415759, 51.60889430666176],
        [-0.056141264681427, 51.60886434364447],
        [-0.058077850419589, 51.608800179783124],
        [-0.059059463029703, 51.608743576835266],
        [-0.061223278020654, 51.60866783115241],
        [-0.062395045772698, 51.60862243430286],
        [-0.062980469872964, 51.60861051486656],
        [-0.065045285299659, 51.60858701975089],
        [-0.065242930811188, 51.60859207626408],
        [-0.06547680138949, 51.6086283038635],
        [-0.06630414496734, 51.608667115552755],
        [-0.067069005911401, 51.60891891305348],
        [-0.067072006900001, 51.6089162647344],
        [-0.067140366243615, 51.60893897234125],
        [-0.067476810987696, 51.60866844356805],
        [-0.067508225521608, 51.60864288264312],
        [-0.067630785554198, 51.60864759814503],
        [-0.067751902385631, 51.608652289760876],
        [-0.067819657884521, 51.60865520361872],
        [-0.067994713760237, 51.608818150940166],
        [-0.06835729624101, 51.608680239060305],
        [-0.069286579552492, 51.60873329668722],
        [-0.069364399806318, 51.60873727445019],
        [-0.06967169434174, 51.60874502621255],
        [-0.069675201319056, 51.608662353267434],
        [-0.070351581930644, 51.608685164937604],
        [-0.070714438591824, 51.60871091305223],
        [-0.070796741049727, 51.608711366553855],
        [-0.070861343738025, 51.60872052155357],
        [-0.070898639271841, 51.60872652998858],
        [-0.070876262532012, 51.60877741922855],
        [-0.070869880052842, 51.60879170226198],
        [-0.071502444837756, 51.60872386258257],
        [-0.071727098321996, 51.60870507226655],
        [-0.072081833113766, 51.60868392194953],
        [-0.072094209598696, 51.60873268449317],
        [-0.072176854764895, 51.60872504944509],
        [-0.072872805007193, 51.60866094116622],
        [-0.073860552787337, 51.60859532276372],
        [-0.074775301395757, 51.60851411082349],
        [-0.075627114014421, 51.60845254260237],
        [-0.075698136302592, 51.6084465130149],
        [-0.076143905003962, 51.60842414509258],
        [-0.076673076781615, 51.608410336101464],
        [-0.077091347717961, 51.608423483805765],
        [-0.07814350239264, 51.60847398786566],
        [-0.078705794351742, 51.608496681780025],
        [-0.079004468029106, 51.60850336873824],
        [-0.079180770275902, 51.6085008584967],
        [-0.079326537006489, 51.60850324380274],
        [-0.079635389353504, 51.608508297219835],
        [-0.080713104798368, 51.608500745492236],
        [-0.081368974823226, 51.608462009612836],
        [-0.081986907041735, 51.6084667131303],
        [-0.082160171138267, 51.60846774574514],
        [-0.083273668856995, 51.608502120380514],
        [-0.084379108606875, 51.608487793746264],
        [-0.08454390262459, 51.60848418838556],
        [-0.084842079720377, 51.60846837127025],
        [-0.085851584379052, 51.60846865182251],
        [-0.086585898646296, 51.608521989644665],
        [-0.087131451992367, 51.60856505288574],
        [-0.087524475634002, 51.60859483754252],
        [-0.088005311299652, 51.60863144676309],
        [-0.088395458428945, 51.60869535289572],
        [-0.088722518813735, 51.60874833881462],
        [-0.089684498190447, 51.608814356491116],
        [-0.08971617432379, 51.6088166704987],
        [-0.090876647619441, 51.608902094998925],
        [-0.090905820141416, 51.60879196255231],
        [-0.090908857450107, 51.60878841497924],
        [-0.091443125340257, 51.60879080862445],
        [-0.09173913939021, 51.608895437397855],
        [-0.091769323466238, 51.60886445459526],
        [-0.091796470257851, 51.60883701938108],
        [-0.091827807390395, 51.60884742049527],
        [-0.092085721269024, 51.60893074640889],
        [-0.09210140873798, 51.608935497613636],
        [-0.092094679165651, 51.60902711102893],
        [-0.092091879525596, 51.60905943827523],
        [-0.092471582704407, 51.60909708298133],
        [-0.092472825804951, 51.609067428161566],
        [-0.092486422258418, 51.60884643531742],
        [-0.092559764695612, 51.60885392188226],
        [-0.092964993333364, 51.60890277071159],
        [-0.093580462248776, 51.60900089435986],
        [-0.094024043696309, 51.608823753207304],
        [-0.095157534179591, 51.60865690917874],
        [-0.095336868367637, 51.60882348150294],
        [-0.0953524712792, 51.60889927107722],
        [-0.095592960561016, 51.60926107173267],
        [-0.095812389970516, 51.60929790362239],
        [-0.09621834901005, 51.60926042572445],
        [-0.096444123926488, 51.609214629030475],
        [-0.096809843015214, 51.60913782907763],
        [-0.096821577093996, 51.609133523121464],
        [-0.09707065330094, 51.60904853636117],
        [-0.097263410427613, 51.608894293713085],
        [-0.097357839153974, 51.608915607722324],
        [-0.097382149195128, 51.608921397226716],
        [-0.097390733631437, 51.60892333485844],
        [-0.097452831538243, 51.60892344215352],
        [-0.097659368526066, 51.60892319268048],
        [-0.097681017483256, 51.60892354353999],
        [-0.097485538984329, 51.60852111163926],
        [-0.097849147283181, 51.60849463185067],
        [-0.099099699251789, 51.608463633929674],
        [-0.099967768489534, 51.608461502420255],
        [-0.100384868135995, 51.60846825336785],
        [-0.100814919710952, 51.60847611163685],
        [-0.10108938096754, 51.60850932784917],
        [-0.101276778974097, 51.608517754813924],
        [-0.10151077359508, 51.60851704348214],
        [-0.101783417387187, 51.60848997945309],
        [-0.101985416444408, 51.608459974001995],
        [-0.10220396559584, 51.60841404943427],
        [-0.102538586667172, 51.60804357601421],
        [-0.10301872256251, 51.60823568120469],
        [-0.103514775776272, 51.608427142335195],
        [-0.103723935136537, 51.608433219260526],
        [-0.103947527099513, 51.60843952894768],
        [-0.104155243340598, 51.60844558179214],
        [-0.105281880100684, 51.60844219148707],
        [-0.10570990047106, 51.60836007486004],
        [-0.105902114918488, 51.60835688202296],
        [-0.105898068899075, 51.6083846932226],
        [-0.105894022874276, 51.60841250442195],
        [-0.10590283201582, 51.608409049605875],
        [-0.106279371891185, 51.60841872205323],
        [-0.106971894107762, 51.60829680502593],
        [-0.107095392869439, 51.60827901337935],
        [-0.107112824023375, 51.608276596756916],
        [-0.109287706639178, 51.60827927678531],
        [-0.109889593082237, 51.60825300065515],
        [-0.109895838906231, 51.60827648149844],
        [-0.109895764256961, 51.608278278778634],
        [-0.110424680160299, 51.608339849730804],
        [-0.110480482072688, 51.608352438154995],
        [-0.110534878071847, 51.60836410468021],
        [-0.110467656797671, 51.60852218825234],
        [-0.110454842029839, 51.60855255615795],
        [-0.110612556237157, 51.60858027365144],
        [-0.110628320206622, 51.60858322511731],
        [-0.110813493971029, 51.60861048509269],
        [-0.110823522211567, 51.608612444976046],
        [-0.110836411365222, 51.60858027974708],
        [-0.110876820418721, 51.608476618153155],
        [-0.11151571143919, 51.60846351859659],
        [-0.112778101260356, 51.608425371446074],
        [-0.113837799673686, 51.60839924094534],
        [-0.113838367748146, 51.60835069107921],
        [-0.113849913821294, 51.60835087661223],
        [-0.114070769736387, 51.608353526070296],
        [-0.114308982042009, 51.60835555470289],
        [-0.114461735281568, 51.60839847440393],
        [-0.114476018955868, 51.608402300813296],
        [-0.114658159002295, 51.60843310294098],
        [-0.115357442585012, 51.60842634792212],
        [-0.11556542129921, 51.60842609008496],
        [-0.115916394697328, 51.608425429488136],
        [-0.115907096509529, 51.60830118506547],
        [-0.115955981301148, 51.60830646592385],
        [-0.117289459406793, 51.60843487148663],
        [-0.117517243587815, 51.608200226161934],
        [-0.118140657493247, 51.60842154401755],
        [-0.118736246688537, 51.60865230420865],
        [-0.119203097195869, 51.608363935616794],
        [-0.119524160300433, 51.608423034043476],
        [-0.12135568937197, 51.60859174388188],
        [-0.121591533005738, 51.60861620079871],
        [-0.12181220558777, 51.608623328935906],
        [-0.122033100762535, 51.608625064781016],
        [-0.122435326778098, 51.608677360550516],
        [-0.123146524406361, 51.608766968283014],
        [-0.123376156220325, 51.608731972471126],
        [-0.123492396749219, 51.60871494679194],
        [-0.123543282061947, 51.60870676787007],
        [-0.124024358677632, 51.609088541037],
        [-0.123994826006265, 51.60910425534961],
        [-0.123941570820521, 51.6091348775757],
        [-0.124083121640105, 51.60920458280746],
        [-0.12416179758101, 51.609257996021114],
        [-0.12418285432613, 51.60927272035229],
        [-0.124123160522365, 51.60928435574165],
        [-0.12501647538845, 51.60986155225718],
        [-0.124897529216758, 51.60994418069268],
        [-0.125355208415998, 51.61001803467109],
        [-0.125994711394382, 51.609639774891825],
        [-0.125888609763559, 51.60958592505014],
        [-0.126336477506218, 51.60930172143606],
        [-0.126374632582669, 51.60932211373078],
        [-0.126467929468601, 51.60937126256242],
        [-0.127403485378231, 51.60937899746899],
        [-0.127902204297831, 51.60943820917223],
        [-0.128692400877478, 51.609538934683314],
        [-0.129740337687545, 51.60979933003836],
        [-0.130904137010497, 51.61019284971972],
        [-0.131314391669449, 51.61033156961055],
        [-0.131824009126519, 51.610407124329875],
        [-0.133283244919289, 51.61078194157059],
        [-0.134966528329817, 51.61118817685129],
        [-0.135283185165257, 51.611214789315206],
        [-0.135502106102403, 51.61108877660182],
        [-0.13596671310957, 51.610888431545085],
        [-0.136199630248634, 51.61080850092464],
        [-0.137729112391793, 51.61042092525465],
        [-0.138785572324254, 51.610192189402895],
        [-0.139624891550654, 51.610823270701516],
        [-0.140271754219398, 51.61135777616991],
        [-0.140845301306799, 51.61184885263316],
        [-0.141417160350755, 51.61234619411326],
        [-0.142096946666525, 51.61303048371658],
        [-0.142880940714809, 51.613816233118804],
        [-0.14295028922901, 51.61388657144372],
        [-0.143836657498005, 51.614783640512385],
        [-0.144536065494914, 51.615484411808815],
        [-0.144141222222295, 51.61560316395524],
        [-0.143944404747229, 51.615647711690556],
        [-0.143756357991273, 51.615689700080154],
        [-0.143167578898511, 51.61585304163838],
        [-0.14279615550853, 51.615964066615945],
        [-0.142731833332361, 51.6159828321498],
        [-0.142711060942432, 51.61596092182624],
        [-0.142057328121885, 51.616158300361874],
        [-0.142066772235017, 51.61617463608935],
        [-0.142083030315062, 51.61620097126038],
        [-0.14202559487035, 51.61622793853319],
        [-0.142120917102075, 51.61636972806919],
        [-0.142053413401049, 51.61639563677148],
        [-0.141963889527205, 51.616430189262246],
        [-0.14189880727616, 51.61660900636238],
        [-0.141830959554823, 51.61682015215262],
        [-0.141741544000625, 51.616958118354596],
        [-0.141661181145294, 51.61705126598947],
        [-0.141558063208482, 51.61717103041137],
        [-0.141446381734335, 51.61725289124305],
        [-0.141380331585527, 51.617313892788914],
        [-0.141352401475729, 51.61736111008706],
        [-0.141317694056687, 51.61739742923625],
        [-0.141291389104263, 51.61754628593876],
        [-0.14107196356905, 51.617648921288165],
        [-0.141012898496596, 51.61768035844831],
        [-0.140995171614375, 51.61768996932128],
        [-0.140911627731973, 51.617684150093815],
        [-0.140776262002546, 51.61767391311595],
        [-0.140639548433553, 51.617731996585164],
        [-0.139927088326478, 51.61834028338893],
        [-0.139751940195458, 51.6184903781565],
        [-0.139832498408463, 51.61853391881065],
        [-0.139482535808266, 51.61871991009941],
        [-0.139368778300486, 51.61881702309084],
        [-0.138530045103851, 51.619509626711434],
        [-0.138331007974343, 51.619643154323526],
        [-0.137573540750503, 51.62022013922581],
        [-0.137231609130139, 51.620491678736244],
        [-0.136678847683324, 51.62086688015147],
        [-0.13617016098005, 51.621223894810086],
        [-0.135461999377586, 51.62168924452843],
        [-0.135468709193782, 51.62173701062114],
        [-0.135571826012173, 51.62239329231269],
        [-0.135438400116973, 51.622335420549476],
        [-0.135350399909291, 51.62229715412939],
        [-0.135069993506892, 51.62233586323985],
        [-0.134964058808353, 51.622594059570886],
        [-0.134867103839637, 51.62277416492339],
        [-0.134744106432481, 51.6230608655196],
        [-0.134549043000681, 51.623413863558184],
        [-0.134492644773594, 51.62352087569101],
        [-0.134279914258881, 51.62384661545159],
        [-0.134221997337776, 51.623955401790305],
        [-0.134206158743901, 51.62398932103654],
        [-0.13423186984186, 51.624102134177136],
        [-0.134305072228712, 51.624184228805966],
        [-0.134366097964903, 51.624281416890454],
        [-0.134349939840979, 51.62439356461114],
        [-0.134324000781764, 51.62446239355958],
        [-0.134236126163932, 51.62452664123793],
        [-0.13418070917874, 51.624539249027954],
        [-0.134123848373553, 51.62455183384408],
        [-0.134120444644054, 51.62456436904999],
        [-0.134064768020513, 51.62479458777529],
        [-0.134057087398023, 51.62491136637606],
        [-0.133780385264234, 51.62552834009926],
        [-0.133584244793621, 51.625977537627186],
        [-0.133557081063141, 51.62604095151604],
        [-0.13354805064481, 51.6262961909337],
        [-0.133549162556665, 51.62630430173417],
        [-0.133548867505081, 51.62631149093012],
        [-0.133548535571904, 51.62631957877555],
        [-0.133548240520061, 51.62632676797148],
        [-0.133546464740625, 51.62633483286182],
        [-0.133544725842102, 51.62634199910265],
        [-0.133541506214935, 51.626350041037796],
        [-0.133539914841755, 51.62635361268059],
        [-0.133536732094627, 51.626360755966104],
        [-0.133532105499469, 51.626367876296264],
        [-0.133527478902839, 51.62637499662624],
        [-0.133521408457289, 51.626382094000604],
        [-0.133515374892044, 51.626388292725174],
        [-0.133509304442793, 51.62639539009888],
        [-0.133501827026055, 51.62640156586717],
        [-0.133488279152098, 51.62641483900747],
        [-0.133485280806641, 51.62641748904417],
        [-0.133470215307757, 51.6264325365253],
        [-0.133453779716381, 51.62644576374929],
        [-0.133435863381705, 51.6264598666638],
        [-0.133419427770375, 51.62647309388272],
        [-0.133404509769175, 51.62648454675728],
        [-0.133370231534522, 51.626510079576796],
        [-0.133335990147215, 51.626534713736454],
        [-0.133300341756522, 51.62655842627819],
        [-0.13326328636248, 51.6265812172007],
        [-0.133224787077053, 51.626603985151974],
        [-0.133184880787229, 51.626625831481306],
        [-0.133144974459136, 51.626647677796605],
        [-0.133103698017997, 51.62666770383886],
        [-0.133069788390175, 51.626684250074796],
        [-0.132855674576707, 51.62683191654626],
        [-0.132700605467317, 51.626949048537554],
        [-0.132571603690137, 51.627099866703254],
        [-0.132419466735471, 51.627286286129845],
        [-0.132300717837914, 51.62743367016021],
        [-0.132207441345861, 51.62759404863701],
        [-0.132097132801356, 51.627746962162014],
        [-0.131968233233346, 51.62786001339276],
        [-0.131756632914662, 51.62805178043551],
        [-0.131511865628525, 51.62831226039083],
        [-0.131305667617327, 51.62851310496987],
        [-0.131395415568678, 51.62854420826797],
        [-0.131108249161627, 51.628781531638644],
        [-0.131133168710068, 51.628808006168676],
        [-0.131168978483617, 51.628885910489075],
        [-0.131180906380927, 51.62894724839497],
        [-0.131140409677718, 51.629018542607746],
        [-0.130850394617428, 51.629325061162284],
        [-0.130553719128747, 51.629301453423366],
        [-0.130466793363358, 51.629377403492285],
        [-0.130656919559834, 51.62946226143891],
        [-0.13114717627327, 51.62966250309654],
        [-0.130792158278401, 51.63014423692145],
        [-0.130710395098494, 51.63041090731872],
        [-0.130445805498544, 51.630731318236904],
        [-0.13020560939522, 51.631020643822296],
        [-0.129803509417846, 51.630960284984226],
        [-0.129555842981142, 51.63146620604521],
        [-0.129315863280227, 51.63182027824366],
        [-0.129147234627761, 51.63226630976593],
        [-0.129177448344765, 51.63226948893238],
        [-0.129642357093787, 51.63234883517562],
        [-0.130347605806352, 51.632416720228115],
        [-0.130834437409363, 51.632490116197374],
        [-0.131356817685536, 51.63257756447726],
        [-0.132043985634022, 51.63280431613378],
        [-0.132086790273515, 51.632817586461115],
        [-0.132581269188603, 51.63298641572095],
        [-0.132985698445332, 51.63313133002262],
        [-0.13329522779104, 51.633264842478894],
        [-0.133638578997725, 51.63348971449121],
        [-0.133871840369738, 51.63365078846548],
        [-0.133687942266161, 51.63376566505725],
        [-0.133841516663437, 51.633896696804634],
        [-0.13392239671051, 51.63396812267908],
        [-0.134003240127618, 51.63404044714804],
        [-0.134004647335945, 51.63404136874842],
        [-0.134278995260066, 51.633870378041294],
        [-0.134436676751225, 51.63397179951754],
        [-0.134255888184548, 51.63408133099513],
        [-0.134532256457301, 51.63424848404234],
        [-0.134265164546107, 51.63441869141301],
        [-0.134292350246522, 51.63446048822116],
        [-0.134334425488805, 51.634526800964416],
        [-0.134534148156367, 51.63469543370237],
        [-0.134744196115343, 51.63482376457358],
        [-0.135283752524821, 51.63509221414017],
        [-0.135495131210464, 51.635188192332905],
        [-0.136204662574939, 51.63547012761253],
        [-0.137684689600235, 51.636133867880766],
        [-0.138129654373096, 51.63634864809932],
        [-0.138331938345556, 51.636455267674215],
        [-0.138437896105173, 51.63651449870493],
        [-0.13988740838416, 51.63732520117247],
        [-0.140437864681474, 51.637681924148794],
        [-0.140826077076336, 51.637977625290794],
        [-0.141080326395269, 51.63819207164513],
        [-0.141383032022484, 51.638458540804116],
        [-0.14176530804759, 51.63879371101422],
        [-0.142054203495851, 51.63904467283532],
        [-0.142089697315315, 51.63909559154971],
        [-0.142319259376619, 51.639313241388955],
        [-0.142143743831979, 51.63936441822527],
        [-0.142607683516709, 51.63978810333778],
        [-0.143051962355323, 51.640197987096926],
        [-0.143944239860221, 51.64099802503529],
        [-0.145102536006854, 51.64264663790643],
        [-0.147920785388459, 51.64208144715446],
        [-0.148157771329209, 51.64240171476259],
        [-0.148505345674318, 51.642952130647174],
        [-0.14857989839119, 51.64310887333335],
        [-0.148881510140323, 51.64386538651097],
        [-0.149047991221685, 51.644178245954635],
        [-0.14917984018829, 51.64463173858397],
        [-0.14917724182142, 51.644695543062575],
        [-0.149132422856342, 51.64483781438476],
        [-0.149123607432812, 51.644912311637164],
        [-0.149126564820696, 51.645052638363076],
        [-0.149158025935297, 51.64523837596408],
        [-0.149174444505816, 51.645261115553836],
        [-0.149243612806599, 51.645301772003414],
        [-0.150338113086831, 51.64525787094075],
        [-0.15081526056486, 51.64525369642637],
        [-0.151118304932229, 51.6452656624832],
        [-0.151330165589324, 51.64528068831006],
        [-0.151751804190564, 51.645361962203104],
        [-0.151599812383733, 51.64565181973221],
        [-0.152168136267356, 51.645822626550036],
        [-0.151309252143185, 51.646825237995365],
        [-0.151385610738916, 51.64686690558516],
        [-0.151273818006337, 51.646985642438864],
        [-0.151068296311576, 51.64720541565329],
        [-0.151386367263302, 51.64731023833239],
        [-0.152383340550364, 51.64763976167689],
        [-0.15227393333469, 51.647984243905924],
        [-0.1517285932217, 51.648171693436666],
        [-0.149919598848194, 51.648792449391834],
        [-0.15101943884562, 51.650075890046736],
        [-0.151818434672734, 51.64990772336798],
        [-0.152270522141307, 51.64984559746751],
        [-0.152329977693911, 51.650054255257906],
        [-0.152347444683093, 51.65015794159836],
        [-0.152358331841862, 51.650352346665585],
        [-0.152401849006832, 51.65073970043441],
        [-0.152498405312853, 51.6513158277879],
        [-0.152512396462524, 51.651362807889384],
        [-0.152564536131524, 51.651467039690885],
        [-0.152890424585894, 51.65184264928055],
        [-0.153090092277949, 51.652051713619684],
        [-0.153355734173831, 51.652451552667486],
        [-0.153448697766626, 51.652618472902866],
        [-0.15350193661576, 51.652695744635274],
        [-0.153796103006971, 51.65264281931219],
        [-0.15405094905391, 51.65256139900931],
        [-0.154230743883915, 51.652975173315134],
        [-0.153986367962597, 51.65322581381038],
        [-0.153801610851372, 51.65325438218349],
        [-0.153490249949547, 51.65330344023722],
        [-0.153544443429561, 51.653428386127075],
        [-0.153507367896061, 51.653629230595094],
        [-0.153609766495064, 51.65402650182264],
        [-0.153697739720304, 51.654458616071],
        [-0.15378191438413, 51.65466406464252],
        [-0.153880888573409, 51.6546476361133],
        [-0.154196482979103, 51.654850427794095],
        [-0.154401922211252, 51.65495347133651],
        [-0.154722740682425, 51.65502775386688],
        [-0.154713353975554, 51.65518766919659],
        [-0.154787615676634, 51.655530543304415],
        [-0.154912290555057, 51.655557680754846],
        [-0.155556901355409, 51.65570449031968],
        [-0.157731933624331, 51.65615137959286],
        [-0.157825870095001, 51.65618792320093],
        [-0.157851257265978, 51.65620360835457],
        [-0.157979552626974, 51.656319822976364],
        [-0.158300254413333, 51.65625471332199],
        [-0.160515276355349, 51.65675073617315],
        [-0.160975680014699, 51.656984552902735],
        [-0.161401521146653, 51.65721512896308],
        [-0.162779439465831, 51.657963271328164],
        [-0.163286237986644, 51.65808719961243],
        [-0.163504252697715, 51.65816614449871],
        [-0.165041673375437, 51.65822434879876],
        [-0.172478538061274, 51.659885192318704],
        [-0.175553908231448, 51.660567865567614],
        [-0.176507524685984, 51.6607643207444],
        [-0.179035567320714, 51.66132509949158],
        [-0.180498560193448, 51.661656210221594],
        [-0.182294151243258, 51.66202302478055],
        [-0.182630782345454, 51.6621019712631],
        [-0.183676348910584, 51.662387015547004],
        [-0.183913485667312, 51.662423055091686],
        [-0.185891041472782, 51.66283309320233],
        [-0.185707566628301, 51.66315487894725],
        [-0.185231123679558, 51.66386060256745],
        [-0.184001950984074, 51.66574346183909],
        [-0.183200240378182, 51.66691534075404],
        [-0.182110401323698, 51.668600707859],
        [-0.181568785975098, 51.66894481887969],
        [-0.179956970127712, 51.669975540605776],
        [-0.179423525314891, 51.6703314583818],
        [-0.1783249941675, 51.671038299837335],
        [-0.177871229954132, 51.67135408221651],
        [-0.176736518335557, 51.67209631662171],
        [-0.177031399938901, 51.67267639775583],
        [-0.176410908424399, 51.672641586670764],
        [-0.175465719588072, 51.67258913937549],
        [-0.175682862981426, 51.67315992321216],
        [-0.175354625679362, 51.67344617290076],
        [-0.174983666908341, 51.6732120060603],
        [-0.172498179522639, 51.6730879308795],
        [-0.171600224611224, 51.674017241832104],
        [-0.17034553635928, 51.67536362483699],
        [-0.168258122067407, 51.67763040562805],
        [-0.167848757514321, 51.67809701270417],
        [-0.167059476081609, 51.67890928685178],
        [-0.165469684334702, 51.68059479130462],
        [-0.165358140734009, 51.68067038233721],
        [-0.165197939929886, 51.68080456199816],
        [-0.164692296622927, 51.68132540605493],
        [-0.163631923060742, 51.68239959157177],
        [-0.16359312476964, 51.68439526328229],
        [-0.163559555827294, 51.684509839147445],
        [-0.163501802777431, 51.68507904435678],
        [-0.1634971499702, 51.68562300225377],
        [-0.163528558087238, 51.685919338073944],
        [-0.16357908005916, 51.68624384865677],
        [-0.163589667076546, 51.686697223098335],
        [-0.16352159116059, 51.687485677384856],
        [-0.163517965466935, 51.68811148050858],
        [-0.163192907307108, 51.68810010322286],
        [-0.162712854063192, 51.68809349452542],
        [-0.162100459697442, 51.687996689240975],
        [-0.161512147884346, 51.68787687786306],
        [-0.161042433029427, 51.68775802111684],
        [-0.160524232382593, 51.68769325584996],
        [-0.160018146380727, 51.68761518969629],
        [-0.1596736897197, 51.687582816602905],
        [-0.159253383307159, 51.68749440116286],
        [-0.158016724442135, 51.687237619221975],
        [-0.157713424896771, 51.687153730737464],
        [-0.157671971003977, 51.687141390624795],
        [-0.15763199941785, 51.687128174523004],
        [-0.157592100826905, 51.68711316110314],
        [-0.157552202262581, 51.68709814766992],
        [-0.157513749522103, 51.68708315690252],
        [-0.157479634197378, 51.68706823416145],
        [-0.157442736768892, 51.68705057009384],
        [-0.157405839369255, 51.68703290601488],
        [-0.15737038779341, 51.68701526460544],
        [-0.157335009226752, 51.686995825881034],
        [-0.157302522277765, 51.68697643250964],
        [-0.157278564147344, 51.68696076983056],
        [-0.157254679018012, 51.68694330984233],
        [-0.157233685490984, 51.686925895214436],
        [-0.157212728473061, 51.686907581930726],
        [-0.157191734978508, 51.68689016729556],
        [-0.157172041314943, 51.68687636994873],
        [-0.157150865379204, 51.68686344856733],
        [-0.157129652960896, 51.68685142583436],
        [-0.157108440553847, 51.68683940309764],
        [-0.157085745873857, 51.68682825632501],
        [-0.157078662912557, 51.686824548294645],
        [-0.156906131436534, 51.68676249231585],
        [-0.156229555274953, 51.68653695914812],
        [-0.155619826254021, 51.686375417467964],
        [-0.15490355330566, 51.686201408282315],
        [-0.154691553078626, 51.686149519706774],
        [-0.153991539818736, 51.68600273711076],
        [-0.153282929793057, 51.68585401669779],
        [-0.152661875818887, 51.68575792491941],
        [-0.152019596044164, 51.68568577497793],
        [-0.151469480058636, 51.68562406426973],
        [-0.151010868020646, 51.68558896976954],
        [-0.150486228686288, 51.68554114387023],
        [-0.149839945393524, 51.685531864725576],
        [-0.149395060189226, 51.68551496463796],
        [-0.148775069110607, 51.68560590794894],
        [-0.147923603811071, 51.68576783406325],
        [-0.147362918947524, 51.6858588058569],
        [-0.146651382132044, 51.685924014917205],
        [-0.146140289101491, 51.68600497267805],
        [-0.145617274652742, 51.68612980209494],
        [-0.145372835086473, 51.68623474906296],
        [-0.145044550517032, 51.68626733255482],
        [-0.144683136086474, 51.68633176397298],
        [-0.14408717657024, 51.686506690274314],
        [-0.143293360896099, 51.68677919948827],
        [-0.142408499296863, 51.687084434131314],
        [-0.141604690293113, 51.68735317707117],
        [-0.14100284896892, 51.68752979322854],
        [-0.140346992714042, 51.68771814031988],
        [-0.139611095800626, 51.68791780523549],
        [-0.138936313745525, 51.688073472579575],
        [-0.138425973728416, 51.688205664806915],
        [-0.137681710267482, 51.68836202222344],
        [-0.136937324235822, 51.688486000836114],
        [-0.13617739925342, 51.688600735912104],
        [-0.135404162647842, 51.68872244859213],
        [-0.13467455054555, 51.68880348454689],
        [-0.134236707484119, 51.6886850263396],
        [-0.133827911926905, 51.68870460975575],
        [-0.133754881256211, 51.688721433976916],
        [-0.133712549979587, 51.688765722751185],
        [-0.133709667030897, 51.68883581666749],
        [-0.133281038947427, 51.688880261433894],
        [-0.132793685488651, 51.68891028270901],
        [-0.132186101950486, 51.68890871564642],
        [-0.131266588507387, 51.688893190882375],
        [-0.130274748944657, 51.68891247674372],
        [-0.1294568151589, 51.68888956243469],
        [-0.128737050579313, 51.68887180332798],
        [-0.127916004466817, 51.68885422405794],
        [-0.127214778099114, 51.68880797577933],
        [-0.126647495618999, 51.68877644884725],
        [-0.126032576019047, 51.68874236070672],
        [-0.125106102393158, 51.68868531210919],
        [-0.124158646821161, 51.688645905667315],
        [-0.12306483484727, 51.6885771760907],
        [-0.122648997451187, 51.6885570420177],
        [-0.122563880241812, 51.68855118540471],
        [-0.122477242874978, 51.68854710288796],
        [-0.122390568340695, 51.688543918941626],
        [-0.122381893451054, 51.68854378027033],
        [-0.122295144558478, 51.68854239352201],
        [-0.122208321296277, 51.68854280397787],
        [-0.122121460844151, 51.688544113003545],
        [-0.12205480460331, 51.688546644224175],
        [-0.121979436274526, 51.688549935339836],
        [-0.12190543936228, 51.6885550467927],
        [-0.121831368042985, 51.68856195546652],
        [-0.121757259505053, 51.688569762727276],
        [-0.121691863033984, 51.68857681003015],
        [-0.121606039124127, 51.68858802676604],
        [-0.121521623787406, 51.688600165195034],
        [-0.121438617019706, 51.688613225320154],
        [-0.121355535795052, 51.68862808265336],
        [-0.121272380103456, 51.688644737194394],
        [-0.121216918137181, 51.688656439277715],
        [-0.120904057835927, 51.68869999291341],
        [-0.12074249266524, 51.688723485720466],
        [-0.12022031044584, 51.68882573512679],
        [-0.119446440684347, 51.68892665056937],
        [-0.118953735748259, 51.68898080794523],
        [-0.118442308459616, 51.68903286489151],
        [-0.118272759489202, 51.68893483050311],
        [-0.117995965722012, 51.68898075266622],
        [-0.118013806306833, 51.68910872904389],
        [-0.117819743187605, 51.68921802312883],
        [-0.116876150945135, 51.68943400092379],
        [-0.116202549817473, 51.68966329387633],
        [-0.115719067233065, 51.689843477737725],
        [-0.115199434437893, 51.6900230795505],
        [-0.11479603683796, 51.69015598631377],
        [-0.114159180537319, 51.69030132982793],
        [-0.113793706272609, 51.690426748971326],
        [-0.113404860496866, 51.690592256926706],
        [-0.112922305351034, 51.69081920419544],
        [-0.112636807688155, 51.69090004392375],
        [-0.112253200955376, 51.69100898082768],
        [-0.111264100372849, 51.691204399396305],
        [-0.110560122127718, 51.69132796191287],
        [-0.109646171253135, 51.69149040501104],
        [-0.109774597998416, 51.69167231771595],
        [-0.109282624499414, 51.6917426326313],
        [-0.108175576832304, 51.69181652915827],
        [-0.107519815361636, 51.69185902018668],
        [-0.106746613193058, 51.69187263778751],
        [-0.106112818032202, 51.69187411044014],
        [-0.105804689707355, 51.6918727388232]
      ]
    ]
  }
}
