{
  "type": "Feature",
  "properties": { "name": "Greenwich", "level": 2, "londonBorough": true },
  "geometry": {
    "type": "Polygon",
    "coordinates": [
      [
        [-0.013128934513736, 51.468936525979316],
        [-0.013476095913672, 51.4687670508766],
        [-0.014108032290615, 51.468472004466548],
        [-0.014493837809852, 51.46830767732115],
        [-0.01465253882818, 51.468233926817753],
        [-0.015026678748423, 51.468039724422383],
        [-0.01509017849574, 51.468036303166578],
        [-0.015301193628345, 51.468150485987259],
        [-0.015456176489449, 51.468261921409592],
        [-0.01555975875772, 51.468330220836911],
        [-0.015806663640773, 51.468480081797068],
        [-0.015904452897634, 51.468549182139427],
        [-0.016269633639267, 51.468860214726597],
        [-0.01641637504443, 51.468995789715692],
        [-0.016467349220844, 51.469048809879908],
        [-0.016558947219782, 51.469227516010108],
        [-0.016949378656955, 51.469056064902709],
        [-0.0171138500201, 51.469247693707693],
        [-0.017140443852775, 51.469298502678278],
        [-0.017161672206951, 51.469340228185303],
        [-0.017161594284415, 51.46934202540988],
        [-0.017273814279597, 51.469410469366501],
        [-0.017508957700496, 51.469433330503051],
        [-0.017743867669247, 51.469461582845874],
        [-0.017887123652375, 51.469478393224328],
        [-0.018200388903958, 51.469525954754786],
        [-0.01847340566203, 51.469605208949602],
        [-0.018700574798492, 51.469712464380528],
        [-0.01911797301483, 51.469948831539234],
        [-0.019018145995207, 51.470059553693993],
        [-0.019020906840369, 51.470062298155931],
        [-0.019166802611719, 51.470250912294027],
        [-0.019272643511135, 51.470499999952857],
        [-0.019199922472566, 51.470550029781556],
        [-0.019090336691437, 51.470586846911786],
        [-0.019031693643594, 51.470611035644914],
        [-0.018937512550252, 51.470524912812948],
        [-0.018671673393807, 51.470645419184109],
        [-0.018792491271962, 51.470748179231343],
        [-0.018945196140185, 51.470879355350633],
        [-0.018981858834167, 51.471063426083496],
        [-0.01895856485197, 51.471069327380441],
        [-0.018827550691174, 51.471102185108357],
        [-0.018884244862776, 51.471189473119189],
        [-0.019023270936592, 51.471137866014999],
        [-0.019110025631022, 51.471229258911045],
        [-0.019152986852303, 51.471467392235063],
        [-0.019285226860619, 51.47193814641453],
        [-0.019319174653592, 51.471985482001884],
        [-0.019345423405109, 51.472011105019483],
        [-0.019398582654556, 51.472047074615219],
        [-0.019893322823862, 51.472027553933437],
        [-0.019999254765459, 51.472041932756191],
        [-0.020051948404366, 51.472055412425995],
        [-0.020109969597651, 51.472078874014628],
        [-0.020145163360435, 51.472097453740922],
        [-0.020245066524926, 51.472184571440962],
        [-0.020299664462218, 51.472287110928292],
        [-0.020327701877916, 51.472371216500967],
        [-0.020337228899545, 51.472417240158357],
        [-0.020155964135509, 51.472612918101781],
        [-0.020082656996368, 51.472676427636159],
        [-0.020041666833213, 51.472725195289662],
        [-0.020006081979804, 51.472782147647315],
        [-0.019983058024164, 51.472848304828823],
        [-0.019978428435954, 51.47292196681687],
        [-0.019989976975065, 51.47298780858835],
        [-0.020004520874233, 51.473017730127985],
        [-0.020050642154261, 51.473083256477487],
        [-0.020117997732546, 51.473123961821244],
        [-0.020225876346868, 51.473159955782016],
        [-0.02032749428446, 51.473174261442388],
        [-0.020553753328275, 51.473169988203416],
        [-0.020620837537124, 51.473183710563937],
        [-0.020647593371857, 51.473197651323652],
        [-0.020665599058797, 51.47321414216627],
        [-0.020736143608534, 51.473347525822547],
        [-0.020750687857305, 51.473410720269015],
        [-0.020767915741385, 51.473445183368845],
        [-0.02079653832655, 51.47348253663187],
        [-0.020836633435972, 51.47352098282277],
        [-0.020934479876294, 51.473589180495885],
        [-0.021052277119716, 51.473662211184347],
        [-0.021141101691722, 51.473705976106345],
        [-0.02123451543383, 51.473743523521648],
        [-0.021463150163341, 51.473817525104138],
        [-0.021644961770796, 51.473875448570283],
        [-0.0215776436292, 51.473933664464049],
        [-0.021772367884819, 51.474025977880721],
        [-0.021870797718858, 51.473947603581564],
        [-0.021884992704361, 51.473952339426411],
        [-0.022031998776706, 51.474015969940027],
        [-0.02210153498623, 51.47403962477685],
        [-0.022188455154514, 51.474060875015269],
        [-0.022341450075006, 51.474085937553291],
        [-0.022449409500498, 51.474086859272269],
        [-0.022506457856095, 51.473966420044185],
        [-0.02267267510644, 51.473985410273933],
        [-0.022617843317108, 51.474087901565042],
        [-0.022611582362433, 51.474099486480043],
        [-0.022645928227265, 51.47427092701686],
        [-0.022811018554413, 51.474282703877563],
        [-0.022803169367561, 51.474464224021972],
        [-0.022801655142087, 51.474532542994382],
        [-0.022830519399177, 51.474730869112896],
        [-0.022930560377411, 51.47508147278667],
        [-0.022918469635034, 51.475194576891582],
        [-0.02292453898194, 51.47525403103927],
        [-0.022887166947442, 51.475319047530988],
        [-0.022767577355211, 51.475353900892252],
        [-0.022763221552612, 51.475354726705682],
        [-0.022527968115763, 51.475366946003632],
        [-0.02231814981095, 51.475390385105548],
        [-0.022158696418216, 51.475447946441143],
        [-0.022026349462492, 51.475478087494771],
        [-0.021799729140296, 51.475490450978405],
        [-0.021599204844908, 51.475498758021104],
        [-0.021390085465009, 51.475506020403145],
        [-0.021075453439556, 51.475522292812258],
        [-0.020943805707517, 51.475536257591614],
        [-0.020846498840541, 51.475588571252203],
        [-0.020746080079129, 51.47567950090756],
        [-0.020707537585115, 51.475771475060093],
        [-0.020652427220535, 51.475846982643773],
        [-0.020700691055914, 51.475929630984737],
        [-0.020727252402138, 51.476114429705405],
        [-0.020753114650425, 51.476215584515863],
        [-0.02075661476502, 51.476234528268478],
        [-0.020768475743543, 51.476359727001849],
        [-0.020791576878514, 51.476458137379076],
        [-0.020775125027832, 51.476505520959329],
        [-0.020760462264165, 51.476544841310357],
        [-0.02067034773221, 51.476630549227565],
        [-0.020578326984889, 51.476727016132486],
        [-0.02045344170703, 51.476817532481967],
        [-0.020336723807749, 51.476885704857445],
        [-0.020212499831667, 51.476927671548935],
        [-0.020045648724436, 51.476989601479133],
        [-0.01989505462181, 51.477041913759656],
        [-0.019709962305356, 51.477092743913587],
        [-0.019561274811367, 51.477101023747053],
        [-0.019411847638892, 51.477126377025272],
        [-0.019261758480378, 51.477167006518911],
        [-0.019165146995811, 51.477203143692634],
        [-0.019118395520482, 51.47725181368623],
        [-0.019097622985474, 51.477332397026792],
        [-0.019067477906458, 51.477396635153369],
        [-0.019082368299605, 51.477518288165342],
        [-0.019095628116037, 51.477577864003152],
        [-0.019165821060742, 51.47778588195996],
        [-0.019201712223603, 51.477954651770752],
        [-0.019166620740999, 51.478166286599667],
        [-0.019133903947328, 51.478323106077191],
        [-0.019118650506743, 51.478475724234208],
        [-0.019139375499081, 51.478595677250276],
        [-0.019128359805523, 51.478783438515826],
        [-0.019131347096662, 51.478947156069005],
        [-0.019061597652525, 51.479194176093245],
        [-0.019029230113235, 51.47934290799784],
        [-0.018997722308055, 51.479405324532706],
        [-0.018964037119627, 51.47945151741682],
        [-0.018897834776287, 51.479516944802981],
        [-0.018632988381219, 51.479713006669932],
        [-0.018572580594544, 51.47977763252559],
        [-0.018517580570031, 51.479817170190188],
        [-0.018443949805274, 51.479854594426676],
        [-0.018376698633796, 51.479877738123825],
        [-0.018292411675061, 51.479895198234431],
        [-0.017951610592271, 51.47991641575458],
        [-0.017768608534023, 51.479918717675133],
        [-0.017644454529836, 51.479925611353742],
        [-0.017463668181602, 51.479943237845305],
        [-0.017231421168596, 51.479985173391839],
        [-0.017105551920383, 51.480031605365582],
        [-0.017027329448394, 51.480075245954829],
        [-0.016961786098919, 51.480125395822448],
        [-0.016910322031051, 51.480182977940622],
        [-0.016860020866009, 51.480280147575847],
        [-0.016859709006421, 51.480287336459341],
        [-0.017067363462018, 51.480380775465377],
        [-0.017116524857619, 51.480409484232489],
        [-0.017644585785615, 51.480719668696437],
        [-0.01787526521732, 51.480880041471679],
        [-0.018161346860065, 51.48085879851574],
        [-0.018400869074519, 51.480848458497327],
        [-0.018583721030282, 51.480816477137012],
        [-0.018727715730669, 51.480783838899583],
        [-0.018934683957553, 51.480727084957323],
        [-0.020014638624418, 51.480365835198612],
        [-0.02041798852137, 51.48023056124002],
        [-0.020367391366762, 51.479935645891508],
        [-0.022523464826471, 51.479699550323588],
        [-0.023070909902968, 51.479628747018552],
        [-0.023120720289547, 51.480241989084121],
        [-0.023161230821345, 51.480737270037956],
        [-0.024719825790622, 51.481196984940418],
        [-0.026408662495083, 51.48150959263225],
        [-0.026368334072788, 51.481576358948473],
        [-0.026065082811164, 51.481828444890255],
        [-0.025952098972977, 51.481943447656981],
        [-0.025882950130986, 51.482043900787978],
        [-0.025819095326909, 51.482188507167621],
        [-0.025739120793487, 51.482572946758019],
        [-0.025578047913183, 51.483434431443442],
        [-0.02529594529577, 51.484196756643982],
        [-0.025289617267234, 51.484343230790593],
        [-0.025222190941018, 51.484637055194845],
        [-0.02520716584126, 51.484984818917603],
        [-0.025201256155024, 51.485021589380416],
        [-0.025029769047693, 51.485290280060326],
        [-0.024847309114591, 51.485546195902522],
        [-0.024759948481488, 51.485667924022692],
        [-0.024733849178547, 51.485705253621724],
        [-0.024611869073635, 51.485861469890516],
        [-0.024201723815789, 51.486186389464535],
        [-0.023444083277545, 51.486786022169653],
        [-0.023018186974356, 51.486575607606888],
        [-0.021883948748488, 51.486091556768272],
        [-0.021391274338965, 51.485893498641097],
        [-0.021080967478207, 51.485774954188336],
        [-0.020020365363276, 51.485387450221424],
        [-0.019472934528942, 51.485223530758503],
        [-0.01896899597194, 51.48508642232084],
        [-0.01881382785844, 51.485044232808669],
        [-0.018031262870329, 51.484822377243404],
        [-0.017650286537, 51.484772772017941],
        [-0.017451277112584, 51.484778400010029],
        [-0.017428209767371, 51.484778909252285],
        [-0.016786573869687, 51.484695217732281],
        [-0.016586089960931, 51.484668445622894],
        [-0.016545985409505, 51.484663270882088],
        [-0.016362656008724, 51.484639486377787],
        [-0.015932978178628, 51.484616928982263],
        [-0.015662127189677, 51.484585367501758],
        [-0.015473700491807, 51.484579480725181],
        [-0.015134268139478, 51.484568339727339],
        [-0.014802227442518, 51.484552826544324],
        [-0.014557279426339, 51.484554974026587],
        [-0.013802564513152, 51.484521508944837],
        [-0.013192669265284, 51.48450308275293],
        [-0.012887116329249, 51.484507796887243],
        [-0.012785469525513, 51.484526757429528],
        [-0.011057694481307, 51.484678215695276],
        [-0.01083183964018, 51.484704959552325],
        [-0.010605945434713, 51.484732601577633],
        [-0.007958052599215, 51.485208323569388],
        [-0.007464642867517, 51.485359110794832],
        [-0.006966833694274, 51.48551161972059],
        [-0.00673617371969, 51.485582338289504],
        [-0.006244363172143, 51.485696277519693],
        [-0.005926637844539, 51.485781700914437],
        [-0.005650494118086, 51.485871427790521],
        [-0.005555371312876, 51.485905780655429],
        [-0.005381192874883, 51.485969363852355],
        [-0.00514300605924, 51.486080418439911],
        [-0.004744991530328, 51.486256198256385],
        [-0.004554821305068, 51.486323105196007],
        [-0.003410333690051, 51.486902536953757],
        [-0.002953226536017, 51.487144749817439],
        [-0.002175264545748, 51.487642283064588],
        [-0.001745551604878, 51.488015352252127],
        [-0.001476417062325, 51.488306625454143],
        [-0.001177778910586, 51.488712501748921],
        [-0.000941383136924, 51.489111345006627],
        [-0.000703961016968, 51.489533551322417],
        [-0.000580923550653, 51.489843500280941],
        [-0.000510166888501, 51.490077902620406],
        [-0.000475709826013, 51.490305729744598],
        [-0.000447145224568, 51.490662252998384],
        [-0.000449130044669, 51.490913183273335],
        [-0.000415335019697, 51.491389220247328],
        [-0.000676888840873, 51.492160757599628],
        [-0.000802257179317, 51.492554976856887],
        [-0.001024408235671, 51.493074945112404],
        [-0.001081648373058, 51.493314227416896],
        [-0.001213735355833, 51.493489138802893],
        [-0.001441059005387, 51.493858116979148],
        [-0.001600942749812, 51.494089256371517],
        [-0.002020084447267, 51.494552328402555],
        [-0.002111898962834, 51.494660006560395],
        [-0.002142233596031, 51.494691098554497],
        [-0.002210518870539, 51.494776793280117],
        [-0.002308864254042, 51.494899870121841],
        [-0.00246977736049, 51.495107644770947],
        [-0.002824153031473, 51.495668530103579],
        [-0.003658164690591, 51.497122461535398],
        [-0.004005476045242, 51.497614878230287],
        [-0.004163409832275, 51.497924217039639],
        [-0.004331214526438, 51.49827149288631],
        [-0.004376971696174, 51.498378385306637],
        [-0.004476680463511, 51.498635474431062],
        [-0.00460327541999, 51.499002731732695],
        [-0.004947026876278, 51.500138061803192],
        [-0.004994491876008, 51.500370880577044],
        [-0.005082692695715, 51.500726692812279],
        [-0.005179488618979, 51.50088571138398],
        [-0.005178142282101, 51.500949536538322],
        [-0.005177843301533, 51.501022372192082],
        [-0.005177124812502, 51.501071819731166],
        [-0.005175388829637, 51.501243550459165],
        [-0.005137096579597, 51.501460522018796],
        [-0.00508031952173, 51.501572863986596],
        [-0.005035413738427, 51.501677314463322],
        [-0.004937995493837, 51.501829432052531],
        [-0.004863115613482, 51.501960350573015],
        [-0.004821927177082, 51.502111626161764],
        [-0.004667599440439, 51.502510973325471],
        [-0.004562339641907, 51.502809537901015],
        [-0.004510494346339, 51.502940848138238],
        [-0.004326041090084, 51.503238064913148],
        [-0.004034303458475, 51.503616188139837],
        [-0.003717219715293, 51.503914743594869],
        [-0.003554434776682, 51.504111609984207],
        [-0.003362968744465, 51.504305290035639],
        [-0.003228442148039, 51.504481953923225],
        [-0.003049278010933, 51.504657857566997],
        [-0.00287506082637, 51.504819456895738],
        [-0.002662593934488, 51.50496601623442],
        [-0.002454195359076, 51.505151313020988],
        [-0.002000141714851, 51.505451127844786],
        [-0.001317546545659, 51.505869346624564],
        [-0.000918753100646, 51.506058589835689],
        [-0.000156628295358, 51.506318074281737],
        [0.000143579699019, 51.506394787951237],
        [0.000647269800838, 51.506511194600073],
        [0.000954089543745, 51.50657430438816],
        [0.001364524437815, 51.506667119557711],
        [0.002181836036154, 51.506738599259293],
        [0.002697809985232, 51.50674058031904],
        [0.003156501347436, 51.506750731710767],
        [0.003609748451929, 51.506768168472156],
        [0.003871345691424, 51.506752907618264],
        [0.003954586585647, 51.506745190367283],
        [0.004146198654558, 51.506711340853862],
        [0.005174199875726, 51.506428484102102],
        [0.005965152994184, 51.506162262953858],
        [0.007320807707379, 51.505630080243392],
        [0.007597973806146, 51.505510229288447],
        [0.008196679347078, 51.505231096943476],
        [0.008580483911668, 51.505013195642732],
        [0.00882322137671, 51.504864255509339],
        [0.009139503823208, 51.504651106013576],
        [0.009647724269985, 51.504280891490147],
        [0.009924117824301, 51.504078315334553],
        [0.010239456658936, 51.503811222756987],
        [0.010560313857691, 51.503538639067187],
        [0.011221374297685, 51.502909505034133],
        [0.01241908231757, 51.501870084517215],
        [0.012816606180908, 51.501539524679252],
        [0.013361313233557, 51.501083236492242],
        [0.014125485819944, 51.50044152375871],
        [0.014988342221674, 51.499685701331721],
        [0.015339864515607, 51.499390994597739],
        [0.01560468587842, 51.499188603429332],
        [0.016215975047351, 51.4988057965274],
        [0.017547041671776, 51.498083269987731],
        [0.018406167926361, 51.497669208940692],
        [0.019190507047182, 51.497356248444511],
        [0.019802568214866, 51.497155062035759],
        [0.020685489441877, 51.496888954028627],
        [0.021918369043269, 51.496522382063695],
        [0.023137241853366, 51.496295425884718],
        [0.024012464631958, 51.496149028633262],
        [0.024692084549183, 51.496075246301942],
        [0.025687524506944, 51.496040968368028],
        [0.026855713246841, 51.496003696179322],
        [0.027771127104947, 51.496016646658305],
        [0.029047831700534, 51.496087187377078],
        [0.029542964913961, 51.496141567960223],
        [0.030939237919689, 51.496276564840713],
        [0.031434853438512, 51.496374094232827],
        [0.032370947847692, 51.496463088826978],
        [0.033788273420476, 51.496682218727237],
        [0.034878857367579, 51.496810779688538],
        [0.034941120629668, 51.496817792676389],
        [0.035518444142103, 51.496841045729397],
        [0.036418397837621, 51.496829916741483],
        [0.037295363168256, 51.496884827252806],
        [0.037993819155737, 51.496942833784694],
        [0.038513404501406, 51.496995852337371],
        [0.039194676995369, 51.497120696756753],
        [0.039813598895842, 51.497171982070256],
        [0.040146354970201, 51.497203063502155],
        [0.040484348189971, 51.497222362291645],
        [0.041334127216943, 51.497248938926937],
        [0.042150595107042, 51.49727159315411],
        [0.042820423932066, 51.497301292737376],
        [0.04375750671199, 51.497347014204735],
        [0.044189439060017, 51.497372758513102],
        [0.044625642345412, 51.497365153586081],
        [0.0458440695673, 51.497323219144597],
        [0.047113756442431, 51.497267787311081],
        [0.047953964203454, 51.49724142580574],
        [0.048865345153394, 51.497195829209645],
        [0.049514082905922, 51.497172801795948],
        [0.050139641210929, 51.497082730358073],
        [0.050819067103014, 51.497005202616265],
        [0.051433358640071, 51.496953090875522],
        [0.051780852843808, 51.496927227085585],
        [0.052363794001947, 51.496882853206941],
        [0.052806057829692, 51.496849931982794],
        [0.053176381879981, 51.49681916799836],
        [0.053440700900606, 51.496801949792584],
        [0.053941824545047, 51.496764396424076],
        [0.054741815267514, 51.496709014468266],
        [0.056629811067862, 51.496563506928233],
        [0.058206945058631, 51.496457598161619],
        [0.058627889777318, 51.496431324044984],
        [0.059261422959962, 51.496422897925108],
        [0.060024414653078, 51.496441870292777],
        [0.060767860808698, 51.49647467035259],
        [0.061531624094928, 51.496510705624658],
        [0.061876817312769, 51.496529816156013],
        [0.062474666188531, 51.496560669051668],
        [0.062978578329327, 51.496585078071753],
        [0.063906315608532, 51.496646989861922],
        [0.066190953401304, 51.496766827322929],
        [0.068157952212645, 51.496966863082569],
        [0.071529689558258, 51.497484683453457],
        [0.073158453988575, 51.497849782627512],
        [0.073187572288109, 51.497856462049349],
        [0.073428124836735, 51.497918755459871],
        [0.073915765356555, 51.498060311519076],
        [0.074302105473652, 51.498191966932943],
        [0.074862333366512, 51.498377198970978],
        [0.075400500641745, 51.498615876251748],
        [0.075781897140487, 51.498797074664999],
        [0.0761023010289, 51.498967661097851],
        [0.07661094354921, 51.499222143348298],
        [0.077095689633092, 51.499489636604885],
        [0.077386360812014, 51.499671537573207],
        [0.077709228961745, 51.499896032748318],
        [0.077988869283849, 51.500120393800245],
        [0.078453655752443, 51.500487155895748],
        [0.078542481243124, 51.500571012970184],
        [0.078703601486693, 51.500723732213977],
        [0.079118910149293, 51.501111152913957],
        [0.079631987918568, 51.501557090013705],
        [0.080270499632419, 51.502162670003976],
        [0.081425595315672, 51.503226703628727],
        [0.081987143429277, 51.503849827476493],
        [0.082748379036762, 51.504743682344738],
        [0.082769683741913, 51.504768483768366],
        [0.08311903182835, 51.50519303316559],
        [0.083621599151597, 51.50578572224132],
        [0.083978840326946, 51.506351315651834],
        [0.084255439175433, 51.506760068204549],
        [0.084591862076685, 51.507153368235201],
        [0.084766764560679, 51.507322920579867],
        [0.084947345896559, 51.507490573146093],
        [0.085420411245493, 51.507846369522156],
        [0.085906727142502, 51.508239698042239],
        [0.087051969468418, 51.50905025571884],
        [0.087717976067678, 51.509464659329574],
        [0.088048000301328, 51.509685401962166],
        [0.088279416448075, 51.50979818760878],
        [0.089857849023649, 51.510562334609752],
        [0.090075491541393, 51.510657376622781],
        [0.090737846228192, 51.510927943732973],
        [0.090945535601857, 51.510994384659213],
        [0.09122707728281, 51.511068501098165],
        [0.091547129602064, 51.511133836531499],
        [0.092426610121065, 51.511330377816087],
        [0.093161104509434, 51.5114449681572],
        [0.093580070002645, 51.51149864050474],
        [0.093998954025358, 51.511550514256271],
        [0.094812653915569, 51.511632205217836],
        [0.095451079956767, 51.511663065694783],
        [0.096212729647871, 51.511678231006556],
        [0.096566936915675, 51.511702474702602],
        [0.098389370230551, 51.511844340240906],
        [0.099706264112953, 51.511899006946145],
        [0.100878779353393, 51.511916677071142],
        [0.102403969405115, 51.511737366022679],
        [0.103479062821978, 51.511642547941854],
        [0.104642954048877, 51.511598284680247],
        [0.105751418008099, 51.511539717329512],
        [0.106119644887151, 51.511524112077822],
        [0.106617347450192, 51.511503482079434],
        [0.107179487727829, 51.511505073465955],
        [0.107662842577108, 51.511517070947782],
        [0.107980929127332, 51.511539231498645],
        [0.108187969717265, 51.511559790360195],
        [0.108917063944437, 51.511650098709374],
        [0.109788444223711, 51.511763022727891],
        [0.110229445871011, 51.511825232071374],
        [0.111181280258221, 51.512057201782142],
        [0.112011455609117, 51.512276067082944],
        [0.112425327354951, 51.512374728066575],
        [0.113771134706758, 51.512679615755133],
        [0.114487287732663, 51.512832173333059],
        [0.115141839777734, 51.512961556993396],
        [0.116068855421826, 51.513092316036008],
        [0.116588580533363, 51.513142289696766],
        [0.117692114225022, 51.513411936582052],
        [0.118296800474391, 51.513584469439216],
        [0.119074237426342, 51.512727796528729],
        [0.120210881555192, 51.511444659399857],
        [0.120535238242955, 51.511043110288213],
        [0.120579136293612, 51.510095371472893],
        [0.120599987671036, 51.509768554648616],
        [0.120625325505844, 51.509445253806064],
        [0.120679149860593, 51.508959566816266],
        [0.120694782524362, 51.508706585516613],
        [0.120705928462059, 51.508450088209209],
        [0.120697461975828, 51.507833332924477],
        [0.120746091170766, 51.507018601957022],
        [0.120779899687313, 51.50662950004125],
        [0.12084757619328, 51.506069820960704],
        [0.120823338595465, 51.50492726967618],
        [0.120857277065563, 51.503796256016599],
        [0.120929165525439, 51.503079125730117],
        [0.120945236972883, 51.502432249764951],
        [0.120914861194258, 51.50196427210318],
        [0.120919516780943, 51.501661129108079],
        [0.120926801376908, 51.501352542842071],
        [0.120981951618959, 51.500771506919676],
        [0.120999173141766, 51.499746011136644],
        [0.121023382851296, 51.49883999364657],
        [0.121045156216401, 51.49735398138656],
        [0.121082343002122, 51.496293051790488],
        [0.121085285417138, 51.49620127149408],
        [0.121164298830635, 51.495203434304479],
        [0.1211965419096, 51.493694749640042],
        [0.121187846117935, 51.493290228525353],
        [0.121232994941162, 51.492587069804927],
        [0.121241474532387, 51.491342305131482],
        [0.121278607695542, 51.491087135489387],
        [0.121292817534036, 51.490555400527697],
        [0.121334626288967, 51.489780359010389],
        [0.121429228565185, 51.488994470046691],
        [0.12152007109634, 51.488748220582757],
        [0.121527080115312, 51.488650970866154],
        [0.121532608129562, 51.48855284865882],
        [0.121496566483105, 51.488024720552531],
        [0.121454871070193, 51.487840222024587],
        [0.121444442405808, 51.487739690662657],
        [0.121448447884391, 51.487639797421956],
        [0.121467283858106, 51.487518052973464],
        [0.121514737813513, 51.487330142810627],
        [0.121945625422798, 51.486124496030648],
        [0.121964876995311, 51.486073787572657],
        [0.122022672871952, 51.485860509948012],
        [0.122073709872917, 51.48556372096462],
        [0.122069803389842, 51.484455870534383],
        [0.122077537024094, 51.483598710272432],
        [0.122059617640505, 51.482747409928031],
        [0.122098012587094, 51.482426568837568],
        [0.122135010349096, 51.482230753901],
        [0.122232530485816, 51.481849489597323],
        [0.122506735657129, 51.481241104203086],
        [0.122638203233479, 51.480846634877018],
        [0.122986343635864, 51.479969821233936],
        [0.123302772132125, 51.479092681391123],
        [0.123458522457212, 51.478694174003692],
        [0.123707229840479, 51.478064664189482],
        [0.123908510320491, 51.477468387301357],
        [0.123973712852923, 51.477290945647361],
        [0.124040353802581, 51.477113477889056],
        [0.124160812268235, 51.476823523309285],
        [0.124053749583595, 51.476812873014254],
        [0.123886052109761, 51.476984977256556],
        [0.123814401675386, 51.477054621125923],
        [0.1236768755497, 51.477163228334703],
        [0.12343973201442, 51.477328496247232],
        [0.122935992528025, 51.477583124446276],
        [0.122610527326866, 51.477738299160762],
        [0.122223144183084, 51.477893694490611],
        [0.12185677928853, 51.478067593162585],
        [0.121765208478725, 51.478111516922304],
        [0.121384305134843, 51.47825150427461],
        [0.121010927681533, 51.478398548517831],
        [0.120731018051857, 51.478511526535534],
        [0.12059022909572, 51.478550044630929],
        [0.120232491212456, 51.478599680450195],
        [0.119872919176975, 51.478609779698793],
        [0.119703539084556, 51.478621835068601],
        [0.119373681336742, 51.478682654914365],
        [0.119146136576645, 51.478713746649937],
        [0.119090350381729, 51.478721949275958],
        [0.118849017352938, 51.478797354714288],
        [0.118454315653615, 51.478919596060578],
        [0.118165229118984, 51.478679313924779],
        [0.117090925825683, 51.477778747684631],
        [0.116818521110486, 51.477494095982038],
        [0.11645337134097, 51.477134678569264],
        [0.116109827634872, 51.476806345104144],
        [0.115664170105118, 51.47632517605534],
        [0.115489692102157, 51.476164654286926],
        [0.115339941904166, 51.476040556866394],
        [0.115079418183107, 51.475794356155895],
        [0.115049269020549, 51.475765223598565],
        [0.1150254988843, 51.475749465258069],
        [0.114632535804707, 51.475535329220271],
        [0.114345833510788, 51.475376829917877],
        [0.114024793153009, 51.475191970502337],
        [0.113802008592575, 51.47492080573538],
        [0.113750138453054, 51.474857891575155],
        [0.113512829317191, 51.474552815235697],
        [0.113224443827468, 51.474201896176261],
        [0.113067468370788, 51.473983501006757],
        [0.113005804750584, 51.473895583004207],
        [0.112842606828311, 51.473729458330162],
        [0.112560154280705, 51.473475553726558],
        [0.112527504312161, 51.473454559176993],
        [0.11223813836367, 51.473269124191276],
        [0.111975696713657, 51.473074210601105],
        [0.111772467316852, 51.473194778842505],
        [0.111665954553393, 51.473289323952208],
        [0.111234215024769, 51.473544403535591],
        [0.110885133601771, 51.473780906783624],
        [0.110816747401171, 51.473828001698983],
        [0.110688565995991, 51.473921137450816],
        [0.110567702597859, 51.474016839174787],
        [0.110371062813593, 51.474186747047213],
        [0.110033312940392, 51.474512972342957],
        [0.10975373850621, 51.47475811324621],
        [0.109381008847069, 51.475013023143809],
        [0.108973742394006, 51.475268553098388],
        [0.108722136000405, 51.475464626878036],
        [0.108477300433198, 51.475745111222416],
        [0.10829790474911, 51.476008231094482],
        [0.108230435445661, 51.476106567260409],
        [0.10822559145164, 51.476126438659058],
        [0.108165892683586, 51.476112224300593],
        [0.107666596313621, 51.475996200713311],
        [0.107663075352486, 51.475919824703588],
        [0.107548594997623, 51.475841846265979],
        [0.107399913321449, 51.475771676788781],
        [0.107336302102405, 51.475735050189833],
        [0.107272887411055, 51.475671441445584],
        [0.107200000797936, 51.475558542184302],
        [0.107160343306942, 51.475479218513968],
        [0.10705860766431, 51.475396514110557],
        [0.106897889371004, 51.475346344623603],
        [0.106378595942517, 51.475139847099392],
        [0.106162562080505, 51.475014231133102],
        [0.105636198415143, 51.475467033877472],
        [0.105191109433414, 51.475245709079282],
        [0.104891451875474, 51.475524472342364],
        [0.104814240228309, 51.475505174995618],
        [0.104688857487243, 51.47537792881851],
        [0.104484205145783, 51.475217932605915],
        [0.104127109528327, 51.475030995678928],
        [0.103856595996183, 51.4748478996949],
        [0.103711867584132, 51.474769561072549],
        [0.103377105331731, 51.474598408280642],
        [0.10329118013769, 51.47457746770089],
        [0.103272227161123, 51.474572412009003],
        [0.103141168392569, 51.474572065299185],
        [0.103087732265024, 51.474600002448888],
        [0.103076262839144, 51.474601107479565],
        [0.102672942613794, 51.474817875273708],
        [0.102550696282757, 51.474883916971173],
        [0.102549174786786, 51.474882145686728],
        [0.102470458336311, 51.474924025204466],
        [0.102001864724478, 51.474472892851644],
        [0.101821679059923, 51.474468929044292],
        [0.1017446837861, 51.474485597228906],
        [0.101697615027942, 51.474495433882971],
        [0.101440349628474, 51.474694291172852],
        [0.101428576168536, 51.474814107155098],
        [0.100946385278503, 51.474975627646955],
        [0.100199374698752, 51.475234516741772],
        [0.099782279150496, 51.47530853488545],
        [0.099242511832212, 51.475408129528326],
        [0.09871301096709, 51.475449084369274],
        [0.098223999413326, 51.475462333637331],
        [0.09816725158334, 51.475355435058681],
        [0.098097384940881, 51.475213699117752],
        [0.09802119456794, 51.475122436251553],
        [0.0974817262989, 51.474663561563034],
        [0.097334041475365, 51.474520519519395],
        [0.09708548968771, 51.474156258944269],
        [0.096909862277778, 51.474094651828182],
        [0.096803817959307, 51.473886115830716],
        [0.096560508999262, 51.473259169201789],
        [0.0965490365167, 51.473228798677802],
        [0.095664416612598, 51.473250010691963],
        [0.095354498549046, 51.47327443518072],
        [0.095007992296272, 51.473286023406935],
        [0.09464717814386, 51.473268189849854],
        [0.094471766730522, 51.473274021603089],
        [0.094210517236981, 51.473229227944636],
        [0.0939978173725, 51.473175473000239],
        [0.093846288529711, 51.473136812300829],
        [0.093589931631513, 51.473073044909668],
        [0.093171112254406, 51.472951925646299],
        [0.092839854170084, 51.472730320547093],
        [0.092691327613877, 51.472631352711517],
        [0.092481303839019, 51.472541575891142],
        [0.092138706908546, 51.472449668178015],
        [0.09197258853664, 51.472375294055368],
        [0.091936166696555, 51.472334576878467],
        [0.091860979981754, 51.472327824906039],
        [0.091744562052335, 51.472269650047991],
        [0.091542023370483, 51.472186033002522],
        [0.091398434174497, 51.472100464730978],
        [0.091264217424668, 51.472062391172784],
        [0.091298296409476, 51.472020416183675],
        [0.091279140732182, 51.471979390805231],
        [0.091220603550351, 51.471958852161549],
        [0.091196268691434, 51.471899034181895],
        [0.091096707007475, 51.471831565170774],
        [0.091108053347877, 51.471796290698116],
        [0.091184309033054, 51.47173198061148],
        [0.09087576014787, 51.471534245641742],
        [0.090533136690522, 51.471315534664754],
        [0.090103248368475, 51.471046220019758],
        [0.089831457498954, 51.47086491340427],
        [0.089543758938525, 51.470713566083361],
        [0.089047907921822, 51.470418444759353],
        [0.088896884838698, 51.470390560128457],
        [0.088591264080957, 51.470319566136205],
        [0.088102231771108, 51.470205075513661],
        [0.087597006791191, 51.470082777650134],
        [0.087268452615281, 51.470013987172038],
        [0.087002174145066, 51.469953080007052],
        [0.086609218830859, 51.469798203582734],
        [0.086344511913458, 51.469677014930518],
        [0.086018766098, 51.469543422544518],
        [0.08576318618583, 51.469432861599444],
        [0.085445201517345, 51.469090495659714],
        [0.085176910418452, 51.468795806342939],
        [0.085106757179189, 51.468709823552587],
        [0.084796740484623, 51.468731524193608],
        [0.084532008969247, 51.468325258905374],
        [0.084333853855742, 51.468021227016884],
        [0.083978138839189, 51.467545534652984],
        [0.08354292101258, 51.46693636162842],
        [0.083218293170946, 51.466478999440824],
        [0.082295579891878, 51.466641076553699],
        [0.082273966524246, 51.466609086230733],
        [0.082222892278429, 51.466530856414302],
        [0.082190117827136, 51.466411833768774],
        [0.082204415044509, 51.466061758350293],
        [0.082200794585429, 51.465697612612409],
        [0.082145433680478, 51.465114061222415],
        [0.08217576659818, 51.464736722398307],
        [0.082188938631625, 51.464646560021187],
        [0.082469276059855, 51.464131686247036],
        [0.082585106964968, 51.463893116774237],
        [0.082629964856032, 51.463613541697576],
        [0.082602500838152, 51.463263308677618],
        [0.082530921588653, 51.462987600669898],
        [0.082411763819657, 51.462647090028142],
        [0.082375331007043, 51.4625425209192],
        [0.082307756179946, 51.462196597433199],
        [0.082279334506834, 51.461920122633202],
        [0.082266497673182, 51.461606500319121],
        [0.082263716269668, 51.461545398368756],
        [0.082227135280722, 51.461184535704852],
        [0.082227442244053, 51.461096400352282],
        [0.082230960179967, 51.460983927276388],
        [0.082244540253472, 51.460902750434336],
        [0.082274195288082, 51.460795208795041],
        [0.082311614957709, 51.460700119207566],
        [0.082409877616961, 51.460518516745843],
        [0.082479657552497, 51.460343715176656],
        [0.082655940016559, 51.460073495827551],
        [0.082878283617846, 51.459834832032705],
        [0.080825185000452, 51.459575429221019],
        [0.079388822831668, 51.459392282829718],
        [0.078637195546437, 51.459293202569803],
        [0.078667655989825, 51.459266583189184],
        [0.078826741261648, 51.459124373028487],
        [0.079501473414799, 51.45864028114287],
        [0.079611591388713, 51.458560989165115],
        [0.079752615257194, 51.458623235748391],
        [0.080421225376533, 51.458226477664667],
        [0.080780116999595, 51.458046545716037],
        [0.080867414320284, 51.458003629001858],
        [0.08141983133091, 51.457774396037294],
        [0.082205913126904, 51.457523923701224],
        [0.08299600834706, 51.457298554696862],
        [0.083902312360599, 51.457064819481658],
        [0.084986178417679, 51.4568108326635],
        [0.085683982352701, 51.456645540427594],
        [0.08567968125904, 51.456551191952066],
        [0.085823273340089, 51.456196116957805],
        [0.086004389983467, 51.455780121838394],
        [0.086021548204902, 51.455619743606725],
        [0.086031010279473, 51.455543135918944],
        [0.086059096471701, 51.455401448207894],
        [0.086058253586847, 51.455256678167871],
        [0.086085401617022, 51.455062848550412],
        [0.086187792863296, 51.4548460969621],
        [0.086244765807137, 51.454706592937278],
        [0.086266934091622, 51.454561413331753],
        [0.086298604655596, 51.45434052456087],
        [0.086389000781582, 51.453766070343754],
        [0.086435564672634, 51.45339833275338],
        [0.086508314286103, 51.452941998951168],
        [0.086576051521907, 51.45247046641893],
        [0.086607727529202, 51.452186627328174],
        [0.086644459206941, 51.451887410345392],
        [0.086654001595935, 51.451812599696197],
        [0.086716901994792, 51.451550686856379],
        [0.086809631899061, 51.450964499733047],
        [0.086830661333636, 51.450699735063885],
        [0.086796301260747, 51.450451244366093],
        [0.087037426215187, 51.449963135083415],
        [0.087409079016505, 51.449496981565169],
        [0.087832984501915, 51.448662087662775],
        [0.087888065997833, 51.448418299012928],
        [0.08790847029908, 51.448171530880181],
        [0.088039314946598, 51.447506425412072],
        [0.088040589036934, 51.447092730561131],
        [0.088005654955019, 51.446800185204737],
        [0.087909701736834, 51.446589662646922],
        [0.087766825854846, 51.446423141594209],
        [0.087532129527109, 51.446231277097553],
        [0.087352975613488, 51.446089682409621],
        [0.08735504655765, 51.445945759549204],
        [0.087354934591965, 51.445848638504756],
        [0.087281200217588, 51.445746533525416],
        [0.087067702156761, 51.445609147148168],
        [0.086897499615431, 51.445537536802824],
        [0.086811603693461, 51.445452734524096],
        [0.086694601833907, 51.445411651756636],
        [0.086555576250289, 51.445392543831517],
        [0.086356243519798, 51.445344832741682],
        [0.08629429360537, 51.445311762514301],
        [0.086388667537107, 51.444982742068241],
        [0.086504563727455, 51.444683914171122],
        [0.086671522664186, 51.444400364261689],
        [0.086804584440777, 51.444130906911965],
        [0.086924285978699, 51.443915644527038],
        [0.087219178091494, 51.443565966412827],
        [0.087380176004552, 51.443246550032597],
        [0.086913317631184, 51.443264755563106],
        [0.086450531041491, 51.443246015955282],
        [0.086320589913368, 51.443236638238524],
        [0.085748272468948, 51.44299322499031],
        [0.085539090703122, 51.442950184268177],
        [0.085283288766539, 51.44286300823498],
        [0.085304779975855, 51.442829352239997],
        [0.08499253425656, 51.442735086189124],
        [0.084991055467946, 51.442734213207366],
        [0.084712050969261, 51.442611477180058],
        [0.084348349762144, 51.442872443871472],
        [0.083666603995221, 51.44325956830933],
        [0.083216121237431, 51.443542757700683],
        [0.083032425576848, 51.443427316552466],
        [0.082810242020559, 51.443288278302845],
        [0.082943821438217, 51.443187882216947],
        [0.082972953688974, 51.443163983032377],
        [0.083097905159099, 51.4430637400948],
        [0.0829320044819, 51.442928198213444],
        [0.082825868091236, 51.442841054889989],
        [0.08291367317569, 51.44277834301095],
        [0.083224277768601, 51.44264692263701],
        [0.08441559358999, 51.442010629921839],
        [0.084169846674205, 51.441796473132953],
        [0.08323865108963, 51.441097194964897],
        [0.082941692027418, 51.440864161545846],
        [0.082790055306601, 51.440725668118333],
        [0.082573889326069, 51.440560443182619],
        [0.081833152912244, 51.439998058556512],
        [0.081785468716364, 51.439962034732986],
        [0.081642247774041, 51.44004011864287],
        [0.081326681073893, 51.440188709533992],
        [0.080851623883337, 51.440405779186079],
        [0.080415830822458, 51.440030418930462],
        [0.080403838571352, 51.440019840344966],
        [0.080486829859645, 51.439977899298029],
        [0.080292813918357, 51.439824867052877],
        [0.080046313546876, 51.43962510371265],
        [0.080032802068604, 51.439612753476744],
        [0.080132964496252, 51.439568709366526],
        [0.080196275677761, 51.439537009954165],
        [0.08010424428719, 51.439443318853804],
        [0.079959360583352, 51.439294809808089],
        [0.079943921574225, 51.439271702320418],
        [0.079937680655493, 51.439261021624134],
        [0.080029379200424, 51.439220724945436],
        [0.079811638248311, 51.439020450728719],
        [0.079778579054178, 51.438989562302169],
        [0.079763834197757, 51.438981730358456],
        [0.079703253798126, 51.438946833823785],
        [0.079606484971037, 51.43890718364063],
        [0.07948851749927, 51.438876003078292],
        [0.079581966583465, 51.438747545525516],
        [0.079459663973551, 51.438652592452435],
        [0.079253175864101, 51.43847819689811],
        [0.079146721030679, 51.438415336702469],
        [0.079063320445387, 51.43832149169107],
        [0.078815263842879, 51.43815053060267],
        [0.078790047368736, 51.438133891395381],
        [0.078850359700698, 51.438099548023693],
        [0.079002623434572, 51.437998824909222],
        [0.079036190109537, 51.437977545880514],
        [0.078904222838157, 51.437796432083317],
        [0.078832834539679, 51.437650215171793],
        [0.07868564508627, 51.437419011027714],
        [0.078501240345173, 51.437192063834623],
        [0.078435126461401, 51.437130286164276],
        [0.078418577622669, 51.437114392458412],
        [0.078314441510119, 51.437007425318278],
        [0.078139196598821, 51.436792005873166],
        [0.077966818405762, 51.436608010404498],
        [0.077819983003346, 51.436447842618023],
        [0.077304539829181, 51.436630541909238],
        [0.077076957683471, 51.436688532578515],
        [0.076929721927673, 51.436741501884157],
        [0.076544623359384, 51.436879621410242],
        [0.076511975470863, 51.436857717660963],
        [0.075900786451881, 51.436452174618552],
        [0.075001893933246, 51.435888951413524],
        [0.074960377239032, 51.435861808531158],
        [0.075450912233918, 51.43551049461712],
        [0.075648498973356, 51.435362210275372],
        [0.076006226227733, 51.435128354681495],
        [0.076406874725588, 51.434889241118881],
        [0.076418212697906, 51.434885443099027],
        [0.076503165927803, 51.434855160784764],
        [0.075889577139332, 51.434459552415078],
        [0.076290185009997, 51.434092741079567],
        [0.076388301833845, 51.43400377194039],
        [0.075912348722985, 51.433755906236406],
        [0.075695931870641, 51.433647328366526],
        [0.075654742702871, 51.433627374231378],
        [0.076080139086878, 51.433299693175492],
        [0.07589269730989, 51.433036824217233],
        [0.075629776474392, 51.432854429048845],
        [0.075424062628661, 51.432696200320365],
        [0.075047209316551, 51.432412403295075],
        [0.074904062321429, 51.432333102487995],
        [0.074832767741588, 51.432315479628755],
        [0.074784730728239, 51.432271365658153],
        [0.074687219443422, 51.432183163101421],
        [0.074652690488234, 51.432151399980924],
        [0.07530756363695, 51.431998617460671],
        [0.075343176131053, 51.431990792543658],
        [0.075182198145522, 51.431613244292635],
        [0.074835988369008, 51.430830698575633],
        [0.07430479268678, 51.43149028650668],
        [0.074022226849547, 51.431572626048457],
        [0.073327823296027, 51.431773762967076],
        [0.073035153924188, 51.431378757179978],
        [0.073471425543411, 51.431259527836872],
        [0.072237708918061, 51.429938711926305],
        [0.071942833526664, 51.42965345553354],
        [0.071636595228794, 51.42943494655092],
        [0.071230810206254, 51.42921010253427],
        [0.070289020815668, 51.428679976299101],
        [0.070125160485774, 51.428587546324096],
        [0.069928824569219, 51.428476804676436],
        [0.068541613928202, 51.427607405833122],
        [0.066935082993663, 51.426722074769735],
        [0.066404183618907, 51.426337549067618],
        [0.066579522338756, 51.426015210279424],
        [0.064714558375614, 51.42561732333143],
        [0.064778973390204, 51.425514568990351],
        [0.064194198232791, 51.425370193013684],
        [0.064196991908472, 51.425368345232613],
        [0.064437224787654, 51.425049363077179],
        [0.064004022535459, 51.424789005828188],
        [0.063529143717167, 51.424465531451553],
        [0.063480154385709, 51.424399846789107],
        [0.063388309572645, 51.424308837332823],
        [0.063342174621393, 51.42427457741104],
        [0.063264054880178, 51.424232787007597],
        [0.063202312196572, 51.424203298253033],
        [0.062940584215118, 51.424108984154458],
        [0.061708273271992, 51.423734983757349],
        [0.061337517090654, 51.424062551202454],
        [0.060899947673142, 51.425079246864549],
        [0.060644449195271, 51.42505945890229],
        [0.059836364496253, 51.424874922533384],
        [0.059254123496336, 51.424722383905291],
        [0.059152501355206, 51.42470168734387],
        [0.059005797380302, 51.424670092035228],
        [0.058831760924966, 51.424670451753073],
        [0.058731067992453, 51.42467042209605],
        [0.058596597155385, 51.424590949186012],
        [0.058199762060824, 51.42488299310245],
        [0.057780796746673, 51.425162834201444],
        [0.056414973236926, 51.426140051854063],
        [0.056391304567266, 51.426157553602707],
        [0.055985201735748, 51.42650011240729],
        [0.054827026616449, 51.42752222928722],
        [0.054711296851312, 51.427668144066438],
        [0.054418173500531, 51.427932277081801],
        [0.053891805617825, 51.428448700020567],
        [0.053458873600044, 51.428995857665747],
        [0.052927025205716, 51.429647264851305],
        [0.052454009810997, 51.430167242819422],
        [0.0521561264533, 51.43048630963623],
        [0.051334903290432, 51.431262380673303],
        [0.051049086481592, 51.431529974097231],
        [0.050148223740294, 51.432134767511954],
        [0.049535906895261, 51.432533068544153],
        [0.049252122424486, 51.432717887713714],
        [0.048368624578927, 51.433325960546398],
        [0.047784917082394, 51.433753428511707],
        [0.047104174791518, 51.434392121499634],
        [0.046623639470043, 51.434842961315361],
        [0.046414868051971, 51.435032758455101],
        [0.046198231941465, 51.435239778901213],
        [0.045802212933032, 51.435650470434446],
        [0.045147078454523, 51.436219459705931],
        [0.04514815837504, 51.436404693235133],
        [0.045182907573577, 51.43660282849855],
        [0.044884582973883, 51.436785192569467],
        [0.044319001485741, 51.437169160717389],
        [0.043586651898494, 51.437653156474923],
        [0.043311620829711, 51.437745181989776],
        [0.043225340032919, 51.437875283588582],
        [0.042943536479465, 51.43829926165499],
        [0.04291251297272, 51.438345665821473],
        [0.042712313692704, 51.438631529905528],
        [0.042498105870798, 51.438990479634725],
        [0.042467241817081, 51.439040478024602],
        [0.042313396271607, 51.439268878785356],
        [0.042184708042481, 51.439480653912298],
        [0.041953568832372, 51.439653746073702],
        [0.041401294611787, 51.439950237360058],
        [0.040946420148116, 51.440204562307493],
        [0.040117054749509, 51.440709109822599],
        [0.040076999316036, 51.440746677578545],
        [0.040098614502199, 51.440811948951108],
        [0.03999945102348, 51.440879322501651],
        [0.039814260419542, 51.440985962986296],
        [0.039748519904948, 51.440996099879307],
        [0.039616922128312, 51.441046051892933],
        [0.039323730985225, 51.441150973774718],
        [0.039049630848547, 51.441264555615433],
        [0.038815386289664, 51.441336076574053],
        [0.038490115647872, 51.441399288098033],
        [0.038298205149247, 51.441452086103375],
        [0.037895577279203, 51.441652432734976],
        [0.037596388787524, 51.441784432958087],
        [0.036992408557168, 51.441922629027523],
        [0.036953149197243, 51.441978167482155],
        [0.036820945748137, 51.442014637612218],
        [0.036776372910654, 51.442047786300712],
        [0.036701723001852, 51.442051781315918],
        [0.036567524193324, 51.442140444156927],
        [0.036173588856331, 51.442310058158569],
        [0.036047335216196, 51.442350920451432],
        [0.035979875102289, 51.44238716424104],
        [0.03593530041704, 51.442387938503273],
        [0.035896477302462, 51.442388612846898],
        [0.035731360076155, 51.442429250547868],
        [0.035543595239915, 51.442446000728587],
        [0.035488995734803, 51.442480222325052],
        [0.035479170201561, 51.442485788642671],
        [0.035257495978612, 51.442613738823468],
        [0.035240560788415, 51.442621227134943],
        [0.035131959769281, 51.442670774722593],
        [0.03483738970735, 51.442777507722468],
        [0.034615432681767, 51.442899166603667],
        [0.034606126177042, 51.442916414492039],
        [0.034570817360028, 51.442963790010765],
        [0.034309316150807, 51.443069947641966],
        [0.034296614514389, 51.443075563775281],
        [0.034129775517078, 51.443142308223422],
        [0.034031756570184, 51.443203361780718],
        [0.033989697033028, 51.443228372238956],
        [0.033971523126266, 51.44324037826425],
        [0.033939608315142, 51.443299385342108],
        [0.033835196488473, 51.443443283514966],
        [0.033638918187673, 51.443495250289899],
        [0.033597297304497, 51.443530145082939],
        [0.033584834979995, 51.44354115267106],
        [0.033470518156888, 51.443591697133833],
        [0.033377212169682, 51.443596912947676],
        [0.033180532488995, 51.443672267211909],
        [0.033087626530066, 51.443654094552137],
        [0.033068773724366, 51.443650824434911],
        [0.032971232377053, 51.443690286059741],
        [0.032703771970326, 51.443792046999171],
        [0.032526544707795, 51.443819400923942],
        [0.03228524649012, 51.443894628085346],
        [0.032094636431411, 51.443944695405754],
        [0.031658495910706, 51.444007111990253],
        [0.031334028685861, 51.444153922603853],
        [0.031285895957618, 51.444171843078031],
        [0.031001098845615, 51.444207353762089],
        [0.030759240618208, 51.444237623425046],
        [0.030585760429944, 51.444317067741622],
        [0.030500721568038, 51.444314044509184],
        [0.030324892039109, 51.444308097490072],
        [0.029978330427427, 51.443275431044661],
        [0.029572925625425, 51.442116084575169],
        [0.029573979641121, 51.441977577103231],
        [0.02957430199775, 51.441952391662738],
        [0.029576442611495, 51.441741023636077],
        [0.029359008045479, 51.441705220093446],
        [0.028895103602876, 51.441627819437521],
        [0.028880565542761, 51.441624473964907],
        [0.028648793117625, 51.441589816573554],
        [0.028563321397251, 51.441576907371264],
        [0.028216001994103, 51.441532558190168],
        [0.027767509812619, 51.441510641786031],
        [0.027281145259906, 51.441543335541667],
        [0.026852454130007, 51.441578627099624],
        [0.026662250981115, 51.441605297294856],
        [0.026217901165981, 51.441644454393519],
        [0.025416227420534, 51.441738346061122],
        [0.025004383067023, 51.441796721002419],
        [0.024673019519558, 51.441852805034415],
        [0.024417585043776, 51.441901281777568],
        [0.02417381206849, 51.441953153693106],
        [0.023638528033517, 51.442083799308385],
        [0.023259137820251, 51.442192866708766],
        [0.022776160242131, 51.442367569430274],
        [0.022074409184487, 51.442573922158857],
        [0.021554006726702, 51.442715992058204],
        [0.021482904566047, 51.442735203923242],
        [0.021098223472168, 51.44340910299907],
        [0.020596858101249, 51.444210911298953],
        [0.021483411739514, 51.444441128291139],
        [0.021496512214676, 51.44444449947558],
        [0.021421116717091, 51.444659828214313],
        [0.021263122395416, 51.444992588291733],
        [0.021262253150672, 51.445233610110826],
        [0.021233995636859, 51.445701722548193],
        [0.021210059080632, 51.446691342271443],
        [0.021531914471661, 51.446777518390711],
        [0.022751115661571, 51.447141376940131],
        [0.022942439832943, 51.447204621844726],
        [0.022820146927409, 51.447433350669051],
        [0.022678721066777, 51.447652517437803],
        [0.022459515538936, 51.448033097711466],
        [0.022401728230588, 51.448125821209224],
        [0.02229383717738, 51.448257178815766],
        [0.02219679753702, 51.448438708729746],
        [0.022179315660723, 51.448531636043292],
        [0.0221406107741, 51.448665397023397],
        [0.022131448476939, 51.448718612534456],
        [0.021927612001847, 51.448958639070938],
        [0.02156735115509, 51.449013413803428],
        [0.020467203216381, 51.449130403351873],
        [0.019165582297388, 51.449280529391942],
        [0.017985480297815, 51.44941236195303],
        [0.017293980425982, 51.449527681440408],
        [0.015063793732753, 51.450031866772214],
        [0.01487599091385, 51.450604337846265],
        [0.015009173002988, 51.450621832636763],
        [0.015122754905901, 51.450226895741139],
        [0.019838435633883, 51.450732063053429],
        [0.01987167218154, 51.450735087456948],
        [0.019744869339459, 51.451123062752067],
        [0.019710689050246, 51.451196493219243],
        [0.019639689725906, 51.45134879525223],
        [0.019535944776843, 51.451704898253979],
        [0.019289100484793, 51.451688467344894],
        [0.018331621451972, 51.451582655498804],
        [0.018330500320767, 51.451589869026485],
        [0.018041597861636, 51.453002212874082],
        [0.018010143075243, 51.453039624767833],
        [0.017928128222045, 51.453138158639135],
        [0.017858966316866, 51.453267046641976],
        [0.017703636013378, 51.453596158169844],
        [0.017604035518727, 51.453818195518203],
        [0.017507603736378, 51.454112120435475],
        [0.017502302203398, 51.454187750991409],
        [0.017495154229475, 51.454286794539939],
        [0.017478425619377, 51.454364420314569],
        [0.017462620180369, 51.454430339590097],
        [0.017438715693605, 51.454573736111087],
        [0.017438188661713, 51.45459442856302],
        [0.017428639357759, 51.45470430475666],
        [0.017452313690388, 51.454751559022455],
        [0.017472873748299, 51.454793471216774],
        [0.017513934426629, 51.455039166553249],
        [0.017479692410629, 51.455046050820123],
        [0.016024377175, 51.455338173712974],
        [0.015316235452485, 51.455469954022576],
        [0.014813309274713, 51.45555503774623],
        [0.014395282117504, 51.455639559699577],
        [0.014197292768648, 51.455687026353033],
        [0.014030629863568, 51.455726760241895],
        [0.013528632696962, 51.455865779061675],
        [0.013160334051576, 51.455968327207501],
        [0.012979112535601, 51.456037086461819],
        [0.012606718008188, 51.456177472801386],
        [0.012288543804477, 51.456307035167548],
        [0.011915259765102, 51.456460024417026],
        [0.011700422516978, 51.45655004195595],
        [0.011518998929939, 51.456614306002784],
        [0.011516161713139, 51.456615253963925],
        [0.011484682995078, 51.456685038398909],
        [0.011483876728676, 51.456699440656742],
        [0.011485361820211, 51.456765961630488],
        [0.011481630389282, 51.456877535934908],
        [0.01141494273958, 51.456965010741669],
        [0.011375442171777, 51.457016047978669],
        [0.01125682143986, 51.457166463817252],
        [0.01123371205513, 51.457197435698539],
        [0.010998854309436, 51.457519808678811],
        [0.010796191043712, 51.457854218791972],
        [0.010645239358901, 51.458087921940098],
        [0.010442988611934, 51.458464590282041],
        [0.010311065573283, 51.458672786885579],
        [0.010113892161685, 51.459034079831888],
        [0.009947431283243, 51.459340889275545],
        [0.009903525690191, 51.459553871158356],
        [0.009867132878539, 51.459839565552301],
        [0.009823816344029, 51.460295341741997],
        [0.009747147163135, 51.460876688987007],
        [0.009764902565534, 51.461149764390896],
        [0.009804726940064, 51.46140087881917],
        [0.009823294845711, 51.461725198973504],
        [0.009843972797877, 51.462064770619286],
        [0.009825072402105, 51.462289913525176],
        [0.009795667717191, 51.462505344473001],
        [0.009719641744376, 51.462773732621237],
        [0.009617856521488, 51.463012886189759],
        [0.009532763055139, 51.463271537592014],
        [0.009380437079535, 51.463638355062223],
        [0.009310196423469, 51.463841895896529],
        [0.009279880631696, 51.464036658929913],
        [0.009269143746353, 51.464087202360382],
        [0.009120931589895, 51.464449452535469],
        [0.009048969685273, 51.464581080665923],
        [0.009017758322879, 51.464657154640186],
        [0.008988103884458, 51.464735899749442],
        [0.008987519777175, 51.464853714789129],
        [0.009067862169052, 51.465109530626307],
        [0.009138880800146, 51.465316945343986],
        [0.009174232181816, 51.465564539387195],
        [0.009116347847877, 51.465820026203694],
        [0.009097136377403, 51.46587431193371],
        [0.00994327333775, 51.465995598855827],
        [0.010484886263266, 51.466067246643775],
        [0.010753978141317, 51.466096804084579],
        [0.010913534553459, 51.466123743427687],
        [0.011302770658577, 51.466200698869969],
        [0.011459489928507, 51.466228585422918],
        [0.01159662138318, 51.466269397721405],
        [0.01180854799854, 51.466341300273093],
        [0.012089579409241, 51.466478562796205],
        [0.012483130247945, 51.466653461290434],
        [0.012746377894695, 51.466713689863077],
        [0.012837528722035, 51.46672381549282],
        [0.012974346462168, 51.466757437376742],
        [0.01315359808302, 51.466806517396165],
        [0.013245421612522, 51.46683191883848],
        [0.013141500584101, 51.466956904101679],
        [0.013012686214627, 51.467072424675898],
        [0.012764864620358, 51.467264628175798],
        [0.012691208631512, 51.467357618779097],
        [0.012666848542213, 51.467491129706467],
        [0.012692882605955, 51.467624674754028],
        [0.012779950912797, 51.467738287164401],
        [0.012976782095818, 51.467892280842058],
        [0.013053147754268, 51.467991688416632],
        [0.013068954000485, 51.46812181189857],
        [0.013051694387393, 51.46828577632526],
        [0.013013461804121, 51.468431216085534],
        [0.012889883165864, 51.468796645019516],
        [0.012601745173441, 51.469806981107666],
        [0.012992508643599, 51.469852430268062],
        [0.013481149299145, 51.469897096481127],
        [0.013486113127735, 51.469879025733086],
        [0.013496925650423, 51.469830279190397],
        [0.013587608067941, 51.469829621017347],
        [0.013756063481833, 51.469829425475922],
        [0.014025168078749, 51.469793328246631],
        [0.014358502440556, 51.469744436260072],
        [0.014545239832688, 51.469701659536845],
        [0.014987312679446, 51.469571761001006],
        [0.015263001401899, 51.469456411533685],
        [0.015528247949533, 51.469365521358029],
        [0.015831468437409, 51.469254193585932],
        [0.015849868188743, 51.46921430909979],
        [0.015960189634689, 51.46916924690688],
        [0.016030371601225, 51.469160845870206],
        [0.016041842005425, 51.469159749348236],
        [0.016111917723076, 51.469116278351791],
        [0.016330578461588, 51.468981223681098],
        [0.0165330234158, 51.469131517812791],
        [0.016612041464204, 51.46932350285158],
        [0.01662318548327, 51.469445612611104],
        [0.016694306568169, 51.469491151546393],
        [0.016605608997099, 51.469634762765082],
        [0.016463928975002, 51.469850327951505],
        [0.016347442667165, 51.469918877791265],
        [0.016291278308887, 51.4699513183646],
        [0.016205612652234, 51.470000453215768],
        [0.016199277799649, 51.470052720121679],
        [0.016196149986137, 51.470079752168296],
        [0.016143840720103, 51.470166982157728],
        [0.015893115675049, 51.470620031877061],
        [0.015515850622679, 51.471273096964779],
        [0.015357581282961, 51.47156988062995],
        [0.015212840282215, 51.471912294538051],
        [0.015079040304627, 51.472274304232485],
        [0.014995242540924, 51.472529339958101],
        [0.014953197249434, 51.472816931204989],
        [0.014984943542434, 51.473079873076024],
        [0.016029149469871, 51.473313718991022],
        [0.016194846228595, 51.473348639176123],
        [0.016552734869802, 51.47343151225764],
        [0.017780596520525, 51.473715240863648],
        [0.018123643340121, 51.473853220382047],
        [0.018041189903194, 51.473844747624803],
        [0.017040200117959, 51.473742369433467],
        [0.01525110989896, 51.473532129801107],
        [0.014356847787473, 51.47343328983569],
        [0.013563667489455, 51.47334080055704],
        [0.012088940318473, 51.473172774920762],
        [0.010148376515556, 51.472955165094994],
        [0.009218835046531, 51.472872178573141],
        [0.007489712658134, 51.472681476420405],
        [0.005411630332054, 51.472446358980797],
        [0.004544825883534, 51.472348773254019],
        [0.003759073651994, 51.472260587190249],
        [0.002842843087439, 51.472152143086475],
        [0.001636305359073, 51.472023468908681],
        [0.000878019966108, 51.47193749246847],
        [0.000365717726334, 51.47187878899328],
        [-0.000005678548651, 51.471848254964115],
        [-0.000359061555583, 51.471834498717335],
        [-0.000983537567782, 51.471811874886576],
        [-0.001192170921273, 51.471815431995232],
        [-0.001324348829836, 51.471822181743292],
        [-0.001496500444909, 51.471836806926106],
        [-0.002349620575289, 51.47195296398278],
        [-0.003598026925482, 51.472118112247301],
        [-0.005630396775761, 51.472400901135117],
        [-0.006689248603635, 51.47255469824772],
        [-0.006954579582491, 51.472578992994727],
        [-0.007362780845553, 51.472629096504733],
        [-0.008143439474023, 51.472756569413221],
        [-0.008614385959284, 51.472754677481035],
        [-0.008895829769851, 51.472739673537951],
        [-0.009071726084467, 51.472734567168573],
        [-0.010078009635802, 51.472607767365254],
        [-0.010322322714784, 51.472552561837553],
        [-0.011678683351778, 51.472388523808384],
        [-0.012518805642321, 51.472340718762688],
        [-0.012873974097348, 51.472352134633937],
        [-0.013143897523917, 51.472370198289745],
        [-0.013363187116055, 51.472393698257619],
        [-0.013671364508821, 51.472492444029982],
        [-0.014069480428079, 51.472675445398465],
        [-0.014257570470133, 51.47252215805522],
        [-0.0145429120215, 51.472151994482836],
        [-0.014540931658567, 51.472131277709266],
        [-0.014528595559616, 51.471917941530506],
        [-0.014534390039088, 51.471917140387546],
        [-0.014754580114192, 51.471886696741066],
        [-0.015184466870548, 51.471768976485755],
        [-0.014860694529681, 51.47139928998596],
        [-0.014422882832862, 51.470671559786041],
        [-0.014097013175962, 51.470118384126074],
        [-0.014046704017304, 51.470050086578752],
        [-0.013840918307403, 51.469782214720837],
        [-0.013716812571924, 51.469656012703403],
        [-0.013473973407835, 51.469379418948485],
        [-0.013128934513736, 51.468936525979316]
      ]
    ]
  }
}
