{
  "type": "Feature",
  "properties": {
    "name": "Greenwich",
    "level": 2,
    "londonBorough": true
  },
  "geometry": {
    "type": "Polygon",
    "coordinates": [
      [
        [-0.013128934513736, 51.468936525979316],
        [-0.015026678748423, 51.46803972442238],
        [-0.01509017849574, 51.46803630316658],
        [-0.016467349220844, 51.46904880987991],
        [-0.016558947219782, 51.46922751601011],
        [-0.016949378656955, 51.46905606490271],
        [-0.017161594284415, 51.46934202540988],
        [-0.017273814279597, 51.4694104693665],
        [-0.01847340566203, 51.4696052089496],
        [-0.018700574798492, 51.46971246438053],
        [-0.01911797301483, 51.469948831539234],
        [-0.019018145995207, 51.47005955369399],
        [-0.019166802611719, 51.47025091229403],
        [-0.019272643511135, 51.47049999995286],
        [-0.018937512550252, 51.47052491281295],
        [-0.018671673393807, 51.47064541918411],
        [-0.018792491271962, 51.47074817923134],
        [-0.018945196140185, 51.47087935535063],
        [-0.01895856485197, 51.47106932738044],
        [-0.018827550691174, 51.47110218510836],
        [-0.019023270936592, 51.471137866015],
        [-0.019110025631022, 51.471229258911045],
        [-0.019152986852303, 51.47146739223506],
        [-0.019285226860619, 51.47193814641453],
        [-0.020245066524926, 51.47218457144096],
        [-0.020299664462218, 51.47228711092829],
        [-0.020004520874233, 51.473017730127985],
        [-0.020050642154261, 51.47308325647749],
        [-0.020620837537124, 51.47318371056394],
        [-0.020647593371857, 51.47319765132365],
        [-0.02079653832655, 51.47348253663187],
        [-0.020836633435972, 51.47352098282277],
        [-0.0215776436292, 51.47393366446405],
        [-0.021772367884819, 51.47402597788072],
        [-0.022341450075006, 51.47408593755329],
        [-0.022449409500498, 51.47408685927227],
        [-0.022506457856095, 51.473966420044185],
        [-0.02267267510644, 51.47398541027393],
        [-0.02292453898194, 51.47525403103927],
        [-0.022887166947442, 51.47531904753099],
        [-0.020943805707517, 51.475536257591614],
        [-0.020846498840541, 51.4755885712522],
        [-0.020707537585115, 51.47577147506009],
        [-0.020652427220535, 51.47584698264377],
        [-0.020768475743543, 51.47635972700185],
        [-0.020791576878514, 51.476458137379076],
        [-0.02067034773221, 51.476630549227565],
        [-0.020578326984889, 51.476727016132486],
        [-0.019165146995811, 51.477203143692634],
        [-0.019118395520482, 51.47725181368623],
        [-0.019165821060742, 51.47778588195996],
        [-0.019201712223603, 51.47795465177075],
        [-0.018997722308055, 51.479405324532706],
        [-0.018964037119627, 51.47945151741682],
        [-0.018517580570031, 51.47981717019019],
        [-0.018443949805274, 51.479854594426676],
        [-0.017463668181602, 51.479943237845305],
        [-0.017231421168596, 51.47998517339184],
        [-0.016860020866009, 51.48028014757585],
        [-0.016859709006421, 51.48028733645934],
        [-0.017644585785615, 51.48071966869644],
        [-0.01787526521732, 51.48088004147168],
        [-0.018161346860065, 51.48085879851574],
        [-0.018400869074519, 51.48084845849733],
        [-0.02041798852137, 51.48023056124002],
        [-0.020367391366762, 51.47993564589151],
        [-0.022523464826471, 51.47969955032359],
        [-0.023070909902968, 51.47962874701855],
        [-0.023120720289547, 51.48024198908412],
        [-0.023161230821345, 51.480737270037956],
        [-0.024719825790622, 51.48119698494042],
        [-0.026408662495083, 51.48150959263225],
        [-0.025882950130986, 51.48204390078798],
        [-0.025819095326909, 51.48218850716762],
        [-0.02520716584126, 51.4849848189176],
        [-0.025201256155024, 51.485021589380416],
        [-0.024201723815789, 51.486186389464535],
        [-0.023444083277545, 51.48678602216965],
        [-0.021391274338965, 51.4858934986411],
        [-0.021080967478207, 51.48577495418834],
        [-0.01881382785844, 51.48504423280867],
        [-0.018031262870329, 51.484822377243404],
        [-0.015932978178628, 51.48461692898226],
        [-0.015662127189677, 51.48458536750176],
        [-0.012785469525513, 51.48452675742953],
        [-0.011057694481307, 51.484678215695276],
        [-0.010605945434713, 51.48473260157763],
        [-0.007958052599215, 51.48520832356939],
        [-0.006244363172143, 51.48569627751969],
        [-0.005926637844539, 51.48578170091444],
        [-0.002953226536017, 51.48714474981744],
        [-0.002175264545748, 51.48764228306459],
        [-0.001745551604878, 51.48801535225213],
        [-0.001476417062325, 51.48830662545414],
        [-0.000941383136924, 51.48911134500663],
        [-0.000703961016968, 51.48953355132242],
        [-0.000449130044669, 51.490913183273335],
        [-0.000415335019697, 51.49138922024733],
        [-0.001024408235671, 51.493074945112404],
        [-0.001081648373058, 51.493314227416896],
        [-0.002308864254042, 51.49489987012184],
        [-0.00246977736049, 51.49510764477095],
        [-0.004163409832275, 51.49792421703964],
        [-0.004331214526438, 51.49827149288631],
        [-0.005082692695715, 51.50072669281228],
        [-0.005179488618979, 51.50088571138398],
        [-0.005175388829637, 51.501243550459165],
        [-0.005137096579597, 51.501460522018796],
        [-0.004510494346339, 51.50294084813824],
        [-0.004326041090084, 51.50323806491315],
        [-0.003049278010933, 51.504657857567],
        [-0.00287506082637, 51.50481945689574],
        [-0.001317546545659, 51.505869346624564],
        [-0.000918753100646, 51.50605858983569],
        [0.001364524437815, 51.50666711955771],
        [0.002181836036154, 51.50673859925929],
        [0.003954586585647, 51.50674519036728],
        [0.004146198654558, 51.50671134085386],
        [0.007597973806146, 51.50551022928845],
        [0.008196679347078, 51.505231096943476],
        [0.009647724269985, 51.50428089149015],
        [0.009924117824301, 51.50407831533455],
        [0.01560468587842, 51.49918860342933],
        [0.016215975047351, 51.4988057965274],
        [0.018406167926361, 51.49766920894069],
        [0.019190507047182, 51.49735624844451],
        [0.023137241853366, 51.49629542588472],
        [0.024012464631958, 51.49614902863326],
        [0.027771127104947, 51.496016646658305],
        [0.029047831700534, 51.49608718737708],
        [0.034878857367579, 51.49681077968854],
        [0.034941120629668, 51.49681779267639],
        [0.04375750671199, 51.497347014204735],
        [0.044189439060017, 51.4973727585131],
        [0.048865345153394, 51.497195829209645],
        [0.049514082905922, 51.49717280179595],
        [0.058206945058631, 51.49645759816162],
        [0.058627889777318, 51.496431324044984],
        [0.063906315608532, 51.49664698986192],
        [0.066190953401304, 51.49676682732293],
        [0.068157952212645, 51.49696686308257],
        [0.071529689558258, 51.49748468345346],
        [0.073158453988575, 51.49784978262751],
        [0.073187572288109, 51.49785646204935],
        [0.074302105473652, 51.49819196693294],
        [0.074862333366512, 51.49837719897098],
        [0.07661094354921, 51.4992221433483],
        [0.077095689633092, 51.499489636604885],
        [0.077988869283849, 51.500120393800245],
        [0.078453655752443, 51.50048715589575],
        [0.080270499632419, 51.502162670003976],
        [0.081425595315672, 51.50322670362873],
        [0.084766764560679, 51.50732292057987],
        [0.084947345896559, 51.50749057314609],
        [0.087717976067678, 51.50946465932957],
        [0.088048000301328, 51.509685401962166],
        [0.090075491541393, 51.51065737662278],
        [0.090737846228192, 51.51092794373297],
        [0.093580070002645, 51.51149864050474],
        [0.093998954025358, 51.51155051425627],
        [0.098389370230551, 51.511844340240906],
        [0.099706264112953, 51.511899006946145],
        [0.107662842577108, 51.51151707094778],
        [0.107980929127332, 51.511539231498645],
        [0.109788444223711, 51.51176302272789],
        [0.110229445871011, 51.511825232071374],
        [0.117692114225022, 51.51341193658205],
        [0.118296800474391, 51.513584469439216],
        [0.120210881555192, 51.51144465939986],
        [0.120535238242955, 51.51104311028821],
        [0.120779899687313, 51.50662950004125],
        [0.12084757619328, 51.506069820960704],
        [0.121232994941162, 51.49258706980493],
        [0.121241474532387, 51.49134230513148],
        [0.121527080115312, 51.48865097086615],
        [0.121532608129562, 51.48855284865882],
        [0.121444442405808, 51.48773969066266],
        [0.121448447884391, 51.487639797421956],
        [0.122022672871952, 51.48586050994801],
        [0.122073709872917, 51.48556372096462],
        [0.122098012587094, 51.48242656883757],
        [0.122135010349096, 51.482230753901],
        [0.124040353802581, 51.477113477889056],
        [0.124160812268235, 51.476823523309285],
        [0.12343973201442, 51.47732849624723],
        [0.122935992528025, 51.47758312444628],
        [0.121010927681533, 51.47839854851783],
        [0.120731018051857, 51.478511526535534],
        [0.118849017352938, 51.47879735471429],
        [0.118454315653615, 51.47891959606058],
        [0.115079418183107, 51.475794356155895],
        [0.115049269020549, 51.475765223598565],
        [0.114345833510788, 51.47537682991788],
        [0.114024793153009, 51.47519197050234],
        [0.113067468370788, 51.47398350100676],
        [0.113005804750584, 51.47389558300421],
        [0.11223813836367, 51.473269124191276],
        [0.111975696713657, 51.473074210601105],
        [0.108973742394006, 51.47526855309839],
        [0.108722136000405, 51.475464626878036],
        [0.108230435445661, 51.47610656726041],
        [0.10822559145164, 51.47612643865906],
        [0.108165892683586, 51.47611222430059],
        [0.107666596313621, 51.47599620071331],
        [0.107160343306942, 51.47547921851397],
        [0.10705860766431, 51.47539651411056],
        [0.106378595942517, 51.47513984709939],
        [0.106162562080505, 51.4750142311331],
        [0.105636198415143, 51.47546703387747],
        [0.105191109433414, 51.47524570907928],
        [0.104891451875474, 51.475524472342364],
        [0.103711867584132, 51.47476956107255],
        [0.103377105331731, 51.47459840828064],
        [0.103272227161123, 51.474572412009],
        [0.103141168392569, 51.474572065299185],
        [0.102470458336311, 51.474924025204466],
        [0.102001864724478, 51.474472892851644],
        [0.1017446837861, 51.474485597228906],
        [0.101697615027942, 51.47449543388297],
        [0.101440349628474, 51.47469429117285],
        [0.101428576168536, 51.4748141071551],
        [0.100946385278503, 51.474975627646955],
        [0.100199374698752, 51.47523451674177],
        [0.09871301096709, 51.475449084369274],
        [0.098223999413326, 51.47546233363733],
        [0.09708548968771, 51.47415625894427],
        [0.096909862277778, 51.47409465182818],
        [0.096560508999262, 51.47325916920179],
        [0.0965490365167, 51.4732287986778],
        [0.09464717814386, 51.473268189849854],
        [0.094471766730522, 51.47327402160309],
        [0.093589931631513, 51.47307304490967],
        [0.093171112254406, 51.4729519256463],
        [0.091398434174497, 51.47210046473098],
        [0.091264217424668, 51.472062391172784],
        [0.091108053347877, 51.471796290698116],
        [0.091184309033054, 51.47173198061148],
        [0.089543758938525, 51.47071356608336],
        [0.089047907921822, 51.47041844475935],
        [0.087268452615281, 51.47001398717204],
        [0.087002174145066, 51.46995308000705],
        [0.086018766098, 51.46954342254452],
        [0.08576318618583, 51.469432861599444],
        [0.085106757179189, 51.46870982355259],
        [0.084796740484623, 51.46873152419361],
        [0.083218293170946, 51.466478999440824],
        [0.082295579891878, 51.4666410765537],
        [0.082145433680478, 51.465114061222415],
        [0.08217576659818, 51.46473672239831],
        [0.082585106964968, 51.46389311677424],
        [0.082629964856032, 51.463613541697576],
        [0.082227442244053, 51.46109640035228],
        [0.082230960179967, 51.46098392727639],
        [0.082655940016559, 51.46007349582755],
        [0.082878283617846, 51.459834832032705],
        [0.079388822831668, 51.45939228282972],
        [0.078637195546437, 51.4592932025698],
        [0.079501473414799, 51.45864028114287],
        [0.079611591388713, 51.458560989165115],
        [0.079752615257194, 51.45862323574839],
        [0.080867414320284, 51.45800362900186],
        [0.08141983133091, 51.457774396037294],
        [0.084986178417679, 51.4568108326635],
        [0.085683982352701, 51.456645540427594],
        [0.086187792863296, 51.4548460969621],
        [0.086244765807137, 51.45470659293728],
        [0.086830661333636, 51.450699735063885],
        [0.086796301260747, 51.45045124436609],
        [0.087409079016505, 51.44949698156517],
        [0.087832984501915, 51.448662087662775],
        [0.08790847029908, 51.44817153088018],
        [0.088039314946598, 51.44750642541207],
        [0.088040589036934, 51.44709273056113],
        [0.088005654955019, 51.44680018520474],
        [0.087532129527109, 51.44623127709755],
        [0.087352975613488, 51.44608968240962],
        [0.087354934591965, 51.445848638504756],
        [0.087281200217588, 51.445746533525416],
        [0.086356243519798, 51.44534483274168],
        [0.08629429360537, 51.4453117625143],
        [0.086388667537107, 51.44498274206824],
        [0.086504563727455, 51.44468391417112],
        [0.087219178091494, 51.44356596641283],
        [0.087380176004552, 51.4432465500326],
        [0.086450531041491, 51.44324601595528],
        [0.086320589913368, 51.443236638238524],
        [0.084991055467946, 51.442734213207366],
        [0.084712050969261, 51.44261147718006],
        [0.083666603995221, 51.44325956830933],
        [0.083216121237431, 51.44354275770068],
        [0.083032425576848, 51.443427316552466],
        [0.082810242020559, 51.443288278302845],
        [0.082972953688974, 51.44316398303238],
        [0.083097905159099, 51.4430637400948],
        [0.0829320044819, 51.442928198213444],
        [0.082825868091236, 51.44284105488999],
        [0.083224277768601, 51.44264692263701],
        [0.08441559358999, 51.44201062992184],
        [0.081833152912244, 51.43999805855651],
        [0.081785468716364, 51.439962034732986],
        [0.081326681073893, 51.44018870953399],
        [0.080851623883337, 51.44040577918608],
        [0.080046313546876, 51.43962510371265],
        [0.080032802068604, 51.439612753476744],
        [0.080132964496252, 51.439568709366526],
        [0.080196275677761, 51.439537009954165],
        [0.079937680655493, 51.439261021624134],
        [0.080029379200424, 51.439220724945436],
        [0.078815263842879, 51.43815053060267],
        [0.078790047368736, 51.43813389139538],
        [0.079002623434572, 51.43799882490922],
        [0.079036190109537, 51.437977545880514],
        [0.077966818405762, 51.4366080104045],
        [0.077819983003346, 51.43644784261802],
        [0.076929721927673, 51.43674150188416],
        [0.076544623359384, 51.43687962141024],
        [0.075001893933246, 51.435888951413524],
        [0.074960377239032, 51.43586180853116],
        [0.076418212697906, 51.43488544309903],
        [0.076503165927803, 51.434855160784764],
        [0.075889577139332, 51.43445955241508],
        [0.076290185009997, 51.43409274107957],
        [0.076388301833845, 51.43400377194039],
        [0.075654742702871, 51.43362737423138],
        [0.076080139086878, 51.43329969317549],
        [0.074687219443422, 51.43218316310142],
        [0.074652690488234, 51.432151399980924],
        [0.07530756363695, 51.43199861746067],
        [0.075343176131053, 51.43199079254366],
        [0.075182198145522, 51.431613244292635],
        [0.074835988369008, 51.43083069857563],
        [0.07430479268678, 51.43149028650668],
        [0.074022226849547, 51.43157262604846],
        [0.073327823296027, 51.431773762967076],
        [0.073035153924188, 51.43137875717998],
        [0.073471425543411, 51.43125952783687],
        [0.072237708918061, 51.429938711926305],
        [0.071942833526664, 51.42965345553354],
        [0.066404183618907, 51.42633754906762],
        [0.066579522338756, 51.426015210279424],
        [0.064714558375614, 51.42561732333143],
        [0.064778973390204, 51.42551456899035],
        [0.064194198232791, 51.425370193013684],
        [0.064196991908472, 51.42536834523261],
        [0.064437224787654, 51.42504936307718],
        [0.062940584215118, 51.42410898415446],
        [0.061708273271992, 51.42373498375735],
        [0.061337517090654, 51.424062551202454],
        [0.060899947673142, 51.42507924686455],
        [0.058731067992453, 51.42467042209605],
        [0.058596597155385, 51.42459094918601],
        [0.056414973236926, 51.42614005185406],
        [0.056391304567266, 51.42615755360271],
        [0.054418173500531, 51.4279322770818],
        [0.053891805617825, 51.42844870002057],
        [0.051334903290432, 51.4312623806733],
        [0.051049086481592, 51.43152997409723],
        [0.048368624578927, 51.4333259605464],
        [0.047784917082394, 51.43375342851171],
        [0.045802212933032, 51.435650470434446],
        [0.045147078454523, 51.43621945970593],
        [0.04514815837504, 51.43640469323513],
        [0.045182907573577, 51.43660282849855],
        [0.043586651898494, 51.43765315647492],
        [0.043311620829711, 51.437745181989776],
        [0.042313396271607, 51.439268878785356],
        [0.042184708042481, 51.4394806539123],
        [0.040098614502199, 51.44081194895111],
        [0.03999945102348, 51.44087932250165],
        [0.035731360076155, 51.44242925054787],
        [0.035543595239915, 51.44244600072859],
        [0.033584834979995, 51.44354115267106],
        [0.033470518156888, 51.44359169713383],
        [0.030759240618208, 51.444237623425046],
        [0.030585760429944, 51.44431706774162],
        [0.030500721568038, 51.444314044509184],
        [0.030324892039109, 51.44430809749007],
        [0.02957430199775, 51.44195239166274],
        [0.029576442611495, 51.44174102363608],
        [0.028216001994103, 51.44153255819017],
        [0.027767509812619, 51.44151064178603],
        [0.026217901165981, 51.44164445439352],
        [0.025416227420534, 51.44173834606112],
        [0.02417381206849, 51.441953153693106],
        [0.023638528033517, 51.442083799308385],
        [0.021554006726702, 51.442715992058204],
        [0.021482904566047, 51.44273520392324],
        [0.021098223472168, 51.44340910299907],
        [0.020596858101249, 51.44421091129895],
        [0.021483411739514, 51.44444112829114],
        [0.021496512214676, 51.44444449947558],
        [0.021421116717091, 51.44465982821431],
        [0.021263122395416, 51.44499258829173],
        [0.021233995636859, 51.44570172254819],
        [0.021210059080632, 51.44669134227144],
        [0.022751115661571, 51.44714137694013],
        [0.022942439832943, 51.447204621844726],
        [0.0221406107741, 51.4486653970234],
        [0.022131448476939, 51.448718612534456],
        [0.021927612001847, 51.44895863907094],
        [0.017293980425982, 51.44952768144041],
        [0.015063793732753, 51.450031866772214],
        [0.01487599091385, 51.450604337846265],
        [0.015009173002988, 51.45062183263676],
        [0.015122754905901, 51.45022689574114],
        [0.019838435633883, 51.45073206305343],
        [0.01987167218154, 51.45073508745695],
        [0.019639689725906, 51.45134879525223],
        [0.019535944776843, 51.45170489825398],
        [0.019289100484793, 51.451688467344894],
        [0.018331621451972, 51.451582655498804],
        [0.018330500320767, 51.451589869026485],
        [0.018041597861636, 51.45300221287408],
        [0.017604035518727, 51.4538181955182],
        [0.017507603736378, 51.454112120435475],
        [0.017472873748299, 51.454793471216774],
        [0.017513934426629, 51.45503916655325],
        [0.014197292768648, 51.45568702635303],
        [0.014030629863568, 51.455726760241895],
        [0.011518998929939, 51.456614306002784],
        [0.011516161713139, 51.456615253963925],
        [0.011485361820211, 51.45676596163049],
        [0.011481630389282, 51.45687753593491],
        [0.010113892161685, 51.45903407983189],
        [0.009947431283243, 51.459340889275545],
        [0.009823816344029, 51.460295341742],
        [0.009747147163135, 51.46087668898701],
        [0.009825072402105, 51.462289913525176],
        [0.009795667717191, 51.462505344473],
        [0.009017758322879, 51.464657154640186],
        [0.008988103884458, 51.46473589974944],
        [0.009116347847877, 51.465820026203694],
        [0.009097136377403, 51.46587431193371],
        [0.011302770658577, 51.46620069886997],
        [0.011459489928507, 51.46622858542292],
        [0.01315359808302, 51.466806517396165],
        [0.013245421612522, 51.46683191883848],
        [0.012691208631512, 51.4673576187791],
        [0.012666848542213, 51.46749112970647],
        [0.012976782095818, 51.46789228084206],
        [0.013053147754268, 51.46799168841663],
        [0.012889883165864, 51.468796645019516],
        [0.012601745173441, 51.469806981107666],
        [0.014025168078749, 51.46979332824663],
        [0.014358502440556, 51.46974443626007],
        [0.016330578461588, 51.4689812236811],
        [0.0165330234158, 51.46913151781279],
        [0.01662318548327, 51.4694456126111],
        [0.016694306568169, 51.46949115154639],
        [0.016291278308887, 51.4699513183646],
        [0.016205612652234, 51.47000045321577],
        [0.015515850622679, 51.47127309696478],
        [0.015357581282961, 51.47156988062995],
        [0.014953197249434, 51.47281693120499],
        [0.014984943542434, 51.473079873076024],
        [0.017780596520525, 51.47371524086365],
        [0.018123643340121, 51.47385322038205],
        [0.000365717726334, 51.47187878899328],
        [-0.000005678548651, 51.471848254964115],
        [-0.001324348829836, 51.47182218174329],
        [-0.001496500444909, 51.471836806926106],
        [-0.007362780845553, 51.47262909650473],
        [-0.008143439474023, 51.47275656941322],
        [-0.011678683351778, 51.472388523808384],
        [-0.012518805642321, 51.47234071876269],
        [-0.013671364508821, 51.47249244402998],
        [-0.014069480428079, 51.472675445398465],
        [-0.014540931658567, 51.472131277709266],
        [-0.014528595559616, 51.471917941530506],
        [-0.014754580114192, 51.471886696741066],
        [-0.015184466870548, 51.471768976485755],
        [-0.013128934513736, 51.468936525979316]
      ]
    ]
  }
}
