{
  "type": "Feature",
  "properties": {
    "name": "Hackney",
    "level": 2,
    "londonBorough": true
  },
  "geometry": {
    "type": "Polygon",
    "coordinates": [
      [
        [-0.097664699462498, 51.573652196359205],
        [-0.096641920830911, 51.57381546055856],
        [-0.096613077814426, 51.57381499271407],
        [-0.094893122867545, 51.573601836557806],
        [-0.094710384126035, 51.57358897789182],
        [-0.093724257692077, 51.573945250828636],
        [-0.093583052891918, 51.57397443052662],
        [-0.091488269627121, 51.57399343492357],
        [-0.091389713916036, 51.57400352217821],
        [-0.090092697158023, 51.574373591938986],
        [-0.089981047858785, 51.57438616264793],
        [-0.087421106588055, 51.574381335749344],
        [-0.086872117331604, 51.57429235346821],
        [-0.087180148904837, 51.57451769093451],
        [-0.087231619192713, 51.574701077364054],
        [-0.085853251790731, 51.574876436011415],
        [-0.085689182839118, 51.57503742282154],
        [-0.081847284518436, 51.575453085487524],
        [-0.080876789273162, 51.57564044782909],
        [-0.077056141556109, 51.57507162339268],
        [-0.076246663569787, 51.574931561365595],
        [-0.07589860808423, 51.57534760291943],
        [-0.075784258051212, 51.57549230556768],
        [-0.075374868427618, 51.57534440950318],
        [-0.075323747111639, 51.57532468678411],
        [-0.075205146622023, 51.57533083470116],
        [-0.075175502714925, 51.575554261640114],
        [-0.07443554457206, 51.575613162424204],
        [-0.074448522167901, 51.575681718363924],
        [-0.071852584176361, 51.57560492059883],
        [-0.070933976754398, 51.575690538975415],
        [-0.067089358853413, 51.576301711192244],
        [-0.066737752354477, 51.57635706805309],
        [-0.066782901898923, 51.57661949381127],
        [-0.062715942301328, 51.577466960219425],
        [-0.061184138252468, 51.577784276148364],
        [-0.06008346830142, 51.57560248668908],
        [-0.060004514144604, 51.575423129595364],
        [-0.059079360630928, 51.57406974416023],
        [-0.058864751224128, 51.57375505302839],
        [-0.058450170090105, 51.57257916639704],
        [-0.058430836401902, 51.57252489136714],
        [-0.057106084838132, 51.57161090570676],
        [-0.056770647272673, 51.57135535892957],
        [-0.056621585059434, 51.57099318923724],
        [-0.056399178169221, 51.570794367703456],
        [-0.056010289803644, 51.57060807500216],
        [-0.055869562324713, 51.57055808305372],
        [-0.054556083497552, 51.57036275754957],
        [-0.054439044357583, 51.57029876856417],
        [-0.053384250881756, 51.56874355164998],
        [-0.053293902012282, 51.568662918443934],
        [-0.050852681651873, 51.56757655943416],
        [-0.050787929436546, 51.567538614369326],
        [-0.047547516910067, 51.565238401800414],
        [-0.047483502217282, 51.565183381297274],
        [-0.046625033463894, 51.5641052743232],
        [-0.046620421646253, 51.56407821990225],
        [-0.046693223879558, 51.56379346889684],
        [-0.046705566937995, 51.563774790029065],
        [-0.047322541408166, 51.5630467713788],
        [-0.047329116928807, 51.56302799646024],
        [-0.047092118320265, 51.56256543202507],
        [-0.047072395801867, 51.56255431269437],
        [-0.046064187919179, 51.562311814117706],
        [-0.04572632512041, 51.5622504333035],
        [-0.045103965969965, 51.56175806475946],
        [-0.044740427428929, 51.56168995847932],
        [-0.044145450170173, 51.56173669498742],
        [-0.04373502165165, 51.561719061487864],
        [-0.042539115947644, 51.56137988008547],
        [-0.042389641068997, 51.56136659516719],
        [-0.040191552365832, 51.56178762130019],
        [-0.040076523689061, 51.56177850582551],
        [-0.038982954361125, 51.56117391837741],
        [-0.038837806420346, 51.561160701239785],
        [-0.036608076008893, 51.56151188871808],
        [-0.036416522069211, 51.56150418681236],
        [-0.03601470177508, 51.56145429709076],
        [-0.035263335452645, 51.561279851323775],
        [-0.033516366240826, 51.560639989042016],
        [-0.03330798170858, 51.560621208858315],
        [-0.032569738934562, 51.56067807467235],
        [-0.032177970016675, 51.56076322881691],
        [-0.030545840590114, 51.56130687178467],
        [-0.030486226186301, 51.561317561438315],
        [-0.029376511206733, 51.56132320815183],
        [-0.029170460780857, 51.561283776911694],
        [-0.025890887143443, 51.559922920124386],
        [-0.025534438496398, 51.559692107620734],
        [-0.024447146828982, 51.5587484682277],
        [-0.024377557913437, 51.55865647138123],
        [-0.023982505171903, 51.55761926848782],
        [-0.023968670751275, 51.557372638680796],
        [-0.023094184853067, 51.557278772207056],
        [-0.023033950869055, 51.557270563186876],
        [-0.018827502882211, 51.555339939285254],
        [-0.018471118694806, 51.55517565098686],
        [-0.018075611543357, 51.55408626188972],
        [-0.017950462358184, 51.554210943262],
        [-0.01767582545869, 51.55372609851081],
        [-0.017504257253507, 51.553392271880924],
        [-0.017169966733894, 51.55159259897858],
        [-0.017167826416588, 51.55157547686374],
        [-0.018082364549398, 51.55157474345226],
        [-0.018995692610724, 51.55160185952865],
        [-0.018887995248019, 51.55142468526985],
        [-0.018844298254045, 51.55130164802622],
        [-0.018948721922101, 51.5506577427667],
        [-0.018941921131546, 51.55048227223409],
        [-0.01750855894007, 51.54765326631456],
        [-0.017458791493296, 51.547537319938996],
        [-0.016620826475024, 51.544319988637994],
        [-0.01652721344312, 51.54388586128371],
        [-0.016572154615581, 51.54338303485981],
        [-0.016571534095841, 51.54336413988249],
        [-0.016764913097769, 51.543394387110524],
        [-0.016823265729906, 51.54334591422917],
        [-0.018555785381558, 51.54356763209146],
        [-0.01922812888627, 51.54359427382882],
        [-0.023863466698726, 51.54332443505277],
        [-0.025348521414564, 51.543233437223265],
        [-0.025542923007693, 51.543340124264795],
        [-0.025612682461135, 51.54336108208372],
        [-0.025858126322728, 51.543121513238766],
        [-0.026506612670056, 51.54289951599465],
        [-0.02871744118683, 51.54233238478791],
        [-0.029006937743869, 51.54227430093724],
        [-0.029386185352479, 51.54287598223254],
        [-0.029474738153221, 51.54302944461873],
        [-0.030516684644819, 51.54338056730324],
        [-0.030950715689277, 51.543482275470275],
        [-0.033173131085308, 51.5446858961954],
        [-0.033263026480742, 51.5446748136892],
        [-0.034069970931654, 51.544055260931906],
        [-0.034537153525357, 51.543655724770716],
        [-0.036784969327328, 51.54246227815191],
        [-0.037762637578035, 51.54179429952736],
        [-0.037156686675016, 51.54143165277578],
        [-0.041102663469163, 51.537762989244975],
        [-0.04143719238664, 51.5374610284737],
        [-0.042391367978547, 51.53700034839985],
        [-0.04346973737504, 51.53650126547931],
        [-0.043832411694178, 51.53648393320345],
        [-0.043970517111193, 51.5364241872843],
        [-0.044788943439895, 51.53583263024369],
        [-0.044860664598157, 51.535807747146706],
        [-0.047327741932793, 51.53550622280753],
        [-0.047574768888905, 51.535529219020624],
        [-0.048310663107543, 51.53565207373858],
        [-0.048428451517979, 51.53569629855611],
        [-0.049299509432479, 51.53619908409956],
        [-0.04955138350842, 51.53631118328038],
        [-0.05080916348482, 51.53647057543851],
        [-0.050956829523697, 51.536456842364686],
        [-0.052142153003103, 51.53608445413415],
        [-0.052394551469178, 51.53591418890416],
        [-0.052809858953869, 51.53517020311319],
        [-0.05283602508153, 51.53492873706145],
        [-0.053856767830195, 51.535134520289745],
        [-0.054141068031902, 51.53516261732352],
        [-0.055038697773087, 51.53511095874205],
        [-0.055225683691292, 51.53508798042117],
        [-0.058753772714038, 51.53411137364044],
        [-0.059063302649189, 51.53408861861328],
        [-0.060371209782104, 51.53428920437683],
        [-0.060460418476275, 51.53432754895228],
        [-0.062095124215007, 51.53545705508736],
        [-0.062470390969628, 51.53551631009361],
        [-0.062850285961613, 51.53499112345029],
        [-0.062838017694726, 51.53463481516535],
        [-0.062314138388829, 51.53338968437202],
        [-0.062238001879609, 51.53324724332286],
        [-0.063263092487727, 51.53307892560231],
        [-0.064980689303512, 51.53290044233043],
        [-0.065110306532173, 51.533175954462635],
        [-0.065140252145485, 51.53321781421325],
        [-0.066178929436544, 51.53150387283553],
        [-0.066313239362307, 51.53122641808997],
        [-0.071926480884508, 51.53087638230006],
        [-0.072265406030303, 51.530839687638014],
        [-0.074170571030067, 51.530142584222745],
        [-0.074373566146549, 51.53001282688793],
        [-0.075478441558203, 51.52859934382656],
        [-0.075635284956593, 51.52843555464799],
        [-0.076888494005308, 51.527502896123806],
        [-0.077253274544128, 51.527296651692346],
        [-0.076315321390012, 51.527146384666516],
        [-0.076539619303455, 51.526510691727786],
        [-0.076635605664533, 51.526388168314256],
        [-0.076560493889585, 51.525331209669616],
        [-0.076443040393141, 51.52428704527109],
        [-0.075915414602925, 51.52432155575058],
        [-0.075776462298294, 51.523856159124676],
        [-0.075718605313005, 51.52358723144995],
        [-0.076163378418355, 51.52220067923844],
        [-0.07618706898977, 51.522151608675074],
        [-0.076453858610134, 51.52201210306731],
        [-0.076717896389806, 51.52221157158227],
        [-0.077131390620586, 51.52211403719106],
        [-0.077922818184295, 51.52194176200801],
        [-0.07823645946911, 51.521853378500545],
        [-0.078452771099408, 51.52154308180648],
        [-0.078471456521479, 51.521510115418195],
        [-0.080758993334994, 51.52188928562105],
        [-0.081050361427031, 51.5219534037536],
        [-0.081549347427687, 51.52102184328708],
        [-0.081762266305304, 51.52075734719293],
        [-0.083325471531582, 51.519814402822064],
        [-0.085217864214879, 51.520334506648005],
        [-0.084703230079292, 51.521606644847125],
        [-0.084523727136056, 51.522071326702715],
        [-0.084315375004608, 51.52360115527838],
        [-0.084223509326025, 51.52390090555944],
        [-0.084527807602366, 51.52389778193108],
        [-0.085139330906803, 51.523924852543146],
        [-0.085111053724994, 51.52442707479239],
        [-0.085443391956264, 51.524511634307764],
        [-0.085030826559852, 51.525205419573126],
        [-0.084750980438679, 51.525415772582704],
        [-0.084908945554161, 51.525876972023276],
        [-0.085020668718096, 51.52620342723083],
        [-0.086456320889978, 51.52586445672716],
        [-0.086795377284974, 51.52578905449051],
        [-0.087294474427338, 51.52591949273847],
        [-0.087439912368556, 51.525957834421945],
        [-0.087804130585512, 51.526107653297004],
        [-0.088552187902933, 51.527315854706565],
        [-0.088598187092709, 51.52735347372176],
        [-0.089601311427835, 51.5277043381451],
        [-0.09540531887285, 51.52919346390797],
        [-0.095083530547897, 51.52992562668574],
        [-0.09511285727993, 51.530051998437905],
        [-0.096261427676978, 51.53186105803286],
        [-0.097033608100967, 51.53298236630771],
        [-0.094484062848796, 51.533854620192564],
        [-0.093986166003922, 51.53403807223079],
        [-0.088198993333344, 51.536779244935104],
        [-0.087701284982235, 51.53702562136075],
        [-0.086815832589128, 51.53726837039157],
        [-0.086617390930976, 51.53725524205406],
        [-0.083629407032597, 51.54522421158355],
        [-0.083838271856327, 51.54660347995682],
        [-0.07832097247439, 51.54624166082553],
        [-0.076839387135842, 51.54607979693592],
        [-0.076377889569333, 51.54635279786874],
        [-0.076415115173122, 51.54697479244465],
        [-0.076441068411634, 51.54731693430307],
        [-0.076757501097112, 51.54815842777274],
        [-0.076916246839783, 51.54842990676126],
        [-0.077905188864838, 51.54967359365989],
        [-0.078683967855798, 51.5509426061919],
        [-0.079579349993751, 51.551738716454736],
        [-0.079724828503981, 51.55181213861188],
        [-0.081121414154933, 51.55197617153293],
        [-0.083217644316815, 51.55213903087723],
        [-0.08530118140611, 51.552123593658635],
        [-0.085404362478424, 51.55213966554575],
        [-0.087744855063034, 51.552944898153136],
        [-0.088588488212061, 51.553947821732535],
        [-0.089049958016451, 51.55381325724414],
        [-0.08929965748669, 51.55374088766806],
        [-0.090257820905827, 51.55414586363264],
        [-0.090403339507118, 51.55415003070044],
        [-0.090307915333162, 51.5553606675896],
        [-0.090266331006007, 51.555802422058434],
        [-0.090383391061479, 51.55772602571659],
        [-0.090292552677433, 51.557793789493665],
        [-0.091556529045351, 51.56006248102714],
        [-0.091591392183282, 51.56016016707659],
        [-0.093340614966423, 51.56048895480123],
        [-0.093635304574931, 51.56051442593555],
        [-0.096032179896182, 51.561226882788155],
        [-0.098587621785283, 51.560837582190686],
        [-0.103793712511508, 51.56432189041924],
        [-0.104510703755623, 51.56470576375189],
        [-0.101380521439118, 51.56666137814069],
        [-0.10070034456358, 51.56712517325625],
        [-0.096353140596895, 51.570434101048356],
        [-0.096055345153299, 51.570654081470025],
        [-0.096692245625803, 51.57150521056451],
        [-0.096762113212509, 51.571594470081386],
        [-0.097453708498979, 51.5729680454015],
        [-0.097798952662717, 51.57361660434754],
        [-0.097664699462498, 51.573652196359205]
      ]
    ]
  }
}
