{
  "type": "Feature",
  "properties": {
    "name": "Hackney",
    "level": 2,
    "londonBorough": true,
    "center": [-0.0553, 51.545]
  },
  "geometry": {
    "type": "Polygon",
    "coordinates": [
      [
        [-0.097664699462498, 51.573652196359205],
        [-0.097558334641959, 51.57367655014519],
        [-0.097342082426379, 51.57374048751851],
        [-0.097301326984879, 51.573748819164486],
        [-0.097225734770704, 51.57376198139776],
        [-0.09715021757381, 51.57377334630427],
        [-0.097074700340437, 51.57378471116178],
        [-0.096999295669274, 51.57379338005415],
        [-0.096949999818253, 51.573798875334575],
        [-0.096902146106576, 51.573804393983046],
        [-0.096854367455344, 51.57380811533459],
        [-0.096808030947676, 51.57381186005664],
        [-0.096777670705288, 51.57381316613979],
        [-0.096731409263375, 51.5738151135543],
        [-0.09668666504709, 51.57381528706497],
        [-0.096641920830911, 51.57381546055856],
        [-0.096613077814426, 51.57381499271407],
        [-0.09656840868183, 51.57381336890265],
        [-0.096523739552865, 51.57381174507424],
        [-0.09612749321053, 51.573727981506146],
        [-0.095565326611427, 51.57364332240646],
        [-0.095539443133785, 51.57364110383371],
        [-0.095443157533459, 51.57363144788171],
        [-0.09534679684549, 51.573623589126804],
        [-0.095250361058539, 51.57361752756875],
        [-0.095153887730287, 51.573612364569435],
        [-0.095123640293768, 51.5736109743122],
        [-0.095094835002332, 51.573609607458174],
        [-0.095066067283572, 51.57360734195939],
        [-0.095037261996529, 51.57360597509129],
        [-0.095008456711401, 51.573604608216115],
        [-0.094979651428187, 51.573603241333885],
        [-0.094950846146887, 51.57360187444461],
        [-0.094922003293907, 51.57360140618594],
        [-0.094893122867545, 51.573601836557806],
        [-0.094710384126035, 51.57358897789182],
        [-0.094575903205191, 51.5736299581702],
        [-0.094302665675041, 51.57374512099514],
        [-0.093826524220102, 51.573915438445034],
        [-0.093724257692077, 51.573945250828636],
        [-0.093583052891918, 51.57397443052662],
        [-0.093540967237416, 51.57398004151645],
        [-0.093246442590622, 51.574017520746125],
        [-0.093150771486916, 51.57402765635116],
        [-0.093065270648382, 51.57403615865743],
        [-0.093046522635752, 51.57403585398708],
        [-0.092964206976691, 51.57403721399919],
        [-0.092883408697752, 51.574036800118776],
        [-0.092801243499126, 51.57403456547048],
        [-0.09271911592769, 51.574031432128294],
        [-0.092680365851722, 51.57402630605125],
        [-0.09251223577099, 51.57400918517631],
        [-0.092342550795053, 51.57399473652548],
        [-0.092174195200566, 51.57398300698577],
        [-0.09215548484818, 51.573981803537194],
        [-0.092115217471579, 51.57397845109956],
        [-0.092074950101263, 51.57397509864817],
        [-0.092033202954253, 51.57397262137038],
        [-0.091992897964011, 51.57397016752701],
        [-0.091952555345833, 51.57396861230589],
        [-0.091910695312172, 51.57396883089271],
        [-0.091886141099076, 51.573969330872266],
        [-0.091844243430281, 51.5739704480714],
        [-0.091800865972464, 51.573972440439924],
        [-0.091758893026588, 51.5739753548804],
        [-0.091631720202036, 51.57397958147844],
        [-0.091588267448606, 51.573983371039894],
        [-0.09154621919969, 51.57398808267573],
        [-0.091488269627121, 51.57399343492357],
        [-0.091389713916036, 51.57400352217821],
        [-0.091264521783538, 51.574029362547385],
        [-0.090997369762983, 51.57410235205768],
        [-0.090660552589213, 51.5742191698513],
        [-0.090351812748815, 51.57432025714926],
        [-0.090296068967006, 51.57434183117356],
        [-0.090188633280477, 51.57435716839729],
        [-0.090147913710412, 51.57436459890331],
        [-0.090092697158023, 51.574373591938986],
        [-0.089981047858785, 51.57438616264793],
        [-0.089836417112604, 51.57439370013564],
        [-0.089543620295038, 51.574389832807356],
        [-0.089421300223336, 51.574381546547684],
        [-0.089353593947451, 51.57437864565428],
        [-0.089287480586582, 51.57437217366615],
        [-0.089219849709308, 51.574367475426655],
        [-0.089153661008884, 51.57436280063254],
        [-0.08901722100457, 51.57434709003395],
        [-0.088985568840397, 51.57434477607095],
        [-0.088838845356553, 51.57433339403358],
        [-0.088638799723065, 51.57432024404117],
        [-0.088413144118471, 51.57433275471516],
        [-0.08810225931337, 51.57438164477689],
        [-0.087996378142794, 51.57439430757976],
        [-0.087900893756353, 51.57439994571356],
        [-0.087791176303815, 51.57440085559143],
        [-0.087713261845028, 51.57440048514617],
        [-0.087606692748116, 51.57439515141918],
        [-0.087421106588055, 51.574381335749344],
        [-0.086872117331604, 51.57429235346821],
        [-0.086865874743435, 51.574372284809286],
        [-0.086954739413888, 51.57445556519839],
        [-0.087043709179416, 51.57450197804344],
        [-0.087173918996945, 51.574494208921834],
        [-0.087180148904837, 51.57451769093451],
        [-0.087231619192713, 51.574701077364054],
        [-0.086663684405705, 51.57475386657183],
        [-0.086088469703593, 51.574842504241886],
        [-0.086055073190288, 51.57484735502699],
        [-0.085853251790731, 51.574876436011415],
        [-0.085689182839118, 51.57503742282154],
        [-0.084904959629739, 51.57511994712414],
        [-0.08382132635831, 51.575184088658176],
        [-0.083611831800615, 51.57518966003462],
        [-0.08279997937708, 51.57531128602587],
        [-0.082234916772584, 51.57536410078339],
        [-0.081847284518436, 51.575453085487524],
        [-0.080876789273162, 51.57564044782909],
        [-0.080861716290803, 51.575587145623544],
        [-0.079836465610183, 51.57553260510192],
        [-0.079840751314727, 51.57549940301053],
        [-0.079348166463053, 51.57547605441115],
        [-0.078958811101407, 51.57543461025551],
        [-0.078468312026135, 51.575361833383965],
        [-0.078068444576041, 51.575295934389686],
        [-0.078024040205585, 51.5752880131101],
        [-0.07802927656626, 51.575266516889144],
        [-0.078031022018663, 51.575259351482075],
        [-0.077568306973357, 51.575178033394735],
        [-0.077545727624942, 51.57523431619927],
        [-0.077521400165323, 51.575229421393956],
        [-0.07705200649601, 51.575135402350604],
        [-0.07709337259373, 51.57507852824387],
        [-0.077056141556109, 51.57507162339268],
        [-0.076246663569787, 51.574931561365595],
        [-0.07597333560281, 51.57525260848525],
        [-0.07589860808423, 51.57534760291943],
        [-0.075784258051212, 51.57549230556768],
        [-0.07575298540164, 51.57548100176072],
        [-0.075430240413548, 51.575366000414284],
        [-0.075374868427618, 51.57534440950318],
        [-0.075323747111639, 51.57532468678411],
        [-0.075205146622023, 51.57533083470116],
        [-0.075175502714925, 51.575554261640114],
        [-0.074434330264876, 51.57560774699922],
        [-0.07443554457206, 51.575613162424204],
        [-0.074448522167901, 51.575681718363924],
        [-0.07439352899716, 51.575685312200925],
        [-0.074374706764004, 51.57561845884433],
        [-0.074235724835484, 51.575628767575495],
        [-0.073999622295927, 51.57564917237758],
        [-0.073762077367014, 51.575669553028476],
        [-0.073761999811115, 51.575705521750926],
        [-0.073640589769078, 51.57570982347358],
        [-0.073628713607837, 51.57564937876808],
        [-0.073624008747143, 51.57562412253407],
        [-0.07354449838268, 51.57562731348787],
        [-0.073545562322429, 51.57560215195671],
        [-0.073043146827243, 51.57564066371994],
        [-0.072768370741377, 51.57565413622087],
        [-0.072513257911117, 51.5756121775626],
        [-0.072378183972524, 51.575632440037296],
        [-0.072366684490498, 51.57563135188512],
        [-0.072321558425938, 51.57564050233864],
        [-0.071920700369285, 51.57570046108865],
        [-0.071893108613314, 51.57570450397984],
        [-0.071857820487179, 51.575617596140674],
        [-0.071852584176361, 51.57560492059883],
        [-0.070933976754398, 51.575690538975415],
        [-0.070487643471014, 51.5758019017677],
        [-0.069976337554601, 51.575879821247824],
        [-0.069730512809985, 51.57592523657756],
        [-0.069489280724338, 51.57596443219861],
        [-0.069330862771199, 51.57599060188176],
        [-0.068749222651219, 51.57609343707454],
        [-0.06833154512319, 51.57614141653496],
        [-0.067994515729713, 51.57619342010517],
        [-0.067430106716227, 51.57626415946208],
        [-0.067372189847396, 51.5762686011137],
        [-0.067234608649277, 51.576279823888214],
        [-0.067089358853413, 51.576301711192244],
        [-0.066737752354477, 51.57635706805309],
        [-0.066782901898923, 51.57661949381127],
        [-0.066128755984958, 51.57673011406573],
        [-0.065472248954536, 51.576862273781565],
        [-0.064621296679603, 51.57701909980553],
        [-0.064233226825875, 51.57715118338209],
        [-0.063765955617716, 51.57724508958872],
        [-0.062715942301328, 51.577466960219425],
        [-0.061184138252468, 51.577784276148364],
        [-0.060994676801648, 51.57742054596954],
        [-0.060690406157629, 51.57683819855258],
        [-0.060333838116541, 51.57616236290582],
        [-0.06008346830142, 51.57560248668908],
        [-0.060004514144604, 51.575423129595364],
        [-0.05974160998113, 51.57502221285676],
        [-0.059686040649797, 51.5749376636082],
        [-0.059372780587545, 51.57443160010782],
        [-0.059079360630928, 51.57406974416023],
        [-0.058864751224128, 51.57375505302839],
        [-0.058748029284603, 51.57351392107448],
        [-0.058742720289894, 51.57350304222104],
        [-0.058593801416282, 51.57320472456013],
        [-0.058532953859552, 51.57293933771875],
        [-0.058496379669918, 51.57271391954875],
        [-0.058450170090105, 51.57257916639704],
        [-0.058430836401902, 51.57252489136714],
        [-0.058225795670719, 51.5723245622794],
        [-0.057590274155564, 51.57189769003979],
        [-0.057106084838132, 51.57161090570676],
        [-0.056770647272673, 51.57135535892957],
        [-0.056621585059434, 51.57099318923724],
        [-0.056399178169221, 51.570794367703456],
        [-0.056172111174016, 51.57067100575775],
        [-0.056010289803644, 51.57060807500216],
        [-0.055869562324713, 51.57055808305372],
        [-0.055780502576331, 51.57054851416155],
        [-0.055576043526834, 51.57053793223227],
        [-0.055290295008066, 51.57053859226956],
        [-0.054980277991173, 51.57049928221146],
        [-0.054791582108593, 51.57045748635105],
        [-0.054679197901394, 51.570419653112026],
        [-0.054556083497552, 51.57036275754957],
        [-0.054439044357583, 51.57029876856417],
        [-0.054291893054262, 51.570196511519065],
        [-0.054175945283367, 51.57007318966302],
        [-0.053534657005397, 51.569005930968984],
        [-0.053384250881756, 51.56874355164998],
        [-0.053293902012282, 51.568662918443934],
        [-0.05315919857006, 51.56857345596891],
        [-0.052824905870319, 51.56839345379628],
        [-0.051934442622278, 51.56799199438833],
        [-0.051175481913802, 51.567721305565925],
        [-0.050852681651873, 51.56757655943416],
        [-0.050787929436546, 51.567538614369326],
        [-0.05068855170956, 51.56746682164634],
        [-0.050446827311774, 51.5672146115495],
        [-0.04985193785553, 51.56685311754734],
        [-0.049150187529025, 51.56639272434789],
        [-0.04905385248925, 51.566317383768016],
        [-0.048959536683877, 51.56622858786951],
        [-0.04856760739545, 51.565912726753645],
        [-0.048433652475411, 51.56580618532339],
        [-0.048306330216447, 51.56571324287488],
        [-0.048239083892776, 51.56566626233304],
        [-0.047666531698776, 51.56532311357815],
        [-0.047547516910067, 51.565238401800414],
        [-0.047483502217282, 51.565183381297274],
        [-0.046836796906086, 51.564517061243016],
        [-0.046800448081439, 51.564456206099344],
        [-0.046770307135076, 51.56441883490731],
        [-0.04672726696935, 51.56437945046117],
        [-0.046701396169161, 51.56430977716734],
        [-0.0466866531285, 51.56428345334461],
        [-0.046673351910593, 51.56425715352298],
        [-0.046662934318153, 51.5642309017059],
        [-0.046652516737331, 51.564204649887905],
        [-0.046643579484257, 51.56417752345863],
        [-0.046638582523195, 51.56415945517427],
        [-0.04663108708868, 51.56413235274726],
        [-0.046625033463894, 51.5641052743232],
        [-0.046620421646253, 51.56407821990225],
        [-0.046617290146083, 51.56405029087097],
        [-0.046615561934999, 51.5640232844566],
        [-0.046615275523313, 51.56399630204563],
        [-0.046617911218177, 51.5639684690279],
        [-0.046619584091545, 51.563963101349785],
        [-0.04662331496352, 51.563943379857506],
        [-0.046628449115024, 51.56392458098197],
        [-0.04663506356938, 51.56390490749569],
        [-0.046643081299932, 51.563886156625664],
        [-0.046651099023692, 51.56386740575496],
        [-0.046660558533811, 51.5638486788865],
        [-0.046670018035969, 51.56382995201712],
        [-0.046680919322151, 51.563811249149495],
        [-0.046693223879558, 51.56379346889684],
        [-0.046705566937995, 51.563774790029065],
        [-0.046717871475626, 51.563757009773504],
        [-0.046725504041166, 51.563747245033575],
        [-0.046742364991668, 51.563724145099144],
        [-0.0467620709924, 51.56370199177897],
        [-0.046781776973768, 51.5636798384552],
        [-0.046802886214308, 51.56365860774267],
        [-0.046823995435013, 51.56363737702606],
        [-0.046847988207803, 51.56361619430642],
        [-0.046853947889862, 51.563611797239474],
        [-0.047028224186275, 51.56341686211961],
        [-0.047200094695342, 51.5632443680734],
        [-0.047216724214477, 51.56322665974856],
        [-0.047231873447522, 51.563209826039554],
        [-0.047245619395675, 51.563192069718916],
        [-0.047259403832012, 51.56317341478244],
        [-0.047271707986398, 51.56315563446309],
        [-0.047282608858353, 51.56313693153323],
        [-0.04729350972118, 51.56311822860218],
        [-0.047299777279706, 51.56310664259842],
        [-0.047302968804866, 51.56309950167524],
        [-0.047311024609055, 51.56307985213866],
        [-0.047315927384133, 51.56306644491099],
        [-0.047322541408166, 51.5630467713788],
        [-0.047329116928807, 51.56302799646024],
        [-0.047332847406829, 51.56300827493841],
        [-0.047338058145159, 51.56298767879651],
        [-0.047340308352499, 51.56296883189407],
        [-0.047341193786689, 51.56294816376901],
        [-0.04734204072275, 51.56292839425802],
        [-0.047341445893836, 51.56290860075272],
        [-0.047339409301826, 51.56288878325314],
        [-0.047337334214271, 51.562869864367634],
        [-0.047332414101028, 51.5628499988793],
        [-0.047331241819105, 51.56284368458599],
        [-0.047324764457921, 51.56282649094543],
        [-0.047318325598835, 51.56280839869037],
        [-0.0473118482472, 51.56279120504914],
        [-0.047302487380849, 51.56277396341826],
        [-0.047294529782819, 51.562757644395546],
        [-0.047283727170967, 51.562740378768474],
        [-0.047272886069, 51.562724011754575],
        [-0.047260603217103, 51.562707620744575],
        [-0.047248320373917, 51.562691229733346],
        [-0.047234557284078, 51.56267571333956],
        [-0.047219352447463, 51.56266017294856],
        [-0.047204109121729, 51.562645531169814],
        [-0.04718742405062, 51.5626308653931],
        [-0.047186059295, 51.562629044168894],
        [-0.047167893981036, 51.56261525300756],
        [-0.047151170432163, 51.56260148583997],
        [-0.047132928138214, 51.56258949190156],
        [-0.047113244100519, 51.56257747396349],
        [-0.047092118320265, 51.56256543202507],
        [-0.047072395801867, 51.56255431269437],
        [-0.047051231540906, 51.56254316936279],
        [-0.047028625538493, 51.562532002029556],
        [-0.047005981044069, 51.562521733306085],
        [-0.046983336559905, 51.562511464578336],
        [-0.046960653582002, 51.56250209446031],
        [-0.046937970613494, 51.562492724337964],
        [-0.046913845904185, 51.562483330212004],
        [-0.046903907673257, 51.562479567760356],
        [-0.046871286502474, 51.5624664351729],
        [-0.046835743345886, 51.56245415318996],
        [-0.04680160345039, 51.56244279381106],
        [-0.046765983315939, 51.56243230903517],
        [-0.046728921450015, 51.56242180024703],
        [-0.046693262840014, 51.56241221406325],
        [-0.046656123987968, 51.56240350248016],
        [-0.046617504892638, 51.562395665496354],
        [-0.046580289046443, 51.56238875111717],
        [-0.046568870605882, 51.562385863248],
        [-0.046064187919179, 51.562311814117706],
        [-0.04572632512041, 51.5622504333035],
        [-0.045705469561297, 51.56223210082652],
        [-0.045354751848495, 51.56193220219611],
        [-0.045103965969965, 51.56175806475946],
        [-0.044740427428929, 51.56168995847932],
        [-0.044474417901422, 51.56170261108105],
        [-0.04436426861706, 51.56171426401372],
        [-0.044145450170173, 51.56173669498742],
        [-0.04373502165165, 51.561719061487864],
        [-0.043373607124191, 51.56160152731802],
        [-0.042793425556627, 51.56143807790355],
        [-0.042712058196404, 51.561417836197656],
        [-0.042539115947644, 51.56137988008547],
        [-0.042389641068997, 51.56136659516719],
        [-0.042192796464821, 51.56138129581814],
        [-0.041888415837147, 51.56141398514611],
        [-0.041714059197875, 51.56144254913022],
        [-0.041079113379108, 51.56161359953037],
        [-0.040741402980032, 51.561716770627406],
        [-0.040610412031634, 51.561743359357095],
        [-0.040476807905226, 51.561763609508006],
        [-0.040314523751954, 51.5617797834633],
        [-0.040191552365832, 51.56178762130019],
        [-0.040076523689061, 51.56177850582551],
        [-0.03991054716183, 51.56171278525895],
        [-0.039725275915897, 51.56162605920457],
        [-0.039375139832415, 51.561414279195084],
        [-0.03923374051202, 51.561313897360996],
        [-0.039109023741343, 51.56122818225988],
        [-0.038982954361125, 51.56117391837741],
        [-0.038837806420346, 51.561160701239785],
        [-0.038726486101562, 51.56116603451138],
        [-0.038485721980534, 51.56116200965199],
        [-0.03836715444877, 51.561168120679355],
        [-0.03813824407145, 51.561190371718254],
        [-0.037949585107006, 51.561215993195965],
        [-0.037683316440914, 51.56126819332651],
        [-0.037241073158507, 51.56141996438388],
        [-0.03708658812002, 51.561456047978034],
        [-0.036964439661712, 51.561478284296776],
        [-0.036814975994501, 51.56149826493446],
        [-0.036691888752152, 51.561508794930724],
        [-0.036608076008893, 51.56151188871808],
        [-0.036416522069211, 51.56150418681236],
        [-0.03601470177508, 51.56145429709076],
        [-0.035263335452645, 51.561279851323775],
        [-0.035026995718712, 51.56120665069892],
        [-0.034907907427875, 51.56115789485983],
        [-0.034728414924361, 51.561071257615495],
        [-0.034266870415344, 51.560867487827544],
        [-0.033877933172665, 51.56071978758678],
        [-0.033671021120343, 51.560666860968794],
        [-0.033516366240826, 51.560639989042016],
        [-0.03330798170858, 51.560621208858315],
        [-0.032874818680621, 51.56062923461803],
        [-0.032569738934562, 51.56067807467235],
        [-0.032177970016675, 51.56076322881691],
        [-0.0316909051918, 51.560916925055324],
        [-0.031197687849365, 51.56111278112716],
        [-0.031146219426838, 51.561135298146716],
        [-0.031093386888879, 51.56115599373849],
        [-0.031039151424116, 51.56117576650633],
        [-0.030983513034101, 51.561194616448326],
        [-0.030927913416781, 51.561212567757806],
        [-0.030872352575517, 51.561229620434865],
        [-0.030838766531669, 51.56123894858343],
        [-0.030781802749451, 51.56125507841492],
        [-0.030723474874256, 51.56126938680954],
        [-0.030665185786593, 51.561282796569316],
        [-0.030605493791405, 51.56129528349504],
        [-0.030545840590114, 51.56130687178467],
        [-0.030486226186301, 51.561317561438315],
        [-0.030425208884115, 51.56132732825455],
        [-0.030364269215572, 51.561335297828215],
        [-0.03030192665746, 51.56134234456178],
        [-0.030291757097153, 51.5613439723506],
        [-0.030230895049116, 51.56135014464406],
        [-0.030170071818782, 51.56135541830065],
        [-0.030117937610817, 51.561359938552506],
        [-0.030109248575211, 51.56136069192555],
        [-0.030048502989927, 51.56136416830857],
        [-0.029793399757892, 51.56135808633342],
        [-0.029756070928727, 51.56135386246648],
        [-0.029720222648512, 51.56134876419303],
        [-0.029589377606858, 51.561338473550315],
        [-0.029376511206733, 51.56132320815183],
        [-0.029170460780857, 51.561283776911694],
        [-0.028552028572935, 51.561071953519026],
        [-0.028127727366116, 51.560908352508534],
        [-0.027891126040922, 51.560808155292534],
        [-0.027531824697847, 51.56067621937796],
        [-0.026852695431183, 51.5603671459052],
        [-0.026506334458659, 51.56020305114396],
        [-0.026371905650996, 51.56014233816981],
        [-0.026200694514276, 51.560064819615235],
        [-0.025890887143443, 51.559922920124386],
        [-0.025534438496398, 51.559692107620734],
        [-0.025138950037476, 51.559396789567636],
        [-0.024949623349558, 51.5592380309978],
        [-0.024759167844979, 51.55907205904138],
        [-0.024656303737577, 51.55898219993852],
        [-0.024545413381729, 51.55887781747135],
        [-0.024447146828982, 51.5587484682277],
        [-0.024377557913437, 51.55865647138123],
        [-0.024278200583673, 51.55848573773979],
        [-0.024204130095997, 51.558297444680015],
        [-0.024071575703547, 51.55792741570293],
        [-0.023982505171903, 51.55761926848782],
        [-0.023968670751275, 51.557372638680796],
        [-0.023919813217823, 51.557368218757745],
        [-0.023553498910796, 51.557332372882826],
        [-0.023094184853067, 51.557278772207056],
        [-0.023033950869055, 51.557270563186876],
        [-0.022557264429551, 51.55705210333745],
        [-0.021933858510408, 51.55675742871938],
        [-0.020774883358187, 51.55623879411366],
        [-0.019159891606065, 51.555492130979886],
        [-0.018827502882211, 51.555339939285254],
        [-0.018471118694806, 51.55517565098686],
        [-0.018075611543357, 51.55408626188972],
        [-0.017950462358184, 51.554210943262],
        [-0.017799644697582, 51.55396379660212],
        [-0.01767582545869, 51.55372609851081],
        [-0.017504257253507, 51.553392271880924],
        [-0.01730706729768, 51.55238716410153],
        [-0.017189429449828, 51.55170893246497],
        [-0.017169966733894, 51.55159259897858],
        [-0.017167826416588, 51.55157547686374],
        [-0.018082364549398, 51.55157474345226],
        [-0.018995692610724, 51.55160185952865],
        [-0.018972402481016, 51.55154031658929],
        [-0.018887995248019, 51.55142468526985],
        [-0.018844298254045, 51.55130164802622],
        [-0.018855532850147, 51.55114266874424],
        [-0.018902996618049, 51.55097980494876],
        [-0.018922020156309, 51.550840740901045],
        [-0.018948721922101, 51.5506577427667],
        [-0.018941921131546, 51.55048227223409],
        [-0.018875442942651, 51.550286010227424],
        [-0.018724515506097, 51.550041560487415],
        [-0.018341305465552, 51.54940021047178],
        [-0.018192237329078, 51.54894716300325],
        [-0.017930919622989, 51.548388803930806],
        [-0.017621179101687, 51.547915954962306],
        [-0.01750855894007, 51.54765326631456],
        [-0.017458791493296, 51.547537319938996],
        [-0.017342374136323, 51.5471297859751],
        [-0.017225637638141, 51.546795985840426],
        [-0.017051636569812, 51.54622021574904],
        [-0.016985298373416, 51.545954711737394],
        [-0.016907761941551, 51.5455487336767],
        [-0.016885129743745, 51.54527317725196],
        [-0.016875572000522, 51.5450949620142],
        [-0.016838197761799, 51.544959441063604],
        [-0.016842652090288, 51.5448570006108],
        [-0.016748436087655, 51.544536170188955],
        [-0.016620826475024, 51.544319988637994],
        [-0.01652721344312, 51.54388586128371],
        [-0.016533440989017, 51.54364316605754],
        [-0.016572154615581, 51.54338303485981],
        [-0.016571534095841, 51.54336413988249],
        [-0.016764913097769, 51.543394387110524],
        [-0.016823265729906, 51.54334591422917],
        [-0.017050489455451, 51.54339381909926],
        [-0.017421009782996, 51.54342975717931],
        [-0.017784325106222, 51.54346557234092],
        [-0.018555785381558, 51.54356763209146],
        [-0.01922812888627, 51.54359427382882],
        [-0.019893347931321, 51.54358572028001],
        [-0.020352056257004, 51.54358357009999],
        [-0.02145674423259, 51.543517676216354],
        [-0.022297390739247, 51.54348778759052],
        [-0.02235499788398, 51.54342311273509],
        [-0.022371629516992, 51.5434054079017],
        [-0.022553445162476, 51.54340307724302],
        [-0.022752943856465, 51.54339205174214],
        [-0.023009814849232, 51.5433882876086],
        [-0.023083545967517, 51.54338413457957],
        [-0.023070692636068, 51.54334794755811],
        [-0.023863466698726, 51.54332443505277],
        [-0.025348521414564, 51.543233437223265],
        [-0.025505566773929, 51.54327025248704],
        [-0.025542923007693, 51.543340124264795],
        [-0.025612682461135, 51.54336108208372],
        [-0.025659531788558, 51.54324496674745],
        [-0.025707631451141, 51.543199913985774],
        [-0.025762781043784, 51.543158576889304],
        [-0.025858126322728, 51.543121513238766],
        [-0.026506612670056, 51.54289951599465],
        [-0.027051066897354, 51.542748605675705],
        [-0.027377800550284, 51.54266327501545],
        [-0.027843225180883, 51.542538909166154],
        [-0.028386932816323, 51.54240506607618],
        [-0.02871744118683, 51.54233238478791],
        [-0.029006937743869, 51.54227430093724],
        [-0.029016209995269, 51.54229334118189],
        [-0.029155682944139, 51.542569958691566],
        [-0.029386185352479, 51.54287598223254],
        [-0.029474738153221, 51.54302944461873],
        [-0.029652126971199, 51.543129544205584],
        [-0.029925761574986, 51.54323845394305],
        [-0.030516684644819, 51.54338056730324],
        [-0.030950715689277, 51.543482275470275],
        [-0.03106500387585, 51.543540847060875],
        [-0.031513984278174, 51.54379747663856],
        [-0.031994875554938, 51.544083416086],
        [-0.03292036835357, 51.544627702648384],
        [-0.033062509330791, 51.54467594816652],
        [-0.033173131085308, 51.5446858961954],
        [-0.033263026480742, 51.5446748136892],
        [-0.0333876574842, 51.544627443801744],
        [-0.033426406630153, 51.5445984178321],
        [-0.033653368242041, 51.544418773448825],
        [-0.033779346160231, 51.544306679078495],
        [-0.033884333738753, 51.544213117225006],
        [-0.034069970931654, 51.544055260931906],
        [-0.034537153525357, 51.543655724770716],
        [-0.035149715275507, 51.543362935857544],
        [-0.03587279155245, 51.54301534084593],
        [-0.036784969327328, 51.54246227815191],
        [-0.037762637578035, 51.54179429952736],
        [-0.037156686675016, 51.54143165277578],
        [-0.03717012037709, 51.54142108644136],
        [-0.037265519858909, 51.54134894338995],
        [-0.037378812896634, 51.54133015590622],
        [-0.037468331588662, 51.541260612081736],
        [-0.037533865051667, 51.54121224916057],
        [-0.037551136589115, 51.54114599292962],
        [-0.037949717274263, 51.54076418015325],
        [-0.038656262403541, 51.540095256280004],
        [-0.039111309830082, 51.53964064445489],
        [-0.04015545427595, 51.538698584107195],
        [-0.040734807778199, 51.538102161332944],
        [-0.041102663469163, 51.537762989244975],
        [-0.04143719238664, 51.5374610284737],
        [-0.042391367978547, 51.53700034839985],
        [-0.04346973737504, 51.53650126547931],
        [-0.043576697596246, 51.53646168350281],
        [-0.043729412381826, 51.536498402219],
        [-0.043832411694178, 51.53648393320345],
        [-0.043970517111193, 51.5364241872843],
        [-0.044299885539807, 51.53614101684543],
        [-0.044643058645816, 51.53590573632319],
        [-0.044706596691747, 51.5358699258091],
        [-0.044788943439895, 51.53583263024369],
        [-0.044860664598157, 51.535807747146706],
        [-0.04492623698716, 51.53579175411551],
        [-0.045982588896846, 51.53560342489459],
        [-0.046923234316002, 51.53549049603423],
        [-0.047159464569923, 51.53549622745012],
        [-0.047327741932793, 51.53550622280753],
        [-0.047574768888905, 51.535529219020624],
        [-0.047853591082254, 51.53558421788799],
        [-0.047991725357278, 51.53559101287959],
        [-0.048079274339948, 51.535600563028304],
        [-0.048186611562541, 51.53561943494989],
        [-0.048310663107543, 51.53565207373858],
        [-0.048428451517979, 51.53569629855611],
        [-0.048514655524636, 51.53573730004528],
        [-0.048586412173889, 51.53577896039216],
        [-0.048901777802381, 51.5359910356016],
        [-0.049299509432479, 51.53619908409956],
        [-0.04955138350842, 51.53631118328038],
        [-0.049625504909304, 51.53633130009902],
        [-0.049918282947302, 51.5363973171361],
        [-0.050249025295688, 51.53645227409507],
        [-0.050358113605442, 51.536463979048634],
        [-0.050499056059484, 51.53647261625474],
        [-0.050654676656931, 51.53647520240152],
        [-0.05080916348482, 51.53647057543851],
        [-0.050956829523697, 51.536456842364686],
        [-0.051428548115837, 51.53638464508219],
        [-0.051603915756071, 51.53633000547996],
        [-0.05176510395904, 51.53626973457634],
        [-0.051879683342357, 51.53622037977329],
        [-0.052142153003103, 51.53608445413415],
        [-0.052394551469178, 51.53591418890416],
        [-0.052581663450228, 51.535719458611865],
        [-0.052710830857374, 51.53553096021086],
        [-0.052809858953869, 51.53517020311319],
        [-0.05283602508153, 51.53492873706145],
        [-0.053015850950923, 51.534972188499566],
        [-0.053466800533603, 51.53508218774538],
        [-0.053856767830195, 51.535134520289745],
        [-0.054141068031902, 51.53516261732352],
        [-0.054389921048127, 51.53517663688037],
        [-0.054703591202634, 51.53515845826884],
        [-0.054863775166412, 51.53512154719097],
        [-0.055038697773087, 51.53511095874205],
        [-0.055225683691292, 51.53508798042117],
        [-0.055240245821022, 51.535084624812306],
        [-0.055247450278961, 51.53508474425249],
        [-0.055425154046259, 51.53504272731841],
        [-0.055648290961089, 51.534983478036885],
        [-0.056211901240016, 51.53481836267212],
        [-0.056815037023941, 51.53460533946989],
        [-0.057299926171019, 51.53442632524583],
        [-0.057565952402876, 51.5343417041656],
        [-0.058112627606122, 51.534201478517],
        [-0.058753772714038, 51.53411137364044],
        [-0.059063302649189, 51.53408861861328],
        [-0.05935575973966, 51.53409435655768],
        [-0.059684685821445, 51.53412407769618],
        [-0.059909678939872, 51.53415657529766],
        [-0.060199194895964, 51.53423150529489],
        [-0.060371209782104, 51.53428920437683],
        [-0.060460418476275, 51.53432754895228],
        [-0.060655095531052, 51.53442878665317],
        [-0.060683149138479, 51.53444723558996],
        [-0.060938570063523, 51.534679869304505],
        [-0.061341048867374, 51.53501475042592],
        [-0.061701499648924, 51.5352868869463],
        [-0.062095124215007, 51.53545705508736],
        [-0.062470390969628, 51.53551631009361],
        [-0.062664138088662, 51.535300091398994],
        [-0.062796640701372, 51.53509994687826],
        [-0.062850285961613, 51.53499112345029],
        [-0.062838017694726, 51.53463481516535],
        [-0.062754096443638, 51.534234159224496],
        [-0.062716593530239, 51.53409865133571],
        [-0.062571109874822, 51.53378960196253],
        [-0.062457518957851, 51.53361237069248],
        [-0.062314138388829, 51.53338968437202],
        [-0.062238001879609, 51.53324724332286],
        [-0.062674670707954, 51.533184313889855],
        [-0.063263092487727, 51.53307892560231],
        [-0.064980689303512, 51.53290044233043],
        [-0.065110306532173, 51.533175954462635],
        [-0.065140252145485, 51.53321781421325],
        [-0.065364133902446, 51.532936442426305],
        [-0.065623617118288, 51.532461417843265],
        [-0.065896207809904, 51.53201718353493],
        [-0.066178929436544, 51.53150387283553],
        [-0.066313239362307, 51.53122641808997],
        [-0.067308834807001, 51.531140310704835],
        [-0.067995677302778, 51.53109317358856],
        [-0.06929591285324, 51.53103095089629],
        [-0.069914613898724, 51.5310267445446],
        [-0.070531269289655, 51.53100271763913],
        [-0.071232438667988, 51.53095759576136],
        [-0.07163328023406, 51.53092282023887],
        [-0.071926480884508, 51.53087638230006],
        [-0.072265406030303, 51.530839687638014],
        [-0.072787882086738, 51.53069000375418],
        [-0.072922368132729, 51.53064635115821],
        [-0.073149101973747, 51.53056914276254],
        [-0.073772957672053, 51.53034018673906],
        [-0.074045035119819, 51.53021336287203],
        [-0.074170571030067, 51.530142584222745],
        [-0.074373566146549, 51.53001282688793],
        [-0.07464962095006, 51.52979164503943],
        [-0.074932193231638, 51.52941589746562],
        [-0.075318375047709, 51.52880534495048],
        [-0.075478441558203, 51.52859934382656],
        [-0.075635284956593, 51.52843555464799],
        [-0.075680324730175, 51.52839312924743],
        [-0.076039163490024, 51.5281229438849],
        [-0.076349470683924, 51.527875342212475],
        [-0.076888494005308, 51.527502896123806],
        [-0.077253274544128, 51.527296651692346],
        [-0.076315321390012, 51.527146384666516],
        [-0.07635716545854, 51.5268718984872],
        [-0.076539619303455, 51.526510691727786],
        [-0.076635605664533, 51.526388168314256],
        [-0.076640415155754, 51.52627404162593],
        [-0.07664249483794, 51.52615627314887],
        [-0.076629218369076, 51.52599239079591],
        [-0.076601303914237, 51.52573114871919],
        [-0.076560493889585, 51.525331209669616],
        [-0.076443040393141, 51.52428704527109],
        [-0.075915414602925, 51.52432155575058],
        [-0.075776462298294, 51.523856159124676],
        [-0.075718605313005, 51.52358723144995],
        [-0.075727245749191, 51.52348485792537],
        [-0.075770453187195, 51.52317802092177],
        [-0.075815219279261, 51.523039370494836],
        [-0.075838379304405, 51.5229687091352],
        [-0.075863093421345, 51.5228953754939],
        [-0.076014526100218, 51.52255164565521],
        [-0.076079494561429, 51.5223782554831],
        [-0.076163378418355, 51.52220067923844],
        [-0.07618706898977, 51.522151608675074],
        [-0.076453858610134, 51.52201210306731],
        [-0.076717896389806, 51.52221157158227],
        [-0.077131390620586, 51.52211403719106],
        [-0.077922818184295, 51.52194176200801],
        [-0.07823645946911, 51.521853378500545],
        [-0.078452771099408, 51.52154308180648],
        [-0.078471456521479, 51.521510115418195],
        [-0.079769235046785, 51.52167075358074],
        [-0.080758993334994, 51.52188928562105],
        [-0.081050361427031, 51.5219534037536],
        [-0.081284173950153, 51.521432063012334],
        [-0.081549347427687, 51.52102184328708],
        [-0.081762266305304, 51.52075734719293],
        [-0.081795013774894, 51.5207327035696],
        [-0.082017231570767, 51.52055558696931],
        [-0.082325749509112, 51.52031423523244],
        [-0.082733918801247, 51.52006821685317],
        [-0.083325471531582, 51.519814402822064],
        [-0.085217864214879, 51.520334506648005],
        [-0.085067103481213, 51.52062969917336],
        [-0.08490627320443, 51.52099307055447],
        [-0.084703230079292, 51.521606644847125],
        [-0.084523727136056, 51.522071326702715],
        [-0.084441293454768, 51.52248993300786],
        [-0.084338190920012, 51.52340099386944],
        [-0.084315375004608, 51.52360115527838],
        [-0.084223509326025, 51.52390090555944],
        [-0.084527807602366, 51.52389778193108],
        [-0.085139330906803, 51.523924852543146],
        [-0.085111053724994, 51.52442707479239],
        [-0.085443391956264, 51.524511634307764],
        [-0.085409709467263, 51.524592916775674],
        [-0.085270678052499, 51.524848733659375],
        [-0.085030826559852, 51.525205419573126],
        [-0.084750980438679, 51.525415772582704],
        [-0.084908945554161, 51.525876972023276],
        [-0.085020668718096, 51.52620342723083],
        [-0.08629907529864, 51.5259014586149],
        [-0.086456320889978, 51.52586445672716],
        [-0.086795377284974, 51.52578905449051],
        [-0.087032148172877, 51.52584956922073],
        [-0.087294474427338, 51.52591949273847],
        [-0.087439912368556, 51.525957834421945],
        [-0.087804130585512, 51.526107653297004],
        [-0.087837832153497, 51.526232299886644],
        [-0.088131933356194, 51.52681711329872],
        [-0.088310233086732, 51.52706911288663],
        [-0.088484756452386, 51.5272392184576],
        [-0.088552187902933, 51.527315854706565],
        [-0.088598187092709, 51.52735347372176],
        [-0.088662952794272, 51.527390499256555],
        [-0.088780421578175, 51.527442771561184],
        [-0.089049973960406, 51.52754698047894],
        [-0.089601311427835, 51.5277043381451],
        [-0.09540531887285, 51.52919346390797],
        [-0.095141916248856, 51.52966669051754],
        [-0.095093442049395, 51.52979179884975],
        [-0.095081946618289, 51.52985995544808],
        [-0.095083530547897, 51.52992562668574],
        [-0.09511285727993, 51.530051998437905],
        [-0.095317669464741, 51.53046448460333],
        [-0.095524832405355, 51.53078618392945],
        [-0.095895166540213, 51.53130926661117],
        [-0.096261427676978, 51.53186105803286],
        [-0.097033608100967, 51.53298236630771],
        [-0.09655246369791, 51.53311034722716],
        [-0.096163832141926, 51.533232633658244],
        [-0.096011769532851, 51.5332832215518],
        [-0.095045526844733, 51.53363353047335],
        [-0.09504976736777, 51.533704640332864],
        [-0.094553165164313, 51.533891712796546],
        [-0.094484062848796, 51.533854620192564],
        [-0.093986166003922, 51.53403807223079],
        [-0.093779208507511, 51.534125533930556],
        [-0.093284577134123, 51.53433421517056],
        [-0.092548222889102, 51.53466845654951],
        [-0.091981560053631, 51.534944304313825],
        [-0.091588528146836, 51.53513664589724],
        [-0.091375045581841, 51.53524198230881],
        [-0.0907729468678, 51.53550285968],
        [-0.090257598786449, 51.53575795227831],
        [-0.089718576573599, 51.53599287354425],
        [-0.089690558890699, 51.53600770459878],
        [-0.089139336455521, 51.53629278274545],
        [-0.088661473153103, 51.53654757974406],
        [-0.088198993333344, 51.536779244935104],
        [-0.087701284982235, 51.53702562136075],
        [-0.087409632511435, 51.53713776960174],
        [-0.087086041648063, 51.537220620205055],
        [-0.086815832589128, 51.53726837039157],
        [-0.086617390930976, 51.53725524205406],
        [-0.086570862266746, 51.53740196072513],
        [-0.086462219701793, 51.53755126320812],
        [-0.086404170871399, 51.53773196553081],
        [-0.086036242144835, 51.538734026385804],
        [-0.085682262901865, 51.539781276332484],
        [-0.085494342698205, 51.54037621313422],
        [-0.084689094693795, 51.54238189249048],
        [-0.084086171858528, 51.54392955375911],
        [-0.083660628832786, 51.54506465457525],
        [-0.083629407032597, 51.54522421158355],
        [-0.083838271856327, 51.54660347995682],
        [-0.083165874308933, 51.54657630912595],
        [-0.079719766243966, 51.5463490948596],
        [-0.07832097247439, 51.54624166082553],
        [-0.076839387135842, 51.54607979693592],
        [-0.076377889569333, 51.54635279786874],
        [-0.076357637974358, 51.54642260758565],
        [-0.076373877750071, 51.546653082781305],
        [-0.076415115173122, 51.54697479244465],
        [-0.076441068411634, 51.54731693430307],
        [-0.076635701925941, 51.54793431544345],
        [-0.076728900821486, 51.54811839177015],
        [-0.076757501097112, 51.54815842777274],
        [-0.076916246839783, 51.54842990676126],
        [-0.077090430906204, 51.54867735871757],
        [-0.077718251689257, 51.54942053852475],
        [-0.077905188864838, 51.54967359365989],
        [-0.078683967855798, 51.5509426061919],
        [-0.07880293171176, 51.5510632556967],
        [-0.078868750192855, 51.551144366973006],
        [-0.079041053455554, 51.55133423283876],
        [-0.079333268077662, 51.55158810997917],
        [-0.079461297084819, 51.55166484381532],
        [-0.07950913262506, 51.55169350369021],
        [-0.079579349993751, 51.551738716454736],
        [-0.079724828503981, 51.55181213861188],
        [-0.079963316637401, 51.55186909771983],
        [-0.080287607279301, 51.551909475283246],
        [-0.081121414154933, 51.55197617153293],
        [-0.083217644316815, 51.55213903087723],
        [-0.083714259940062, 51.55212915833038],
        [-0.084378945556728, 51.552067173646684],
        [-0.084512578462434, 51.55204507569884],
        [-0.084632445484166, 51.55204163715217],
        [-0.084698601301917, 51.552046314175335],
        [-0.085180438795688, 51.552113529823174],
        [-0.08530118140611, 51.552123593658635],
        [-0.085404362478424, 51.55213966554575],
        [-0.085504396600439, 51.55216198075118],
        [-0.08563963725094, 51.55220465387821],
        [-0.08607887824389, 51.55242764054099],
        [-0.08627034571943, 51.55250540171782],
        [-0.086351377986921, 51.552533701001146],
        [-0.086509834924306, 51.552573154780276],
        [-0.08678896102778, 51.55262446794128],
        [-0.086993432730093, 51.55266736917652],
        [-0.08735662699798, 51.55274343224897],
        [-0.087552347076332, 51.552823059137246],
        [-0.087656039132544, 51.55289579019192],
        [-0.087744855063034, 51.552944898153136],
        [-0.088588488212061, 51.553947821732535],
        [-0.089049958016451, 51.55381325724414],
        [-0.08929965748669, 51.55374088766806],
        [-0.089529099277067, 51.55391098547076],
        [-0.08964603418017, 51.55397763560311],
        [-0.089753481173585, 51.55402974312234],
        [-0.089872837050593, 51.5540730519167],
        [-0.090037418421851, 51.55413867885458],
        [-0.090257820905827, 51.55414586363264],
        [-0.090403339507118, 51.55415003070044],
        [-0.090393339457685, 51.55442324019407],
        [-0.090333039491963, 51.55493303317883],
        [-0.090307915333162, 51.5553606675896],
        [-0.090266331006007, 51.555802422058434],
        [-0.090319923742063, 51.55669265320264],
        [-0.090420286440814, 51.557671771939766],
        [-0.090383391061479, 51.55772602571659],
        [-0.090292552677433, 51.557793789493665],
        [-0.09031153103747, 51.55782287440631],
        [-0.090375335694024, 51.55791833418555],
        [-0.090557721418419, 51.558316972654126],
        [-0.090770822317789, 51.558774561869875],
        [-0.090884106497142, 51.55899762075208],
        [-0.091047599022875, 51.55926196266123],
        [-0.091250068651027, 51.55956021066322],
        [-0.0915114988477, 51.5599664280892],
        [-0.091556529045351, 51.56006248102714],
        [-0.091591392183282, 51.56016016707659],
        [-0.091702767175619, 51.56022222829762],
        [-0.092167927780218, 51.5602765538314],
        [-0.092282513138576, 51.56029640195532],
        [-0.092768537488312, 51.560438291547],
        [-0.092985222861801, 51.560466093326966],
        [-0.093126060874844, 51.5604791733111],
        [-0.093340614966423, 51.56048895480123],
        [-0.093635304574931, 51.56051442593555],
        [-0.093756348266909, 51.560552362535525],
        [-0.094291478963142, 51.56079665876002],
        [-0.094499042544384, 51.56087017129059],
        [-0.094825482670596, 51.56096449800082],
        [-0.09575879492092, 51.5611747860031],
        [-0.096032179896182, 51.561226882788155],
        [-0.098587621785283, 51.560837582190686],
        [-0.099479635178757, 51.56148510539308],
        [-0.100864804086813, 51.56241667403592],
        [-0.100961142940798, 51.562493770185],
        [-0.100999098030662, 51.56251776493902],
        [-0.101101803514151, 51.56258057603482],
        [-0.101329927926972, 51.56268048729165],
        [-0.101417335849003, 51.562729561836704],
        [-0.101515679540496, 51.56279320123183],
        [-0.101929880808272, 51.5631020497648],
        [-0.102085938596841, 51.56323496513683],
        [-0.102164510376995, 51.56328839242375],
        [-0.103793712511508, 51.56432189041924],
        [-0.104510703755623, 51.56470576375189],
        [-0.104391109230795, 51.564771275300636],
        [-0.104307165869762, 51.564812183779814],
        [-0.103095512764818, 51.56556685435744],
        [-0.101380521439118, 51.56666137814069],
        [-0.10070034456358, 51.56712517325625],
        [-0.099042011559876, 51.56838064647758],
        [-0.09874079625269, 51.568614066944605],
        [-0.096353140596895, 51.570434101048356],
        [-0.096055345153299, 51.570654081470025],
        [-0.096115551105582, 51.570698222236764],
        [-0.096217682552427, 51.57080958753383],
        [-0.096367583571051, 51.570986473556445],
        [-0.096442467199274, 51.5710937996107],
        [-0.096604494697762, 51.57139497822239],
        [-0.096692245625803, 51.57150521056451],
        [-0.096762113212509, 51.571594470081386],
        [-0.096864837021021, 51.57182994056513],
        [-0.096912210825591, 51.57193951785918],
        [-0.097453708498979, 51.5729680454015],
        [-0.097798952662717, 51.57361660434754],
        [-0.097664699462498, 51.573652196359205]
      ]
    ]
  }
}
