{
  "type": "Feature",
  "properties": {
    "name": "Hammersmith and Fulham",
    "level": 2,
    "londonBorough": true,
    "center": [-0.205, 51.475]
  },
  "geometry": {
    "type": "Polygon",
    "coordinates": [
      [
        [-0.207388486815905, 51.49614849755865],
        [-0.206840014723612, 51.49562394564378],
        [-0.206719227641922, 51.49554476359459],
        [-0.205191494757005, 51.49482807410891],
        [-0.204783811671386, 51.49460781351654],
        [-0.203189537839981, 51.49342337001652],
        [-0.203027895202585, 51.49332107692705],
        [-0.201864346440442, 51.49188243239869],
        [-0.201835316098099, 51.49185141288023],
        [-0.20230819653665, 51.49169499988737],
        [-0.202387033198774, 51.49166833172983],
        [-0.199025801941603, 51.48875715387987],
        [-0.198298944073415, 51.48812191089171],
        [-0.196448165026975, 51.487205903153374],
        [-0.195987877304251, 51.4873723779157],
        [-0.194680877959091, 51.48662117515657],
        [-0.194494361774999, 51.48649330806214],
        [-0.188281046834684, 51.480960617015604],
        [-0.188194980374445, 51.48087925399127],
        [-0.186880539175027, 51.47988774697114],
        [-0.186729839669638, 51.479765816419906],
        [-0.186549937140947, 51.47987184356247],
        [-0.186364291058577, 51.47972329381525],
        [-0.185685121705996, 51.478837816658725],
        [-0.185632392617821, 51.47878754200865],
        [-0.184033312153522, 51.4775326131893],
        [-0.183880867493498, 51.47741874507227],
        [-0.18264880676543, 51.47722160422568],
        [-0.182553535578677, 51.47722732158828],
        [-0.180438608980624, 51.47782939285354],
        [-0.180210286943133, 51.47784923011144],
        [-0.177948629389104, 51.47757850415295],
        [-0.177815681013755, 51.47755395690167],
        [-0.177650482186841, 51.477254636595134],
        [-0.177631323914821, 51.47715721968588],
        [-0.177645364763971, 51.47680493132442],
        [-0.177668091817594, 51.476740538431486],
        [-0.178032045285583, 51.47631635204932],
        [-0.178078005827307, 51.47621095451712],
        [-0.178775610754498, 51.4740258194668],
        [-0.178877395442686, 51.47371176301357],
        [-0.17952424425807, 51.47287201489545],
        [-0.179625516727521, 51.47271531890354],
        [-0.180382797672582, 51.4710535657523],
        [-0.180982487003035, 51.470058406367926],
        [-0.182020771451139, 51.468569161872686],
        [-0.182894337124717, 51.46752788086826],
        [-0.184235793449299, 51.46655858662229],
        [-0.185047445280213, 51.46605947921113],
        [-0.1886935792484, 51.46469414708487],
        [-0.189053335022239, 51.46458909639652],
        [-0.19184480273779, 51.46415287872705],
        [-0.193189922638906, 51.46399466455215],
        [-0.19485486920361, 51.46390340796868],
        [-0.195189087908, 51.46389776226117],
        [-0.198409527174338, 51.46408128056801],
        [-0.198866974654951, 51.46401726803378],
        [-0.203869079207436, 51.46451035745832],
        [-0.204193814667625, 51.46456299203818],
        [-0.209838164291918, 51.46597480246265],
        [-0.211639502803767, 51.46644652111595],
        [-0.214389137615423, 51.467411057960746],
        [-0.215369455900905, 51.46782075354686],
        [-0.21846215858604, 51.469666282571275],
        [-0.218515438958226, 51.46970306203338],
        [-0.221733868922298, 51.47235793703317],
        [-0.222773634931343, 51.47328014255307],
        [-0.224097238080941, 51.47456993338252],
        [-0.224252879000746, 51.47475213987823],
        [-0.225350837682157, 51.476366723317604],
        [-0.225391824803786, 51.47646086525008],
        [-0.225544158831445, 51.476988330417825],
        [-0.225627283648685, 51.47755521413905],
        [-0.225611612904754, 51.47959176914238],
        [-0.225619654780727, 51.480163811156054],
        [-0.225788747923147, 51.48152153290553],
        [-0.225638135010322, 51.481765647278074],
        [-0.22649902661346, 51.48407624236245],
        [-0.226811175557377, 51.48486600374902],
        [-0.227430020067492, 51.48580697737374],
        [-0.22764158341289, 51.486034087049674],
        [-0.229624670422954, 51.48763951855042],
        [-0.230283332799743, 51.488112571107514],
        [-0.231979593557422, 51.48898254723235],
        [-0.232724030745443, 51.489250052829156],
        [-0.234564582387104, 51.4896311783629],
        [-0.2347526846171, 51.489646599376606],
        [-0.236845282870308, 51.48969336716303],
        [-0.23741033725657, 51.489682977217974],
        [-0.239111474901266, 51.48953407992693],
        [-0.239476713325283, 51.48947571736715],
        [-0.24117031506151, 51.48907309066399],
        [-0.241486786846279, 51.48897172604443],
        [-0.243039273304025, 51.48822974031882],
        [-0.243443027872278, 51.487918356074516],
        [-0.244562352179416, 51.48870217075751],
        [-0.244844514646975, 51.4890813782504],
        [-0.245004664611262, 51.489037014450055],
        [-0.245283508827346, 51.48927768785569],
        [-0.24543427470063, 51.489477776966616],
        [-0.245329302242214, 51.48954814574805],
        [-0.245609177787916, 51.49021237684786],
        [-0.245578933753857, 51.49081261814648],
        [-0.244840758377728, 51.49536792275921],
        [-0.244821852545753, 51.49556007750245],
        [-0.244621313688858, 51.49579267732838],
        [-0.244556785143677, 51.49608486419016],
        [-0.244776628131433, 51.496099844795864],
        [-0.244640420543898, 51.496757849380266],
        [-0.244763438028916, 51.49734329819508],
        [-0.244545060013343, 51.4975900187425],
        [-0.244420550580221, 51.49794335529001],
        [-0.244595869922351, 51.497954971965285],
        [-0.245004469089617, 51.49789454320639],
        [-0.245131601855406, 51.49811046497626],
        [-0.245292523985773, 51.49838444357591],
        [-0.248890544663129, 51.4970542893807],
        [-0.249234550368787, 51.496949717906446],
        [-0.251271543991405, 51.49977584748594],
        [-0.251320733031591, 51.499845822408176],
        [-0.253083872440095, 51.50139990637274],
        [-0.253144826450842, 51.5014637610456],
        [-0.253075896123299, 51.5016461792711],
        [-0.253073287669022, 51.501676714570856],
        [-0.25335594452137, 51.50283824583417],
        [-0.253365815420808, 51.50288155633479],
        [-0.255067839460688, 51.504305208108924],
        [-0.255090331502381, 51.50431993056129],
        [-0.254868003500198, 51.50444431465503],
        [-0.25456800017787, 51.504188063447685],
        [-0.25455826303138, 51.50417892614763],
        [-0.254307446615066, 51.50421925596536],
        [-0.253659164700248, 51.50429143586531],
        [-0.253684121206525, 51.50435475420932],
        [-0.253764407921552, 51.504553782251485],
        [-0.252591472756338, 51.50470536992861],
        [-0.252543674634707, 51.50471185170546],
        [-0.252527199881485, 51.50453985151579],
        [-0.252515339278341, 51.50451089913915],
        [-0.251246396968776, 51.50464845353925],
        [-0.250027766623586, 51.50445042928882],
        [-0.249928951788801, 51.50443456703668],
        [-0.249875334464105, 51.50459293240858],
        [-0.249868954318869, 51.504609023519556],
        [-0.2494404151666, 51.50466197793382],
        [-0.249431051353229, 51.504680722207944],
        [-0.249348146112881, 51.50466329844877],
        [-0.249280363645618, 51.50443927521786],
        [-0.249039759788546, 51.50447614927855],
        [-0.248080806722371, 51.50460840524141],
        [-0.248034141581505, 51.50443505412188],
        [-0.248011150015265, 51.504358275285924],
        [-0.246284545942904, 51.50455638168746],
        [-0.245702664141306, 51.50462501430384],
        [-0.246517169069717, 51.50667936827307],
        [-0.24651372782478, 51.5067314727327],
        [-0.245176231260877, 51.506738446338595],
        [-0.24508676921248, 51.50674160399985],
        [-0.245466556974519, 51.50780838892264],
        [-0.245746539962193, 51.50847261879019],
        [-0.245951183871955, 51.50944775731842],
        [-0.246053930987843, 51.50996186029444],
        [-0.24644760245323, 51.51081842687325],
        [-0.246650239274623, 51.5112458970727],
        [-0.249070500071005, 51.51401124088557],
        [-0.249091857677936, 51.514055622386365],
        [-0.250226529639369, 51.51735387448056],
        [-0.250604821283907, 51.51854021614772],
        [-0.25073561236682, 51.51937755842294],
        [-0.25073279444205, 51.5194134859019],
        [-0.250485349643607, 51.519927756381705],
        [-0.250305035228002, 51.520157070167684],
        [-0.250691862277803, 51.52063224148561],
        [-0.251923440604068, 51.522235057294395],
        [-0.252018595307635, 51.5227616296667],
        [-0.252092977044062, 51.52319077479629],
        [-0.252452474268817, 51.523966776912516],
        [-0.252641159852602, 51.52438503504881],
        [-0.252639092174328, 51.524777970650106],
        [-0.252529218442918, 51.525087469795515],
        [-0.252303541956108, 51.525334095503744],
        [-0.251134923955413, 51.52652525286547],
        [-0.250364904206963, 51.52709467735472],
        [-0.250295320082724, 51.52717996619618],
        [-0.250295633582626, 51.52735981817064],
        [-0.250621087101873, 51.52778281695245],
        [-0.25013573039938, 51.528221599241846],
        [-0.250468475756757, 51.528341664501035],
        [-0.249568698639059, 51.52913575611576],
        [-0.249434815539205, 51.529243465135785],
        [-0.249342883014467, 51.52919713141041],
        [-0.24932590292099, 51.52918878488151],
        [-0.248508120379687, 51.529798849384434],
        [-0.247725915011607, 51.530307825962474],
        [-0.246955686358359, 51.530729750425664],
        [-0.246634913267057, 51.53086074118481],
        [-0.245550708229929, 51.5310486580018],
        [-0.24540644358526, 51.53105099654212],
        [-0.245269030742194, 51.5312126022536],
        [-0.246372495420234, 51.531536641409026],
        [-0.246994511030702, 51.53178333629548],
        [-0.246371132427893, 51.53258513049718],
        [-0.246311358077234, 51.53275239411814],
        [-0.243428953863386, 51.531784854952086],
        [-0.243230207887989, 51.53177918114403],
        [-0.238569184257861, 51.531960175711276],
        [-0.237350079017502, 51.53201829970575],
        [-0.234628751680453, 51.53259515533228],
        [-0.234423837861805, 51.532637033379174],
        [-0.231614064139072, 51.531178412242596],
        [-0.231394066410797, 51.53108876885346],
        [-0.228716339567769, 51.530467460101924],
        [-0.228503091391323, 51.53035273446444],
        [-0.228727694430198, 51.52987773114078],
        [-0.227457881093797, 51.52805018200796],
        [-0.227412120132996, 51.527892123735384],
        [-0.227414153279083, 51.52628071816126],
        [-0.227416850496613, 51.52624838631016],
        [-0.227195157901396, 51.52479276475884],
        [-0.2266198619781, 51.524795759073854],
        [-0.226733484078278, 51.5223533435855],
        [-0.226729383306425, 51.52197650013124],
        [-0.226820412120748, 51.52193381344854],
        [-0.228070910956141, 51.52135741319591],
        [-0.228077120055758, 51.52119744231514],
        [-0.228301541991189, 51.52109741960628],
        [-0.225894764510318, 51.519083614048064],
        [-0.225677516840964, 51.5188878906123],
        [-0.222751193933408, 51.515712432078736],
        [-0.222604014295094, 51.51564275884585],
        [-0.220040345464295, 51.5113450742701],
        [-0.219937084742285, 51.511184341340886],
        [-0.219300756396241, 51.50961539635679],
        [-0.219286490792475, 51.50957471386854],
        [-0.218844524661177, 51.509637244654414],
        [-0.217888647731003, 51.50975940964359],
        [-0.218053287292987, 51.51023041638662],
        [-0.217246163934504, 51.510380914109426],
        [-0.217209701739341, 51.51039205004604],
        [-0.216815321445258, 51.50956774412618],
        [-0.216841767000617, 51.50944405070303],
        [-0.21646213933547, 51.50920177773143],
        [-0.216430733059092, 51.509120368306796],
        [-0.216086173222601, 51.50912412061563],
        [-0.215817065708037, 51.509114631826286],
        [-0.215392966450647, 51.50805606549674],
        [-0.215202896032835, 51.5076467154454],
        [-0.216086938157159, 51.507518084493704],
        [-0.216144544303934, 51.5075189606584],
        [-0.216189250561427, 51.50722289041648],
        [-0.216227388403715, 51.50694740284029],
        [-0.216056880846251, 51.506590507744626],
        [-0.215963408558681, 51.50640114416156],
        [-0.217180934874618, 51.50629286437318],
        [-0.217990725824633, 51.506146004907876],
        [-0.217418556514559, 51.50511487071996],
        [-0.217040523258957, 51.504500336795914],
        [-0.215375896965884, 51.502702610091276],
        [-0.214966513085012, 51.502301611965606],
        [-0.215075143986526, 51.502250209894996],
        [-0.21436962894496, 51.501131601881966],
        [-0.214133059861852, 51.50077010066167],
        [-0.213062620158492, 51.4998473575656],
        [-0.210825075534723, 51.49852372675067],
        [-0.210270061759818, 51.498127683685766],
        [-0.208209478598995, 51.49618981977192],
        [-0.208001399858425, 51.4960220785484],
        [-0.207388486815905, 51.49614849755865]
      ]
    ]
  }
}
