{
  "type": "Feature",
  "properties": {
    "name": "Hammersmith and Fulham",
    "level": 2,
    "londonBorough": true,
    "center": [-0.205, 51.475]
  },
  "geometry": {
    "type": "Polygon",
    "coordinates": [
      [
        [-0.207388486815905, 51.49614849755865],
        [-0.207317743165365, 51.496042204460736],
        [-0.207308651934513, 51.49601688661592],
        [-0.207298120929933, 51.49599154676151],
        [-0.207281795546175, 51.49596701757654],
        [-0.207263995137564, 51.49594336508664],
        [-0.207248792225618, 51.495926946265485],
        [-0.207225162204926, 51.49590500314492],
        [-0.207198582123994, 51.49588481341268],
        [-0.207169051983777, 51.49586637706677],
        [-0.207136571784557, 51.495849694105004],
        [-0.207135555157096, 51.495838887616095],
        [-0.207103533411397, 51.495810521460854],
        [-0.206840014723612, 51.49562394564378],
        [-0.206719227641922, 51.49554476359459],
        [-0.206590854145545, 51.49547535710644],
        [-0.206327502608473, 51.49535802458372],
        [-0.206009166209593, 51.49521017523878],
        [-0.205616917600829, 51.49503691448974],
        [-0.205191494757005, 51.49482807410891],
        [-0.204783811671386, 51.49460781351654],
        [-0.204865362739261, 51.49454881237908],
        [-0.204385776078784, 51.49428878212156],
        [-0.204036926752937, 51.49403794605704],
        [-0.203787651307594, 51.49385607755487],
        [-0.203638327277055, 51.49377016044012],
        [-0.203448321174836, 51.49361977342599],
        [-0.203189537839981, 51.49342337001652],
        [-0.203027895202585, 51.49332107692705],
        [-0.203131385795574, 51.493290289800505],
        [-0.203094068938125, 51.49325015117898],
        [-0.203002724571786, 51.49315522989529],
        [-0.202780371446951, 51.49291172370453],
        [-0.202569750161119, 51.49266300140494],
        [-0.202425513136359, 51.49248453826639],
        [-0.202247503097487, 51.492285773784324],
        [-0.201864346440442, 51.49188243239869],
        [-0.201835316098099, 51.49185141288023],
        [-0.20230819653665, 51.49169499988737],
        [-0.202387033198774, 51.49166833172983],
        [-0.201774454214678, 51.49112838447658],
        [-0.200935653400393, 51.49037094280353],
        [-0.20093424917662, 51.49037002201394],
        [-0.200623242822778, 51.49007389431412],
        [-0.200374782331263, 51.48998195546439],
        [-0.199580911350883, 51.48929173750862],
        [-0.199374512045896, 51.4891195099839],
        [-0.198950720454976, 51.48879826540437],
        [-0.199025801941603, 51.48875715387987],
        [-0.198298944073415, 51.48812191089171],
        [-0.198222001978708, 51.48806407612344],
        [-0.198066430832369, 51.48795467524257],
        [-0.197902010708384, 51.4878505336495],
        [-0.197727372970653, 51.48774983177728],
        [-0.197543886280425, 51.48765438911284],
        [-0.197099678127889, 51.487449726025794],
        [-0.196448165026975, 51.487205903153374],
        [-0.195987877304251, 51.4873723779157],
        [-0.195324313560293, 51.486996173893964],
        [-0.19511559845927, 51.48688325339909],
        [-0.194912819782304, 51.48676592766386],
        [-0.194717417019823, 51.486644218879434],
        [-0.194680877959091, 51.48662117515657],
        [-0.194494361774999, 51.48649330806214],
        [-0.194316660966616, 51.48636108016244],
        [-0.194143350592295, 51.48622712109971],
        [-0.194005033524507, 51.48611887966207],
        [-0.193621008343458, 51.48581351495102],
        [-0.19325173792178, 51.485499383786625],
        [-0.193190533899597, 51.48544448585906],
        [-0.192953271718023, 51.485216017736015],
        [-0.192724790573194, 51.4849840874501],
        [-0.19257533808374, 51.4848298109593],
        [-0.192029889387192, 51.48427286074124],
        [-0.191821018420646, 51.484018749732485],
        [-0.191775615110383, 51.48403783308859],
        [-0.191732983901524, 51.48405965692151],
        [-0.191707945364016, 51.48407365879295],
        [-0.191391497030992, 51.48377202631514],
        [-0.191213461710304, 51.48357594170231],
        [-0.19102664940823, 51.48338331840138],
        [-0.190864324620372, 51.48322704255233],
        [-0.190794774814053, 51.48316482056778],
        [-0.190658518920812, 51.48304131959735],
        [-0.190445304655888, 51.482860877434916],
        [-0.190221874297087, 51.482683874196034],
        [-0.19015618169369, 51.48263340158934],
        [-0.189519612151715, 51.48208762225603],
        [-0.189041301085952, 51.481691760492836],
        [-0.188353183592479, 51.48103007451716],
        [-0.188281046834684, 51.480960617015604],
        [-0.188194980374445, 51.48087925399127],
        [-0.187589523731852, 51.48045804097112],
        [-0.187403337434007, 51.48032297331506],
        [-0.187224491120329, 51.48018442182734],
        [-0.187217508577241, 51.480178918380346],
        [-0.18704603789992, 51.48003598438514],
        [-0.186881907154135, 51.47988956662363],
        [-0.186880539175027, 51.47988774697114],
        [-0.186729839669638, 51.479765816419906],
        [-0.186549937140947, 51.47987184356247],
        [-0.186364291058577, 51.47972329381525],
        [-0.186236906711831, 51.47959452922729],
        [-0.186166749473503, 51.47951161224452],
        [-0.186042374388575, 51.4793433269742],
        [-0.185770431015674, 51.47893805414068],
        [-0.185685121705996, 51.478837816658725],
        [-0.185632392617821, 51.47878754200865],
        [-0.185374744737361, 51.47860280573199],
        [-0.184669004059564, 51.47809729411062],
        [-0.184576942775987, 51.47802213027047],
        [-0.184339440488559, 51.47780173352371],
        [-0.184033312153522, 51.4775326131893],
        [-0.183880867493498, 51.47741874507227],
        [-0.183739269935821, 51.47735810056356],
        [-0.183619735636715, 51.477322077428795],
        [-0.18342111828182, 51.477283030511465],
        [-0.182920381901329, 51.47723660405776],
        [-0.182825682181827, 51.477227942483516],
        [-0.18264880676543, 51.47722160422568],
        [-0.182553535578677, 51.47722732158828],
        [-0.182424734691349, 51.47724331014919],
        [-0.182238662628905, 51.47728718676793],
        [-0.180850986253262, 51.47774406769774],
        [-0.180733124725082, 51.477774612141666],
        [-0.180587846915364, 51.47780652956852],
        [-0.180438608980624, 51.47782939285354],
        [-0.180210286943133, 51.47784923011144],
        [-0.17968260498155, 51.47782844993562],
        [-0.17954325406868, 51.47781999178082],
        [-0.179329530613349, 51.477798688418495],
        [-0.178224457622543, 51.4776313495084],
        [-0.177948629389104, 51.47757850415295],
        [-0.177815681013755, 51.47755395690167],
        [-0.177728731235947, 51.47742311345173],
        [-0.177680323655131, 51.47733693225703],
        [-0.177650482186841, 51.477254636595134],
        [-0.177631323914821, 51.47715721968588],
        [-0.177627244326157, 51.477078921404186],
        [-0.177636547028373, 51.476990040089014],
        [-0.17763447327261, 51.47686141489597],
        [-0.177645364763971, 51.47680493132442],
        [-0.177668091817594, 51.476740538431486],
        [-0.177735748352564, 51.47663278046631],
        [-0.178002517171271, 51.47637074756645],
        [-0.178032045285583, 51.47631635204932],
        [-0.178078005827307, 51.47621095451712],
        [-0.178107526936789, 51.476120588809984],
        [-0.178121074244045, 51.47603357190484],
        [-0.178124811893039, 51.47601204794205],
        [-0.178136870523247, 51.475853967028584],
        [-0.178170057257864, 51.47574387472286],
        [-0.178356392847722, 51.47540415488487],
        [-0.178481703424763, 51.4750419047122],
        [-0.178655640097295, 51.474615663612376],
        [-0.178721049848695, 51.474455713574706],
        [-0.178775610754498, 51.4740258194668],
        [-0.178877395442686, 51.47371176301357],
        [-0.179017353072585, 51.47341538509868],
        [-0.179161541701577, 51.473229680694175],
        [-0.179218801743641, 51.473165823753575],
        [-0.179273406015833, 51.47313250010812],
        [-0.179437926000214, 51.472978584890946],
        [-0.17952424425807, 51.47287201489545],
        [-0.179625516727521, 51.47271531890354],
        [-0.180240378989759, 51.47152076499174],
        [-0.180287741207158, 51.471452257655606],
        [-0.180321464337325, 51.47136465433712],
        [-0.180382797672582, 51.4710535657523],
        [-0.180982487003035, 51.470058406367926],
        [-0.181531280663086, 51.4691838535906],
        [-0.181701693332693, 51.46895359018557],
        [-0.182020771451139, 51.468569161872686],
        [-0.182894337124717, 51.46752788086826],
        [-0.182978091174709, 51.46744914542083],
        [-0.183404287798619, 51.46712212702272],
        [-0.18355544092035, 51.46701386084091],
        [-0.183891373708322, 51.46678435998538],
        [-0.184235793449299, 51.46655858662229],
        [-0.185047445280213, 51.46605947921113],
        [-0.18552271489268, 51.465837526082005],
        [-0.186282040136195, 51.46553183885911],
        [-0.186362492983577, 51.46549981106379],
        [-0.187391296667958, 51.465114654455746],
        [-0.187831972418214, 51.46496589588537],
        [-0.1886935792484, 51.46469414708487],
        [-0.189053335022239, 51.46458909639652],
        [-0.190169697142782, 51.464318573706976],
        [-0.190407469064735, 51.464276381965774],
        [-0.190508680791885, 51.46426535453672],
        [-0.190722152187339, 51.464255160179505],
        [-0.191257376059099, 51.46419057897722],
        [-0.191511203583847, 51.46417920725437],
        [-0.19184480273779, 51.46415287872705],
        [-0.193189922638906, 51.46399466455215],
        [-0.193237543873918, 51.46399180141105],
        [-0.19485486920361, 51.46390340796868],
        [-0.195189087908, 51.46389776226117],
        [-0.196683263772524, 51.464011577859644],
        [-0.197477862956493, 51.464086744343604],
        [-0.198162576806935, 51.4641008661704],
        [-0.198409527174338, 51.46408128056801],
        [-0.198866974654951, 51.46401726803378],
        [-0.199709234262464, 51.46408865527009],
        [-0.20102250671833, 51.464153775741934],
        [-0.201961125958836, 51.46426439376143],
        [-0.201962564739474, 51.4642644158262],
        [-0.202558767002911, 51.464332908046764],
        [-0.203217712906876, 51.46441674679344],
        [-0.203869079207436, 51.46451035745832],
        [-0.204193814667625, 51.46456299203818],
        [-0.204832828369808, 51.464677990124216],
        [-0.205331195560395, 51.46478183942316],
        [-0.205603679575022, 51.464845360504164],
        [-0.206154017467751, 51.46498237465905],
        [-0.206944382579138, 51.46520309045708],
        [-0.209838164291918, 51.46597480246265],
        [-0.211639502803767, 51.46644652111595],
        [-0.212687123257098, 51.46679072155595],
        [-0.21337588290603, 51.46703412437992],
        [-0.214389137615423, 51.467411057960746],
        [-0.215369455900905, 51.46782075354686],
        [-0.215788817102981, 51.46803216450128],
        [-0.215991953944828, 51.46813956833554],
        [-0.216386438763907, 51.46836138958061],
        [-0.217074621790468, 51.4687684247807],
        [-0.21780535830832, 51.46922915830227],
        [-0.218163292215683, 51.469465705069474],
        [-0.21846215858604, 51.469666282571275],
        [-0.218515438958226, 51.46970306203338],
        [-0.218825015185027, 51.469924484009866],
        [-0.21894691594395, 51.47001086505701],
        [-0.220562093725049, 51.471350987841205],
        [-0.221733868922298, 51.47235793703317],
        [-0.222773634931343, 51.47328014255307],
        [-0.223150007187652, 51.473636552933144],
        [-0.223662425251165, 51.474123615427445],
        [-0.223929910930629, 51.4743920458912],
        [-0.224097238080941, 51.47456993338252],
        [-0.224252879000746, 51.47475213987823],
        [-0.224593417950606, 51.47517904321888],
        [-0.225074739776965, 51.47583738447093],
        [-0.225215099179386, 51.47607960779682],
        [-0.225243019557176, 51.476139380650764],
        [-0.225350837682157, 51.476366723317604],
        [-0.225391824803786, 51.47646086525008],
        [-0.225479653628756, 51.47675804646191],
        [-0.225544158831445, 51.476988330417825],
        [-0.225627283648685, 51.47755521413905],
        [-0.225677031352818, 51.478277162256845],
        [-0.225673727582344, 51.478956042967745],
        [-0.225611612904754, 51.47959176914238],
        [-0.225619654780727, 51.480163811156054],
        [-0.225741409664066, 51.48062606727193],
        [-0.22579351852031, 51.4809532818765],
        [-0.225788747923147, 51.48152153290553],
        [-0.225638135010322, 51.481765647278074],
        [-0.225715385345865, 51.48211302568128],
        [-0.225727676875877, 51.482130297325156],
        [-0.225886665427517, 51.482375499090146],
        [-0.22614834680464, 51.48290641562894],
        [-0.22628586762703, 51.48333383883759],
        [-0.226289697641325, 51.4833464862028],
        [-0.22649902661346, 51.48407624236245],
        [-0.226811175557377, 51.48486600374902],
        [-0.226969387580367, 51.48516874378865],
        [-0.22707785164801, 51.48534303870196],
        [-0.227293680804456, 51.48564575010151],
        [-0.227430020067492, 51.48580697737374],
        [-0.22764158341289, 51.486034087049674],
        [-0.227869192324462, 51.48625604333627],
        [-0.228087563064539, 51.486456277701926],
        [-0.228447494280771, 51.486757567170486],
        [-0.228713095323662, 51.486965707776584],
        [-0.229624670422954, 51.48763951855042],
        [-0.230283332799743, 51.488112571107514],
        [-0.230633731788603, 51.48828871485605],
        [-0.231011520005526, 51.488464371457844],
        [-0.231621951374113, 51.48880719760442],
        [-0.231699702464024, 51.48884523903022],
        [-0.231979593557422, 51.48898254723235],
        [-0.232724030745443, 51.489250052829156],
        [-0.23319343292072, 51.48940370254282],
        [-0.233374073117843, 51.48946307629067],
        [-0.233631325207001, 51.489515510543185],
        [-0.233903112831848, 51.489564566159295],
        [-0.234363523857248, 51.48961556197638],
        [-0.234531540918062, 51.48962888245352],
        [-0.234564582387104, 51.4896311783629],
        [-0.2347526846171, 51.489646599376606],
        [-0.235128629825344, 51.489646862319134],
        [-0.23597277659603, 51.48968294361869],
        [-0.236551464138486, 51.489692546238786],
        [-0.236845282870308, 51.48969336716303],
        [-0.23741033725657, 51.489682977217974],
        [-0.237866293077021, 51.48966285207976],
        [-0.23796583392409, 51.48965895229647],
        [-0.238373396903529, 51.48962371017135],
        [-0.238745142296454, 51.48958343248987],
        [-0.239111474901266, 51.48953407992693],
        [-0.239476713325283, 51.48947571736715],
        [-0.239836503939508, 51.48940917871933],
        [-0.240192320776447, 51.489333586911336],
        [-0.240526715489219, 51.48925317640917],
        [-0.240846886053527, 51.48916805537155],
        [-0.24117031506151, 51.48907309066399],
        [-0.241486786846279, 51.48897172604443],
        [-0.241795000022501, 51.488860345086955],
        [-0.242020256747458, 51.48877110008068],
        [-0.242395702170178, 51.488596879167716],
        [-0.242589735015558, 51.48849547494417],
        [-0.242778146924819, 51.48839038920529],
        [-0.243039273304025, 51.48822974031882],
        [-0.243443027872278, 51.487918356074516],
        [-0.244562352179416, 51.48870217075751],
        [-0.244599277826262, 51.488790849261875],
        [-0.244844514646975, 51.4890813782504],
        [-0.245004664611262, 51.489037014450055],
        [-0.245283508827346, 51.48927768785569],
        [-0.24543427470063, 51.489477776966616],
        [-0.245329302242214, 51.48954814574805],
        [-0.245515109286253, 51.48984857492792],
        [-0.245577044532264, 51.48999877572684],
        [-0.245606997838826, 51.490156591219986],
        [-0.245609177787916, 51.49021237684786],
        [-0.245578933753857, 51.49081261814648],
        [-0.245466950294104, 51.49162835382928],
        [-0.245464475508026, 51.49165529406383],
        [-0.245424715476664, 51.492053063399126],
        [-0.245358765902863, 51.49272021342207],
        [-0.245285633420825, 51.49304914095924],
        [-0.245044884424032, 51.49425411945194],
        [-0.244973778201498, 51.494680195159965],
        [-0.244887705931058, 51.495045797643165],
        [-0.244840758377728, 51.49536792275921],
        [-0.244821852545753, 51.49556007750245],
        [-0.244715780564548, 51.4955836687345],
        [-0.244621313688858, 51.49579267732838],
        [-0.244556785143677, 51.49608486419016],
        [-0.244776628131433, 51.496099844795864],
        [-0.244771411089756, 51.49612314699307],
        [-0.244727268061216, 51.49633470729971],
        [-0.244709362465442, 51.49650079897039],
        [-0.244652187404143, 51.49660155749936],
        [-0.244640420543898, 51.496757849380266],
        [-0.244763438028916, 51.49734329819508],
        [-0.244638374884207, 51.4975986093914],
        [-0.244545060013343, 51.4975900187425],
        [-0.244420550580221, 51.49794335529001],
        [-0.244559665887526, 51.49795982551494],
        [-0.244595869922351, 51.497954971965285],
        [-0.245004469089617, 51.49789454320639],
        [-0.245131601855406, 51.49811046497626],
        [-0.245292523985773, 51.49838444357591],
        [-0.245372856809302, 51.49835597051097],
        [-0.2460053331553, 51.498130729406085],
        [-0.246355319901894, 51.49802086032347],
        [-0.246905705783793, 51.49783215501628],
        [-0.247253946094793, 51.49769258221227],
        [-0.247496307940017, 51.49760897770642],
        [-0.247767404935155, 51.49748983239313],
        [-0.247979803418538, 51.49739858529025],
        [-0.248582740405545, 51.497154005037714],
        [-0.248890544663129, 51.4970542893807],
        [-0.249234550368787, 51.496949717906446],
        [-0.249246854704124, 51.49696698716433],
        [-0.249394128678237, 51.49718410415619],
        [-0.250015374942562, 51.49796582351833],
        [-0.250735545823822, 51.49902418247074],
        [-0.251025851922738, 51.49934414544726],
        [-0.251128179766926, 51.49941850985066],
        [-0.250992615280897, 51.49945965179613],
        [-0.251271543991405, 51.49977584748594],
        [-0.251320733031591, 51.499845822408176],
        [-0.251348057477574, 51.49984712905571],
        [-0.251363277648527, 51.49986354230949],
        [-0.251646187268059, 51.500188788815954],
        [-0.251843472951002, 51.50037967082684],
        [-0.252142439202812, 51.500661991884236],
        [-0.252366232914117, 51.50083798094473],
        [-0.252839233198571, 51.50116605684252],
        [-0.252762051222645, 51.501225156109676],
        [-0.253023152314365, 51.501405296617],
        [-0.253083872440095, 51.50139990637274],
        [-0.253144826450842, 51.5014637610456],
        [-0.253114645298294, 51.50157481724773],
        [-0.253110222216586, 51.501577449087016],
        [-0.253080700626011, 51.50159589340571],
        [-0.253075896123299, 51.5016461792711],
        [-0.253073287669022, 51.501676714570856],
        [-0.253110308511114, 51.50176359300563],
        [-0.25318310025046, 51.50212077611976],
        [-0.253258944927604, 51.5024735084326],
        [-0.253243335415301, 51.50258028547234],
        [-0.253325304251299, 51.50269750814641],
        [-0.25335594452137, 51.50283824583417],
        [-0.253365815420808, 51.50288155633479],
        [-0.253407504614607, 51.502921743716016],
        [-0.253492323261085, 51.50300213987919],
        [-0.253666078371629, 51.5031306207044],
        [-0.253923489247032, 51.50333228587467],
        [-0.254175242680882, 51.50356893658483],
        [-0.25437217551718, 51.503769700482486],
        [-0.254425350269696, 51.50384872572389],
        [-0.254479761497751, 51.50389539672597],
        [-0.254502081443242, 51.50391461292959],
        [-0.254511921545938, 51.503921054049364],
        [-0.25456245915234, 51.50395597725194],
        [-0.255072262699353, 51.50430257619841],
        [-0.255067839460688, 51.504305208108924],
        [-0.255090331502381, 51.50431993056129],
        [-0.254868003500198, 51.50444431465503],
        [-0.25456800017787, 51.504188063447685],
        [-0.25455826303138, 51.50417892614763],
        [-0.254539713718246, 51.50417415389974],
        [-0.254307446615066, 51.50421925596536],
        [-0.253659164700248, 51.50429143586531],
        [-0.253684121206525, 51.50435475420932],
        [-0.253764407921552, 51.504553782251485],
        [-0.25371228984529, 51.5045602001847],
        [-0.252794220228193, 51.5046787155222],
        [-0.252591472756338, 51.50470536992861],
        [-0.252543674634707, 51.50471185170546],
        [-0.252527199881485, 51.50453985151579],
        [-0.252515339278341, 51.50451089913915],
        [-0.251246396968776, 51.50464845353925],
        [-0.251046430872993, 51.504640076404804],
        [-0.250838110229588, 51.50454884428829],
        [-0.250334607672149, 51.50445230941493],
        [-0.250027766623586, 51.50445042928882],
        [-0.249928951788801, 51.50443456703668],
        [-0.249891560267258, 51.50454551482183],
        [-0.249875334464105, 51.50459293240858],
        [-0.249868954318869, 51.504609023519556],
        [-0.249676740133067, 51.50458637188355],
        [-0.249487406318168, 51.50456376292129],
        [-0.2494404151666, 51.50466197793382],
        [-0.249431051353229, 51.504680722207944],
        [-0.249348146112881, 51.50466329844877],
        [-0.249280363645618, 51.50443927521786],
        [-0.249039759788546, 51.50447614927855],
        [-0.248080806722371, 51.50460840524141],
        [-0.248034141581505, 51.50443505412188],
        [-0.248011150015265, 51.504358275285924],
        [-0.246644989653293, 51.50451321170714],
        [-0.246284545942904, 51.50455638168746],
        [-0.245702664141306, 51.50462501430384],
        [-0.245715856978642, 51.5046566850399],
        [-0.24571150220439, 51.50465751914408],
        [-0.246022729524067, 51.50537077505208],
        [-0.246229107688508, 51.505812690285424],
        [-0.246281200891526, 51.505919579525326],
        [-0.24638014503191, 51.50611979094862],
        [-0.246435420746632, 51.50625640260942],
        [-0.246476640384827, 51.50638381169459],
        [-0.246511055702263, 51.506575864300544],
        [-0.246517169069717, 51.50667936827307],
        [-0.24651372782478, 51.5067314727327],
        [-0.245176231260877, 51.506738446338595],
        [-0.24508676921248, 51.50674160399985],
        [-0.245356402675705, 51.507599915916856],
        [-0.245466556974519, 51.50780838892264],
        [-0.245746539962193, 51.50847261879019],
        [-0.245779764544627, 51.508620591007464],
        [-0.245775781577388, 51.5089118850577],
        [-0.24585036483615, 51.509183671621244],
        [-0.245951183871955, 51.50944775731842],
        [-0.246053930987843, 51.50996186029444],
        [-0.24621670937447, 51.51026374103764],
        [-0.246230249220215, 51.51028642447265],
        [-0.246439719945343, 51.51079852576404],
        [-0.24644760245323, 51.51081842687325],
        [-0.246650239274623, 51.5112458970727],
        [-0.247208542449308, 51.511943957904776],
        [-0.247721321055164, 51.5124767751081],
        [-0.248401767935127, 51.51322251578836],
        [-0.248813417953569, 51.51368727407198],
        [-0.248996275912255, 51.513879743292634],
        [-0.24905185096647, 51.513971396004706],
        [-0.249070500071005, 51.51401124088557],
        [-0.249091857677936, 51.514055622386365],
        [-0.249132774226877, 51.51422888694017],
        [-0.249283996009575, 51.51472032981942],
        [-0.249361193041985, 51.51492470987561],
        [-0.24943988673624, 51.51520284974618],
        [-0.249752148955047, 51.51581719311801],
        [-0.250226529639369, 51.51735387448056],
        [-0.250604821283907, 51.51854021614772],
        [-0.250704752095751, 51.51909203989762],
        [-0.250713492977211, 51.519127240516205],
        [-0.250720793323778, 51.51916241965138],
        [-0.25072809368095, 51.51919759878601],
        [-0.250732512948805, 51.51923273495495],
        [-0.250735457237681, 51.5192687483651],
        [-0.250736995412354, 51.519303841568416],
        [-0.250736892110124, 51.519306537740576],
        [-0.25073695529895, 51.519342508185176],
        [-0.25073561236682, 51.51937755842294],
        [-0.25073279444205, 51.5194134859019],
        [-0.250727129833023, 51.51944847169112],
        [-0.250721465214668, 51.51948345747977],
        [-0.250713022773498, 51.51951570413007],
        [-0.25070327750013, 51.51954433440045],
        [-0.250692091653458, 51.5195729431866],
        [-0.250679499666373, 51.5196006317641],
        [-0.250666873227783, 51.51962921906396],
        [-0.250651400082555, 51.51965686467083],
        [-0.250637367482365, 51.51968453175926],
        [-0.250628069800434, 51.51970147861056],
        [-0.25059866727146, 51.51975409512281],
        [-0.250567858543489, 51.51980579141795],
        [-0.250534168605472, 51.51985744473352],
        [-0.250499038018906, 51.51990907655262],
        [-0.250485349643607, 51.519927756381705],
        [-0.250305035228002, 51.520157070167684],
        [-0.250589132917931, 51.520416690941424],
        [-0.250691862277803, 51.52063224148561],
        [-0.251923440604068, 51.522235057294395],
        [-0.252018595307635, 51.5227616296667],
        [-0.252092977044062, 51.52319077479629],
        [-0.252255177834928, 51.52358525884034],
        [-0.252452474268817, 51.523966776912516],
        [-0.252641159852602, 51.52438503504881],
        [-0.252660552034499, 51.52459394680757],
        [-0.252639092174328, 51.524777970650106],
        [-0.252529218442918, 51.525087469795515],
        [-0.252392778129153, 51.525224818870136],
        [-0.252303541956108, 51.525334095503744],
        [-0.251134923955413, 51.52652525286547],
        [-0.250667949017753, 51.52689866712028],
        [-0.250364904206963, 51.52709467735472],
        [-0.250295320082724, 51.52717996619618],
        [-0.250294975557898, 51.52718895342246],
        [-0.250294715774092, 51.52730854800151],
        [-0.250295633582626, 51.52735981817064],
        [-0.250621087101873, 51.52778281695245],
        [-0.250560463336469, 51.52782237851214],
        [-0.25023675789938, 51.52803066961579],
        [-0.250066059950246, 51.52819628058167],
        [-0.25013573039938, 51.528221599241846],
        [-0.250468475756757, 51.528341664501035],
        [-0.250392374709301, 51.52840887147363],
        [-0.249644560851639, 51.529074840762696],
        [-0.249568698639059, 51.52913575611576],
        [-0.249434815539205, 51.529243465135785],
        [-0.249342883014467, 51.52919713141041],
        [-0.24932590292099, 51.52918878488151],
        [-0.248854474379521, 51.52948928738258],
        [-0.248477187556437, 51.529740836413794],
        [-0.248508120379687, 51.529798849384434],
        [-0.247725915011607, 51.530307825962474],
        [-0.246955686358359, 51.530729750425664],
        [-0.246634913267057, 51.53086074118481],
        [-0.246329687185955, 51.530962288684044],
        [-0.246048827028521, 51.53103002871457],
        [-0.246006764054921, 51.53103659370329],
        [-0.245922707159121, 51.53104792619525],
        [-0.245840125687359, 51.53105838145282],
        [-0.245550708229929, 51.5310486580018],
        [-0.24540644358526, 51.53105099654212],
        [-0.245269030742194, 51.5312126022536],
        [-0.245340178504908, 51.53123704660194],
        [-0.246286685918331, 51.53155604109379],
        [-0.246372495420234, 51.531536641409026],
        [-0.246994511030702, 51.53178333629548],
        [-0.246944612265665, 51.53184373870463],
        [-0.246938641339621, 51.53184904489505],
        [-0.246582703245555, 51.53221960610618],
        [-0.246435426919214, 51.5324503069128],
        [-0.246371132427893, 51.53258513049718],
        [-0.246311358077234, 51.53275239411814],
        [-0.24621396877029, 51.53269788328787],
        [-0.246037879057382, 51.53262780795882],
        [-0.244757842265513, 51.532170734801085],
        [-0.244504394931475, 51.53208780960337],
        [-0.243934136051333, 51.53192010981446],
        [-0.243649371388247, 51.53182682234691],
        [-0.243513623437089, 51.53179511509017],
        [-0.243428953863386, 51.531784854952086],
        [-0.243230207887989, 51.53177918114403],
        [-0.242103172458053, 51.531805461473596],
        [-0.241101830269176, 51.53186239118952],
        [-0.240935429201751, 51.53187788089468],
        [-0.240499488224759, 51.53192889440033],
        [-0.240129393892135, 51.531954816246234],
        [-0.239491422333298, 51.53197312022356],
        [-0.239252052380131, 51.53197402391501],
        [-0.238569184257861, 51.531960175711276],
        [-0.237350079017502, 51.53201829970575],
        [-0.236799777320855, 51.53215570637016],
        [-0.236485719627008, 51.53222382387059],
        [-0.235452830388777, 51.53242500840449],
        [-0.235387466150528, 51.532437513770915],
        [-0.235104255471533, 51.53249080455254],
        [-0.23508830067683, 51.53249326223234],
        [-0.234628751680453, 51.53259515533228],
        [-0.234423837861805, 51.532637033379174],
        [-0.23421834142186, 51.532544915914166],
        [-0.234188602961896, 51.53253097972407],
        [-0.233859990503069, 51.53234168920103],
        [-0.233253047029171, 51.53200522752884],
        [-0.232949112114611, 51.53181180985583],
        [-0.232354885907159, 51.531519597643964],
        [-0.231614064139072, 51.531178412242596],
        [-0.231394066410797, 51.53108876885346],
        [-0.23109808471533, 51.530988087702475],
        [-0.230742387808547, 51.530865822716784],
        [-0.230469592259088, 51.53083652946229],
        [-0.230077213603044, 51.53073079464428],
        [-0.229918842676579, 51.53068793938495],
        [-0.229428474654937, 51.53054385501242],
        [-0.229198095429997, 51.5304990126801],
        [-0.228811950509998, 51.53041854636326],
        [-0.228716339567769, 51.530467460101924],
        [-0.228503091391323, 51.53035273446444],
        [-0.228727694430198, 51.52987773114078],
        [-0.228365673241034, 51.52921312249324],
        [-0.228324855053502, 51.52915045857098],
        [-0.228269872759878, 51.52908128604054],
        [-0.228207546866897, 51.5290155995217],
        [-0.228019279211575, 51.528851792102515],
        [-0.227826750136212, 51.52864925272629],
        [-0.22774002609503, 51.52854363085595],
        [-0.227588331095541, 51.52832911862715],
        [-0.227507815376798, 51.52817503147811],
        [-0.227457881093797, 51.52805018200796],
        [-0.227412120132996, 51.527892123735384],
        [-0.22737766672922, 51.5277027629458],
        [-0.227355019173803, 51.527506386628325],
        [-0.227347617365819, 51.52728865894758],
        [-0.227350520194278, 51.527102560340765],
        [-0.227414153279083, 51.52628071816126],
        [-0.227416850496613, 51.52624838631016],
        [-0.227391965448684, 51.525961152987044],
        [-0.227374961370985, 51.525842196465035],
        [-0.227298745552054, 51.525317687495104],
        [-0.227271402866943, 51.5251680005707],
        [-0.227195157901396, 51.52479276475884],
        [-0.2266198619781, 51.524795759073854],
        [-0.226733484078278, 51.5223533435855],
        [-0.226729383306425, 51.52197650013124],
        [-0.226820412120748, 51.52193381344854],
        [-0.228070910956141, 51.52135741319591],
        [-0.228077120055758, 51.52119744231514],
        [-0.228301541991189, 51.52109741960628],
        [-0.226722746987315, 51.51977236269669],
        [-0.226768416274179, 51.519746975132435],
        [-0.226701085189022, 51.51969919677265],
        [-0.226625844067523, 51.51963241474363],
        [-0.226563114208365, 51.51957751194388],
        [-0.226528671644547, 51.519536525397186],
        [-0.226484119615312, 51.519533154075866],
        [-0.226472630201917, 51.51953208111968],
        [-0.22642676817718, 51.51948822416208],
        [-0.226369644474098, 51.51951163991656],
        [-0.225894764510318, 51.519083614048064],
        [-0.225677516840964, 51.5188878906123],
        [-0.225299032164809, 51.51850178613264],
        [-0.225077145792351, 51.51827721565837],
        [-0.224917498147843, 51.518120130428876],
        [-0.224747418726456, 51.51797187949719],
        [-0.224464245749229, 51.517655556943254],
        [-0.224277163430059, 51.517499853999624],
        [-0.22429985406869, 51.517472321042774],
        [-0.224315027748123, 51.51745276745345],
        [-0.223668123634734, 51.51674246399985],
        [-0.222927802469207, 51.515914739423856],
        [-0.222751193933408, 51.515712432078736],
        [-0.222604014295094, 51.51564275884585],
        [-0.222402191815544, 51.51527370925705],
        [-0.222276987461532, 51.51508387030548],
        [-0.222032209055519, 51.51474474317173],
        [-0.221757210464025, 51.51433052030109],
        [-0.221480071132787, 51.51389738019957],
        [-0.221478875795832, 51.513891067384186],
        [-0.221463266436868, 51.51381079820437],
        [-0.221497143697662, 51.51364405296357],
        [-0.221359864594405, 51.51346841771477],
        [-0.221131645273179, 51.51311155479954],
        [-0.220538014910358, 51.51222039407563],
        [-0.220435945672581, 51.512065974397835],
        [-0.220345920467839, 51.5118613798211],
        [-0.220333868423985, 51.51183781666604],
        [-0.220268937276754, 51.51172892241434],
        [-0.220139321080511, 51.511504842833006],
        [-0.220040345464295, 51.5113450742701],
        [-0.219937084742285, 51.511184341340886],
        [-0.219882097194808, 51.511079194730534],
        [-0.219834381286577, 51.51097235997197],
        [-0.21978954612009, 51.51086556891431],
        [-0.219768428741943, 51.51081579008095],
        [-0.219570783965309, 51.51034068792523],
        [-0.219518359663844, 51.51020680427838],
        [-0.219300756396241, 51.50961539635679],
        [-0.219286490792475, 51.50957471386854],
        [-0.218844524661177, 51.509637244654414],
        [-0.217888647731003, 51.50975940964359],
        [-0.218053287292987, 51.51023041638662],
        [-0.217840835458642, 51.5102460725676],
        [-0.217793097079554, 51.51025074265102],
        [-0.217646966329615, 51.51026560772128],
        [-0.217600457704254, 51.510275691868564],
        [-0.217555284073315, 51.510288494012606],
        [-0.217511515583176, 51.51030221673616],
        [-0.217489631328355, 51.5103090780917],
        [-0.217246163934504, 51.510380914109426],
        [-0.217209701739341, 51.51039205004604],
        [-0.216994953119879, 51.5101343000706],
        [-0.216960210343809, 51.51010139918408],
        [-0.216963227845105, 51.51002411019903],
        [-0.216993471060303, 51.509987701009535],
        [-0.217010050424339, 51.50996906895092],
        [-0.216984264923067, 51.50992821105207],
        [-0.216913020475725, 51.50979673781131],
        [-0.21685962209697, 51.509688016901386],
        [-0.216815321445258, 51.50956774412618],
        [-0.216841767000617, 51.50944405070303],
        [-0.216612979236055, 51.50932456988537],
        [-0.216511037495997, 51.509241188722214],
        [-0.21646213933547, 51.50920177773143],
        [-0.216430733059092, 51.509120368306796],
        [-0.216091970117281, 51.509160178494064],
        [-0.216086173222601, 51.50912412061563],
        [-0.215817065708037, 51.509114631826286],
        [-0.215611845054535, 51.508539591396136],
        [-0.215392966450647, 51.50805606549674],
        [-0.215202896032835, 51.5076467154454],
        [-0.215397351914971, 51.50761190617833],
        [-0.215862063578582, 51.50752005943507],
        [-0.215882366149093, 51.50751677129861],
        [-0.216086938157159, 51.507518084493704],
        [-0.216144544303934, 51.5075189606584],
        [-0.21615525611939, 51.507466068242],
        [-0.216169550198897, 51.50739524544779],
        [-0.216189250561427, 51.50722289041648],
        [-0.216227388403715, 51.50694740284029],
        [-0.216056880846251, 51.506590507744626],
        [-0.215963408558681, 51.50640114416156],
        [-0.216243211557441, 51.506357740027994],
        [-0.216319362294261, 51.506363394366915],
        [-0.216322242529093, 51.50636343816942],
        [-0.216363445673682, 51.506415321634506],
        [-0.21638817462364, 51.50644627196495],
        [-0.217180934874618, 51.50629286437318],
        [-0.217990725824633, 51.506146004907876],
        [-0.217748305058514, 51.50574845293866],
        [-0.217588403224591, 51.505488839463766],
        [-0.217573403892157, 51.50546702967974],
        [-0.217636344747101, 51.505441908149606],
        [-0.21759837186001, 51.505381081787064],
        [-0.217418556514559, 51.50511487071996],
        [-0.217040523258957, 51.504500336795914],
        [-0.217008840148226, 51.504462986168015],
        [-0.216582106345909, 51.50395202250458],
        [-0.216409679338584, 51.503718294878844],
        [-0.216375538297795, 51.50367011576848],
        [-0.216342136818202, 51.50367680174752],
        [-0.216235996721266, 51.503701265569916],
        [-0.216019069940323, 51.50338952559204],
        [-0.215375896965884, 51.502702610091276],
        [-0.214966513085012, 51.502301611965606],
        [-0.215075143986526, 51.502250209894996],
        [-0.21471844862534, 51.501644085840006],
        [-0.21436962894496, 51.501131601881966],
        [-0.214133059861852, 51.50077010066167],
        [-0.213062620158492, 51.4998473575656],
        [-0.21259241602915, 51.4995290537399],
        [-0.211943289716214, 51.499144173861076],
        [-0.211678571250479, 51.498987266018204],
        [-0.211507863682469, 51.498894738392764],
        [-0.210825075534723, 51.49852372675067],
        [-0.210270061759818, 51.498127683685766],
        [-0.210051750623643, 51.497926518026766],
        [-0.209922179556602, 51.497777064195105],
        [-0.20958705386993, 51.49739516479306],
        [-0.208967436267333, 51.49681018680103],
        [-0.208209478598995, 51.49618981977192],
        [-0.208001399858425, 51.4960220785484],
        [-0.207388486815905, 51.49614849755865]
      ]
    ]
  }
}
