{
  "type": "Feature",
  "properties": {
    "name": "Haringey",
    "level": 2,
    "londonBorough": true
  },
  "geometry": {
    "type": "Polygon",
    "coordinates": [
      [
        [-0.097664699462498, 51.573652196359205],
        [-0.097798952662717, 51.57361660434754],
        [-0.096864837021021, 51.57182994056513],
        [-0.096762113212509, 51.571594470081386],
        [-0.096115551105582, 51.570698222236764],
        [-0.096055345153299, 51.570654081470025],
        [-0.099042011559876, 51.56838064647758],
        [-0.10070034456358, 51.56712517325625],
        [-0.103095512764818, 51.56556685435744],
        [-0.104307165869762, 51.564812183779814],
        [-0.104603475396649, 51.56476481423537],
        [-0.104871463448887, 51.5646351549799],
        [-0.108422497010916, 51.567237324254094],
        [-0.108614450257132, 51.56737530554271],
        [-0.111621234603167, 51.56905316781982],
        [-0.115043074504095, 51.57057485585208],
        [-0.115093457113032, 51.57064760482907],
        [-0.115166036047755, 51.57067215105073],
        [-0.115139272776933, 51.5713191780124],
        [-0.115142728855519, 51.57141005733024],
        [-0.115601493005481, 51.57162245343066],
        [-0.115405642936176, 51.571891779529274],
        [-0.116127823047599, 51.572190235125255],
        [-0.115585284469398, 51.5725726955558],
        [-0.117451157825169, 51.574040537287836],
        [-0.117585262765509, 51.57414790027614],
        [-0.119063988494966, 51.57436944587556],
        [-0.119567015178733, 51.57438470173409],
        [-0.118899011880576, 51.57473009621993],
        [-0.118890210280824, 51.57473355210612],
        [-0.119393879426535, 51.57525779141478],
        [-0.119539401741595, 51.575508314950454],
        [-0.123609061445379, 51.57466971919491],
        [-0.123775321558762, 51.574662485912114],
        [-0.123960296792593, 51.57451616876018],
        [-0.124119310625786, 51.574404506829424],
        [-0.124506558530553, 51.57435764126123],
        [-0.124554039868984, 51.574361097854954],
        [-0.124713644420279, 51.57412984510681],
        [-0.12488093796511, 51.57409744794988],
        [-0.127124237060844, 51.5741161873241],
        [-0.127496470596509, 51.57415360119332],
        [-0.131197528553025, 51.573604712183254],
        [-0.131389701255489, 51.57356370955526],
        [-0.132977147753566, 51.573070113820265],
        [-0.133112109070691, 51.573016507954414],
        [-0.140521094232142, 51.56947692572176],
        [-0.140706165745528, 51.56939712797917],
        [-0.142170851415178, 51.56914785622228],
        [-0.142415838433851, 51.569120261237146],
        [-0.142417970320485, 51.569280360187726],
        [-0.143855388160211, 51.56991279269502],
        [-0.147096623845648, 51.57061596843379],
        [-0.148067496075521, 51.57080035227513],
        [-0.149162708590226, 51.5710856058555],
        [-0.149543116800194, 51.57120580896876],
        [-0.150113654555286, 51.57151245355567],
        [-0.150350712265377, 51.57157374186216],
        [-0.156981381040853, 51.57207643354255],
        [-0.158862744708773, 51.57219319315124],
        [-0.160424849207921, 51.572783313883434],
        [-0.160454989671565, 51.57278738333331],
        [-0.164263286669961, 51.57250081348641],
        [-0.164300782956737, 51.57250140006006],
        [-0.166853586828924, 51.57296754615832],
        [-0.167107121644071, 51.57297870039837],
        [-0.169148434008095, 51.57285140128568],
        [-0.169913442448514, 51.57277520899573],
        [-0.171008566112998, 51.57252790657293],
        [-0.1712852480622, 51.572429705410194],
        [-0.171239847165939, 51.57302159633059],
        [-0.171181501114876, 51.57361238620398],
        [-0.169947215505707, 51.57383863617704],
        [-0.169484005158266, 51.57398158439088],
        [-0.169590966359037, 51.57634825078451],
        [-0.16975343804968, 51.57639934374628],
        [-0.169354909423489, 51.57741016628307],
        [-0.169345605479955, 51.577426207437476],
        [-0.168284918373162, 51.57699330875901],
        [-0.168088445173212, 51.576926395937654],
        [-0.167376569173647, 51.577868474085655],
        [-0.167084277966562, 51.578210116059104],
        [-0.167167391818688, 51.57822490275391],
        [-0.167360879723521, 51.57825849863261],
        [-0.167052366181554, 51.57853694048345],
        [-0.166838378575756, 51.57865409596625],
        [-0.167216879791022, 51.58112032410821],
        [-0.167219781480164, 51.58129931782678],
        [-0.166896056810713, 51.58195520172969],
        [-0.166215633067695, 51.582041689264166],
        [-0.166372342006182, 51.58216463577543],
        [-0.165772271320079, 51.582943890356916],
        [-0.165746663894841, 51.58322135469972],
        [-0.165203959372638, 51.58343588222754],
        [-0.164908046248553, 51.583543660246924],
        [-0.165014605676983, 51.58358579215685],
        [-0.16505027034542, 51.583596241417496],
        [-0.164869099900595, 51.5837579691595],
        [-0.16462943042373, 51.58393856500762],
        [-0.163809972837549, 51.584286341101894],
        [-0.163746277129665, 51.58432670945636],
        [-0.162683205250416, 51.584451251636594],
        [-0.162505974828315, 51.584515020486826],
        [-0.161350925881486, 51.585272972780295],
        [-0.161223454693222, 51.585355504039924],
        [-0.159884737858144, 51.58458455654498],
        [-0.159642928649739, 51.58446026688675],
        [-0.159204231606132, 51.58477891101532],
        [-0.157966111834566, 51.58573335979805],
        [-0.157922905540975, 51.586194890281824],
        [-0.157922033196176, 51.58621645831525],
        [-0.157368368145341, 51.58620057278548],
        [-0.157182273670271, 51.586197650824346],
        [-0.157311575350337, 51.58639121891322],
        [-0.157429991713314, 51.586568429652694],
        [-0.157671913083878, 51.5865830184617],
        [-0.158704989928172, 51.58663070455835],
        [-0.158640535375365, 51.587974953850704],
        [-0.160273117826902, 51.58797717689219],
        [-0.16009621407414, 51.58810389395096],
        [-0.160149837019423, 51.58934927994284],
        [-0.16016922213509, 51.58969129421845],
        [-0.159768212705827, 51.58971917820343],
        [-0.159834650100211, 51.590111388368136],
        [-0.15984677957901, 51.59020420004136],
        [-0.159601295202798, 51.59099168006317],
        [-0.159480803089257, 51.59157969048498],
        [-0.158693723308035, 51.591979195741374],
        [-0.158689264302602, 51.59205376251296],
        [-0.158863962409698, 51.592374833286264],
        [-0.159675421835125, 51.59226526365467],
        [-0.160229819851675, 51.59372982073281],
        [-0.160265789221834, 51.59384009150364],
        [-0.160691096173551, 51.59442676538396],
        [-0.160970765270169, 51.59483040908032],
        [-0.161489306521785, 51.5962908004237],
        [-0.161715716426011, 51.59683388876748],
        [-0.161773987299042, 51.59739322734689],
        [-0.161786521447308, 51.59747615341683],
        [-0.156570450253412, 51.60512688148839],
        [-0.156395637373269, 51.60534265029084],
        [-0.156367634145431, 51.60535659823239],
        [-0.155987208922689, 51.605443243698204],
        [-0.156152215911042, 51.605113118466654],
        [-0.156141325715731, 51.60509676114543],
        [-0.155187329931603, 51.60454852409655],
        [-0.154794608865795, 51.604261789317036],
        [-0.153583667911858, 51.60300000165043],
        [-0.153312243433706, 51.602678301025676],
        [-0.15346747802123, 51.600987480126264],
        [-0.15346355881133, 51.60087051765286],
        [-0.153120316890322, 51.599543238573474],
        [-0.153030478718628, 51.59923068880912],
        [-0.151385948611508, 51.597450386312396],
        [-0.151374587513591, 51.597445711182864],
        [-0.147766634795859, 51.59875207412483],
        [-0.147412715298927, 51.598862490115145],
        [-0.147503068778608, 51.59901948439041],
        [-0.145094557410568, 51.599906761875665],
        [-0.144495022734983, 51.60012659129553],
        [-0.144489130535194, 51.60055453551448],
        [-0.144199343593993, 51.60111017937148],
        [-0.143189591037738, 51.602394508099984],
        [-0.143154126926435, 51.60244969982845],
        [-0.142240582554887, 51.60317981332709],
        [-0.142179543984894, 51.60322470836436],
        [-0.142039825042895, 51.6042773029594],
        [-0.142090557812415, 51.60459104078153],
        [-0.142917779105564, 51.60587115747616],
        [-0.142947219460653, 51.60592827522602],
        [-0.143452558213619, 51.60823202211464],
        [-0.143450610371986, 51.60884617028251],
        [-0.135502106102403, 51.61108877660182],
        [-0.135283185165257, 51.611214789315206],
        [-0.131824009126519, 51.610407124329875],
        [-0.131314391669449, 51.61033156961055],
        [-0.129740337687545, 51.60979933003836],
        [-0.128692400877478, 51.609538934683314],
        [-0.126374632582669, 51.60932211373078],
        [-0.126336477506218, 51.60930172143606],
        [-0.125888609763559, 51.60958592505014],
        [-0.125994711394382, 51.609639774891825],
        [-0.125355208415998, 51.61001803467109],
        [-0.124897529216758, 51.60994418069268],
        [-0.12501647538845, 51.60986155225718],
        [-0.124024358677632, 51.609088541037],
        [-0.123543282061947, 51.60870676787007],
        [-0.119203097195869, 51.608363935616794],
        [-0.118736246688537, 51.60865230420865],
        [-0.118140657493247, 51.60842154401755],
        [-0.117517243587815, 51.608200226161934],
        [-0.117289459406793, 51.60843487148663],
        [-0.115955981301148, 51.60830646592385],
        [-0.115907096509529, 51.60830118506547],
        [-0.115916394697328, 51.608425429488136],
        [-0.113849913821294, 51.60835087661223],
        [-0.113838367748146, 51.60835069107921],
        [-0.11151571143919, 51.60846351859659],
        [-0.110876820418721, 51.608476618153155],
        [-0.110836411365222, 51.60858027974708],
        [-0.110823522211567, 51.608612444976046],
        [-0.110467656797671, 51.60852218825234],
        [-0.110534878071847, 51.60836410468021],
        [-0.109895838906231, 51.60827648149844],
        [-0.109889593082237, 51.60825300065515],
        [-0.105281880100684, 51.60844219148707],
        [-0.104155243340598, 51.60844558179214],
        [-0.10301872256251, 51.60823568120469],
        [-0.102538586667172, 51.60804357601421],
        [-0.10220396559584, 51.60841404943427],
        [-0.101783417387187, 51.60848997945309],
        [-0.10151077359508, 51.60851704348214],
        [-0.097849147283181, 51.60849463185067],
        [-0.097485538984329, 51.60852111163926],
        [-0.097681017483256, 51.60892354353999],
        [-0.097357839153974, 51.608915607722324],
        [-0.097263410427613, 51.608894293713085],
        [-0.09621834901005, 51.60926042572445],
        [-0.095812389970516, 51.60929790362239],
        [-0.095592960561016, 51.60926107173267],
        [-0.095336868367637, 51.60882348150294],
        [-0.095157534179591, 51.60865690917874],
        [-0.094024043696309, 51.608823753207304],
        [-0.093580462248776, 51.60900089435986],
        [-0.092559764695612, 51.60885392188226],
        [-0.092486422258418, 51.60884643531742],
        [-0.092472825804951, 51.609067428161566],
        [-0.092471582704407, 51.60909708298133],
        [-0.09173913939021, 51.608895437397855],
        [-0.091443125340257, 51.60879080862445],
        [-0.090905820141416, 51.60879196255231],
        [-0.090876647619441, 51.608902094998925],
        [-0.086585898646296, 51.608521989644665],
        [-0.085851584379052, 51.60846865182251],
        [-0.077091347717961, 51.608423483805765],
        [-0.076673076781615, 51.608410336101464],
        [-0.071502444837756, 51.60872386258257],
        [-0.070869880052842, 51.60879170226198],
        [-0.06835729624101, 51.608680239060305],
        [-0.067994713760237, 51.608818150940166],
        [-0.067819657884521, 51.60865520361872],
        [-0.067476810987696, 51.60866844356805],
        [-0.067140366243615, 51.60893897234125],
        [-0.067069005911401, 51.60891891305348],
        [-0.06630414496734, 51.608667115552755],
        [-0.065242930811188, 51.60859207626408],
        [-0.065045285299659, 51.60858701975089],
        [-0.055615722415759, 51.60889430666176],
        [-0.054379338423024, 51.608863028011896],
        [-0.053979637720241, 51.60878715984834],
        [-0.053071573317589, 51.608576065189624],
        [-0.052948282129154, 51.60852096445386],
        [-0.05290996902484, 51.608505041688794],
        [-0.05291500326951, 51.60831988012539],
        [-0.052915725725444, 51.608100475607884],
        [-0.052183886633625, 51.60799031516886],
        [-0.051776192280198, 51.607899019545826],
        [-0.051552130230855, 51.6077352341184],
        [-0.050231063555503, 51.60735539587436],
        [-0.041797440208262, 51.605698862651785],
        [-0.041447834131778, 51.60563457819535],
        [-0.043141219867088, 51.60333106851623],
        [-0.043540373374088, 51.602813460094765],
        [-0.04612775558179, 51.60013093524147],
        [-0.046468785232592, 51.59978860233319],
        [-0.050684471044119, 51.596432554062254],
        [-0.05072433164127, 51.596378361865625],
        [-0.051087592499335, 51.59575132274556],
        [-0.051108426259635, 51.59570310921121],
        [-0.051236058727526, 51.594981332373216],
        [-0.051251525084188, 51.59495730943623],
        [-0.052275848188049, 51.593996828687494],
        [-0.052294852670514, 51.59395757708351],
        [-0.052524024325307, 51.59265027357392],
        [-0.052532902941948, 51.59244269412187],
        [-0.05340727556318, 51.59083405359361],
        [-0.053479212091672, 51.590468352642944],
        [-0.05348283162498, 51.58991087745975],
        [-0.053377482367375, 51.589606082679445],
        [-0.052243744076526, 51.58806484034126],
        [-0.052230164009569, 51.588044831434765],
        [-0.052221742342626, 51.58760046175082],
        [-0.052232724185577, 51.58757996124893],
        [-0.054611981124113, 51.58601965904455],
        [-0.054652464055115, 51.58598436009493],
        [-0.055675603389411, 51.58433500426108],
        [-0.05572865930709, 51.58427563348284],
        [-0.057315994502131, 51.583203936186585],
        [-0.05734732005915, 51.58318017498553],
        [-0.05792210802577, 51.58246219478129],
        [-0.057947509926914, 51.58244193239306],
        [-0.060075548654565, 51.58134677212723],
        [-0.060825597091836, 51.58095180829969],
        [-0.061663154818495, 51.58033167403984],
        [-0.061719082850195, 51.58027234803248],
        [-0.062154257705127, 51.57974627945388],
        [-0.06221171343994, 51.57965100841321],
        [-0.062267169200687, 51.57926344782239],
        [-0.062261295616502, 51.57923187705603],
        [-0.061260227408107, 51.57792941345499],
        [-0.061184138252468, 51.577784276148364],
        [-0.066782901898923, 51.57661949381127],
        [-0.066737752354477, 51.57635706805309],
        [-0.070933976754398, 51.575690538975415],
        [-0.071852584176361, 51.57560492059883],
        [-0.07439352899716, 51.575685312200925],
        [-0.074448522167901, 51.575681718363924],
        [-0.075175502714925, 51.575554261640114],
        [-0.075205146622023, 51.57533083470116],
        [-0.07575298540164, 51.57548100176072],
        [-0.075784258051212, 51.57549230556768],
        [-0.07597333560281, 51.57525260848525],
        [-0.076246663569787, 51.574931561365595],
        [-0.077521400165323, 51.575229421393956],
        [-0.077545727624942, 51.57523431619927],
        [-0.080861716290803, 51.575587145623544],
        [-0.080876789273162, 51.57564044782909],
        [-0.081847284518436, 51.575453085487524],
        [-0.082234916772584, 51.57536410078339],
        [-0.084904959629739, 51.57511994712414],
        [-0.085689182839118, 51.57503742282154],
        [-0.085853251790731, 51.574876436011415],
        [-0.086663684405705, 51.57475386657183],
        [-0.087231619192713, 51.574701077364054],
        [-0.087180148904837, 51.57451769093451],
        [-0.087173918996945, 51.574494208921834],
        [-0.086865874743435, 51.574372284809286],
        [-0.086872117331604, 51.57429235346821],
        [-0.089836417112604, 51.57439370013564],
        [-0.089981047858785, 51.57438616264793],
        [-0.091264521783538, 51.574029362547385],
        [-0.091389713916036, 51.57400352217821],
        [-0.093540967237416, 51.57398004151645],
        [-0.093583052891918, 51.57397443052662],
        [-0.094575903205191, 51.5736299581702],
        [-0.094710384126035, 51.57358897789182],
        [-0.09656840868183, 51.57381336890265],
        [-0.096613077814426, 51.57381499271407],
        [-0.097664699462498, 51.573652196359205]
      ]
    ]
  }
}
