{
  "type": "Feature",
  "properties": {
    "name": "Haringey",
    "level": 2,
    "londonBorough": true,
    "center": [-0.1119, 51.59]
  },
  "geometry": {
    "type": "Polygon",
    "coordinates": [
      [
        [-0.097664699462498, 51.573652196359205],
        [-0.097798952662717, 51.57361660434754],
        [-0.097453708498979, 51.5729680454015],
        [-0.096912210825591, 51.57193951785918],
        [-0.096864837021021, 51.57182994056513],
        [-0.096762113212509, 51.571594470081386],
        [-0.096692245625803, 51.57150521056451],
        [-0.096604494697762, 51.57139497822239],
        [-0.096442467199274, 51.5710937996107],
        [-0.096367583571051, 51.570986473556445],
        [-0.096217682552427, 51.57080958753383],
        [-0.096115551105582, 51.570698222236764],
        [-0.096055345153299, 51.570654081470025],
        [-0.096353140596895, 51.570434101048356],
        [-0.09874079625269, 51.568614066944605],
        [-0.099042011559876, 51.56838064647758],
        [-0.10070034456358, 51.56712517325625],
        [-0.101380521439118, 51.56666137814069],
        [-0.103095512764818, 51.56556685435744],
        [-0.104307165869762, 51.564812183779814],
        [-0.104391109230795, 51.564771275300636],
        [-0.104402270451921, 51.564780448091135],
        [-0.104463582500634, 51.5648326957084],
        [-0.104603475396649, 51.56476481423537],
        [-0.104871463448887, 51.5646351549799],
        [-0.106204608302437, 51.56553884118491],
        [-0.106634143966548, 51.5658272374367],
        [-0.106903921393175, 51.566036618661364],
        [-0.107021533574632, 51.566123045371306],
        [-0.107330321080172, 51.56633125642212],
        [-0.107611229656331, 51.5665507072305],
        [-0.1077700371915, 51.56672232677023],
        [-0.10784373618435, 51.56678916027373],
        [-0.108320442355331, 51.56715834378473],
        [-0.108422497010916, 51.567237324254094],
        [-0.108614450257132, 51.56737530554271],
        [-0.108815354764921, 51.56750623680259],
        [-0.109056076162631, 51.567651298074296],
        [-0.109308521272539, 51.56779205151066],
        [-0.110337264269251, 51.56842011082799],
        [-0.110672272957799, 51.56858826899732],
        [-0.110707615030081, 51.56860592372757],
        [-0.111621234603167, 51.56905316781982],
        [-0.115043074504095, 51.57057485585208],
        [-0.115045876611668, 51.57061176993795],
        [-0.115047868594795, 51.57063338383318],
        [-0.115093457113032, 51.57064760482907],
        [-0.115166036047755, 51.57067215105073],
        [-0.115159494007205, 51.57083031320446],
        [-0.115139272776933, 51.5713191780124],
        [-0.115142728855519, 51.57141005733024],
        [-0.115199520362591, 51.57143255143899],
        [-0.115507548376348, 51.57155619907582],
        [-0.115606005112743, 51.57161802966228],
        [-0.115601493005481, 51.57162245343066],
        [-0.115405642936176, 51.571891779529274],
        [-0.11574902128544, 51.57203307990118],
        [-0.11609942658458, 51.57217898829322],
        [-0.116127823047599, 51.572190235125255],
        [-0.115585284469398, 51.5725726955558],
        [-0.115818784943984, 51.57282373753237],
        [-0.11658693672554, 51.573372019209444],
        [-0.117184392001339, 51.57382583400461],
        [-0.117451157825169, 51.574040537287836],
        [-0.117585262765509, 51.57414790027614],
        [-0.117800067555724, 51.574188214926444],
        [-0.118234413116903, 51.57425902729257],
        [-0.118867962383047, 51.57436360588816],
        [-0.119063988494966, 51.57436944587556],
        [-0.119567015178733, 51.57438470173409],
        [-0.119487393791245, 51.57442569030166],
        [-0.118899011880576, 51.57473009621993],
        [-0.118890210280824, 51.57473355210612],
        [-0.119140318257435, 51.574897626707035],
        [-0.119263967809742, 51.57497874204825],
        [-0.119238819668892, 51.57499362615085],
        [-0.119393879426535, 51.57525779141478],
        [-0.119539401741595, 51.575508314950454],
        [-0.119568283301559, 51.5755078785215],
        [-0.119650638397224, 51.575505601212264],
        [-0.119928291015245, 51.57545699450472],
        [-0.121758691536404, 51.57502589275653],
        [-0.12177584729015, 51.57506483485268],
        [-0.121794818310875, 51.57505974303005],
        [-0.12237108395645, 51.57490889958797],
        [-0.122407579339603, 51.574968833652],
        [-0.123273656677524, 51.57468413892193],
        [-0.123435442232266, 51.57468043153533],
        [-0.123609061445379, 51.57466971919491],
        [-0.123775321558762, 51.574662485912114],
        [-0.1238228781604, 51.57462907499488],
        [-0.123845214236331, 51.574612346470666],
        [-0.123960296792593, 51.57451616876018],
        [-0.124119310625786, 51.574404506829424],
        [-0.124283499866916, 51.57434238583752],
        [-0.124404458908965, 51.57434881545547],
        [-0.124506558530553, 51.57435764126123],
        [-0.124554039868984, 51.574361097854954],
        [-0.12457796651778, 51.57427065659968],
        [-0.124623156337989, 51.57415447708055],
        [-0.124713644420279, 51.57412984510681],
        [-0.12488093796511, 51.57409744794988],
        [-0.125105585761697, 51.57407406014029],
        [-0.12547633740328, 51.574042214968784],
        [-0.12547777958526, 51.57404223800658],
        [-0.126155419727084, 51.57402248656215],
        [-0.12623237363411, 51.574046196472864],
        [-0.126530167577634, 51.57410400660789],
        [-0.126699606444432, 51.5741246965027],
        [-0.126777373630986, 51.57412863567133],
        [-0.127124237060844, 51.5741161873241],
        [-0.127496470596509, 51.57415360119332],
        [-0.128755296516635, 51.57393268427857],
        [-0.129375018902668, 51.57384724512084],
        [-0.129751866755473, 51.5738073904481],
        [-0.130529778413223, 51.57370018672567],
        [-0.131024804147052, 51.573628938628154],
        [-0.131197528553025, 51.573604712183254],
        [-0.131389701255489, 51.57356370955526],
        [-0.131612080481097, 51.57348991556242],
        [-0.131732622940823, 51.57343608169241],
        [-0.131915509866295, 51.57337514701584],
        [-0.132353611408498, 51.57324903252452],
        [-0.132681707225409, 51.573166128108866],
        [-0.132801547888445, 51.57312936760459],
        [-0.132977147753566, 51.573070113820265],
        [-0.133112109070691, 51.573016507954414],
        [-0.133396077739616, 51.57288344113655],
        [-0.133427099195929, 51.57286594972249],
        [-0.13422522372247, 51.57244071104652],
        [-0.135190559786254, 51.57191381218623],
        [-0.135258147812421, 51.571884311988555],
        [-0.13560315014887, 51.57174051960031],
        [-0.135904895289107, 51.57163110952756],
        [-0.13617029215781, 51.57152831530124],
        [-0.136550809407441, 51.57132753268536],
        [-0.136703838333333, 51.5712553255377],
        [-0.136892956041302, 51.5711827919468],
        [-0.13728502287325, 51.571052331307186],
        [-0.137595485505791, 51.57094125681825],
        [-0.138072381146715, 51.570712323909575],
        [-0.13834390331578, 51.57060062957175],
        [-0.138429012640542, 51.570566010080135],
        [-0.138448163539433, 51.570556422220776],
        [-0.138677202859886, 51.57046023953222],
        [-0.138856869628787, 51.57033629604176],
        [-0.139094328391764, 51.57021057106708],
        [-0.139489646093586, 51.570000122057074],
        [-0.140521094232142, 51.56947692572176],
        [-0.140706165745528, 51.56939712797917],
        [-0.140915836968558, 51.5693509916744],
        [-0.141587609127954, 51.569260917587556],
        [-0.142170851415178, 51.56914785622228],
        [-0.142415838433851, 51.569120261237146],
        [-0.142412312034104, 51.569277572886485],
        [-0.142417970320485, 51.569280360187726],
        [-0.143855388160211, 51.56991279269502],
        [-0.14415337646283, 51.57000113545912],
        [-0.144417122127476, 51.570079943552],
        [-0.144602652285643, 51.57013053708452],
        [-0.145128711153083, 51.57021708784819],
        [-0.146119406364001, 51.570445864131095],
        [-0.147096623845648, 51.57061596843379],
        [-0.148067496075521, 51.57080035227513],
        [-0.149162708590226, 51.5710856058555],
        [-0.149543116800194, 51.57120580896876],
        [-0.14977568238791, 51.57130659424535],
        [-0.150113654555286, 51.57151245355567],
        [-0.150350712265377, 51.57157374186216],
        [-0.151177288655175, 51.57161644278429],
        [-0.152706204736747, 51.571705266858736],
        [-0.153933175128329, 51.57180280979867],
        [-0.155391280424755, 51.57193005138827],
        [-0.156981381040853, 51.57207643354255],
        [-0.158862744708773, 51.57219319315124],
        [-0.15981356190618, 51.57259028451479],
        [-0.160166283790579, 51.57271811189798],
        [-0.160191879968263, 51.57272750560888],
        [-0.160218954610545, 51.57273602325356],
        [-0.160246029263071, 51.572744540892025],
        [-0.160274582379272, 51.57275218246289],
        [-0.160303135505195, 51.57275982402692],
        [-0.160331724923555, 51.572766566912705],
        [-0.160337457321302, 51.57276755602049],
        [-0.160366083031823, 51.57277340022665],
        [-0.160394745031335, 51.57277834575451],
        [-0.160424849207921, 51.572783313883434],
        [-0.160454989671565, 51.57278738333331],
        [-0.160485166420504, 51.57279055410405],
        [-0.160515343173834, 51.5727937248671],
        [-0.160545556210092, 51.57279599695096],
        [-0.160552767066052, 51.57279610998338],
        [-0.1605830163838, 51.572797483386175],
        [-0.160611896086697, 51.57279703683251],
        [-0.160642217960494, 51.57279661287708],
        [-0.160671133938689, 51.57279526763732],
        [-0.160701492086605, 51.572793944995034],
        [-0.160731886507812, 51.57279172367333],
        [-0.160760875029377, 51.5727885810683],
        [-0.160791269444495, 51.57278635973114],
        [-0.160820221685812, 51.572784115782945],
        [-0.160839042454872, 51.572782612279184],
        [-0.160933146282668, 51.572775094714956],
        [-0.161028728520944, 51.57276670100381],
        [-0.161122977356778, 51.572755588599776],
        [-0.161215820243641, 51.5727435548495],
        [-0.161308699346646, 51.5727306223534],
        [-0.161401650921802, 51.57271589243942],
        [-0.161494674957994, 51.57269936510731],
        [-0.161552869335014, 51.57268768747896],
        [-0.162608312924954, 51.57256663440804],
        [-0.163384784568113, 51.57252843222746],
        [-0.164003552187262, 51.57250034695637],
        [-0.164090190693042, 51.57249900474146],
        [-0.164176756782247, 51.57249945980918],
        [-0.164263286669961, 51.57250081348641],
        [-0.164300782956737, 51.57250140006006],
        [-0.164387240449338, 51.572504550992754],
        [-0.164473661754806, 51.57250860053531],
        [-0.164559974480215, 51.57251534603491],
        [-0.164594441660642, 51.572519482094684],
        [-0.164633199147607, 51.57252458448667],
        [-0.164671848053086, 51.57253238288664],
        [-0.164709054805631, 51.57254015871873],
        [-0.164746225375759, 51.57254883321272],
        [-0.164783359765636, 51.57255840636871],
        [-0.16482053036531, 51.57256708083942],
        [-0.164857664786175, 51.57257665397214],
        [-0.164894835415397, 51.572585328419585],
        [-0.164911996663308, 51.57258919374928],
        [-0.165271230865412, 51.572663153160136],
        [-0.165633531496301, 51.57273266319957],
        [-0.165771075755652, 51.572757294193245],
        [-0.165889768122349, 51.5727483585132],
        [-0.165956469845993, 51.572740408631596],
        [-0.166214252825321, 51.572789399264515],
        [-0.166321073494256, 51.57286030994083],
        [-0.166595440529244, 51.57292754365962],
        [-0.166853586828924, 51.57296754615832],
        [-0.167107121644071, 51.57297870039837],
        [-0.167372989231244, 51.572970263427095],
        [-0.168448287919529, 51.57289353065476],
        [-0.169148434008095, 51.57285140128568],
        [-0.169913442448514, 51.57277520899573],
        [-0.169946937383199, 51.57276763820797],
        [-0.170504523552017, 51.57264594287408],
        [-0.171008566112998, 51.57252790657293],
        [-0.1712852480622, 51.572429705410194],
        [-0.171239847165939, 51.57302159633059],
        [-0.171181501114876, 51.57361238620398],
        [-0.170958319246282, 51.57363588497266],
        [-0.170586660978044, 51.5736912398019],
        [-0.169947215505707, 51.57383863617704],
        [-0.169484005158266, 51.57398158439088],
        [-0.169481696449605, 51.574003130112054],
        [-0.169484208209073, 51.57422797902427],
        [-0.169459819116998, 51.5745117580684],
        [-0.169471995112292, 51.57471157902877],
        [-0.169506635277609, 51.5748910679011],
        [-0.169586542420862, 51.57545254006917],
        [-0.169634840638479, 51.57579500411533],
        [-0.169553317046768, 51.575776646992956],
        [-0.169590966359037, 51.57634825078451],
        [-0.16975343804968, 51.57639934374628],
        [-0.169687263972873, 51.5765736631757],
        [-0.169622710317672, 51.5767794811894],
        [-0.169566524936352, 51.576920684518264],
        [-0.169459854191131, 51.57713303940191],
        [-0.169354909423489, 51.57741016628307],
        [-0.169345605479955, 51.577426207437476],
        [-0.168284918373162, 51.57699330875901],
        [-0.168088445173212, 51.576926395937654],
        [-0.167756782444006, 51.57735015491636],
        [-0.167634098998858, 51.57749391603046],
        [-0.167452662414385, 51.577770746114766],
        [-0.167376569173647, 51.577868474085655],
        [-0.167084277966562, 51.578210116059104],
        [-0.167167391818688, 51.57822490275391],
        [-0.167360879723521, 51.57825849863261],
        [-0.167323230298264, 51.578297477172065],
        [-0.167208803123824, 51.578415288860214],
        [-0.167052366181554, 51.57853694048345],
        [-0.166838378575756, 51.57865409596625],
        [-0.166854553577419, 51.57879013366006],
        [-0.167015713524767, 51.57966311385652],
        [-0.167076113271077, 51.57966855343324],
        [-0.167086975064484, 51.58058234926003],
        [-0.167135981286117, 51.58058401389404],
        [-0.167216684663483, 51.58058707277856],
        [-0.167221261175569, 51.580616819115264],
        [-0.167233584474706, 51.580705136923406],
        [-0.167216879791022, 51.58112032410821],
        [-0.167219781480164, 51.58129931782678],
        [-0.167146695461247, 51.581537373752],
        [-0.167061530543425, 51.58175276001881],
        [-0.167014138254107, 51.58181856343008],
        [-0.166957584747596, 51.58189681306313],
        [-0.16690204366592, 51.581949899815406],
        [-0.166896056810713, 51.58195520172969],
        [-0.166215633067695, 51.582041689264166],
        [-0.166372342006182, 51.58216463577543],
        [-0.16636318070828, 51.582177081969256],
        [-0.166133717193487, 51.582463051179914],
        [-0.165772271320079, 51.582943890356916],
        [-0.165746663894841, 51.58322135469972],
        [-0.165203959372638, 51.58343588222754],
        [-0.164908046248553, 51.583543660246924],
        [-0.165014605676983, 51.58358579215685],
        [-0.16505027034542, 51.583596241417496],
        [-0.164869099900595, 51.5837579691595],
        [-0.16462943042373, 51.58393856500762],
        [-0.164490114871939, 51.58395706863611],
        [-0.164310480861218, 51.58397314297763],
        [-0.163809972837549, 51.584286341101894],
        [-0.163746277129665, 51.58432670945636],
        [-0.163695613832662, 51.58429444340344],
        [-0.163682449835387, 51.58429873361666],
        [-0.163634230134478, 51.584313266157345],
        [-0.163578050419444, 51.58427461906731],
        [-0.163576680349754, 51.584272799152075],
        [-0.163562653553673, 51.584262688039715],
        [-0.163216713468272, 51.584357988896706],
        [-0.162683205250416, 51.584451251636594],
        [-0.162505974828315, 51.584515020486826],
        [-0.162289606054201, 51.58461864193607],
        [-0.162062159318909, 51.58474636893446],
        [-0.161918850950259, 51.58486372320956],
        [-0.161423679469167, 51.58522285599449],
        [-0.161350925881486, 51.585272972780295],
        [-0.161223454693222, 51.585355504039924],
        [-0.161109528007128, 51.58535281975052],
        [-0.160856288687605, 51.585189686303444],
        [-0.160541502221855, 51.58497792799674],
        [-0.160270239842071, 51.584796525989475],
        [-0.160054140165872, 51.584678934889205],
        [-0.159884737858144, 51.58458455654498],
        [-0.159642928649739, 51.58446026688675],
        [-0.159580635286418, 51.58450155423022],
        [-0.159204231606132, 51.58477891101532],
        [-0.157966111834566, 51.58573335979805],
        [-0.157922905540975, 51.586194890281824],
        [-0.157922033196176, 51.58621645831525],
        [-0.157368368145341, 51.58620057278548],
        [-0.157182273670271, 51.586197650824346],
        [-0.15718638327513, 51.586203110786414],
        [-0.157311575350337, 51.58639121891322],
        [-0.157429991713314, 51.586568429652694],
        [-0.157671913083878, 51.5865830184617],
        [-0.158704989928172, 51.58663070455835],
        [-0.158713957352485, 51.587158698182584],
        [-0.158703711279873, 51.58741212264035],
        [-0.158697763231217, 51.587523534870584],
        [-0.158696418867526, 51.58755678559565],
        [-0.158654618730944, 51.58755523053928],
        [-0.158625802328984, 51.58755387918094],
        [-0.15862637291208, 51.58757546985254],
        [-0.158623342294433, 51.587579019255955],
        [-0.158632831023512, 51.58780847389453],
        [-0.158640535375365, 51.587974953850704],
        [-0.160273117826902, 51.58797717689219],
        [-0.16009621407414, 51.58810389395096],
        [-0.160103616301117, 51.58820652313475],
        [-0.16010347107202, 51.58821011781016],
        [-0.16008836937485, 51.58844098523192],
        [-0.160080381596498, 51.58863869236585],
        [-0.160075739062589, 51.58900371019655],
        [-0.160148272642787, 51.58899495568376],
        [-0.160145295428484, 51.58906864652095],
        [-0.160139740348409, 51.589206142836325],
        [-0.160149837019423, 51.58934927994284],
        [-0.16016922213509, 51.58969129421845],
        [-0.159768212705827, 51.58971917820343],
        [-0.159834650100211, 51.590111388368136],
        [-0.15984677957901, 51.59020420004136],
        [-0.15980182406104, 51.59038783892023],
        [-0.159747105846468, 51.59052726205127],
        [-0.159601295202798, 51.59099168006317],
        [-0.159480803089257, 51.59157969048498],
        [-0.159351063222938, 51.59157495812144],
        [-0.159171874780485, 51.5916863509406],
        [-0.159070434507582, 51.59173152020524],
        [-0.158743199023662, 51.59189814130865],
        [-0.158706573754927, 51.59194702479011],
        [-0.158693723308035, 51.591979195741374],
        [-0.158689264302602, 51.59205376251296],
        [-0.158692865838599, 51.59207180376969],
        [-0.158813387961439, 51.59226882910484],
        [-0.158863962409698, 51.592374833286264],
        [-0.159675421835125, 51.59226526365467],
        [-0.159775303811567, 51.5925087246737],
        [-0.159811261234548, 51.59265496492793],
        [-0.159851484576899, 51.59276710102776],
        [-0.160169743790361, 51.59339436273186],
        [-0.16019980587815, 51.59347216838623],
        [-0.16022971317712, 51.593589538045656],
        [-0.160229819851675, 51.59372982073281],
        [-0.160265789221834, 51.59384009150364],
        [-0.16039615890226, 51.59407953360037],
        [-0.160484534023659, 51.594214905085586],
        [-0.160691096173551, 51.59442676538396],
        [-0.160970765270169, 51.59483040908032],
        [-0.161025848655749, 51.59511093486896],
        [-0.161107938921514, 51.59529476616251],
        [-0.161489306521785, 51.5962908004237],
        [-0.161715716426011, 51.59683388876748],
        [-0.161760296001813, 51.59701713201478],
        [-0.161779491972456, 51.59714962044116],
        [-0.161773987299042, 51.59739322734689],
        [-0.161786521447308, 51.59747615341683],
        [-0.161782647318313, 51.59753634159172],
        [-0.161768672474349, 51.597596371572095],
        [-0.161730703054997, 51.59767850666335],
        [-0.159929679766704, 51.60022749722567],
        [-0.158693804572532, 51.60204435662149],
        [-0.158735425248707, 51.60208637440065],
        [-0.15727441491734, 51.60414697699068],
        [-0.156773724820678, 51.604921450972014],
        [-0.156570450253412, 51.60512688148839],
        [-0.156395637373269, 51.60534265029084],
        [-0.156367634145431, 51.60535659823239],
        [-0.155987208922689, 51.605443243698204],
        [-0.156137645621692, 51.60529453528875],
        [-0.156160120728498, 51.605203166255244],
        [-0.156162377972411, 51.60514744907194],
        [-0.156152215911042, 51.605113118466654],
        [-0.156141325715731, 51.60509676114543],
        [-0.155413102180506, 51.60467886464092],
        [-0.155268957775783, 51.60460106347654],
        [-0.155187329931603, 51.60454852409655],
        [-0.154794608865795, 51.604261789317036],
        [-0.154643738975657, 51.60413622210604],
        [-0.154575538344787, 51.604073102546266],
        [-0.154447920304262, 51.60390833423377],
        [-0.154005356385481, 51.60342657790664],
        [-0.153583667911858, 51.60300000165043],
        [-0.153312243433706, 51.602678301025676],
        [-0.153385226045955, 51.602089549871486],
        [-0.153423715609681, 51.60167470794867],
        [-0.15343424538354, 51.60134395440073],
        [-0.15346747802123, 51.600987480126264],
        [-0.15346355881133, 51.60087051765286],
        [-0.153437367968972, 51.60069745209576],
        [-0.15321687624837, 51.59983251383241],
        [-0.153120316890322, 51.599543238573474],
        [-0.153030478718628, 51.59923068880912],
        [-0.152923482496493, 51.599056351495975],
        [-0.152061421780936, 51.59827483329444],
        [-0.15162349749268, 51.59768073543228],
        [-0.151549226928488, 51.5975896420092],
        [-0.151385948611508, 51.597450386312396],
        [-0.151374587513591, 51.597445711182864],
        [-0.148794994238289, 51.59838971893381],
        [-0.147766634795859, 51.59875207412483],
        [-0.147412715298927, 51.598862490115145],
        [-0.147503068778608, 51.59901948439041],
        [-0.147000660650047, 51.59919499829088],
        [-0.146682810867835, 51.59930598154393],
        [-0.145094557410568, 51.599906761875665],
        [-0.144495022734983, 51.60012659129553],
        [-0.144523179485566, 51.600215161754726],
        [-0.144523559163038, 51.600418395582125],
        [-0.144489130535194, 51.60055453551448],
        [-0.144199343593993, 51.60111017937148],
        [-0.144026819476387, 51.60123334479171],
        [-0.143911160150997, 51.60134302139562],
        [-0.143883755903836, 51.601377658321695],
        [-0.143822859086901, 51.601489999301116],
        [-0.143579493550915, 51.60175682108103],
        [-0.14346201270918, 51.60194650062594],
        [-0.14325767928019, 51.602212140641996],
        [-0.143189591037738, 51.602394508099984],
        [-0.143154126926435, 51.60244969982845],
        [-0.143111960495716, 51.60249219618242],
        [-0.143064131577045, 51.60253190522381],
        [-0.142508105993884, 51.602958338501374],
        [-0.142240582554887, 51.60317981332709],
        [-0.142179543984894, 51.60322470836436],
        [-0.142140861607119, 51.60328794199398],
        [-0.142114727935346, 51.60346827518134],
        [-0.142037216414163, 51.60370444709583],
        [-0.142025256015808, 51.603785189190646],
        [-0.142039825042895, 51.6042773029594],
        [-0.142090557812415, 51.60459104078153],
        [-0.142214746333914, 51.604909538155695],
        [-0.142323218355444, 51.60504703984775],
        [-0.142406617997078, 51.60512659342946],
        [-0.142657774215498, 51.60544799881693],
        [-0.142825068559549, 51.60573660346787],
        [-0.142917779105564, 51.60587115747616],
        [-0.142947219460653, 51.60592827522602],
        [-0.143103464523839, 51.60634619482652],
        [-0.143161909514039, 51.6065773241879],
        [-0.143302819934099, 51.607335811834574],
        [-0.143406368572515, 51.60773581183114],
        [-0.143414381676671, 51.60778719509778],
        [-0.143428414734622, 51.60790341866145],
        [-0.143452558213619, 51.60823202211464],
        [-0.143450610371986, 51.60884617028251],
        [-0.14282266976605, 51.609051154513516],
        [-0.141137762849712, 51.60953345256222],
        [-0.138785572324254, 51.610192189402895],
        [-0.137729112391793, 51.61042092525465],
        [-0.136199630248634, 51.61080850092464],
        [-0.13596671310957, 51.610888431545085],
        [-0.135502106102403, 51.61108877660182],
        [-0.135283185165257, 51.611214789315206],
        [-0.134966528329817, 51.61118817685129],
        [-0.133283244919289, 51.61078194157059],
        [-0.131824009126519, 51.610407124329875],
        [-0.131314391669449, 51.61033156961055],
        [-0.130904137010497, 51.61019284971972],
        [-0.129740337687545, 51.60979933003836],
        [-0.128692400877478, 51.609538934683314],
        [-0.127902204297831, 51.60943820917223],
        [-0.127403485378231, 51.60937899746899],
        [-0.126467929468601, 51.60937126256242],
        [-0.126374632582669, 51.60932211373078],
        [-0.126336477506218, 51.60930172143606],
        [-0.125888609763559, 51.60958592505014],
        [-0.125994711394382, 51.609639774891825],
        [-0.125355208415998, 51.61001803467109],
        [-0.124897529216758, 51.60994418069268],
        [-0.12501647538845, 51.60986155225718],
        [-0.124123160522365, 51.60928435574165],
        [-0.12418285432613, 51.60927272035229],
        [-0.12416179758101, 51.609257996021114],
        [-0.124083121640105, 51.60920458280746],
        [-0.123941570820521, 51.6091348775757],
        [-0.123994826006265, 51.60910425534961],
        [-0.124024358677632, 51.609088541037],
        [-0.123543282061947, 51.60870676787007],
        [-0.123492396749219, 51.60871494679194],
        [-0.123376156220325, 51.608731972471126],
        [-0.123146524406361, 51.608766968283014],
        [-0.122435326778098, 51.608677360550516],
        [-0.122033100762535, 51.608625064781016],
        [-0.12181220558777, 51.608623328935906],
        [-0.121591533005738, 51.60861620079871],
        [-0.12135568937197, 51.60859174388188],
        [-0.119524160300433, 51.608423034043476],
        [-0.119203097195869, 51.608363935616794],
        [-0.118736246688537, 51.60865230420865],
        [-0.118140657493247, 51.60842154401755],
        [-0.117517243587815, 51.608200226161934],
        [-0.117289459406793, 51.60843487148663],
        [-0.115955981301148, 51.60830646592385],
        [-0.115907096509529, 51.60830118506547],
        [-0.115916394697328, 51.608425429488136],
        [-0.11556542129921, 51.60842609008496],
        [-0.115357442585012, 51.60842634792212],
        [-0.114658159002295, 51.60843310294098],
        [-0.114476018955868, 51.608402300813296],
        [-0.114461735281568, 51.60839847440393],
        [-0.114308982042009, 51.60835555470289],
        [-0.114070769736387, 51.608353526070296],
        [-0.113849913821294, 51.60835087661223],
        [-0.113838367748146, 51.60835069107921],
        [-0.113837799673686, 51.60839924094534],
        [-0.112778101260356, 51.608425371446074],
        [-0.11151571143919, 51.60846351859659],
        [-0.110876820418721, 51.608476618153155],
        [-0.110836411365222, 51.60858027974708],
        [-0.110823522211567, 51.608612444976046],
        [-0.110813493971029, 51.60861048509269],
        [-0.110628320206622, 51.60858322511731],
        [-0.110612556237157, 51.60858027365144],
        [-0.110454842029839, 51.60855255615795],
        [-0.110467656797671, 51.60852218825234],
        [-0.110534878071847, 51.60836410468021],
        [-0.110480482072688, 51.608352438154995],
        [-0.110424680160299, 51.608339849730804],
        [-0.109895764256961, 51.608278278778634],
        [-0.109895838906231, 51.60827648149844],
        [-0.109889593082237, 51.60825300065515],
        [-0.109287706639178, 51.60827927678531],
        [-0.107112824023375, 51.608276596756916],
        [-0.107095392869439, 51.60827901337935],
        [-0.106971894107762, 51.60829680502593],
        [-0.106279371891185, 51.60841872205323],
        [-0.10590283201582, 51.608409049605875],
        [-0.105894022874276, 51.60841250442195],
        [-0.105898068899075, 51.6083846932226],
        [-0.105902114918488, 51.60835688202296],
        [-0.10570990047106, 51.60836007486004],
        [-0.105281880100684, 51.60844219148707],
        [-0.104155243340598, 51.60844558179214],
        [-0.103947527099513, 51.60843952894768],
        [-0.103723935136537, 51.608433219260526],
        [-0.103514775776272, 51.608427142335195],
        [-0.10301872256251, 51.60823568120469],
        [-0.102538586667172, 51.60804357601421],
        [-0.10220396559584, 51.60841404943427],
        [-0.101985416444408, 51.608459974001995],
        [-0.101783417387187, 51.60848997945309],
        [-0.10151077359508, 51.60851704348214],
        [-0.101276778974097, 51.608517754813924],
        [-0.10108938096754, 51.60850932784917],
        [-0.100814919710952, 51.60847611163685],
        [-0.100384868135995, 51.60846825336785],
        [-0.099967768489534, 51.608461502420255],
        [-0.099099699251789, 51.608463633929674],
        [-0.097849147283181, 51.60849463185067],
        [-0.097485538984329, 51.60852111163926],
        [-0.097681017483256, 51.60892354353999],
        [-0.097659368526066, 51.60892319268048],
        [-0.097452831538243, 51.60892344215352],
        [-0.097390733631437, 51.60892333485844],
        [-0.097382149195128, 51.608921397226716],
        [-0.097357839153974, 51.608915607722324],
        [-0.097263410427613, 51.608894293713085],
        [-0.09707065330094, 51.60904853636117],
        [-0.096821577093996, 51.609133523121464],
        [-0.096809843015214, 51.60913782907763],
        [-0.096444123926488, 51.609214629030475],
        [-0.09621834901005, 51.60926042572445],
        [-0.095812389970516, 51.60929790362239],
        [-0.095592960561016, 51.60926107173267],
        [-0.0953524712792, 51.60889927107722],
        [-0.095336868367637, 51.60882348150294],
        [-0.095157534179591, 51.60865690917874],
        [-0.094024043696309, 51.608823753207304],
        [-0.093580462248776, 51.60900089435986],
        [-0.092964993333364, 51.60890277071159],
        [-0.092559764695612, 51.60885392188226],
        [-0.092486422258418, 51.60884643531742],
        [-0.092472825804951, 51.609067428161566],
        [-0.092471582704407, 51.60909708298133],
        [-0.092091879525596, 51.60905943827523],
        [-0.092094679165651, 51.60902711102893],
        [-0.09210140873798, 51.608935497613636],
        [-0.092085721269024, 51.60893074640889],
        [-0.091827807390395, 51.60884742049527],
        [-0.091796470257851, 51.60883701938108],
        [-0.091769323466238, 51.60886445459526],
        [-0.09173913939021, 51.608895437397855],
        [-0.091443125340257, 51.60879080862445],
        [-0.090908857450107, 51.60878841497924],
        [-0.090905820141416, 51.60879196255231],
        [-0.090876647619441, 51.608902094998925],
        [-0.08971617432379, 51.6088166704987],
        [-0.089684498190447, 51.608814356491116],
        [-0.088722518813735, 51.60874833881462],
        [-0.088395458428945, 51.60869535289572],
        [-0.088005311299652, 51.60863144676309],
        [-0.087524475634002, 51.60859483754252],
        [-0.087131451992367, 51.60856505288574],
        [-0.086585898646296, 51.608521989644665],
        [-0.085851584379052, 51.60846865182251],
        [-0.084842079720377, 51.60846837127025],
        [-0.08454390262459, 51.60848418838556],
        [-0.084379108606875, 51.608487793746264],
        [-0.083273668856995, 51.608502120380514],
        [-0.082160171138267, 51.60846774574514],
        [-0.081986907041735, 51.6084667131303],
        [-0.081368974823226, 51.608462009612836],
        [-0.080713104798368, 51.608500745492236],
        [-0.079635389353504, 51.608508297219835],
        [-0.079326537006489, 51.60850324380274],
        [-0.079180770275902, 51.6085008584967],
        [-0.079004468029106, 51.60850336873824],
        [-0.078705794351742, 51.608496681780025],
        [-0.07814350239264, 51.60847398786566],
        [-0.077091347717961, 51.608423483805765],
        [-0.076673076781615, 51.608410336101464],
        [-0.076143905003962, 51.60842414509258],
        [-0.075698136302592, 51.6084465130149],
        [-0.075627114014421, 51.60845254260237],
        [-0.074775301395757, 51.60851411082349],
        [-0.073860552787337, 51.60859532276372],
        [-0.072872805007193, 51.60866094116622],
        [-0.072176854764895, 51.60872504944509],
        [-0.072094209598696, 51.60873268449317],
        [-0.072081833113766, 51.60868392194953],
        [-0.071727098321996, 51.60870507226655],
        [-0.071502444837756, 51.60872386258257],
        [-0.070869880052842, 51.60879170226198],
        [-0.070876262532012, 51.60877741922855],
        [-0.070898639271841, 51.60872652998858],
        [-0.070861343738025, 51.60872052155357],
        [-0.070796741049727, 51.608711366553855],
        [-0.070714438591824, 51.60871091305223],
        [-0.070351581930644, 51.608685164937604],
        [-0.069675201319056, 51.608662353267434],
        [-0.06967169434174, 51.60874502621255],
        [-0.069364399806318, 51.60873727445019],
        [-0.069286579552492, 51.60873329668722],
        [-0.06835729624101, 51.608680239060305],
        [-0.067994713760237, 51.608818150940166],
        [-0.067819657884521, 51.60865520361872],
        [-0.067751902385631, 51.608652289760876],
        [-0.067630785554198, 51.60864759814503],
        [-0.067508225521608, 51.60864288264312],
        [-0.067476810987696, 51.60866844356805],
        [-0.067140366243615, 51.60893897234125],
        [-0.067072006900001, 51.6089162647344],
        [-0.067069005911401, 51.60891891305348],
        [-0.06630414496734, 51.608667115552755],
        [-0.06547680138949, 51.6086283038635],
        [-0.065242930811188, 51.60859207626408],
        [-0.065045285299659, 51.60858701975089],
        [-0.062980469872964, 51.60861051486656],
        [-0.062395045772698, 51.60862243430286],
        [-0.061223278020654, 51.60866783115241],
        [-0.059059463029703, 51.608743576835266],
        [-0.058077850419589, 51.608800179783124],
        [-0.056141264681427, 51.60886434364447],
        [-0.055615722415759, 51.60889430666176],
        [-0.054379338423024, 51.608863028011896],
        [-0.053979637720241, 51.60878715984834],
        [-0.053071573317589, 51.608576065189624],
        [-0.053012073282942, 51.60854900005193],
        [-0.052948282129154, 51.60852096445386],
        [-0.05290996902484, 51.608505041688794],
        [-0.052968676594984, 51.60844936292571],
        [-0.052979202005521, 51.60843964579367],
        [-0.052983857055122, 51.608398357606724],
        [-0.052990916508142, 51.60833462810497],
        [-0.05291500326951, 51.60831988012539],
        [-0.052915725725444, 51.608100475607884],
        [-0.05260613001203, 51.608079153005406],
        [-0.052183886633625, 51.60799031516886],
        [-0.051776192280198, 51.607899019545826],
        [-0.051508989154367, 51.60779836458231],
        [-0.051530501993488, 51.60776814726678],
        [-0.051552130230855, 51.6077352341184],
        [-0.050231063555503, 51.60735539587436],
        [-0.049943642626965, 51.60728857288698],
        [-0.049637576898824, 51.60721874163268],
        [-0.049313770419829, 51.60715850646877],
        [-0.049086233097575, 51.60710976229729],
        [-0.048825811745626, 51.607053277048294],
        [-0.048463140496845, 51.60695642349776],
        [-0.048056135451679, 51.60688311126304],
        [-0.047631257439574, 51.60678881759186],
        [-0.045354979013915, 51.60632378912646],
        [-0.044315255730337, 51.60612032517151],
        [-0.04286092759917, 51.60588655883415],
        [-0.041797440208262, 51.605698862651785],
        [-0.041447834131778, 51.60563457819535],
        [-0.041456840851651, 51.60562663523949],
        [-0.041497545072675, 51.6055868482091],
        [-0.041538249221956, 51.605547061163534],
        [-0.041569946624872, 51.60551521706874],
        [-0.041621448429822, 51.60545942366496],
        [-0.041671507002592, 51.60540360615889],
        [-0.041718756578607, 51.605345943266],
        [-0.041764524266752, 51.60528915488027],
        [-0.041814969117821, 51.605224351261235],
        [-0.04190673586269, 51.60510538275946],
        [-0.041992807075794, 51.604984520674094],
        [-0.042074548561077, 51.604863586300326],
        [-0.042153480750815, 51.60474080650948],
        [-0.042226678841751, 51.60461703177073],
        [-0.042236033119106, 51.604601001305404],
        [-0.042709138309622, 51.60394254771537],
        [-0.043141219867088, 51.60333106851623],
        [-0.043540373374088, 51.602813460094765],
        [-0.044053216595317, 51.602237495271176],
        [-0.044812038129274, 51.601448007657545],
        [-0.045768595157014, 51.60049184953453],
        [-0.04612775558179, 51.60013093524147],
        [-0.046468785232592, 51.59978860233319],
        [-0.046938042654837, 51.59938545482168],
        [-0.047814693225554, 51.598674344992574],
        [-0.048814730974761, 51.59794729506737],
        [-0.049580585865207, 51.597394396682176],
        [-0.049762312032413, 51.597264327568695],
        [-0.049939824088456, 51.59713149040894],
        [-0.050014507006858, 51.597073380782554],
        [-0.050189170377726, 51.59693959667054],
        [-0.050298385019178, 51.5968505868025],
        [-0.050356733973032, 51.596802996612126],
        [-0.050468121950039, 51.59669693694473],
        [-0.050516524607543, 51.596645584458855],
        [-0.050562079968589, 51.596593285409405],
        [-0.050604749560944, 51.59654093841049],
        [-0.050646053180423, 51.5964867702085],
        [-0.050684471044119, 51.596432554062254],
        [-0.05072433164127, 51.596378361865625],
        [-0.050756670212802, 51.59633123872473],
        [-0.050821347151758, 51.596236992413026],
        [-0.050881772307454, 51.596140876954856],
        [-0.050939311571337, 51.59604471353969],
        [-0.050991117806005, 51.595947555640606],
        [-0.051041481004612, 51.59585037375527],
        [-0.051087592499335, 51.59575132274556],
        [-0.051108426259635, 51.59570310921121],
        [-0.051159151655143, 51.59529389356916],
        [-0.051158824387499, 51.59526780988662],
        [-0.051159939910567, 51.59524175016188],
        [-0.051161055431954, 51.595215690437],
        [-0.051165056529849, 51.59518967862766],
        [-0.051169057622774, 51.59516366681802],
        [-0.051175905819814, 51.59513860153467],
        [-0.051182792474606, 51.595112637639524],
        [-0.051184466054999, 51.5951072699297],
        [-0.051192757019969, 51.59508222860251],
        [-0.051201086440678, 51.59505628866329],
        [-0.051210820170609, 51.595031271291724],
        [-0.051221996672822, 51.59500627787623],
        [-0.051236058727526, 51.594981332373216],
        [-0.051251525084188, 51.59495730943623],
        [-0.051265279396707, 51.59493955281959],
        [-0.051278879844363, 51.59492539064644],
        [-0.05129248028348, 51.594911228471574],
        [-0.051308927811082, 51.5948980128183],
        [-0.05132393254952, 51.594884773206815],
        [-0.051341822837508, 51.59487158150443],
        [-0.051358231874491, 51.594859264455216],
        [-0.051376083680983, 51.59484697135869],
        [-0.051393935477814, 51.59483467825935],
        [-0.051411825725725, 51.59482148654576],
        [-0.05142967750287, 51.59480919344072],
        [-0.051441604322347, 51.594800398961496],
        [-0.051554947334633, 51.59471595273392],
        [-0.051671098558072, 51.59463335151732],
        [-0.051677023466665, 51.59462985287657],
        [-0.051736657042655, 51.5945858803358],
        [-0.051796290503101, 51.594541907763215],
        [-0.051853076764049, 51.59449698864889],
        [-0.051878526641653, 51.59447582910081],
        [-0.05193390842251, 51.59442998738464],
        [-0.051987885775764, 51.59438322308162],
        [-0.052037611624485, 51.59433458968827],
        [-0.052084490290343, 51.59428500976811],
        [-0.052113325261282, 51.59425221610434],
        [-0.052134677274789, 51.59422559298832],
        [-0.052140755876563, 51.594218499875495],
        [-0.052165300934475, 51.594184735749245],
        [-0.052188403198375, 51.59415094767244],
        [-0.05221154387141, 51.59411626097858],
        [-0.052231798998784, 51.594081526390966],
        [-0.052252092537713, 51.59404589318736],
        [-0.052256843671981, 51.594036080287836],
        [-0.052275848188049, 51.593996828687494],
        [-0.052294852670514, 51.59395757708351],
        [-0.05230956731176, 51.59391735503387],
        [-0.052324281926091, 51.59387713298186],
        [-0.052337553766272, 51.593836886984526],
        [-0.052347940090115, 51.59379659309957],
        [-0.05235688364993, 51.59375627527054],
        [-0.052360730152799, 51.59373385785412],
        [-0.052410283382629, 51.593216712171795],
        [-0.052518350938669, 51.59268165318429],
        [-0.052524024325307, 51.59265027357392],
        [-0.052532902941948, 51.59244269412187],
        [-0.052937940617593, 51.591748898715174],
        [-0.053168094137149, 51.59136334152884],
        [-0.053313228886421, 51.591075291204966],
        [-0.05340727556318, 51.59083405359361],
        [-0.053479212091672, 51.590468352642944],
        [-0.05347388555632, 51.59018769819251],
        [-0.05348283162498, 51.58991087745975],
        [-0.053377482367375, 51.589606082679445],
        [-0.053232667476617, 51.589346494892574],
        [-0.053009950346534, 51.589018170717345],
        [-0.052743228744927, 51.588706201702955],
        [-0.052694659618437, 51.58866043327009],
        [-0.052630083105967, 51.58851638087314],
        [-0.052556044529745, 51.58839105568408],
        [-0.052437922166219, 51.58828388313314],
        [-0.052426842775305, 51.58827290825786],
        [-0.052257324155225, 51.588084849246265],
        [-0.052243744076526, 51.58806484034126],
        [-0.052230164009569, 51.588044831434765],
        [-0.05221950751588, 51.588023971798904],
        [-0.052208851031724, 51.58800311216215],
        [-0.052199637118777, 51.58798227646717],
        [-0.052191865775036, 51.58796146471436],
        [-0.052184094438158, 51.587940652961024],
        [-0.052179246663599, 51.5879189904803],
        [-0.052174398893381, 51.587897327999336],
        [-0.052169551127503, 51.58787566551815],
        [-0.052167550044906, 51.58785494953582],
        [-0.052165587400123, 51.58783333494054],
        [-0.052165067313171, 51.58781174428829],
        [-0.052165989782002, 51.58779017757908],
        [-0.052168354804568, 51.58776863481285],
        [-0.052170719824622, 51.58774709204646],
        [-0.052174527395688, 51.58772557322291],
        [-0.052179777515735, 51.587704078342014],
        [-0.052186470182731, 51.58768260740359],
        [-0.052193124407687, 51.58766203507757],
        [-0.052201259612551, 51.587640588080724],
        [-0.052210760489564, 51.58762096225152],
        [-0.052221742342626, 51.58760046175082],
        [-0.052232724185577, 51.58757996124893],
        [-0.052246591115072, 51.58755950862992],
        [-0.052260419597936, 51.587539954622045],
        [-0.052275729049496, 51.58751952594104],
        [-0.052290961620499, 51.58750089448382],
        [-0.052309117703685, 51.58748141229393],
        [-0.052325792793305, 51.587462804773025],
        [-0.052345352958675, 51.58744424513113],
        [-0.052364913107984, 51.587425685485755],
        [-0.052384434809888, 51.587408024449964],
        [-0.052405399039658, 51.58739038735074],
        [-0.052424882280041, 51.58737362492088],
        [-0.052451693506258, 51.58735428634569],
        [-0.0524827939046, 51.587335918194455],
        [-0.052513817420538, 51.58731934726094],
        [-0.052547725994863, 51.587302824195454],
        [-0.052580153577404, 51.587287175795254],
        [-0.052612657991055, 51.587269730159385],
        [-0.05264223887594, 51.58725313525332],
        [-0.052670492477223, 51.58723382056312],
        [-0.052695899403853, 51.58721355937979],
        [-0.052701976953368, 51.587206466219136],
        [-0.052714132046655, 51.587192279896804],
        [-0.052723248361593, 51.58718164015413],
        [-0.05275771554998, 51.58718580906734],
        [-0.052759158086912, 51.587185833002955],
        [-0.053159860509835, 51.58692989982151],
        [-0.053286047894387, 51.58684836279163],
        [-0.053906556548105, 51.58648186823746],
        [-0.054327671783874, 51.5862208741167],
        [-0.054376618203782, 51.58619021183477],
        [-0.054424122051903, 51.58615952561677],
        [-0.054470221719464, 51.58612791685012],
        [-0.054516359710399, 51.586095409450145],
        [-0.05455965101607, 51.5860619555905],
        [-0.054601499756032, 51.586028477801506],
        [-0.054611981124113, 51.58601965904455],
        [-0.054652464055115, 51.58598436009493],
        [-0.054690061924144, 51.58594901330755],
        [-0.054727698117448, 51.58591276789277],
        [-0.054762487638331, 51.58587557602944],
        [-0.054797277101841, 51.58583838415498],
        [-0.054829219899166, 51.585800245835365],
        [-0.054861162642354, 51.58576210750627],
        [-0.054871797418055, 51.58574969426602],
        [-0.054911528237054, 51.585698196247805],
        [-0.054949854853221, 51.58564577569193],
        [-0.054986738891442, 51.58559333121446],
        [-0.055019295383047, 51.58554081500224],
        [-0.055051928550331, 51.58548650155023],
        [-0.055081638296064, 51.58543303888967],
        [-0.055091022325979, 51.58541610864692],
        [-0.055124115808639, 51.58535101179395],
        [-0.055155728341845, 51.585286789639305],
        [-0.055183090099409, 51.585220698529334],
        [-0.055209009300425, 51.58515458350661],
        [-0.055232043478473, 51.585088420667624],
        [-0.055252192646008, 51.58502221001423],
        [-0.055253903716752, 51.585015943613776],
        [-0.055279784319975, 51.5849507271859],
        [-0.055308549779253, 51.58488555855795],
        [-0.055340161712872, 51.584821336342706],
        [-0.055374658479644, 51.584757161922724],
        [-0.05541055923937, 51.58469391000823],
        [-0.055449344813939, 51.58463070588452],
        [-0.055484823337027, 51.58457733871044],
        [-0.055529340159019, 51.58451512877696],
        [-0.05557526094601, 51.584453841340036],
        [-0.0555935678434, 51.58443076414409],
        [-0.055624028146231, 51.58439350029751],
        [-0.055675603389411, 51.58433500426108],
        [-0.05572865930709, 51.58427563348284],
        [-0.055784523256194, 51.584218107704324],
        [-0.055841791148008, 51.58416150440933],
        [-0.055901943780439, 51.584104948876366],
        [-0.055963500346597, 51.584049315821204],
        [-0.056027903283911, 51.58399462913602],
        [-0.056075748891041, 51.58395585466302],
        [-0.056147517148279, 51.58389769291488],
        [-0.056223612523178, 51.58383960279628],
        [-0.056299631005012, 51.58378330985717],
        [-0.056379938242406, 51.58372798715211],
        [-0.056461611021635, 51.58367448551016],
        [-0.056546091775283, 51.58362282881645],
        [-0.056633380504393, 51.583573017064985],
        [-0.056673322881115, 51.58355029798812],
        [-0.05674561199671, 51.58351372652513],
        [-0.056819343419573, 51.58347717890072],
        [-0.056894440472569, 51.58344245234424],
        [-0.056925344714775, 51.58342857603772],
        [-0.057088980157355, 51.58334855427246],
        [-0.057125922277548, 51.58332848312257],
        [-0.057161421947325, 51.583308388080425],
        [-0.057195517499286, 51.583287370531075],
        [-0.057219247791307, 51.58327247612917],
        [-0.057253419948864, 51.58324966132974],
        [-0.057284668912313, 51.583227697378874],
        [-0.057315994502131, 51.583203936186585],
        [-0.05734732005915, 51.58318017498553],
        [-0.057375799083821, 51.58315546740421],
        [-0.057402835664907, 51.583130735938354],
        [-0.057405873795568, 51.58312718922715],
        [-0.057427064044872, 51.58310415947924],
        [-0.057448215947021, 51.5830820283436],
        [-0.057466559658029, 51.5830580522182],
        [-0.057483422615195, 51.58303495082992],
        [-0.057500323879388, 51.58301095082246],
        [-0.057515821041489, 51.58298602832003],
        [-0.05753127986261, 51.58296200443179],
        [-0.057546738667134, 51.58293798054124],
        [-0.05755900605874, 51.58292109783007],
        [-0.057608458753201, 51.58284458080568],
        [-0.057656507198314, 51.582767141267205],
        [-0.057665851379679, 51.58275110941209],
        [-0.057770511735151, 51.58263234203418],
        [-0.057785931979533, 51.58260921672504],
        [-0.0578042369992, 51.58258613915785],
        [-0.057816465880234, 51.58257015503353],
        [-0.057836174945592, 51.58254799994952],
        [-0.057855883991573, 51.58252584486195],
        [-0.05787699709497, 51.58250461225871],
        [-0.057899552570949, 51.58248340352231],
        [-0.05792210802577, 51.58246219478129],
        [-0.057947509926914, 51.58244193239306],
        [-0.057974315881671, 51.582422592485806],
        [-0.057996603074843, 51.582407674047296],
        [-0.058020294329783, 51.58239367809058],
        [-0.058043947257374, 51.582380580745756],
        [-0.058069042560294, 51.58236750726479],
        [-0.058094099537078, 51.58235533239517],
        [-0.058119194811781, 51.58234225890312],
        [-0.058144251761368, 51.582330084022445],
        [-0.058153097641013, 51.58232573414461],
        [-0.058306591952971, 51.58224644214567],
        [-0.058461451506453, 51.58216897103745],
        [-0.058499757837843, 51.582150720532994],
        [-0.059300698941471, 51.58174761581647],
        [-0.059761206756243, 51.58150883592993],
        [-0.060075548654565, 51.58134677212723],
        [-0.060825597091836, 51.58095180829969],
        [-0.060906953630373, 51.58090549238174],
        [-0.060986867660031, 51.580859152572884],
        [-0.061065453938165, 51.58081009301999],
        [-0.061141155365633, 51.58076098575133],
        [-0.061215490786467, 51.58071005736459],
        [-0.061286979612112, 51.58065818265241],
        [-0.061357064183539, 51.58060538544786],
        [-0.061424302166936, 51.58055164192649],
        [-0.061482656540771, 51.580503147121284],
        [-0.061545681953502, 51.58044663619067],
        [-0.061605822550191, 51.58039007757473],
        [-0.061663154818495, 51.58033167403984],
        [-0.061719082850195, 51.58027234803248],
        [-0.0617721260871, 51.58021297435127],
        [-0.061825207419435, 51.58015270202484],
        [-0.061875442203599, 51.58009148341063],
        [-0.061925638618066, 51.58003116339216],
        [-0.061931751987109, 51.58002317110099],
        [-0.06194545926876, 51.580006311718705],
        [-0.062007843951002, 51.57993090569614],
        [-0.062085339685572, 51.57983956267535],
        [-0.062154257705127, 51.57974627945388],
        [-0.06221171343994, 51.57965100841321],
        [-0.062237542639226, 51.579586688878265],
        [-0.062247572603807, 51.579554481475114],
        [-0.06225471794879, 51.57952222643802],
        [-0.062261863283054, 51.57948997140017],
        [-0.062267566306219, 51.579457692545404],
        [-0.062271827021334, 51.57942538987394],
        [-0.062273203133122, 51.57939303956983],
        [-0.06227457924234, 51.57936068926549],
        [-0.062273070756413, 51.57932829132873],
        [-0.062271562272014, 51.579295893391794],
        [-0.062267169200687, 51.57926344782239],
        [-0.062261295616502, 51.57923187705603],
        [-0.062254017973067, 51.579199383853414],
        [-0.062246702113905, 51.57916778926987],
        [-0.062237676394644, 51.57914246120638],
        [-0.062227399524582, 51.579112616227704],
        [-0.062214238090561, 51.5790827236146],
        [-0.06220107667333, 51.579052831000034],
        [-0.062184992473275, 51.579023789369444],
        [-0.062168908293293, 51.57899474773671],
        [-0.062149939563982, 51.578965658466814],
        [-0.06213093263101, 51.57893746781355],
        [-0.0621104834383, 51.578909253339326],
        [-0.062088553760348, 51.578881913662975],
        [-0.06206518182728, 51.57885455016414],
        [-0.062040329412646, 51.57882806146156],
        [-0.062015477026647, 51.57880157275386],
        [-0.061987701882145, 51.578775935021746],
        [-0.061959926768702, 51.57875029728326],
        [-0.061930671178299, 51.578725534337764],
        [-0.061899935111732, 51.57870164618417],
        [-0.061885971134269, 51.57869062454462],
        [-0.061486372228856, 51.57824518959288],
        [-0.061260227408107, 51.57792941345499],
        [-0.061184138252468, 51.577784276148364],
        [-0.062715942301328, 51.577466960219425],
        [-0.063765955617716, 51.57724508958872],
        [-0.064233226825875, 51.57715118338209],
        [-0.064621296679603, 51.57701909980553],
        [-0.065472248954536, 51.576862273781565],
        [-0.066128755984958, 51.57673011406573],
        [-0.066782901898923, 51.57661949381127],
        [-0.066737752354477, 51.57635706805309],
        [-0.067089358853413, 51.576301711192244],
        [-0.067234608649277, 51.576279823888214],
        [-0.067372189847396, 51.5762686011137],
        [-0.067430106716227, 51.57626415946208],
        [-0.067994515729713, 51.57619342010517],
        [-0.06833154512319, 51.57614141653496],
        [-0.068749222651219, 51.57609343707454],
        [-0.069330862771199, 51.57599060188176],
        [-0.069489280724338, 51.57596443219861],
        [-0.069730512809985, 51.57592523657756],
        [-0.069976337554601, 51.575879821247824],
        [-0.070487643471014, 51.5758019017677],
        [-0.070933976754398, 51.575690538975415],
        [-0.071852584176361, 51.57560492059883],
        [-0.071857820487179, 51.575617596140674],
        [-0.071893108613314, 51.57570450397984],
        [-0.071920700369285, 51.57570046108865],
        [-0.072321558425938, 51.57564050233864],
        [-0.072366684490498, 51.57563135188512],
        [-0.072378183972524, 51.575632440037296],
        [-0.072513257911117, 51.5756121775626],
        [-0.072768370741377, 51.57565413622087],
        [-0.073043146827243, 51.57564066371994],
        [-0.073545562322429, 51.57560215195671],
        [-0.07354449838268, 51.57562731348787],
        [-0.073624008747143, 51.57562412253407],
        [-0.073628713607837, 51.57564937876808],
        [-0.073640589769078, 51.57570982347358],
        [-0.073761999811115, 51.575705521750926],
        [-0.073762077367014, 51.575669553028476],
        [-0.073999622295927, 51.57564917237758],
        [-0.074235724835484, 51.575628767575495],
        [-0.074374706764004, 51.57561845884433],
        [-0.07439352899716, 51.575685312200925],
        [-0.074448522167901, 51.575681718363924],
        [-0.07443554457206, 51.575613162424204],
        [-0.074434330264876, 51.57560774699922],
        [-0.075175502714925, 51.575554261640114],
        [-0.075205146622023, 51.57533083470116],
        [-0.075323747111639, 51.57532468678411],
        [-0.075374868427618, 51.57534440950318],
        [-0.075430240413548, 51.575366000414284],
        [-0.07575298540164, 51.57548100176072],
        [-0.075784258051212, 51.57549230556768],
        [-0.07589860808423, 51.57534760291943],
        [-0.07597333560281, 51.57525260848525],
        [-0.076246663569787, 51.574931561365595],
        [-0.077056141556109, 51.57507162339268],
        [-0.07709337259373, 51.57507852824387],
        [-0.07705200649601, 51.575135402350604],
        [-0.077521400165323, 51.575229421393956],
        [-0.077545727624942, 51.57523431619927],
        [-0.077568306973357, 51.575178033394735],
        [-0.078031022018663, 51.575259351482075],
        [-0.07802927656626, 51.575266516889144],
        [-0.078024040205585, 51.5752880131101],
        [-0.078068444576041, 51.575295934389686],
        [-0.078468312026135, 51.575361833383965],
        [-0.078958811101407, 51.57543461025551],
        [-0.079348166463053, 51.57547605441115],
        [-0.079840751314727, 51.57549940301053],
        [-0.079836465610183, 51.57553260510192],
        [-0.080861716290803, 51.575587145623544],
        [-0.080876789273162, 51.57564044782909],
        [-0.081847284518436, 51.575453085487524],
        [-0.082234916772584, 51.57536410078339],
        [-0.08279997937708, 51.57531128602587],
        [-0.083611831800615, 51.57518966003462],
        [-0.08382132635831, 51.575184088658176],
        [-0.084904959629739, 51.57511994712414],
        [-0.085689182839118, 51.57503742282154],
        [-0.085853251790731, 51.574876436011415],
        [-0.086055073190288, 51.57484735502699],
        [-0.086088469703593, 51.574842504241886],
        [-0.086663684405705, 51.57475386657183],
        [-0.087231619192713, 51.574701077364054],
        [-0.087180148904837, 51.57451769093451],
        [-0.087173918996945, 51.574494208921834],
        [-0.087043709179416, 51.57450197804344],
        [-0.086954739413888, 51.57445556519839],
        [-0.086865874743435, 51.574372284809286],
        [-0.086872117331604, 51.57429235346821],
        [-0.087421106588055, 51.574381335749344],
        [-0.087606692748116, 51.57439515141918],
        [-0.087713261845028, 51.57440048514617],
        [-0.087791176303815, 51.57440085559143],
        [-0.087900893756353, 51.57439994571356],
        [-0.087996378142794, 51.57439430757976],
        [-0.08810225931337, 51.57438164477689],
        [-0.088413144118471, 51.57433275471516],
        [-0.088638799723065, 51.57432024404117],
        [-0.088838845356553, 51.57433339403358],
        [-0.088985568840397, 51.57434477607095],
        [-0.08901722100457, 51.57434709003395],
        [-0.089153661008884, 51.57436280063254],
        [-0.089219849709308, 51.574367475426655],
        [-0.089287480586582, 51.57437217366615],
        [-0.089353593947451, 51.57437864565428],
        [-0.089421300223336, 51.574381546547684],
        [-0.089543620295038, 51.574389832807356],
        [-0.089836417112604, 51.57439370013564],
        [-0.089981047858785, 51.57438616264793],
        [-0.090092697158023, 51.574373591938986],
        [-0.090147913710412, 51.57436459890331],
        [-0.090188633280477, 51.57435716839729],
        [-0.090296068967006, 51.57434183117356],
        [-0.090351812748815, 51.57432025714926],
        [-0.090660552589213, 51.5742191698513],
        [-0.090997369762983, 51.57410235205768],
        [-0.091264521783538, 51.574029362547385],
        [-0.091389713916036, 51.57400352217821],
        [-0.091488269627121, 51.57399343492357],
        [-0.09154621919969, 51.57398808267573],
        [-0.091588267448606, 51.573983371039894],
        [-0.091631720202036, 51.57397958147844],
        [-0.091758893026588, 51.5739753548804],
        [-0.091800865972464, 51.573972440439924],
        [-0.091844243430281, 51.5739704480714],
        [-0.091886141099076, 51.573969330872266],
        [-0.091910695312172, 51.57396883089271],
        [-0.091952555345833, 51.57396861230589],
        [-0.091992897964011, 51.57397016752701],
        [-0.092033202954253, 51.57397262137038],
        [-0.092074950101263, 51.57397509864817],
        [-0.092115217471579, 51.57397845109956],
        [-0.09215548484818, 51.573981803537194],
        [-0.092174195200566, 51.57398300698577],
        [-0.092342550795053, 51.57399473652548],
        [-0.09251223577099, 51.57400918517631],
        [-0.092680365851722, 51.57402630605125],
        [-0.09271911592769, 51.574031432128294],
        [-0.092801243499126, 51.57403456547048],
        [-0.092883408697752, 51.574036800118776],
        [-0.092964206976691, 51.57403721399919],
        [-0.093046522635752, 51.57403585398708],
        [-0.093065270648382, 51.57403615865743],
        [-0.093150771486916, 51.57402765635116],
        [-0.093246442590622, 51.574017520746125],
        [-0.093540967237416, 51.57398004151645],
        [-0.093583052891918, 51.57397443052662],
        [-0.093724257692077, 51.573945250828636],
        [-0.093826524220102, 51.573915438445034],
        [-0.094302665675041, 51.57374512099514],
        [-0.094575903205191, 51.5736299581702],
        [-0.094710384126035, 51.57358897789182],
        [-0.094893122867545, 51.573601836557806],
        [-0.094922003293907, 51.57360140618594],
        [-0.094950846146887, 51.57360187444461],
        [-0.094979651428187, 51.573603241333885],
        [-0.095008456711401, 51.573604608216115],
        [-0.095037261996529, 51.57360597509129],
        [-0.095066067283572, 51.57360734195939],
        [-0.095094835002332, 51.573609607458174],
        [-0.095123640293768, 51.5736109743122],
        [-0.095153887730287, 51.573612364569435],
        [-0.095250361058539, 51.57361752756875],
        [-0.09534679684549, 51.573623589126804],
        [-0.095443157533459, 51.57363144788171],
        [-0.095539443133785, 51.57364110383371],
        [-0.095565326611427, 51.57364332240646],
        [-0.09612749321053, 51.573727981506146],
        [-0.096523739552865, 51.57381174507424],
        [-0.09656840868183, 51.57381336890265],
        [-0.096613077814426, 51.57381499271407],
        [-0.096641920830911, 51.57381546055856],
        [-0.09668666504709, 51.57381528706497],
        [-0.096731409263375, 51.5738151135543],
        [-0.096777670705288, 51.57381316613979],
        [-0.096808030947676, 51.57381186005664],
        [-0.096854367455344, 51.57380811533459],
        [-0.096902146106576, 51.573804393983046],
        [-0.096949999818253, 51.573798875334575],
        [-0.096999295669274, 51.57379338005415],
        [-0.097074700340437, 51.57378471116178],
        [-0.09715021757381, 51.57377334630427],
        [-0.097225734770704, 51.57376198139776],
        [-0.097301326984879, 51.573748819164486],
        [-0.097342082426379, 51.57374048751851],
        [-0.097558334641959, 51.57367655014519],
        [-0.097664699462498, 51.573652196359205]
      ]
    ]
  }
}
