{
  "type": "Feature",
  "properties": {
    "name": "Harrow",
    "level": 2,
    "londonBorough": true,
    "center": [-0.3346, 51.5898]
  },
  "geometry": {
    "type": "Polygon",
    "coordinates": [
      [
        [-0.331329518383111, 51.561572610982175],
        [-0.33142072842148, 51.561524450702166],
        [-0.331216800178548, 51.56145950438488],
        [-0.331996172452876, 51.56093824532398],
        [-0.331853436784996, 51.56081751885216],
        [-0.333418095584164, 51.559374916915814],
        [-0.333922565931203, 51.55887401955266],
        [-0.333993779626057, 51.55799109417959],
        [-0.33397810582259, 51.55770941473412],
        [-0.334908438984002, 51.55783142599552],
        [-0.335584419626142, 51.55658300293175],
        [-0.335600674777865, 51.55653287699333],
        [-0.337852037590821, 51.55713849387748],
        [-0.338324953396642, 51.557224323447606],
        [-0.34298320677316, 51.55757525022338],
        [-0.343980785252137, 51.55779255732405],
        [-0.345680799025711, 51.55849005423652],
        [-0.346000953792859, 51.558651931250516],
        [-0.34725397244491, 51.55946449847379],
        [-0.347554752054466, 51.55968364845216],
        [-0.362245810196305, 51.55729445838231],
        [-0.362427007982027, 51.557270010612804],
        [-0.362321507116906, 51.55699427597897],
        [-0.362201008222927, 51.556734517868925],
        [-0.362430515253407, 51.55648953609765],
        [-0.362568616843832, 51.556459990580336],
        [-0.362532011915148, 51.556394735889725],
        [-0.362498129313471, 51.55633401527982],
        [-0.362601175241201, 51.55631656960771],
        [-0.362698389330024, 51.55630084091342],
        [-0.362640006473955, 51.556199313553],
        [-0.362540952026129, 51.55602528095447],
        [-0.366148615779152, 51.5553831695474],
        [-0.366589363049475, 51.5553209649284],
        [-0.366488821315158, 51.55514781422479],
        [-0.366736658617939, 51.55507483039974],
        [-0.366993371041125, 51.55499567502534],
        [-0.369640788033719, 51.55461974672567],
        [-0.36984247732417, 51.55458658007552],
        [-0.371406306840124, 51.55405617416233],
        [-0.371444177239652, 51.55404590912994],
        [-0.372167806149635, 51.55397861720441],
        [-0.372471405056926, 51.55395944886236],
        [-0.372855108099643, 51.553716585574506],
        [-0.373364832488955, 51.554024891469986],
        [-0.374931486116974, 51.55349447796164],
        [-0.375861416637022, 51.55306134017159],
        [-0.376489318813629, 51.55353492611189],
        [-0.376550671248102, 51.55351329447789],
        [-0.376920380619348, 51.55386550775632],
        [-0.377290095667929, 51.5542177198991],
        [-0.377807995535834, 51.55498651963111],
        [-0.377861564956882, 51.55498096565944],
        [-0.378774923299564, 51.55647460233527],
        [-0.37887948872658, 51.556657689213495],
        [-0.379257471722546, 51.55759000516793],
        [-0.379386653352872, 51.55781119872012],
        [-0.380123729110103, 51.55882850083381],
        [-0.380292658124868, 51.55910869118703],
        [-0.380137057764727, 51.559346634669716],
        [-0.380033957138675, 51.55944682308297],
        [-0.380157284125734, 51.55967063250675],
        [-0.380420102456963, 51.559703934369665],
        [-0.380262271973024, 51.56057309846847],
        [-0.380309100157487, 51.5606762557094],
        [-0.381994658022574, 51.56253121563096],
        [-0.382381307352425, 51.56289713243943],
        [-0.382146946809779, 51.562996412437506],
        [-0.381969685853066, 51.563072200405756],
        [-0.382443655106361, 51.563579598850424],
        [-0.382503540378833, 51.56372160146061],
        [-0.382375270406315, 51.56453092759152],
        [-0.382399238990399, 51.56470930304327],
        [-0.383480981877361, 51.56716018846657],
        [-0.383297459890909, 51.56724938047298],
        [-0.384507483855831, 51.56913731403116],
        [-0.384630339662264, 51.56933503439727],
        [-0.385934799179105, 51.57096347917857],
        [-0.386460772863609, 51.57155430322265],
        [-0.38605479133909, 51.571853554965465],
        [-0.385708194366523, 51.572146428453316],
        [-0.387458790796467, 51.57438346522194],
        [-0.388075885663985, 51.57497013808312],
        [-0.38751337059929, 51.575287926717756],
        [-0.387849769367623, 51.57560997122303],
        [-0.387878152528132, 51.575664314029225],
        [-0.388413602790889, 51.57725428666398],
        [-0.388613808486989, 51.577755200758176],
        [-0.389020642452229, 51.57812676629362],
        [-0.389660793972003, 51.57892056597578],
        [-0.391363179713707, 51.58135020934211],
        [-0.391572337273284, 51.58155809669829],
        [-0.391504973132174, 51.58170824148143],
        [-0.391048404272213, 51.581721766136596],
        [-0.391171594170485, 51.58305609007579],
        [-0.39103415950232, 51.5830649966839],
        [-0.391121190284527, 51.58358413694837],
        [-0.391208254663341, 51.584102378342294],
        [-0.391349576189027, 51.58410611378181],
        [-0.391411647366389, 51.58447384371772],
        [-0.391526096710007, 51.584993359303965],
        [-0.39151891596784, 51.585441968495125],
        [-0.391540807050193, 51.586048338423026],
        [-0.391942379090632, 51.58771648633628],
        [-0.39203337381551, 51.58832829870479],
        [-0.39307145673845, 51.58901872349097],
        [-0.393495550258239, 51.58939590371945],
        [-0.394146495126472, 51.59021769962957],
        [-0.394471820318396, 51.59044875161732],
        [-0.394698307858828, 51.59041228405031],
        [-0.394645297766503, 51.59031894014762],
        [-0.394891524248895, 51.590254866589405],
        [-0.395159636587966, 51.59030709017487],
        [-0.395489690958246, 51.59019920085755],
        [-0.395471069267034, 51.591301380753364],
        [-0.395488781344899, 51.591618145616714],
        [-0.39629297379627, 51.593419467212065],
        [-0.396364660577806, 51.59359759137496],
        [-0.396490429255452, 51.59498679341875],
        [-0.396507118777698, 51.59508683391079],
        [-0.397544203373827, 51.596304141549],
        [-0.397697049100506, 51.59651484508917],
        [-0.397679075744588, 51.596943523569706],
        [-0.397638739633202, 51.59702300276787],
        [-0.399791466344843, 51.59731044289249],
        [-0.400333369199902, 51.597420339104694],
        [-0.400063746712467, 51.59798496580405],
        [-0.399967439103917, 51.59821924636449],
        [-0.40122295319292, 51.5995941614025],
        [-0.401281917847003, 51.59968308711807],
        [-0.402154608912083, 51.601559032472444],
        [-0.402359388682396, 51.60193679034791],
        [-0.402546581520335, 51.60293925948091],
        [-0.402527501230513, 51.604840828700254],
        [-0.402529759366694, 51.605187954376355],
        [-0.402421815019757, 51.60554796769409],
        [-0.402372946496782, 51.606117401523],
        [-0.401934510139194, 51.60651248134485],
        [-0.401782113684801, 51.60661651339519],
        [-0.402218256280093, 51.60723301359943],
        [-0.402370788579607, 51.60741313300715],
        [-0.402498761052677, 51.60788156418785],
        [-0.402514987852531, 51.60820100429592],
        [-0.403128470097657, 51.60890893561002],
        [-0.403237454096272, 51.609095655092354],
        [-0.403436415989501, 51.61017561346475],
        [-0.403415247573687, 51.61065550310226],
        [-0.403880568411261, 51.61229479343219],
        [-0.404071930241956, 51.61318041769482],
        [-0.401684688712184, 51.61317401813422],
        [-0.401440872646656, 51.61316620242447],
        [-0.399676408330368, 51.613398437848545],
        [-0.399487007175998, 51.6134039487517],
        [-0.397305952035022, 51.614104351582775],
        [-0.396996350088664, 51.61420083600565],
        [-0.393351990923243, 51.61502594897433],
        [-0.39270094883006, 51.6151788951725],
        [-0.386908549318084, 51.61559761201609],
        [-0.386686261153146, 51.615634122777216],
        [-0.383959730033907, 51.616351959567254],
        [-0.383525356959294, 51.61650334130695],
        [-0.382048361026369, 51.617419073194206],
        [-0.382013359354011, 51.61742848213027],
        [-0.380974473679134, 51.61747800393657],
        [-0.380469479541711, 51.617462046649976],
        [-0.378284780612255, 51.6178050612056],
        [-0.377587154718657, 51.6178035154798],
        [-0.37604319708296, 51.61816253497759],
        [-0.375861859190378, 51.61818430518194],
        [-0.372491862540948, 51.619113280123045],
        [-0.371635473168681, 51.619349587422214],
        [-0.368901663970092, 51.62041856679605],
        [-0.368197125829207, 51.620648865847],
        [-0.366631979967806, 51.62086898923198],
        [-0.366262803521871, 51.621012222385666],
        [-0.364740963788932, 51.62183539475272],
        [-0.363454685681349, 51.622534143350606],
        [-0.362618400776174, 51.623533196596775],
        [-0.362578282201481, 51.62356410947673],
        [-0.3623996873046, 51.62354902960202],
        [-0.361815445912437, 51.623726116607244],
        [-0.361092524726451, 51.62446417114527],
        [-0.360926674370044, 51.62461652022122],
        [-0.360104368719904, 51.62510499895342],
        [-0.359790527529318, 51.62523459743429],
        [-0.357830018303332, 51.62543559218848],
        [-0.357550289577594, 51.62546045410743],
        [-0.355290074903376, 51.62595844937673],
        [-0.355225986142618, 51.62597283817466],
        [-0.354419158063669, 51.625991206579144],
        [-0.3541437887754, 51.62601522229242],
        [-0.349560066826772, 51.6268392989119],
        [-0.349245579525376, 51.6269059154513],
        [-0.345660637907797, 51.628189888151276],
        [-0.345129731542014, 51.62832717954167],
        [-0.339876565176309, 51.630736645282646],
        [-0.339834948353049, 51.630807993841714],
        [-0.338857037537587, 51.63008828066356],
        [-0.338794677965881, 51.63005502673028],
        [-0.338836951901216, 51.630005268927334],
        [-0.33884830866422, 51.62993169416617],
        [-0.338556863014059, 51.62968298455543],
        [-0.338307495732543, 51.62946903981167],
        [-0.336451202794801, 51.63096062484606],
        [-0.336155132727438, 51.63123338717696],
        [-0.333286400055329, 51.63325999017579],
        [-0.333112912461029, 51.633380719529185],
        [-0.333071441871813, 51.63372363005462],
        [-0.332995210215453, 51.63383225173325],
        [-0.332874915647082, 51.633802668195976],
        [-0.332607051288321, 51.633738617357736],
        [-0.330850514219203, 51.634864652448606],
        [-0.33000679737492, 51.63533193588721],
        [-0.326798252790419, 51.63660360473197],
        [-0.326570148541338, 51.6367154532936],
        [-0.320572762769413, 51.637975049253534],
        [-0.319816694545604, 51.63821691186552],
        [-0.319452544276813, 51.638372659789034],
        [-0.319119884280689, 51.63857561648809],
        [-0.318256388772206, 51.63972863293608],
        [-0.318087132636213, 51.63992853168365],
        [-0.316937098137659, 51.64046596868075],
        [-0.316696203328099, 51.64053175499256],
        [-0.313211617906238, 51.639251624919694],
        [-0.31271097262021, 51.63907358117439],
        [-0.306362227906412, 51.63737078641838],
        [-0.305401050596864, 51.637104238946804],
        [-0.304757255138644, 51.63673615885296],
        [-0.304702267528767, 51.63669939632738],
        [-0.304584344989383, 51.636373976148164],
        [-0.304482738231355, 51.63634733094027],
        [-0.305585398217605, 51.63432922316188],
        [-0.305597635000039, 51.63411718488031],
        [-0.305462270890671, 51.63336798317466],
        [-0.3044847725197, 51.632030225855374],
        [-0.30395392004459, 51.63146414558815],
        [-0.302185879284414, 51.63013382939786],
        [-0.301838448790421, 51.62984195477684],
        [-0.300153081836352, 51.628197177535256],
        [-0.299254915464897, 51.62741084363378],
        [-0.295907979794429, 51.62469433369462],
        [-0.295188975645539, 51.624103899728105],
        [-0.289600303757524, 51.61916413363181],
        [-0.288276186087522, 51.61803699636925],
        [-0.287698774362797, 51.617297510274945],
        [-0.287565593448056, 51.61715169250159],
        [-0.286003758901889, 51.61589606925679],
        [-0.285307043435826, 51.61541110667804],
        [-0.283412315187268, 51.61429176275858],
        [-0.282199703229832, 51.61335592054523],
        [-0.27874597367466, 51.610156257542656],
        [-0.277937459119727, 51.609424122926384],
        [-0.276445559426008, 51.608318664866566],
        [-0.276036802465826, 51.60801501993611],
        [-0.274893602223054, 51.606932646417384],
        [-0.273807664218311, 51.60571262302225],
        [-0.267615671994523, 51.600733222256466],
        [-0.267155869443294, 51.600370342358225],
        [-0.271013082079986, 51.598381487098656],
        [-0.271141291071572, 51.59831323606835],
        [-0.272960907707845, 51.598380488230994],
        [-0.273001688671801, 51.59837119679029],
        [-0.276976314374678, 51.59689283536908],
        [-0.276515609725053, 51.59651469208428],
        [-0.283331832461649, 51.59574952673288],
        [-0.284069290295234, 51.59560474441167],
        [-0.285611981020573, 51.59520195452981],
        [-0.285796555072883, 51.59474784490309],
        [-0.286135041626795, 51.59488407442967],
        [-0.286282911709925, 51.594944682982366],
        [-0.28712260343993, 51.59453790181391],
        [-0.287685351863665, 51.594315911681534],
        [-0.290360006618576, 51.59360135154879],
        [-0.290421891953922, 51.593568082468984],
        [-0.289291908468875, 51.59297971270338],
        [-0.289092467343261, 51.59290846473675],
        [-0.286798264734039, 51.592337264935345],
        [-0.28660466957926, 51.592264299578005],
        [-0.284912887584797, 51.591262134668995],
        [-0.2846539282168, 51.59100836611749],
        [-0.283851096162694, 51.589863607933445],
        [-0.283364079755836, 51.58888172685088],
        [-0.283053437858019, 51.587433927784964],
        [-0.282867786038324, 51.58672981658461],
        [-0.282335687398366, 51.585949596455386],
        [-0.28230431678409, 51.58586281175571],
        [-0.282319860264174, 51.58522099267543],
        [-0.2823409149777, 51.58508371940136],
        [-0.292102753327493, 51.58632143362246],
        [-0.294315832991024, 51.586585616609355],
        [-0.298331473640088, 51.58678328617213],
        [-0.29861189786588, 51.58681163061565],
        [-0.300499691448718, 51.58720676336262],
        [-0.300791460465476, 51.58724066218139],
        [-0.304090087512559, 51.58715798464961],
        [-0.304846035609117, 51.58705380480012],
        [-0.306473478344523, 51.58664926896239],
        [-0.306841154093848, 51.58654396932857],
        [-0.311760656409894, 51.584789415093454],
        [-0.313074967713594, 51.58426158638773],
        [-0.319798933845604, 51.58060828541841],
        [-0.320210849720506, 51.58043613592895],
        [-0.321044324426462, 51.580143226224365],
        [-0.323422947125734, 51.57939580666872],
        [-0.325283672755218, 51.57899344482948],
        [-0.326671545105875, 51.57877224989117],
        [-0.326615275785321, 51.57830025568958],
        [-0.326585984163393, 51.57823329566168],
        [-0.32555241984304, 51.57631490194421],
        [-0.32543408681463, 51.57603985015841],
        [-0.324834980400712, 51.57337589778122],
        [-0.324741419505021, 51.57317313647931],
        [-0.322519423337169, 51.5701065201156],
        [-0.322153682333172, 51.569654377749714],
        [-0.3251751113679, 51.568440424411065],
        [-0.325073621174135, 51.56825733290688],
        [-0.326747565592719, 51.56789904315354],
        [-0.327653292330306, 51.567792357389216],
        [-0.327498872213662, 51.567557258010595],
        [-0.329288545228529, 51.56715022505857],
        [-0.329745382957624, 51.5670865887944],
        [-0.329677516526513, 51.5666548952387],
        [-0.329646098865855, 51.56621292975438],
        [-0.329069892674898, 51.56599071160739],
        [-0.328669099648505, 51.56594274057758],
        [-0.328332663374342, 51.56327444996809],
        [-0.328580446471686, 51.56300911179071],
        [-0.328323697473688, 51.56273209064821],
        [-0.328249612539528, 51.562509826308],
        [-0.329533874666943, 51.56242470467494],
        [-0.32968797524418, 51.56239272778045],
        [-0.331329518383111, 51.561572610982175]
      ]
    ]
  }
}
