{
  "type": "Feature",
  "properties": { "name": "Harrow", "level": 2, "londonBorough": true },
  "geometry": {
    "type": "Polygon",
    "coordinates": [
      [
        [-0.331329518383111, 51.561572610982175],
        [-0.33142072842148, 51.561524450702166],
        [-0.331216800178548, 51.561459504384878],
        [-0.331996172452876, 51.560938245323982],
        [-0.331853436784996, 51.560817518852161],
        [-0.332634648999881, 51.560087661974762],
        [-0.333418095584164, 51.559374916915814],
        [-0.333922565931203, 51.558874019552661],
        [-0.33402324178533, 51.558369186263228],
        [-0.333993779626057, 51.557991094179592],
        [-0.33397810582259, 51.55770941473412],
        [-0.334908438984002, 51.557831425995523],
        [-0.335548861575858, 51.556687707686358],
        [-0.335584419626142, 51.556583002931752],
        [-0.335600674777865, 51.55653287699333],
        [-0.335832178465651, 51.556592811569814],
        [-0.335903971465538, 51.556641488580574],
        [-0.336294500157085, 51.556691987483326],
        [-0.33632753031973, 51.556696052687812],
        [-0.336395916795084, 51.556719502843471],
        [-0.337176812185606, 51.556983253149092],
        [-0.337597426666364, 51.557079135180331],
        [-0.337852037590821, 51.557138493877481],
        [-0.338324953396642, 51.557224323447606],
        [-0.33857039038237, 51.557258372418836],
        [-0.338866258633717, 51.557294034034946],
        [-0.339054514755231, 51.557313784154218],
        [-0.341018606545532, 51.557411708448008],
        [-0.341443813748799, 51.557421316174],
        [-0.342158864568081, 51.55747368429418],
        [-0.342545666107928, 51.557468357846403],
        [-0.342543999851237, 51.557514194659007],
        [-0.34298320677316, 51.55757525022338],
        [-0.343980785252137, 51.557792557324049],
        [-0.344628598512541, 51.558028301971646],
        [-0.345371398576348, 51.558349909308617],
        [-0.345373075461084, 51.558383204172024],
        [-0.345493806917504, 51.558435262958682],
        [-0.345580220623051, 51.558439179007202],
        [-0.345680799025711, 51.558490054236522],
        [-0.346000953792859, 51.558651931250516],
        [-0.347183351818279, 51.559303442309485],
        [-0.34725397244491, 51.559464498473787],
        [-0.347554752054466, 51.559683648452157],
        [-0.34884604132703, 51.559441051093017],
        [-0.350713062528682, 51.559114812420063],
        [-0.351594732757722, 51.558988721055918],
        [-0.353665164366684, 51.558701261687396],
        [-0.355413418663601, 51.55842633615854],
        [-0.35716006408581, 51.558115393304284],
        [-0.359293498133033, 51.557678547093275],
        [-0.360205190229819, 51.557598671260841],
        [-0.360318474668085, 51.557537308841326],
        [-0.361467572282731, 51.5573941980306],
        [-0.362245810196305, 51.557294458382309],
        [-0.362427007982027, 51.557270010612804],
        [-0.362321507116906, 51.556994275978973],
        [-0.362201008222927, 51.556734517868925],
        [-0.362252429798233, 51.556628228319823],
        [-0.362299590259006, 51.556520080835426],
        [-0.362430515253407, 51.556489536097651],
        [-0.362568616843832, 51.556459990580336],
        [-0.362532011915148, 51.556394735889725],
        [-0.362498129313471, 51.556334015279823],
        [-0.362601175241201, 51.556316569607709],
        [-0.362698389330024, 51.556300840913423],
        [-0.362640006473955, 51.556199313553002],
        [-0.362540952026129, 51.556025280954472],
        [-0.362970024691892, 51.555926958144219],
        [-0.36315894183819, 51.555888229431069],
        [-0.363510468160934, 51.555820295623491],
        [-0.363993914881944, 51.555693952338117],
        [-0.364374918975168, 51.555608442525461],
        [-0.364543519758739, 51.555573025281831],
        [-0.364672740924181, 51.555549648075022],
        [-0.364700263707113, 51.555546434762313],
        [-0.364723590071087, 51.555539566079318],
        [-0.3649828291433, 51.555510806640754],
        [-0.365221012976088, 51.555506032246754],
        [-0.365274391083561, 51.555505876671504],
        [-0.366041344541112, 51.555397861822961],
        [-0.366148615779152, 51.555383169547397],
        [-0.366589363049475, 51.555320964928399],
        [-0.366488821315158, 51.555147814224789],
        [-0.366736658617939, 51.555074830399739],
        [-0.366993371041125, 51.554995675025339],
        [-0.367308062196726, 51.554989263460136],
        [-0.367558195578963, 51.554972960737203],
        [-0.367587127414943, 51.554970665572625],
        [-0.367711601841053, 51.554958908860563],
        [-0.367925883822498, 51.554936711309445],
        [-0.36861849326944, 51.554809661208139],
        [-0.368874622322438, 51.554746679590458],
        [-0.369207967400885, 51.55466229008298],
        [-0.369446564346425, 51.554645823010674],
        [-0.369640788033719, 51.55461974672567],
        [-0.36984247732417, 51.554586580075522],
        [-0.370094053349907, 51.554529827095131],
        [-0.370128944551343, 51.554522218762671],
        [-0.370355178632576, 51.554448028036965],
        [-0.370625949032635, 51.554338486509558],
        [-0.370725275701902, 51.554263432000837],
        [-0.371011550113784, 51.554163996284792],
        [-0.371406306840124, 51.554056174162334],
        [-0.371444177239652, 51.55404590912994],
        [-0.37152994596408, 51.554027316639242],
        [-0.371688443383758, 51.55399174895625],
        [-0.371798946075446, 51.553967204957573],
        [-0.371923866010753, 51.553942860893947],
        [-0.372039429505169, 51.553938169728298],
        [-0.372110746269803, 51.553960740429353],
        [-0.372167806149635, 51.553978617204407],
        [-0.372471405056926, 51.553959448862358],
        [-0.372855108099643, 51.553716585574506],
        [-0.373364832488955, 51.554024891469986],
        [-0.373706848710115, 51.553818315538145],
        [-0.373908401985158, 51.553910131598279],
        [-0.374931486116974, 51.553494477961642],
        [-0.375861416637022, 51.553061340171588],
        [-0.376489318813629, 51.553534926111887],
        [-0.376550671248102, 51.553513294477888],
        [-0.376920380619348, 51.553865507756321],
        [-0.377290095667929, 51.5542177198991],
        [-0.377565334523728, 51.554590205835552],
        [-0.377675181177536, 51.55482732007048],
        [-0.377633018154567, 51.554836628540279],
        [-0.377636991712721, 51.554846574891684],
        [-0.377694223357506, 51.554981349844304],
        [-0.377700856656183, 51.554997627500683],
        [-0.377807995535834, 51.554986519631107],
        [-0.377861564956882, 51.554980965659439],
        [-0.377952667828213, 51.555177355623371],
        [-0.377994619762462, 51.555336198117203],
        [-0.37806265206572, 51.555491804209069],
        [-0.378221684314861, 51.555725101628063],
        [-0.378359535177526, 51.55590505216724],
        [-0.378625403104133, 51.55625762309738],
        [-0.378774923299564, 51.556474602335271],
        [-0.37887948872658, 51.556657689213495],
        [-0.378970635089063, 51.55689364452806],
        [-0.379034894607064, 51.55707437599839],
        [-0.379140780540092, 51.557301542578138],
        [-0.379257471722546, 51.557590005167931],
        [-0.379386653352872, 51.557811198720117],
        [-0.379599282033695, 51.558119869456362],
        [-0.379809928721463, 51.558443799128021],
        [-0.380123729110103, 51.558828500833812],
        [-0.380292658124868, 51.559108691187028],
        [-0.380207121737787, 51.559242393270999],
        [-0.380137057764727, 51.559346634669716],
        [-0.380033957138675, 51.559446823082972],
        [-0.380089562955785, 51.559546504740467],
        [-0.380109850528425, 51.559584551974211],
        [-0.380157284125734, 51.559670632506752],
        [-0.380420102456963, 51.559703934369665],
        [-0.380355426669393, 51.560103193871399],
        [-0.380262087205715, 51.560375267899367],
        [-0.380262271973024, 51.560573098468467],
        [-0.380309100157487, 51.560676255709403],
        [-0.380508190444417, 51.560960458802143],
        [-0.380580943052972, 51.561064872918436],
        [-0.380708852850284, 51.561241086352993],
        [-0.38096106669887, 51.561451386573992],
        [-0.381391710386348, 51.561918626185751],
        [-0.381763259687924, 51.562303220414435],
        [-0.381876074545519, 51.562417178310383],
        [-0.381994658022574, 51.562531215630962],
        [-0.382381307352425, 51.562897132439431],
        [-0.382146946809779, 51.562996412437506],
        [-0.381969685853066, 51.563072200405756],
        [-0.382060164207378, 51.563165168109649],
        [-0.382188493457432, 51.563289230971314],
        [-0.382443655106361, 51.563579598850424],
        [-0.382503540378833, 51.563721601460607],
        [-0.382514619303839, 51.563856636802612],
        [-0.382503135568157, 51.56397697366868],
        [-0.382402054739411, 51.564304693990714],
        [-0.382377821975647, 51.564459025365075],
        [-0.382375270406315, 51.56453092759152],
        [-0.382399238990399, 51.564709303043273],
        [-0.38249424170782, 51.565000160563599],
        [-0.382670293774209, 51.565487265194186],
        [-0.382866921874003, 51.565963862440938],
        [-0.382972432142867, 51.56620270968692],
        [-0.383480981877361, 51.567160188466573],
        [-0.383297459890909, 51.56724938047298],
        [-0.38433010950724, 51.568767991792377],
        [-0.384547203061773, 51.569034450882654],
        [-0.384507483855831, 51.56913731403116],
        [-0.384630339662264, 51.56933503439727],
        [-0.385023190580562, 51.569853893865144],
        [-0.385685334282091, 51.570632733186208],
        [-0.385934799179105, 51.570963479178573],
        [-0.386460772863609, 51.571554303222648],
        [-0.38605479133909, 51.571853554965465],
        [-0.385708194366523, 51.572146428453316],
        [-0.38598684231292, 51.572509048188529],
        [-0.38666202140847, 51.57328806066181],
        [-0.386857036889365, 51.573567699835309],
        [-0.387186377516335, 51.574047911357688],
        [-0.387458790796467, 51.574383465221942],
        [-0.388075885663985, 51.574970138083117],
        [-0.38751337059929, 51.575287926717756],
        [-0.387772427626344, 51.57551179352339],
        [-0.387849769367623, 51.575609971223031],
        [-0.387878152528132, 51.575664314029225],
        [-0.38827700901865, 51.576791113577244],
        [-0.388413602790889, 51.57725428666398],
        [-0.388613808486989, 51.577755200758176],
        [-0.389020642452229, 51.578126766293622],
        [-0.389660793972003, 51.578920565975778],
        [-0.390194775981169, 51.57965625524573],
        [-0.390830274304, 51.580501239536368],
        [-0.391227092383143, 51.581075882139494],
        [-0.391114964095108, 51.581104019190896],
        [-0.391272519969565, 51.581260843731577],
        [-0.391363179713707, 51.581350209342112],
        [-0.391572337273284, 51.581558096698288],
        [-0.391504973132174, 51.581708241481429],
        [-0.391048404272213, 51.581721766136596],
        [-0.391067952824488, 51.58206733234919],
        [-0.391143935989752, 51.58289924771703],
        [-0.391171594170485, 51.583056090075793],
        [-0.39103415950232, 51.583064996683902],
        [-0.391121190284527, 51.583584136948367],
        [-0.391208254663341, 51.584102378342294],
        [-0.391349576189027, 51.584106113781807],
        [-0.391411647366389, 51.584473843717717],
        [-0.391526096710007, 51.584993359303965],
        [-0.39151891596784, 51.585441968495125],
        [-0.391540807050193, 51.586048338423026],
        [-0.391730464768171, 51.586972631085374],
        [-0.391739041028358, 51.587015910839753],
        [-0.391837161638939, 51.587221376687225],
        [-0.3918905708319, 51.587466694463735],
        [-0.391942379090632, 51.587716486336276],
        [-0.39203337381551, 51.588328298704788],
        [-0.392179065558934, 51.588494850517016],
        [-0.392536809142855, 51.58870656942976],
        [-0.392871803536339, 51.588867619815296],
        [-0.39307145673845, 51.589018723490973],
        [-0.393495550258239, 51.589395903719449],
        [-0.393672392768345, 51.589661793363959],
        [-0.394146495126472, 51.590217699629569],
        [-0.394471820318396, 51.590448751617323],
        [-0.394698307858828, 51.590412284050309],
        [-0.394645297766503, 51.590318940147618],
        [-0.394891524248895, 51.590254866589405],
        [-0.395159636587966, 51.590307090174868],
        [-0.395489690958246, 51.590199200857548],
        [-0.395535858796109, 51.590404852404397],
        [-0.395548297372344, 51.590543501152496],
        [-0.395549287684412, 51.590679295769732],
        [-0.395521292937569, 51.590818291026402],
        [-0.395503936798429, 51.590942145089443],
        [-0.395471069267034, 51.591301380753364],
        [-0.395488781344899, 51.591618145616714],
        [-0.395548384669054, 51.591893220108069],
        [-0.395594662958848, 51.592054811676675],
        [-0.395611299876663, 51.592115286300768],
        [-0.395689608826566, 51.592269222722607],
        [-0.395952593600523, 51.59279525912703],
        [-0.396080889672709, 51.593005629499089],
        [-0.396211616637302, 51.593269985652718],
        [-0.39629297379627, 51.593419467212065],
        [-0.396364660577806, 51.593597591374959],
        [-0.396419525222367, 51.593802462029281],
        [-0.396471288623865, 51.594095413046084],
        [-0.396493254270976, 51.594578589869094],
        [-0.396497613964214, 51.594782770499748],
        [-0.396490429255452, 51.594986793418748],
        [-0.396507118777698, 51.595086833910791],
        [-0.396573049453375, 51.595223515512153],
        [-0.396696006859594, 51.595380758667645],
        [-0.39692836030504, 51.595629416914853],
        [-0.397064212795719, 51.595789533403838],
        [-0.397128031628095, 51.595863241017625],
        [-0.397338755663683, 51.596070239324249],
        [-0.397544203373827, 51.596304141548998],
        [-0.397697049100506, 51.596514845089168],
        [-0.397739895637176, 51.596651210868224],
        [-0.397737049100623, 51.596732101036459],
        [-0.397712808911405, 51.596805505488732],
        [-0.397700904277077, 51.596856598035515],
        [-0.397679075744588, 51.596943523569706],
        [-0.397638739633202, 51.59702300276787],
        [-0.398094532158129, 51.597076881982197],
        [-0.398918089996063, 51.597183434439621],
        [-0.399791466344843, 51.597310442892493],
        [-0.400333369199902, 51.597420339104694],
        [-0.400067084882951, 51.597931058645692],
        [-0.400065546983566, 51.597933735317106],
        [-0.400063746712467, 51.597984965804052],
        [-0.399967439103917, 51.598219246364494],
        [-0.400275409198023, 51.598576833695283],
        [-0.400559585512812, 51.598872050427133],
        [-0.400958855474209, 51.599261453022855],
        [-0.40122295319292, 51.5995941614025],
        [-0.401281917847003, 51.599683087118073],
        [-0.401407465641367, 51.599890716152167],
        [-0.401586434929849, 51.600304092468463],
        [-0.401680052048828, 51.600639873471131],
        [-0.401811865674564, 51.600915927320898],
        [-0.401980661078437, 51.601249134699387],
        [-0.402154608912083, 51.601559032472444],
        [-0.402359388682396, 51.601936790347906],
        [-0.402546581520335, 51.602939259480912],
        [-0.402540187667406, 51.603244903864862],
        [-0.402447762705222, 51.603697747104107],
        [-0.402447605918417, 51.603866796429877],
        [-0.402491823991897, 51.604334987301051],
        [-0.402527501230513, 51.604840828700254],
        [-0.402529759366694, 51.605187954376355],
        [-0.402421815019757, 51.605547967694093],
        [-0.402372946496782, 51.606117401523001],
        [-0.402197544493505, 51.606259787026552],
        [-0.401934510139194, 51.606512481344851],
        [-0.401782113684801, 51.606616513395188],
        [-0.401987212455411, 51.606903455703524],
        [-0.402218256280093, 51.607233013599433],
        [-0.402370788579607, 51.607413133007149],
        [-0.402498761052677, 51.607881564187849],
        [-0.402514987852531, 51.608201004295921],
        [-0.402624693223378, 51.608367052393874],
        [-0.402841707252769, 51.608602900269496],
        [-0.402957409507077, 51.608762735158734],
        [-0.403128470097657, 51.608908935610017],
        [-0.403237454096272, 51.609095655092354],
        [-0.40331023566656, 51.609408670550685],
        [-0.403407551208189, 51.609763383222365],
        [-0.403436415989501, 51.610175613464747],
        [-0.403415247573687, 51.610655503102258],
        [-0.40357150236361, 51.611388684767704],
        [-0.403683158455011, 51.61178765329997],
        [-0.403880568411261, 51.612294793432191],
        [-0.404071930241956, 51.613180417694821],
        [-0.403202420863937, 51.613181183223091],
        [-0.402765220615669, 51.613168941379456],
        [-0.402323429333188, 51.613205192688987],
        [-0.401684688712184, 51.613174018134217],
        [-0.401440872646656, 51.613166202424473],
        [-0.401349671200384, 51.613172154214389],
        [-0.401181167728486, 51.613199533422382],
        [-0.400787248930149, 51.613311964438338],
        [-0.40072861900343, 51.613336343607692],
        [-0.400671780132761, 51.613350855851827],
        [-0.400594919835591, 51.613359700052463],
        [-0.400551579104579, 51.61336000879281],
        [-0.40046091425426, 51.613350680656552],
        [-0.399977422152351, 51.61334049532919],
        [-0.399676408330368, 51.613398437848545],
        [-0.399487007175998, 51.613403948751703],
        [-0.398485706471486, 51.613660955502809],
        [-0.397907935103907, 51.613867084062342],
        [-0.397305952035022, 51.614104351582775],
        [-0.396996350088664, 51.614200836005651],
        [-0.396495106206027, 51.614325275333229],
        [-0.395764809267162, 51.614473559077673],
        [-0.394817912123425, 51.614742967826487],
        [-0.394225070193521, 51.614884129256289],
        [-0.393351990923243, 51.615025948974328],
        [-0.39270094883006, 51.615178895172498],
        [-0.391621587734194, 51.615272018051535],
        [-0.390812052878167, 51.615331962213141],
        [-0.389894811368307, 51.615374237918637],
        [-0.389555746306202, 51.615404656438521],
        [-0.389225342986877, 51.615435192823341],
        [-0.388983760030846, 51.615527194184843],
        [-0.388458190197325, 51.615521779343247],
        [-0.387865435496454, 51.615496556184176],
        [-0.387316299497607, 51.615544765198202],
        [-0.387132121538033, 51.615565614524812],
        [-0.386908549318084, 51.615597612016089],
        [-0.386686261153146, 51.615634122777216],
        [-0.386398177366693, 51.615693108269014],
        [-0.385251458603047, 51.615974080939154],
        [-0.384599036430287, 51.616164730205199],
        [-0.383959730033907, 51.616351959567254],
        [-0.383525356959294, 51.616503341306952],
        [-0.383231246412039, 51.61665035866271],
        [-0.382111401245175, 51.617392965653956],
        [-0.382048361026369, 51.617419073194206],
        [-0.382013359354011, 51.617428482130272],
        [-0.381772321640901, 51.617463826027496],
        [-0.381524768168755, 51.617479296985785],
        [-0.380974473679134, 51.617478003936569],
        [-0.380469479541711, 51.617462046649976],
        [-0.379991540390679, 51.617538179958927],
        [-0.379105889338934, 51.617705797726224],
        [-0.378532817280201, 51.617776115587645],
        [-0.378284780612255, 51.617805061205601],
        [-0.377587154718657, 51.6178035154798],
        [-0.376988574357776, 51.617940914090866],
        [-0.376568536346023, 51.618053802358673],
        [-0.37604319708296, 51.618162534977593],
        [-0.375861859190378, 51.618184305181941],
        [-0.375409956841291, 51.618299446142096],
        [-0.374920769902617, 51.618447340077722],
        [-0.374097834101848, 51.618758762781539],
        [-0.373257343666054, 51.61895483755476],
        [-0.372862091745845, 51.619020397900087],
        [-0.372491862540948, 51.619113280123045],
        [-0.371635473168681, 51.619349587422214],
        [-0.371304507195606, 51.619475382077461],
        [-0.370462018338338, 51.619807190051318],
        [-0.369899277038272, 51.620071838866664],
        [-0.369295592227339, 51.62030983920566],
        [-0.368901663970092, 51.620418566796047],
        [-0.368197125829207, 51.620648865847002],
        [-0.367284592189465, 51.620757572484962],
        [-0.366941141726034, 51.620787864929468],
        [-0.366786641650323, 51.620826180278343],
        [-0.366631979967806, 51.62086898923198],
        [-0.366262803521871, 51.621012222385666],
        [-0.366196732505798, 51.621041876137085],
        [-0.365559410114445, 51.621330644314725],
        [-0.365179140903502, 51.621541160493621],
        [-0.364740963788932, 51.621835394752722],
        [-0.363454685681349, 51.622534143350606],
        [-0.363357501331131, 51.622625407388831],
        [-0.362618400776174, 51.623533196596775],
        [-0.362578282201481, 51.623564109476732],
        [-0.362451648652602, 51.623510189061605],
        [-0.3623996873046, 51.623549029602017],
        [-0.361815445912437, 51.623726116607244],
        [-0.361541836068737, 51.624022635132867],
        [-0.361334884420423, 51.624273324417587],
        [-0.361092524726451, 51.62446417114527],
        [-0.360926674370044, 51.624616520221217],
        [-0.360737279500583, 51.624740664791219],
        [-0.360207488772214, 51.625049788931264],
        [-0.360104368719904, 51.625104998953418],
        [-0.359790527529318, 51.625234597434293],
        [-0.359701536865396, 51.625258532103175],
        [-0.3594759360798, 51.6253048366614],
        [-0.359022915221998, 51.625367745085121],
        [-0.358553246389891, 51.625411535581122],
        [-0.358184185381073, 51.62542975478403],
        [-0.357830018303332, 51.625435592188481],
        [-0.357550289577594, 51.625460454107433],
        [-0.35698245799451, 51.625581995674381],
        [-0.356569328322751, 51.625620274965975],
        [-0.35628563800441, 51.625674752404713],
        [-0.356029787468968, 51.625758393747049],
        [-0.35577330425849, 51.625819545387962],
        [-0.355290074903376, 51.625958449376732],
        [-0.355225986142618, 51.625972838174661],
        [-0.355080902976429, 51.625989689066316],
        [-0.354995609090338, 51.625991191687959],
        [-0.354837126009201, 51.625979079763304],
        [-0.354419158063669, 51.625991206579144],
        [-0.3541437887754, 51.626015222292423],
        [-0.353038675886322, 51.626251504726149],
        [-0.352551273865052, 51.626305813058053],
        [-0.352312892664885, 51.626345630088679],
        [-0.351600146055424, 51.626478600117288],
        [-0.350814890819768, 51.626579074952438],
        [-0.350502688768564, 51.626582782109658],
        [-0.350440172076824, 51.626593593543355],
        [-0.350377557562453, 51.626607101205281],
        [-0.349904216349381, 51.626751517329296],
        [-0.349560066826772, 51.626839298911896],
        [-0.349245579525376, 51.626905915451303],
        [-0.349093540750295, 51.626955032803224],
        [-0.348948623940567, 51.627006947747148],
        [-0.348279340759451, 51.627295173361027],
        [-0.347551927878553, 51.627592468409922],
        [-0.346976608451635, 51.627799281564002],
        [-0.346430295824567, 51.628002903595302],
        [-0.346099061531756, 51.628092655412402],
        [-0.345660637907797, 51.628189888151276],
        [-0.345129731542014, 51.628327179541671],
        [-0.344749403375159, 51.628495366275139],
        [-0.34433155896066, 51.628662123545439],
        [-0.344165530652005, 51.628738013652054],
        [-0.341842850443053, 51.629831048146663],
        [-0.340450015454028, 51.630464197742931],
        [-0.339913292205391, 51.630720079531557],
        [-0.339876565176309, 51.630736645282646],
        [-0.339834948353049, 51.630807993841714],
        [-0.33963716396163, 51.630566006574654],
        [-0.339353521436918, 51.630340788883778],
        [-0.339004666523068, 51.630081377094974],
        [-0.338857037537587, 51.630088280663557],
        [-0.338794677965881, 51.630055026730282],
        [-0.338836951901216, 51.630005268927334],
        [-0.33884830866422, 51.629931694166167],
        [-0.338564903820265, 51.629700183378986],
        [-0.338556863014059, 51.62968298455543],
        [-0.338307495732543, 51.629469039811667],
        [-0.337482885672996, 51.630129977623753],
        [-0.337469229820718, 51.630187333877977],
        [-0.337407656465423, 51.630211639953878],
        [-0.337221685440163, 51.630358275720937],
        [-0.336827683219164, 51.630662024448291],
        [-0.336451202794801, 51.630960624846061],
        [-0.336155132727438, 51.631233387176962],
        [-0.335698819145371, 51.631541644406326],
        [-0.335366935876107, 51.631766238844783],
        [-0.334941133100505, 51.632109095806008],
        [-0.334658151071473, 51.632300211638878],
        [-0.334570705410076, 51.632360117789304],
        [-0.334487723778971, 51.632416490346237],
        [-0.334164427482266, 51.632643001648887],
        [-0.333722462460666, 51.632953253267658],
        [-0.333594933616249, 51.633042263876639],
        [-0.333286400055329, 51.633259990175787],
        [-0.333112912461029, 51.633380719529185],
        [-0.33303228842892, 51.633451511941374],
        [-0.333083874295119, 51.633542165581744],
        [-0.333087053816049, 51.633573683166865],
        [-0.333091803898047, 51.633641191558148],
        [-0.333071441871813, 51.633723630054618],
        [-0.332995210215453, 51.633832251733253],
        [-0.332874915647082, 51.633802668195976],
        [-0.332607051288321, 51.633738617357736],
        [-0.332479682849434, 51.63382313298095],
        [-0.331758466776023, 51.634300261485002],
        [-0.330850514219203, 51.634864652448606],
        [-0.33000679737492, 51.635331935887208],
        [-0.329347382879287, 51.635620194786462],
        [-0.328848395105176, 51.635828905037421],
        [-0.328346580252792, 51.636035774509693],
        [-0.32735236332063, 51.636428959259533],
        [-0.327071768913021, 51.63643575233548],
        [-0.326798252790419, 51.636603604731967],
        [-0.326570148541338, 51.636715453293597],
        [-0.325950441002915, 51.6369053457246],
        [-0.325663094341669, 51.6369776817331],
        [-0.32462070518568, 51.637186717115476],
        [-0.323183275947394, 51.637488116745921],
        [-0.32231234097932, 51.637632139086371],
        [-0.321493430628677, 51.637775999482002],
        [-0.320572762769413, 51.637975049253534],
        [-0.319816694545604, 51.63821691186552],
        [-0.319452544276813, 51.638372659789034],
        [-0.319119884280689, 51.63857561648809],
        [-0.318750855207388, 51.638980374554301],
        [-0.318664635865616, 51.639084347988693],
        [-0.318529717195262, 51.639293731179428],
        [-0.318459795650138, 51.639504045036894],
        [-0.318429858550998, 51.639571057321412],
        [-0.318256388772206, 51.639728632936077],
        [-0.318087132636213, 51.639928531683651],
        [-0.317802372919697, 51.640086310910952],
        [-0.317517644492774, 51.640243190688857],
        [-0.317135404917745, 51.640418455001509],
        [-0.316937098137659, 51.640465968680751],
        [-0.316696203328099, 51.640531754992558],
        [-0.315921669252446, 51.640178048642014],
        [-0.314916162046591, 51.639778759612533],
        [-0.314263874577352, 51.639597647061706],
        [-0.313975570684394, 51.639499989441155],
        [-0.313382944890163, 51.639308038825583],
        [-0.313211617906238, 51.639251624919694],
        [-0.31271097262021, 51.639073581174387],
        [-0.31234242367885, 51.638957681299736],
        [-0.311717811194532, 51.638810223150998],
        [-0.3112988895302, 51.638727765830829],
        [-0.311073791547354, 51.638679567579217],
        [-0.310834550840126, 51.63862307251015],
        [-0.309118049193046, 51.63814786020825],
        [-0.308932656156084, 51.638081346073513],
        [-0.308233155284028, 51.637888729138403],
        [-0.307695298837676, 51.637740700930536],
        [-0.306991575980818, 51.637545318033375],
        [-0.306362227906412, 51.63737078641838],
        [-0.305401050596864, 51.637104238946804],
        [-0.30515080330565, 51.63699451964662],
        [-0.304757255138644, 51.636736158852962],
        [-0.304702267528767, 51.63669939632738],
        [-0.304609892371926, 51.636618931604374],
        [-0.304551845686288, 51.63654795465321],
        [-0.304527792118132, 51.636495452837273],
        [-0.304541022308763, 51.636450683110382],
        [-0.304584344989383, 51.636373976148164],
        [-0.304482738231355, 51.636347330940268],
        [-0.30504985575481, 51.635399652912447],
        [-0.305574220880626, 51.634396503025862],
        [-0.305585398217605, 51.634329223161878],
        [-0.305597635000039, 51.63411718488031],
        [-0.305462270890671, 51.633367983174658],
        [-0.305052296854998, 51.632775776942857],
        [-0.3044847725197, 51.632030225855374],
        [-0.30395392004459, 51.631464145588147],
        [-0.302538990010218, 51.63042848272412],
        [-0.302185879284414, 51.630133829397863],
        [-0.301838448790421, 51.629841954776843],
        [-0.301182356013466, 51.62926505780473],
        [-0.300543172022962, 51.628622758941688],
        [-0.300153081836352, 51.628197177535256],
        [-0.299254915464897, 51.627410843633783],
        [-0.298668867502016, 51.626971627697927],
        [-0.298027423619224, 51.626507326844433],
        [-0.297712852489821, 51.626265372852551],
        [-0.297275758053388, 51.625900246737977],
        [-0.295907979794429, 51.62469433369462],
        [-0.295188975645539, 51.624103899728105],
        [-0.294879480140823, 51.623804461619009],
        [-0.294364078937218, 51.623294312020008],
        [-0.293870981931821, 51.622806065428982],
        [-0.293151062084336, 51.62220301612949],
        [-0.29267661791544, 51.621757298763818],
        [-0.291673425546281, 51.620889346764955],
        [-0.289600303757524, 51.619164133631813],
        [-0.288276186087522, 51.618036996369248],
        [-0.288008667292022, 51.617775918650878],
        [-0.287698774362797, 51.617297510274945],
        [-0.287565593448056, 51.617151692501587],
        [-0.286852274278742, 51.616608047890658],
        [-0.286003758901889, 51.615896069256792],
        [-0.285307043435826, 51.615411106678039],
        [-0.284410088636445, 51.614912423094033],
        [-0.284185402346215, 51.614780550797427],
        [-0.283962194849179, 51.614647800456765],
        [-0.283412315187268, 51.614291762758583],
        [-0.282199703229832, 51.613355920545231],
        [-0.281482088990556, 51.612699776799339],
        [-0.280150394682747, 51.611439348890421],
        [-0.279367901565929, 51.610743574621502],
        [-0.279339915773098, 51.610719784656517],
        [-0.27874597367466, 51.610156257542656],
        [-0.277937459119727, 51.609424122926384],
        [-0.277315173838351, 51.60888535069617],
        [-0.27713596369927, 51.608736147417652],
        [-0.276652768667313, 51.608452993504841],
        [-0.276445559426008, 51.608318664866566],
        [-0.276036802465826, 51.608015019936111],
        [-0.275555489503344, 51.607568230538405],
        [-0.275272227620597, 51.60730689134995],
        [-0.27493258509469, 51.606970986654815],
        [-0.274893602223054, 51.606932646417384],
        [-0.273807664218311, 51.605712623022249],
        [-0.272970145735699, 51.605025886663448],
        [-0.270246570615033, 51.602898686143249],
        [-0.270079712765224, 51.602767638191409],
        [-0.268736225406256, 51.601719118543386],
        [-0.268448059658238, 51.60147477515779],
        [-0.267615671994523, 51.600733222256466],
        [-0.267155869443294, 51.600370342358225],
        [-0.267994694693479, 51.599955591162093],
        [-0.268371174594633, 51.599775905548007],
        [-0.268676954563455, 51.599670710789034],
        [-0.268789399048447, 51.599599532104961],
        [-0.268818807970256, 51.599585578261667],
        [-0.269143679685681, 51.599433904206634],
        [-0.269472289510513, 51.599259803763445],
        [-0.269778251431791, 51.599073678651884],
        [-0.27026106874825, 51.598793042882825],
        [-0.270660644242532, 51.598575023691396],
        [-0.27085738610165, 51.598451131519184],
        [-0.270993980875725, 51.598390197977004],
        [-0.271013082079986, 51.598381487098656],
        [-0.271141291071572, 51.59831323606835],
        [-0.27120859355648, 51.598289948294074],
        [-0.271224603784732, 51.598286587201933],
        [-0.271240614010665, 51.598283226107569],
        [-0.271258033172907, 51.598280784986187],
        [-0.27127397514207, 51.598279221330564],
        [-0.271291360175268, 51.598277678925896],
        [-0.271308745207348, 51.598276136518642],
        [-0.271326096113163, 51.598275492830474],
        [-0.271342003953517, 51.598274827887266],
        [-0.27135935485848, 51.598274184194196],
        [-0.271376671638864, 51.598274439220255],
        [-0.271388216159263, 51.598274609236213],
        [-0.271408384946709, 51.598275805483148],
        [-0.271428553735297, 51.598277001726636],
        [-0.271450165590244, 51.598278219217832],
        [-0.271470266136554, 51.598281212897668],
        [-0.271490400807501, 51.598283307852313],
        [-0.271510501358861, 51.598286301525313],
        [-0.271529124726154, 51.598290172666488],
        [-0.271549191162473, 51.598294065054702],
        [-0.27156778041596, 51.598298834911589],
        [-0.271587812739528, 51.59830362601506],
        [-0.27160636788143, 51.598309294587743],
        [-0.271623479961493, 51.598314941908477],
        [-0.271634888017252, 51.598318706787609],
        [-0.272013708638558, 51.598380935367125],
        [-0.272092770439535, 51.598390192273314],
        [-0.27217193459971, 51.598396752960291],
        [-0.27225257596077, 51.598402436113304],
        [-0.272315968714862, 51.598406066881374],
        [-0.272395201146787, 51.598410829973957],
        [-0.272475944872159, 51.598413816807387],
        [-0.27255668860945, 51.598416803585337],
        [-0.272636091586456, 51.59841707290434],
        [-0.272717074027739, 51.598413768515925],
        [-0.272796715677016, 51.598407746669785],
        [-0.272798158747364, 51.598407767904426],
        [-0.272840212360782, 51.598402991366918],
        [-0.27288089108483, 51.598396396135819],
        [-0.2729216038912, 51.598388902168068],
        [-0.272960907707845, 51.598380488230994],
        [-0.273001688671801, 51.598371196790289],
        [-0.273041060641725, 51.598360985381099],
        [-0.273078989525488, 51.598350752727384],
        [-0.273118395550747, 51.598339642569371],
        [-0.273156392577997, 51.598327612445189],
        [-0.273194389585381, 51.598315582308487],
        [-0.273232386572896, 51.598303552159273],
        [-0.273309857640996, 51.59827861432899],
        [-0.27334782048256, 51.598267482864408],
        [-0.273382897173792, 51.598256308932584],
        [-0.273493967569917, 51.598221074531914],
        [-0.273603662892184, 51.598184021354093],
        [-0.273713392115457, 51.598146069349013],
        [-0.27382033726132, 51.598105378626762],
        [-0.273925873230677, 51.598063767861397],
        [-0.274030034092309, 51.598020338333654],
        [-0.274132785768072, 51.597975988770159],
        [-0.274143091586956, 51.597970744957969],
        [-0.275626116557385, 51.597432324730455],
        [-0.276976314374678, 51.596892835369083],
        [-0.276515609725053, 51.596514692084277],
        [-0.279351952997913, 51.596228987619448],
        [-0.279370813971252, 51.596226566435227],
        [-0.28137662086847, 51.596025751438127],
        [-0.281763070857341, 51.595962169012843],
        [-0.282655668574101, 51.595838550183942],
        [-0.283331832461649, 51.595749526732881],
        [-0.284069290295234, 51.595604744411673],
        [-0.284584218968756, 51.595464798485118],
        [-0.284944021861908, 51.595380134047296],
        [-0.285394100529115, 51.595275205928253],
        [-0.285509618873383, 51.595236428307153],
        [-0.285611981020573, 51.595201954529813],
        [-0.285796555072883, 51.59474784490309],
        [-0.286135041626795, 51.594884074429672],
        [-0.286282911709925, 51.594944682982366],
        [-0.286718181109514, 51.594734324490688],
        [-0.28712260343993, 51.594537901813908],
        [-0.287685351863665, 51.594315911681534],
        [-0.288001942902676, 51.594266576448831],
        [-0.288334449286567, 51.59417790664579],
        [-0.289127272317023, 51.594018613301643],
        [-0.289353055741844, 51.593965253104898],
        [-0.289724989331482, 51.593864564878764],
        [-0.290105013454859, 51.593740613547823],
        [-0.290360006618576, 51.593601351548791],
        [-0.290421891953922, 51.593568082468984],
        [-0.289896935488391, 51.593245707147851],
        [-0.289653006745489, 51.593128850815461],
        [-0.28948681892214, 51.59305628963854],
        [-0.289291908468875, 51.592979712703382],
        [-0.289092467343261, 51.592908464736752],
        [-0.288729987900784, 51.592796172888015],
        [-0.28844545102957, 51.592722783881385],
        [-0.287563913636617, 51.592554360198847],
        [-0.287314911711433, 51.592495874442506],
        [-0.28699639203981, 51.592404900773417],
        [-0.286798264734039, 51.592337264935345],
        [-0.28660466957926, 51.592264299578005],
        [-0.286391720188896, 51.592168570743752],
        [-0.286137875294373, 51.592047066110922],
        [-0.285906982439379, 51.591929493005466],
        [-0.285672134342935, 51.591801970206987],
        [-0.285458930563428, 51.591674763105829],
        [-0.285291290429287, 51.591564407292914],
        [-0.285159282621292, 51.591466261748955],
        [-0.284912887584797, 51.591262134668995],
        [-0.2846539282168, 51.591008366117492],
        [-0.284538945726247, 51.590879895057604],
        [-0.284431245776193, 51.590749731877558],
        [-0.284302086386299, 51.590576092155779],
        [-0.283997227776718, 51.590238023297921],
        [-0.283851096162694, 51.589863607933445],
        [-0.283364079755836, 51.588881726850879],
        [-0.283238449287621, 51.588346649277071],
        [-0.283119829391771, 51.588008604217137],
        [-0.283078500732109, 51.587802976469497],
        [-0.283053437858019, 51.587433927784964],
        [-0.282867786038324, 51.586729816584608],
        [-0.282559680874828, 51.586287386021802],
        [-0.282433019606078, 51.586124571266687],
        [-0.282371860677307, 51.586023862283568],
        [-0.282335687398366, 51.585949596455386],
        [-0.28230431678409, 51.58586281175571],
        [-0.282271484476168, 51.585738238209096],
        [-0.282319860264174, 51.585220992675431],
        [-0.2823409149777, 51.585083719401361],
        [-0.282432601022558, 51.585102146478377],
        [-0.282449777337695, 51.585105994741333],
        [-0.282454579759664, 51.585093475871986],
        [-0.282470734666173, 51.585047851813286],
        [-0.284066570763157, 51.585294202233825],
        [-0.289012334687624, 51.58593471669618],
        [-0.292102753327493, 51.586321433622459],
        [-0.294315832991024, 51.586585616609355],
        [-0.295708915199663, 51.586698473807218],
        [-0.297830715093619, 51.586779621697204],
        [-0.298165695025879, 51.586777285605052],
        [-0.298331473640088, 51.586783286172128],
        [-0.29861189786588, 51.586811630615649],
        [-0.299286051133957, 51.586926610419788],
        [-0.300065427246064, 51.587123141228311],
        [-0.300214331113875, 51.587155871397357],
        [-0.300499691448718, 51.587206763362623],
        [-0.300791460465476, 51.587240662181387],
        [-0.301187609979433, 51.587262582801856],
        [-0.302061775892947, 51.587278829276606],
        [-0.302136798365259, 51.587279914582759],
        [-0.302613338053573, 51.587275117390213],
        [-0.30306290093334, 51.587258238337725],
        [-0.303578357592997, 51.587216232549451],
        [-0.304090087512559, 51.587157984649608],
        [-0.304846035609117, 51.587053804800121],
        [-0.305321053716938, 51.586973439978216],
        [-0.305386545152882, 51.58695909881159],
        [-0.305775131297303, 51.586873887297394],
        [-0.305885982220367, 51.586843115392547],
        [-0.306088894745843, 51.586782199318158],
        [-0.306473478344523, 51.58664926896239],
        [-0.306841154093848, 51.586543969328567],
        [-0.308368317390118, 51.586001278926084],
        [-0.310582408586568, 51.585228366397352],
        [-0.311760656409894, 51.584789415093454],
        [-0.313074967713594, 51.584261586387733],
        [-0.313381740090036, 51.584123918242973],
        [-0.313609543083813, 51.584013889741897],
        [-0.314292134784725, 51.583666704656125],
        [-0.317089461263353, 51.582103536896867],
        [-0.318796845594584, 51.581089406098251],
        [-0.319261480469601, 51.580857767240573],
        [-0.319798933845604, 51.580608285418407],
        [-0.320210849720506, 51.580436135928949],
        [-0.320706826877054, 51.580254397174492],
        [-0.321044324426462, 51.580143226224365],
        [-0.323422947125734, 51.579395806668721],
        [-0.325283672755218, 51.578993444829479],
        [-0.326671545105875, 51.578772249891173],
        [-0.326708287311933, 51.578675657867308],
        [-0.326664996419895, 51.578479010417148],
        [-0.326615275785321, 51.578300255689577],
        [-0.326585984163393, 51.578233295661683],
        [-0.326489785134763, 51.578023304615996],
        [-0.326300848387984, 51.577666317110349],
        [-0.325906037687834, 51.576942208040776],
        [-0.32555241984304, 51.576314901944208],
        [-0.32543408681463, 51.576039850158409],
        [-0.32537971595875, 51.57587002066299],
        [-0.324991857477852, 51.574093917715331],
        [-0.324974473826854, 51.57389943764791],
        [-0.324924621935649, 51.573646044709911],
        [-0.324883423361213, 51.573510573347647],
        [-0.324834980400712, 51.573375897781219],
        [-0.324741419505021, 51.573173136479312],
        [-0.324116205623164, 51.57231984015624],
        [-0.323577359912567, 51.571551401769611],
        [-0.322936675784848, 51.570727552060795],
        [-0.322519423337169, 51.570106520115601],
        [-0.322153682333172, 51.569654377749714],
        [-0.322908915518313, 51.56932526702888],
        [-0.323794387980834, 51.568907190335821],
        [-0.324481825097368, 51.568655333566831],
        [-0.3251751113679, 51.568440424411065],
        [-0.325073621174135, 51.568257332906882],
        [-0.325796721553891, 51.568055434755479],
        [-0.326174892131498, 51.567934038960054],
        [-0.326747565592719, 51.567899043153538],
        [-0.327653292330306, 51.567792357389216],
        [-0.327498872213662, 51.567557258010595],
        [-0.328731170142962, 51.567279869461885],
        [-0.329288545228529, 51.567150225058569],
        [-0.329745382957624, 51.567086588794403],
        [-0.329677516526513, 51.566654895238699],
        [-0.329646098865855, 51.566212929754379],
        [-0.329069892674898, 51.565990711607391],
        [-0.328669099648505, 51.565942740577583],
        [-0.328593066890513, 51.564947117207986],
        [-0.328539418115793, 51.564128060165288],
        [-0.328332663374342, 51.563274449968091],
        [-0.328580446471686, 51.563009111790713],
        [-0.328323697473688, 51.562732090648211],
        [-0.328249612539528, 51.562509826308002],
        [-0.328750480104512, 51.562463906608158],
        [-0.329046183678832, 51.56246542000455],
        [-0.329192086632759, 51.562460303724237],
        [-0.329533874666943, 51.562424704674939],
        [-0.32968797524418, 51.562392727780448],
        [-0.32978573992672, 51.562362646522828],
        [-0.329882424707472, 51.562322658360046],
        [-0.329964722551437, 51.562281566144456],
        [-0.331329518383111, 51.561572610982175]
      ]
    ]
  }
}
