{
  "type": "Feature",
  "properties": {
    "name": "Havering",
    "level": 2,
    "londonBorough": true,
    "center": [0.232, 51.559]
  },
  "geometry": {
    "type": "Polygon",
    "coordinates": [
      [
        [0.210525402116484, 51.490242485458005],
        [0.210344292693864, 51.48730249792745],
        [0.210307031300751, 51.485876913508385],
        [0.208127138188, 51.485746223594425],
        [0.20769699216607, 51.48569766833693],
        [0.200446020749289, 51.48459115239009],
        [0.199277009141835, 51.48442333541183],
        [0.197133028222324, 51.484258493949106],
        [0.196305553727992, 51.48421374518518],
        [0.191972793977739, 51.4841500445205],
        [0.190254646073192, 51.48424420606578],
        [0.188375299369713, 51.484431280863014],
        [0.188177395474425, 51.48444936337559],
        [0.186352187811529, 51.48495554423041],
        [0.186129645630076, 51.48503073830602],
        [0.183334919141539, 51.48622851713339],
        [0.182658483529095, 51.486632304900596],
        [0.181653026930612, 51.48732548908581],
        [0.181028170021268, 51.487814639631246],
        [0.180018360439679, 51.48896113436844],
        [0.179569379875747, 51.489574706192506],
        [0.178243577442419, 51.49210207776991],
        [0.178046703458573, 51.492595849786504],
        [0.177014120186096, 51.496624072932065],
        [0.17688969691474, 51.497036460265726],
        [0.175886842845791, 51.499212475869086],
        [0.175721674745296, 51.49979828178012],
        [0.174825697364973, 51.501346396706786],
        [0.174633035267184, 51.50159727500944],
        [0.172798026252285, 51.503459550301756],
        [0.172582495929863, 51.50365419343029],
        [0.170717958554642, 51.505050249834675],
        [0.170346559102425, 51.50530083208519],
        [0.167506377939023, 51.50669870213586],
        [0.166910456235949, 51.506925545053356],
        [0.163901121183992, 51.50792087219918],
        [0.163588656635134, 51.50801746584502],
        [0.161727108585676, 51.50845108117687],
        [0.161473068315712, 51.50850342624015],
        [0.160513682640678, 51.50866409264224],
        [0.160059115889101, 51.508712035319455],
        [0.157945985465712, 51.508763530054225],
        [0.15787416184569, 51.50876844887655],
        [0.158830181893358, 51.51277336841983],
        [0.158914167189635, 51.513055997254334],
        [0.15893437120164, 51.5136356658871],
        [0.158936858285489, 51.51384065768971],
        [0.159491323753425, 51.51547704452663],
        [0.159654973913397, 51.51592007754713],
        [0.161820958376666, 51.52041707529623],
        [0.162238067124796, 51.52131047163403],
        [0.162336599565546, 51.521686355564235],
        [0.162338607206238, 51.5217591608008],
        [0.162231606218018, 51.52214782699548],
        [0.162237423814192, 51.522209770541835],
        [0.162812499738197, 51.52351572287298],
        [0.162939423211132, 51.52388208980276],
        [0.163957672393906, 51.52550360585677],
        [0.164017724770721, 51.52558433293054],
        [0.163979332128891, 51.526021195385496],
        [0.16398281761406, 51.526064296837674],
        [0.164450336439626, 51.526741825569744],
        [0.164476698877991, 51.526780907669604],
        [0.164443347287192, 51.52705040987731],
        [0.164443730834909, 51.52705849637885],
        [0.164891745805274, 51.52747648946346],
        [0.164926325519178, 51.527506426919196],
        [0.165391702437022, 51.528290107304045],
        [0.165450296466838, 51.528431112779465],
        [0.166364857791773, 51.529018544316415],
        [0.166446900768611, 51.52907638181419],
        [0.166773916337205, 51.52964768294931],
        [0.166817782087048, 51.52969093760457],
        [0.167437599772663, 51.52996096188792],
        [0.167461416475199, 51.52997670891926],
        [0.167914036138468, 51.53067248513236],
        [0.167974902713575, 51.530739705862],
        [0.168372038920093, 51.53087445174088],
        [0.168481757328472, 51.530938071190754],
        [0.170602004630079, 51.532530158177636],
        [0.170762249802566, 51.53262521477242],
        [0.171873339184258, 51.534217966308624],
        [0.171908955246416, 51.53426946543085],
        [0.171876924898786, 51.534656751802174],
        [0.171917532342687, 51.53478279928569],
        [0.172333295815077, 51.535519709088184],
        [0.172354563222503, 51.535602948851256],
        [0.173781498433138, 51.537405661164584],
        [0.173919445724811, 51.53760724258443],
        [0.174881743492073, 51.53840325788298],
        [0.175007182379028, 51.53849355844571],
        [0.176970978285307, 51.539363608299176],
        [0.177256715307806, 51.53948870134357],
        [0.178063027236462, 51.539552868981865],
        [0.178117195717263, 51.539569848853866],
        [0.17919987209202, 51.54028715446206],
        [0.179246641713095, 51.540330350598246],
        [0.179596691573313, 51.54122762981734],
        [0.179658982759607, 51.541354171045185],
        [0.17960352483754, 51.54233632338036],
        [0.179631311833355, 51.54258580873506],
        [0.180230103661178, 51.54391911402826],
        [0.180364616493816, 51.544108161823104],
        [0.181536187996897, 51.54508278848648],
        [0.181670947239145, 51.54524665020443],
        [0.18256928220772, 51.54578479859678],
        [0.182564657252936, 51.54583884184655],
        [0.185564702479241, 51.54716428805872],
        [0.185784306023046, 51.54723213918929],
        [0.186283731741529, 51.547901793575114],
        [0.186347895118111, 51.547946461319555],
        [0.187462503027442, 51.550074077797255],
        [0.187461202686489, 51.55019730432193],
        [0.189372122127681, 51.551422454988646],
        [0.189581292450813, 51.551452723818876],
        [0.189676350877096, 51.551780088440935],
        [0.189707980062099, 51.55198813256952],
        [0.190123425128716, 51.55261887056063],
        [0.190189877153824, 51.55265090349966],
        [0.189930095825583, 51.552828416485916],
        [0.18966574740656, 51.55312112281205],
        [0.188028875206779, 51.554031167070946],
        [0.18788402171741, 51.55407883306909],
        [0.187980649752021, 51.554258686682125],
        [0.188038591114186, 51.55435382960912],
        [0.187613616821069, 51.55445618042718],
        [0.187531857721534, 51.55452605080222],
        [0.18765918983424, 51.554774577139284],
        [0.187707534865102, 51.554850114885234],
        [0.187609545181098, 51.555032698747],
        [0.187573802035882, 51.555129588889216],
        [0.187176700809743, 51.55548231906576],
        [0.187002263834103, 51.555544924060044],
        [0.186943918397868, 51.55574205609195],
        [0.186891044584848, 51.55578261034588],
        [0.186829393412743, 51.555820630338985],
        [0.186454609918386, 51.55588696904411],
        [0.185955459886339, 51.55624789188142],
        [0.185870318879737, 51.556337608341614],
        [0.184927099333581, 51.5563731652746],
        [0.184742092683411, 51.556426071571416],
        [0.18474588207472, 51.556505138122894],
        [0.184734614434382, 51.55663124792995],
        [0.18501351055869, 51.55673127004189],
        [0.185019172494024, 51.556819294561855],
        [0.184510676564852, 51.557527509262144],
        [0.184407696535999, 51.55763644178102],
        [0.184450236999144, 51.55789194595912],
        [0.184401576048953, 51.557960298441216],
        [0.184580610609476, 51.55853520504215],
        [0.184549228026302, 51.558693164339736],
        [0.1847738817749, 51.558865240658804],
        [0.184803123277067, 51.55896361745165],
        [0.184760088320678, 51.55981154547165],
        [0.184766393761747, 51.5598527951573],
        [0.184562579756658, 51.56017583679084],
        [0.184539840405158, 51.56021313090765],
        [0.184145441385437, 51.56035266925258],
        [0.183580107747406, 51.5605682300207],
        [0.182698027759646, 51.56127979170404],
        [0.182618766480826, 51.56131184202272],
        [0.18394396082691, 51.56376560824439],
        [0.18398346732559, 51.563867391230254],
        [0.185011206786034, 51.56465850990781],
        [0.185146701285598, 51.564745914770924],
        [0.185084522206301, 51.56522459289396],
        [0.185153090516347, 51.56551108679055],
        [0.183618376301832, 51.56470962222036],
        [0.183480561210493, 51.564633949495715],
        [0.179465874611756, 51.564893851854436],
        [0.17902056165757, 51.56493539710055],
        [0.176734752482858, 51.56477908807709],
        [0.176272798921817, 51.56471391691558],
        [0.17379091345972, 51.565074678184665],
        [0.173388027763451, 51.565098329488315],
        [0.171431049173659, 51.5646660402528],
        [0.171227966932592, 51.56461314402629],
        [0.168802256027842, 51.56366880050596],
        [0.168597012771907, 51.563600651914186],
        [0.166553786054855, 51.56332455266965],
        [0.166340538756763, 51.563270037200255],
        [0.162410589779751, 51.561787680961146],
        [0.161869584048071, 51.56160610451987],
        [0.16071009480649, 51.562073508793496],
        [0.160677407720896, 51.56208400289767],
        [0.159933978501473, 51.56286747721975],
        [0.159767942046243, 51.563078267918264],
        [0.156523585670529, 51.56488974791187],
        [0.156316812236382, 51.56503293697287],
        [0.155460842778066, 51.56533104017626],
        [0.155217767473242, 51.56546949850829],
        [0.151762455152953, 51.567832380003956],
        [0.151436582517633, 51.56799033435757],
        [0.150578743357376, 51.56779203327426],
        [0.150359344357832, 51.56782123450077],
        [0.149919907200325, 51.5680496112113],
        [0.149864950750029, 51.56807759662332],
        [0.149421400368885, 51.568096514745164],
        [0.149329975948752, 51.56811617520661],
        [0.148924832083345, 51.5684599268883],
        [0.148749143020537, 51.56862051849362],
        [0.147371326397921, 51.568564809157934],
        [0.146939713151045, 51.56877594502825],
        [0.146760467457253, 51.56876933282783],
        [0.146712173643303, 51.56921446015202],
        [0.146642272511841, 51.56941537896839],
        [0.148169632732117, 51.56955109274124],
        [0.149752298598317, 51.569696564683014],
        [0.149701917295687, 51.56988273927263],
        [0.149658913698, 51.57010295125963],
        [0.149473385295875, 51.57014681790144],
        [0.149290313999163, 51.5702733728938],
        [0.14912748234644, 51.57144092168094],
        [0.149262634629533, 51.57146092796174],
        [0.148960892009399, 51.57323263809889],
        [0.147896172800469, 51.57311724237104],
        [0.147915680137325, 51.573133072269634],
        [0.148035434146039, 51.57331613125609],
        [0.148019457100832, 51.57392613442397],
        [0.14801748350849, 51.57437401109919],
        [0.148184250833795, 51.575064301377836],
        [0.148204898881516, 51.575196117219484],
        [0.148035947047188, 51.57577564760824],
        [0.146983595504843, 51.57567890166654],
        [0.147317722224537, 51.57952169559587],
        [0.147448327669365, 51.58079178279393],
        [0.148383225712534, 51.58075218714659],
        [0.149008165877729, 51.58157707116976],
        [0.149659767805672, 51.58235470105179],
        [0.150434021891698, 51.582886375484826],
        [0.150625626920456, 51.5830618200583],
        [0.15079161574942, 51.5834283806605],
        [0.15092829501808, 51.583755010814656],
        [0.151197800937549, 51.58912414960703],
        [0.151199243351967, 51.589124123164446],
        [0.151147377686051, 51.5897986321283],
        [0.151081458327152, 51.590114587299176],
        [0.150725530274249, 51.5909844166159],
        [0.150572251096784, 51.591284886245965],
        [0.150975813436862, 51.59472351566457],
        [0.151130829612861, 51.59543739705039],
        [0.150067505860806, 51.596738351304936],
        [0.149814872366956, 51.59707571152984],
        [0.149767773460233, 51.59705679027417],
        [0.148059637531281, 51.59635336091491],
        [0.148085123923037, 51.596771057386185],
        [0.147657586548507, 51.59679866649718],
        [0.149091918055576, 51.60179485923219],
        [0.149485043224489, 51.60290276012937],
        [0.149083077659766, 51.603350766129275],
        [0.148947658898186, 51.60348004353104],
        [0.148617819629067, 51.604354781688265],
        [0.148586837163077, 51.60449383714235],
        [0.14845138612145, 51.60593785328263],
        [0.148450066676121, 51.60612402716048],
        [0.148720820156705, 51.60702553858018],
        [0.148766142367796, 51.60737362707733],
        [0.148693213585054, 51.60845948649788],
        [0.148680562810149, 51.60868093944153],
        [0.148036038185282, 51.610110891796175],
        [0.147921559998178, 51.61037827257323],
        [0.14756178475832, 51.612119554297834],
        [0.147468608258612, 51.61234877525986],
        [0.146829582638728, 51.61328491820937],
        [0.146610287963755, 51.6135659051966],
        [0.145570440492364, 51.61445721309112],
        [0.145475307551997, 51.614553375725635],
        [0.144700431682358, 51.6162248963152],
        [0.144470564941555, 51.61668053095841],
        [0.140937494271621, 51.620614593599925],
        [0.140856942355717, 51.62071408337467],
        [0.13920278008289, 51.62231077185224],
        [0.138156948531111, 51.62354294304602],
        [0.149056973145973, 51.62322338215784],
        [0.14982478600674, 51.62320662415906],
        [0.155517527352661, 51.6233378312869],
        [0.155885022150082, 51.62331849229215],
        [0.160768536269722, 51.62280693612964],
        [0.162502722565209, 51.62257446120988],
        [0.162757093853969, 51.62278919732277],
        [0.162774458230491, 51.62278977664571],
        [0.165455252928323, 51.622442690535344],
        [0.165456696385336, 51.62244266390543],
        [0.167697751978385, 51.62190309984291],
        [0.167859061622117, 51.6218623511505],
        [0.168745428184469, 51.621484468816256],
        [0.168873694643791, 51.62141735099794],
        [0.174375266477787, 51.62326429357338],
        [0.175276232503769, 51.62358482829755],
        [0.180149040011381, 51.62442067702705],
        [0.180369551054643, 51.62446963839159],
        [0.180571332927665, 51.625664624727655],
        [0.180584712271802, 51.62573272113663],
        [0.180765672882606, 51.62561964760355],
        [0.180864113889819, 51.625593538201066],
        [0.180997308255574, 51.625779911350534],
        [0.181210350463138, 51.62582361429747],
        [0.182470826818768, 51.62580558032412],
        [0.182757270713429, 51.62572291629691],
        [0.183648695286627, 51.62542126563887],
        [0.184143190672644, 51.62524839701169],
        [0.185875804903067, 51.624382514909904],
        [0.185904113425792, 51.624370297132614],
        [0.186211340627387, 51.6245399342597],
        [0.18624103142247, 51.62455646751072],
        [0.186033039995795, 51.62533911485764],
        [0.185969458704852, 51.62551925499636],
        [0.187061090492619, 51.625475539067956],
        [0.188343844583869, 51.6254102644056],
        [0.188780257965338, 51.62487155392811],
        [0.1893729110976, 51.62448730107427],
        [0.189539205857831, 51.6250003842408],
        [0.189786778558972, 51.625100981255834],
        [0.193944734227576, 51.625575494010604],
        [0.194747403817036, 51.62571156707404],
        [0.195614804882378, 51.62566207190923],
        [0.196959588375103, 51.62556496721539],
        [0.199363275089434, 51.62510628493182],
        [0.200283886389919, 51.62493255691366],
        [0.203148656171208, 51.62510543908477],
        [0.203432142322745, 51.625141484608974],
        [0.205417913327343, 51.62563026890831],
        [0.205710975438594, 51.62571469011267],
        [0.206667509877436, 51.626221890606914],
        [0.206747117820802, 51.626254566596394],
        [0.208259937463658, 51.62664248181976],
        [0.208435127024027, 51.62667965340486],
        [0.211377592184071, 51.62681310393872],
        [0.212223550458187, 51.62697612002258],
        [0.212081943001146, 51.62718382461953],
        [0.212737971869037, 51.62736300615033],
        [0.213253584617397, 51.62762576695532],
        [0.213652230225689, 51.62756339351034],
        [0.213962948713934, 51.62765375624535],
        [0.216781934047357, 51.6288091847031],
        [0.217519555235764, 51.62909021605733],
        [0.220973473123759, 51.629869339509895],
        [0.222049383895432, 51.63012325791157],
        [0.223584280753052, 51.63128214228467],
        [0.224060144777958, 51.63173445815335],
        [0.226794864828027, 51.63006750176844],
        [0.227246943672614, 51.62976845668241],
        [0.231801855886209, 51.627391468208906],
        [0.232117051301462, 51.62721910742771],
        [0.233747684829952, 51.62608826401245],
        [0.233957444120629, 51.62591700532016],
        [0.237328304044925, 51.62421430632524],
        [0.237324118251597, 51.62407050069715],
        [0.23750367936881, 51.62407876856161],
        [0.237573466199986, 51.62411700668948],
        [0.238701911974402, 51.623501961600546],
        [0.239428398922263, 51.623115799199134],
        [0.249752807591422, 51.61891293984903],
        [0.250265400476773, 51.61870347164901],
        [0.252735439357625, 51.61744384980404],
        [0.252767787796722, 51.617426142455145],
        [0.254565017977184, 51.61620547241834],
        [0.255259849749389, 51.6156228738768],
        [0.257059684131537, 51.61457387824609],
        [0.257665603141486, 51.61418002669476],
        [0.258111752703942, 51.613186722976764],
        [0.258276374049359, 51.61298211490409],
        [0.261006595088517, 51.610661542115196],
        [0.261607797231345, 51.61014545691138],
        [0.262246712633981, 51.60966191522495],
        [0.262810395238156, 51.60929223170109],
        [0.263885825455625, 51.60899001358414],
        [0.264077963620148, 51.60887479509516],
        [0.26453555551823, 51.608318298881144],
        [0.264237506578093, 51.60810462297591],
        [0.264231153725416, 51.60809305477817],
        [0.264298945492208, 51.607830053498944],
        [0.263089135672831, 51.607317412824514],
        [0.261680960294385, 51.60746236634591],
        [0.261650436352899, 51.607458458146844],
        [0.259886780879855, 51.60687282299674],
        [0.259656100625974, 51.6067936309906],
        [0.25829363995139, 51.60655007006535],
        [0.258053115388616, 51.606505237352735],
        [0.258210242510624, 51.60603368432773],
        [0.258218792415803, 51.605740351536554],
        [0.258052645730359, 51.6050115270875],
        [0.257972492533119, 51.604909651044615],
        [0.257172846248419, 51.604947516218864],
        [0.257129756861096, 51.60492316488643],
        [0.257151900512566, 51.60475816907074],
        [0.257225879061067, 51.604619154926205],
        [0.257112321212991, 51.60451342437182],
        [0.256952740183761, 51.60423681459906],
        [0.25655742908172, 51.604069954460925],
        [0.256482589381296, 51.603987759611684],
        [0.256532305489768, 51.603708923295514],
        [0.256599320696312, 51.603604216412265],
        [0.256314983078433, 51.603345292592266],
        [0.256245658695445, 51.603316049617824],
        [0.255933603642394, 51.60334273246216],
        [0.2559010611673, 51.6033271708313],
        [0.255866317621161, 51.60315067873829],
        [0.255891075328611, 51.60306746821358],
        [0.25570145098507, 51.60305852318633],
        [0.255489455104474, 51.60306439645611],
        [0.255268376830224, 51.60274130405988],
        [0.255139073655847, 51.60266734934315],
        [0.254838527780635, 51.60275136263574],
        [0.254728790077589, 51.60275167252926],
        [0.254614404792984, 51.60268732279741],
        [0.254581570056614, 51.60263669414635],
        [0.254639141226369, 51.60242875157909],
        [0.254596830668614, 51.602390895033636],
        [0.254346399366146, 51.602437073400765],
        [0.254187557668066, 51.60237897299582],
        [0.254167768579329, 51.60209607705829],
        [0.254166986221227, 51.60205112763143],
        [0.253890344368236, 51.60191795068835],
        [0.253880238545126, 51.60185969099267],
        [0.254101594959025, 51.60166389078914],
        [0.253982707205967, 51.60159602978401],
        [0.254405806765645, 51.60147908851494],
        [0.25472819776769, 51.601486384047156],
        [0.254790013972293, 51.60133501501883],
        [0.255267779874279, 51.60124309962045],
        [0.257887353555061, 51.601272763867236],
        [0.257958953437677, 51.60126059475423],
        [0.258204028640382, 51.60101936577516],
        [0.258225004051447, 51.60091824168023],
        [0.261889581279971, 51.60012463600398],
        [0.262249839272975, 51.600022366762836],
        [0.264494017416513, 51.599764151780626],
        [0.265303675238029, 51.5996972653823],
        [0.269076418689226, 51.59954254015759],
        [0.269851908276694, 51.59957250715943],
        [0.270238393282054, 51.59852005378943],
        [0.270296686150027, 51.598357053492315],
        [0.270360311058751, 51.597693044396664],
        [0.270312234833938, 51.597308178281324],
        [0.270175114762569, 51.59681711976078],
        [0.270109454673558, 51.596600761326556],
        [0.269306089558938, 51.595373478468964],
        [0.269308285602836, 51.595272715283],
        [0.269629041006079, 51.59446614172527],
        [0.269711262037981, 51.59417497927836],
        [0.269902307318863, 51.59224410005933],
        [0.270104238790952, 51.59151626303516],
        [0.270255048382226, 51.59109517419872],
        [0.271101980231159, 51.58998434546392],
        [0.271319342762696, 51.589740026948284],
        [0.271254140227739, 51.58904073967395],
        [0.271260724249714, 51.58902802212546],
        [0.272108641618852, 51.587706731581285],
        [0.272200654542834, 51.58761232257764],
        [0.273564033244807, 51.58698788278913],
        [0.273813160989898, 51.58685985204494],
        [0.275085808910259, 51.58537382997751],
        [0.275347078213924, 51.58508458674855],
        [0.279587661092775, 51.58112181790454],
        [0.279857119633972, 51.58088186621013],
        [0.281754041297455, 51.57884136018503],
        [0.282001698547638, 51.57882934919427],
        [0.285048861319089, 51.57414406008788],
        [0.285065306774716, 51.5741266531408],
        [0.286093665245131, 51.573768483818796],
        [0.286135297001561, 51.573764075405165],
        [0.286268836615215, 51.57357801653329],
        [0.286347187075199, 51.573528826926534],
        [0.286625364665032, 51.57357916198394],
        [0.286724842787839, 51.573462113032534],
        [0.287138001019773, 51.572579042933924],
        [0.28713790922001, 51.572548468604865],
        [0.287122850716897, 51.57236350685434],
        [0.287110403664814, 51.57214432087807],
        [0.286668165759801, 51.571527929381546],
        [0.286677085396101, 51.571504373790745],
        [0.288366054662534, 51.568555018337705],
        [0.288598795029266, 51.56810352703946],
        [0.290173607840143, 51.564495384433826],
        [0.290261786411894, 51.564297615785485],
        [0.303490035926162, 51.565232890273265],
        [0.304547822303821, 51.56529215325888],
        [0.304524262629276, 51.56539693499113],
        [0.306195633507956, 51.5655196694837],
        [0.309969198363239, 51.56560999860899],
        [0.31300698920735, 51.5658163367175],
        [0.313431937965983, 51.564182018793396],
        [0.313474654565978, 51.563914982863466],
        [0.313685317513198, 51.563744457262274],
        [0.314115346633394, 51.562722461051145],
        [0.31414804104574, 51.562428643399436],
        [0.31421756534662, 51.56232025485393],
        [0.31410856505012, 51.56219110688666],
        [0.314114084141631, 51.56215772381011],
        [0.314384978033371, 51.56152556557775],
        [0.314460838609872, 51.56125787522529],
        [0.314735406028782, 51.55950511179227],
        [0.314747223975444, 51.55925487228865],
        [0.31500126380576, 51.55905830758261],
        [0.315015931695982, 51.5590346362294],
        [0.315160864560238, 51.55799667766926],
        [0.315221641149726, 51.55788666243128],
        [0.315382210458099, 51.55775309419802],
        [0.31560545673673, 51.55766055577787],
        [0.316164018920996, 51.557693594306286],
        [0.316472265436882, 51.55768391043],
        [0.318174439734699, 51.556913754543345],
        [0.31840705826353, 51.556778758195065],
        [0.318802704859878, 51.55522593317891],
        [0.318868657821777, 51.55518955655105],
        [0.321976182859858, 51.55422878004787],
        [0.322025066929263, 51.55419723601108],
        [0.322061774172903, 51.553643436782025],
        [0.322055273004159, 51.55328923927507],
        [0.322225613754387, 51.55281013469512],
        [0.322277469880457, 51.55278033030589],
        [0.324814254062006, 51.55305023299498],
        [0.325129055829401, 51.553056583681524],
        [0.325977938464683, 51.552164729513265],
        [0.326248424001433, 51.55192464679354],
        [0.32751660124339, 51.551165655919064],
        [0.327787631019491, 51.550993006678134],
        [0.327939753991444, 51.54863290560615],
        [0.327950448132237, 51.54855984953021],
        [0.328605410137745, 51.547884059718264],
        [0.32862830016914, 51.54785212955392],
        [0.329100209311391, 51.54695334539754],
        [0.329439396971081, 51.546562605583674],
        [0.329069931789939, 51.54613467794687],
        [0.328871477227393, 51.5458355519843],
        [0.33067940520323, 51.54593363810605],
        [0.331416838607189, 51.54594146523752],
        [0.333688334745883, 51.54275321170451],
        [0.333874011363072, 51.542492315047326],
        [0.333464434633497, 51.54164702077855],
        [0.333304781210679, 51.54126079650922],
        [0.33373465294425, 51.541206379230104],
        [0.333793967856088, 51.541181816983034],
        [0.333815273753746, 51.540978149344106],
        [0.334015564556255, 51.5406648016505],
        [0.333995717332023, 51.54050242177441],
        [0.332756955161241, 51.540277957915194],
        [0.331400912296967, 51.54004412136693],
        [0.331490010707941, 51.54071503274382],
        [0.331561903330796, 51.54079544065115],
        [0.322412985589026, 51.54051650912427],
        [0.321505087192626, 51.5405012084661],
        [0.316889052259876, 51.54008167755645],
        [0.31686157421321, 51.53999498766084],
        [0.31144777789728, 51.53971060667097],
        [0.310498676664133, 51.53965016831466],
        [0.3104818077198, 51.5393456361491],
        [0.310011795338171, 51.5392910434271],
        [0.301048585193837, 51.538796352263454],
        [0.300694612973572, 51.53875473383029],
        [0.300763951710098, 51.538499769961255],
        [0.300830551500197, 51.538133346068214],
        [0.297485035513483, 51.53770610909427],
        [0.297177039584499, 51.53766088158475],
        [0.297699194308907, 51.53563081725608],
        [0.297726663514861, 51.535317321344536],
        [0.290411563683125, 51.534659124160925],
        [0.290496493706392, 51.53448390007698],
        [0.288317389826042, 51.53456420716674],
        [0.288047149727804, 51.53455239270809],
        [0.282469080477616, 51.53399379764382],
        [0.281733913901099, 51.5339406547597],
        [0.277397357702786, 51.5331481221625],
        [0.276312109580905, 51.532927278262804],
        [0.276196275459393, 51.53317773351248],
        [0.274931511823194, 51.53294237467138],
        [0.274642915471749, 51.53293807985219],
        [0.27210515061857, 51.53319860627974],
        [0.270678125318252, 51.533092247069476],
        [0.265985214300461, 51.53220277322777],
        [0.265319281350746, 51.532149089344806],
        [0.265434348183267, 51.52862970436977],
        [0.265478145842133, 51.527827581764726],
        [0.265356772826613, 51.525005223269446],
        [0.265358596095965, 51.52495482721],
        [0.265537097102172, 51.52465910633425],
        [0.265642753000754, 51.524609402290906],
        [0.26634472174621, 51.52454907532047],
        [0.266723478070469, 51.52451207837127],
        [0.266731241101457, 51.52382666094775],
        [0.266676822601325, 51.52331151392245],
        [0.266610095832222, 51.522954881735956],
        [0.265660830836219, 51.52294084983354],
        [0.264981255869037, 51.52290001868684],
        [0.264297396224984, 51.521755824100524],
        [0.264228278732, 51.521641148758825],
        [0.264007441173399, 51.521083349183144],
        [0.263966560803847, 51.520840427803826],
        [0.263753064182148, 51.51819250991453],
        [0.263654851701101, 51.51786885863568],
        [0.261758728897603, 51.51794321466073],
        [0.261639782791317, 51.51795719959662],
        [0.260357099780854, 51.518368629422405],
        [0.260275015642135, 51.51837021154074],
        [0.259754771522507, 51.51825613405758],
        [0.259525423328954, 51.51813644976568],
        [0.259484737200385, 51.5178386658134],
        [0.259460673440455, 51.51781844553631],
        [0.259019499849715, 51.51778737562155],
        [0.258900081465485, 51.517762696938554],
        [0.257672433065381, 51.51785918125117],
        [0.25747955398552, 51.51786469297453],
        [0.25578214284896, 51.51767253111576],
        [0.255698442057277, 51.5176705439322],
        [0.254047684188249, 51.51789743280424],
        [0.253806350624823, 51.51788498450541],
        [0.25339144723818, 51.52042988251057],
        [0.253355168118754, 51.52068777929791],
        [0.252737215160521, 51.522098961273564],
        [0.252629719209111, 51.52237441310935],
        [0.25245612538362, 51.524027062039316],
        [0.252375463500206, 51.524525024282646],
        [0.252304875359317, 51.524788975240014],
        [0.252227858587548, 51.52498110568523],
        [0.25163914482873, 51.52570105744054],
        [0.251508234641673, 51.52596976313675],
        [0.251425484338165, 51.527185404815434],
        [0.251398143027845, 51.52750787853619],
        [0.250889736464718, 51.52862916990033],
        [0.250824053742248, 51.528817484508906],
        [0.249290283877748, 51.52873539711991],
        [0.248936854332357, 51.52867292892514],
        [0.248935024590859, 51.52793374105606],
        [0.248854342439558, 51.527408299494304],
        [0.248263007748866, 51.527550035101896],
        [0.246255635833861, 51.526485960138345],
        [0.246233923152694, 51.52645490057494],
        [0.247065036043187, 51.52523931582362],
        [0.247071490497496, 51.52516544970721],
        [0.246665876350327, 51.52427662040009],
        [0.24663306530909, 51.524225089656824],
        [0.246318908293034, 51.524022470242684],
        [0.246201937293613, 51.5240184155556],
        [0.245982765185147, 51.523695268613004],
        [0.245809556778855, 51.52351512879623],
        [0.244741425358513, 51.523839541049846],
        [0.242828132992348, 51.52439144442755],
        [0.24270982899598, 51.52403758494906],
        [0.242319826077112, 51.5235819040866],
        [0.241071417127562, 51.522672295990624],
        [0.241010455180818, 51.52260511429922],
        [0.240697353470084, 51.52201216467286],
        [0.240667166584153, 51.521955186376985],
        [0.240645154727733, 51.52141872619865],
        [0.240696717378699, 51.52120640605817],
        [0.243269583527623, 51.520790305894856],
        [0.243469396083708, 51.52074961239408],
        [0.244271584726116, 51.520470769234365],
        [0.24441501667865, 51.520368202159844],
        [0.244495276032236, 51.52030011802231],
        [0.244637761162631, 51.520149006669364],
        [0.244411746329811, 51.520008545375674],
        [0.244200549640445, 51.51975898497324],
        [0.244504274913222, 51.51951575751623],
        [0.244925588280215, 51.51902566910211],
        [0.244912571065806, 51.51879030203667],
        [0.244877858027643, 51.5187585917831],
        [0.24419434989371, 51.51843083966326],
        [0.243908629690124, 51.518336484914116],
        [0.240323007206652, 51.519319624437706],
        [0.240167400790835, 51.51935047520103],
        [0.23788221680539, 51.519370723172905],
        [0.237148122312304, 51.5193334693982],
        [0.239364148414504, 51.51602312543158],
        [0.239510562327378, 51.515687589063155],
        [0.2409582867095, 51.51396745262824],
        [0.241114427371409, 51.513742341905626],
        [0.2408942593739, 51.51360266155415],
        [0.24079957246151, 51.513435402740186],
        [0.239965745726688, 51.5132435949536],
        [0.239946277039763, 51.51305241620078],
        [0.240140943491875, 51.51255498261429],
        [0.2402190346087, 51.51226661447225],
        [0.240344117836588, 51.51093865813249],
        [0.240278882165766, 51.51075464883136],
        [0.240443730700565, 51.51076588815532],
        [0.240540814741238, 51.51051222947726],
        [0.240547925786964, 51.51051029500968],
        [0.241183529816145, 51.51054041597936],
        [0.241474248977948, 51.51062029275629],
        [0.241413886528778, 51.51041820491347],
        [0.241897677828764, 51.50911756261023],
        [0.242013941574421, 51.50860903409229],
        [0.242002472005236, 51.50837543548201],
        [0.241989414529919, 51.50810949243515],
        [0.241847904475808, 51.50807442736534],
        [0.241891254465801, 51.50795938752044],
        [0.240502556101189, 51.50776470169392],
        [0.239970815301171, 51.50770651362505],
        [0.239868006635962, 51.50731458430002],
        [0.239818644183332, 51.50727775660876],
        [0.234832378064982, 51.50695202173979],
        [0.234602756271784, 51.50694200899803],
        [0.23373923480232, 51.50675881729948],
        [0.233413516484075, 51.50666969588382],
        [0.229458584278628, 51.506804310406686],
        [0.228928234134154, 51.506803601027485],
        [0.226617966326564, 51.50659209168957],
        [0.22660465825344, 51.506585150007105],
        [0.226514594487356, 51.50651131912703],
        [0.226367977003331, 51.50592776080476],
        [0.226034461192591, 51.50579650005776],
        [0.226003521051077, 51.50575302181888],
        [0.226572531743239, 51.50474399798402],
        [0.226586005454352, 51.50448834150275],
        [0.227439184387773, 51.50336779954159],
        [0.227521693183499, 51.50322774023368],
        [0.227782144267167, 51.50248177033261],
        [0.228044006749978, 51.50203074282562],
        [0.229546659531703, 51.49993019603513],
        [0.229936925877997, 51.499365209191],
        [0.228252477848195, 51.49897905782449],
        [0.227879228299876, 51.498859349178296],
        [0.225878271331366, 51.49780200533594],
        [0.225698367336976, 51.49771728913233],
        [0.224332131829082, 51.49732504121337],
        [0.224269579490875, 51.49731273836106],
        [0.223595287618676, 51.497845322210864],
        [0.223578065369829, 51.49790590181183],
        [0.221756912947394, 51.497817219929814],
        [0.221625441165431, 51.49780981874983],
        [0.220087510980248, 51.49753048894966],
        [0.219639880259239, 51.49745083239659],
        [0.219569515838646, 51.497307377419],
        [0.219507967641144, 51.497286060045276],
        [0.21881620103377, 51.497193035461954],
        [0.218351912839869, 51.49709660257691],
        [0.217097990007058, 51.49661221610564],
        [0.216997143259922, 51.496582647528214],
        [0.215106959043941, 51.49652484476125],
        [0.214993988414081, 51.49648291334566],
        [0.214248005201447, 51.496073434118344],
        [0.214128187761727, 51.496038825556376],
        [0.213672657439737, 51.49531989506006],
        [0.213515138835586, 51.495012611233875],
        [0.213175662133133, 51.49502351601307],
        [0.213045900023629, 51.49502146878144],
        [0.212831105553746, 51.494423892719865],
        [0.21282181987828, 51.49438090168614],
        [0.212817181853501, 51.493333307575014],
        [0.212809727415187, 51.493298375653225],
        [0.212250101561048, 51.49251125897892],
        [0.212124327819314, 51.492412910675704],
        [0.211961925319208, 51.49126037706233],
        [0.211903903818439, 51.49104384160389],
        [0.211475503965897, 51.49091343084875],
        [0.211411567942557, 51.49090204660095],
        [0.211352784087314, 51.49055063059211],
        [0.211304384595023, 51.49047330452076],
        [0.210525402116484, 51.490242485458005]
      ]
    ]
  }
}
