{
  "type": "Feature",
  "properties": {
    "name": "Hillingdon",
    "level": 2,
    "londonBorough": true
  },
  "geometry": {
    "type": "Polygon",
    "coordinates": [
      [
        [-0.458660936760938, 51.45631531644915],
        [-0.459722866759883, 51.45679507019276],
        [-0.459855126315066, 51.456842668048694],
        [-0.461170428383402, 51.45719355029182],
        [-0.461299250824346, 51.457215023864194],
        [-0.46665866228615, 51.457841853327324],
        [-0.466780626655815, 51.457853339696356],
        [-0.468992137598019, 51.45792180294636],
        [-0.469607569149463, 51.457983790696964],
        [-0.473540290968802, 51.45862314736137],
        [-0.473580247597096, 51.45863355899038],
        [-0.475166971879245, 51.45961277674149],
        [-0.475896869595085, 51.46008536645623],
        [-0.476312723079724, 51.46060872367479],
        [-0.476318239093662, 51.460615989138965],
        [-0.47616035502691, 51.46064541021303],
        [-0.475915599810657, 51.46068988797624],
        [-0.476120230320407, 51.46094253163851],
        [-0.476138456749092, 51.460957156082884],
        [-0.477052016882452, 51.46131882298094],
        [-0.477140689487454, 51.461336160661695],
        [-0.478060326904371, 51.46142903087424],
        [-0.478934964724967, 51.461446674621506],
        [-0.485630783504184, 51.46129684691488],
        [-0.485882143727993, 51.46131358129936],
        [-0.488818178844202, 51.46181006032723],
        [-0.48882819185316, 51.46181198781588],
        [-0.489595206400026, 51.46177601002363],
        [-0.489629473231218, 51.46178454441068],
        [-0.490317220080356, 51.4623185466398],
        [-0.490329962835288, 51.46232500525283],
        [-0.491979949611224, 51.46284080871601],
        [-0.492228998001319, 51.46297170082391],
        [-0.492622915143666, 51.462987556013616],
        [-0.492873351907596, 51.46298897670952],
        [-0.493717383810869, 51.46271297043966],
        [-0.49388118665904, 51.462722268283315],
        [-0.494330069052559, 51.46338626300703],
        [-0.494558044288105, 51.46363287904149],
        [-0.497052855684957, 51.46573578767982],
        [-0.497005077759865, 51.465875453707106],
        [-0.497559383058408, 51.466181098392106],
        [-0.498137140798964, 51.46643038989729],
        [-0.499839225659188, 51.46698901186714],
        [-0.500368764270217, 51.46712886972102],
        [-0.503295760444788, 51.467653642567385],
        [-0.50341899417704, 51.46767140136429],
        [-0.505405226063375, 51.46777676445458],
        [-0.505475683740278, 51.467779460897205],
        [-0.506485965541862, 51.46765924809704],
        [-0.506515129178388, 51.46764792967987],
        [-0.507169781998285, 51.46708705970201],
        [-0.507336591146668, 51.46691653302821],
        [-0.508493800767575, 51.46705804759583],
        [-0.508800711218013, 51.467094322778664],
        [-0.509516198487419, 51.46736059592222],
        [-0.510296146839783, 51.4675044905531],
        [-0.510363628818019, 51.46795225970021],
        [-0.510375068656281, 51.46808728787864],
        [-0.510209562991985, 51.468571662802],
        [-0.510172959254899, 51.468767227497544],
        [-0.509720549769252, 51.46917511957174],
        [-0.509689361079225, 51.46920439742703],
        [-0.508853660240698, 51.469312470527235],
        [-0.508805552588238, 51.46933074237899],
        [-0.507910663901817, 51.469929029688856],
        [-0.507798207386141, 51.47002201673343],
        [-0.506930530092754, 51.47093267185364],
        [-0.506834312664558, 51.47105733740041],
        [-0.506080770909581, 51.47226348404823],
        [-0.505961462604567, 51.472477776591184],
        [-0.505209222350879, 51.47425943409636],
        [-0.505154380485511, 51.47443947797588],
        [-0.5045832402921, 51.4772422538651],
        [-0.504535265873028, 51.47743227636825],
        [-0.504292848350585, 51.47775560101809],
        [-0.504244813342544, 51.477947421058445],
        [-0.504244203446516, 51.478758508014955],
        [-0.504207506367754, 51.47895586793052],
        [-0.503514086758746, 51.48051885457951],
        [-0.503221311869802, 51.4810159826335],
        [-0.50197433122852, 51.482856945733644],
        [-0.501726199872423, 51.483133432710964],
        [-0.499299954865615, 51.48548803595269],
        [-0.499102341556975, 51.485672544405766],
        [-0.49891785728461, 51.48567647784388],
        [-0.498896846005863, 51.485702286225674],
        [-0.498984079416563, 51.48589673448353],
        [-0.498980491761148, 51.485918269787035],
        [-0.49871885702067, 51.4860785785444],
        [-0.498713622915285, 51.48610638728648],
        [-0.499082280774435, 51.486239693912154],
        [-0.499091856902336, 51.48625510316004],
        [-0.498974829917822, 51.48666095093892],
        [-0.498979909911045, 51.4866816979552],
        [-0.499660759121075, 51.486782129959245],
        [-0.499695099768736, 51.48683292543085],
        [-0.499567862786301, 51.486935606912176],
        [-0.499555253521114, 51.486968716636255],
        [-0.499648746606142, 51.487192019371],
        [-0.499613715500842, 51.487250020345535],
        [-0.499051610522786, 51.487831815306585],
        [-0.499043585460261, 51.48785689068603],
        [-0.499232608866749, 51.488022067925904],
        [-0.499237925194078, 51.488035624212],
        [-0.499197773088358, 51.48855665635726],
        [-0.499188367231825, 51.488579915640535],
        [-0.498882249236255, 51.4884276271814],
        [-0.498847665573107, 51.488428083753654],
        [-0.498549224652139, 51.48861219989865],
        [-0.49852474870406, 51.48861188655689],
        [-0.4983473025907, 51.488445057988585],
        [-0.49832685072165, 51.48845378829995],
        [-0.497997367414797, 51.48888119344225],
        [-0.498018720254923, 51.48893272227599],
        [-0.498357177586883, 51.48897752098326],
        [-0.498401574334072, 51.48898528314658],
        [-0.498658462599006, 51.48923315888696],
        [-0.498648938231804, 51.489260013477555],
        [-0.497489663005855, 51.489822465248096],
        [-0.497401295360244, 51.48988158069595],
        [-0.497392627006906, 51.48988236885737],
        [-0.497057098270519, 51.489704520792394],
        [-0.496748905695308, 51.48979049275715],
        [-0.496669974141661, 51.48982544973855],
        [-0.496445705106168, 51.49003119326312],
        [-0.496447845546811, 51.49005370113157],
        [-0.496790265585684, 51.490153407366925],
        [-0.496965094712378, 51.49018082605931],
        [-0.496857213873731, 51.49039525558434],
        [-0.496780768039907, 51.49048599595619],
        [-0.496041924434779, 51.490526880163465],
        [-0.496005426135421, 51.49054169882685],
        [-0.495568687539022, 51.4910756277983],
        [-0.495472287346562, 51.49115981684687],
        [-0.49502376618758, 51.491263766887414],
        [-0.494961546547767, 51.491316022294676],
        [-0.494921887119168, 51.49164552603623],
        [-0.494936482397695, 51.49168348044618],
        [-0.495367984291658, 51.492009138114035],
        [-0.495368240554344, 51.49204511007991],
        [-0.494937310855034, 51.49240196545761],
        [-0.494909213172466, 51.492424085318795],
        [-0.494849710917296, 51.49265621892195],
        [-0.494814413597445, 51.49267824636685],
        [-0.492786524823416, 51.49275561415707],
        [-0.49274476806125, 51.49275507754786],
        [-0.492368075230605, 51.49295166069298],
        [-0.49223997086779, 51.492992277147565],
        [-0.491552800829825, 51.493037394390775],
        [-0.491503518012995, 51.493046651935515],
        [-0.491100056732863, 51.49348657459731],
        [-0.490952994488812, 51.49362136356065],
        [-0.490482424836304, 51.493824825769316],
        [-0.490455585919462, 51.49385235607573],
        [-0.490491970221652, 51.494102806713606],
        [-0.490485082347307, 51.494136888316014],
        [-0.490273753588522, 51.494254663387615],
        [-0.490258701004195, 51.494274252407166],
        [-0.48999523194323, 51.49483646827234],
        [-0.489938078374193, 51.49490946824732],
        [-0.48957527998746, 51.49512060885009],
        [-0.489552106064021, 51.49516796892215],
        [-0.489698547849307, 51.49540095348032],
        [-0.489700477223679, 51.495429753268205],
        [-0.488692996316782, 51.495967995957066],
        [-0.488683821332089, 51.49598406364099],
        [-0.488771558336224, 51.4963367879647],
        [-0.488781218932028, 51.49643672551713],
        [-0.488606029719176, 51.496768077651446],
        [-0.488621615377112, 51.49681953384883],
        [-0.489094085931149, 51.49738763154498],
        [-0.48913324780549, 51.49742320546255],
        [-0.489488413132148, 51.4975743522518],
        [-0.489490461283526, 51.49759955669616],
        [-0.489341497314004, 51.497660583373616],
        [-0.489306252887162, 51.49768081142093],
        [-0.489284288624399, 51.49795299117994],
        [-0.489259732284136, 51.49799853494213],
        [-0.488852238134118, 51.49851483129738],
        [-0.488855696308491, 51.498540953133315],
        [-0.489550698759519, 51.49861015270337],
        [-0.489592163703417, 51.49861967883236],
        [-0.48978255998137, 51.49891797269677],
        [-0.489763704509299, 51.49896538839271],
        [-0.488913463521181, 51.49975653890358],
        [-0.488880711048009, 51.499788488742205],
        [-0.488800213407312, 51.50017501392294],
        [-0.488764639765758, 51.50020512894837],
        [-0.48830206785741, 51.50042577071224],
        [-0.488270147152867, 51.5004325530417],
        [-0.488034018175889, 51.50029732466743],
        [-0.488001133300725, 51.50028970703174],
        [-0.487528666133804, 51.50033037490986],
        [-0.487477636973488, 51.500348600438656],
        [-0.487319776304982, 51.50050392758259],
        [-0.48730982619695, 51.50054336478612],
        [-0.487341894769149, 51.50096730930298],
        [-0.487312705044638, 51.500978622675056],
        [-0.486212235474477, 51.50088349582685],
        [-0.486186889469778, 51.50090924599095],
        [-0.486268448306384, 51.5017960267841],
        [-0.486260324293417, 51.50182379764921],
        [-0.485193214852345, 51.502590541210516],
        [-0.485168224934097, 51.502605505156595],
        [-0.485140591449251, 51.502874013971535],
        [-0.485133698129011, 51.50290809516652],
        [-0.484869075696452, 51.503110597847325],
        [-0.484824378950423, 51.50315498130302],
        [-0.48494447054646, 51.50335705776069],
        [-0.484933643841109, 51.50337939832509],
        [-0.484691455865861, 51.50355701232351],
        [-0.484679248388964, 51.50357753659432],
        [-0.485138201358903, 51.50385862492821],
        [-0.485161701809921, 51.503888602562654],
        [-0.485180076147227, 51.50407317917527],
        [-0.4851599820574, 51.5041142836152],
        [-0.484862713281876, 51.50434513957662],
        [-0.484857229948978, 51.504380138178355],
        [-0.485253635019064, 51.50467930156778],
        [-0.485064778841629, 51.50507341687627],
        [-0.484802737002607, 51.505197720931484],
        [-0.4847861188572, 51.50522088588334],
        [-0.484716373639084, 51.505585965844084],
        [-0.484667681372108, 51.50562040624387],
        [-0.483969201330431, 51.505609582371385],
        [-0.483941358597217, 51.50562360997107],
        [-0.483698375066959, 51.506432461290544],
        [-0.483680226082135, 51.50645830394497],
        [-0.483210655142562, 51.50662668081254],
        [-0.483194155039668, 51.50664625020218],
        [-0.483207457575385, 51.507200339240185],
        [-0.483232189847616, 51.50723662768306],
        [-0.483978830486238, 51.507577191261504],
        [-0.483996481140001, 51.50760979114933],
        [-0.4839891940043, 51.50778594325911],
        [-0.483973776188102, 51.50781631733182],
        [-0.483609740174653, 51.50788714599879],
        [-0.483527975987772, 51.507919359959786],
        [-0.483500543676464, 51.50805119002825],
        [-0.483532120376584, 51.508098357474964],
        [-0.484029826476306, 51.50825495977745],
        [-0.484161066658953, 51.50833848444137],
        [-0.484261953916924, 51.50864192457299],
        [-0.484304667151987, 51.50870092550665],
        [-0.485515216439586, 51.509610381285995],
        [-0.485837463214256, 51.509800678910416],
        [-0.485505600168744, 51.50981347979588],
        [-0.485556183730704, 51.51002634767822],
        [-0.485570031705072, 51.5100867738855],
        [-0.485724992512763, 51.510193982572495],
        [-0.48574483079363, 51.510204130032044],
        [-0.486076288510689, 51.51011668836306],
        [-0.486298304267655, 51.51015732054258],
        [-0.486402786205417, 51.510483285422424],
        [-0.486816580494165, 51.51047693418641],
        [-0.48735432750391, 51.51086154004791],
        [-0.488676616301676, 51.511315602036454],
        [-0.488760414450274, 51.511352650233974],
        [-0.489753535945531, 51.511476943078165],
        [-0.489806698883849, 51.51152528589339],
        [-0.489990462299171, 51.51202581643707],
        [-0.48999522797197, 51.512099613378325],
        [-0.489728519803863, 51.51245136964736],
        [-0.489733326538332, 51.51265465401637],
        [-0.489937227681373, 51.513330790608585],
        [-0.489941725884258, 51.5134126770228],
        [-0.489570628584674, 51.51404454317115],
        [-0.489581112587002, 51.514076150662625],
        [-0.490467079118755, 51.51487166957505],
        [-0.49059490436038, 51.51497222792765],
        [-0.491157893310889, 51.51520607249982],
        [-0.491219675891958, 51.515255424699184],
        [-0.491750302063306, 51.51585842705306],
        [-0.491812428417511, 51.51594105426028],
        [-0.49232302000326, 51.517020379557955],
        [-0.492350022828309, 51.51707557862892],
        [-0.49163562048862, 51.51893765852102],
        [-0.491610787525299, 51.5189912920292],
        [-0.490685592428531, 51.519641213402004],
        [-0.49059421666492, 51.519702083475195],
        [-0.490418339078684, 51.52000825061268],
        [-0.490387115877613, 51.52016790881163],
        [-0.490406924223322, 51.52061507273953],
        [-0.490449537455679, 51.52067766679771],
        [-0.491186009431444, 51.521203289522035],
        [-0.491193629555352, 51.521278022217814],
        [-0.490578329016918, 51.52236265101503],
        [-0.490542708290109, 51.52248088882088],
        [-0.490604730949063, 51.52322083989111],
        [-0.490607374065494, 51.52331529125315],
        [-0.490290679192685, 51.52447929371122],
        [-0.490277144914463, 51.524583428223224],
        [-0.490783885708543, 51.525650119917586],
        [-0.490834569877245, 51.52577396403956],
        [-0.490878523335958, 51.52623222859965],
        [-0.490839869159666, 51.526442147081546],
        [-0.490659152601473, 51.52680670092434],
        [-0.490618938961796, 51.52684574890564],
        [-0.490037705916718, 51.527072064809644],
        [-0.489942169707959, 51.52712748555527],
        [-0.489573758661199, 51.52750041226556],
        [-0.48947616866937, 51.52761785184864],
        [-0.488969954607363, 51.528800091867375],
        [-0.488991319430986, 51.5290692314936],
        [-0.489845904546256, 51.530298667095586],
        [-0.48990770331858, 51.53043524354519],
        [-0.490134285521399, 51.5320405551651],
        [-0.490149186374298, 51.532069521699455],
        [-0.490426430385242, 51.53218728910853],
        [-0.490457421750604, 51.53220926893845],
        [-0.490463360206134, 51.532465620656545],
        [-0.490494411233629, 51.53248580281918],
        [-0.490837283688015, 51.532493810569584],
        [-0.49085827663638, 51.53251296404485],
        [-0.491171731203545, 51.53314914123929],
        [-0.491209513276501, 51.533271020659875],
        [-0.491110532205024, 51.533648315736095],
        [-0.491045886853443, 51.533728413360706],
        [-0.490502213768874, 51.53412426651944],
        [-0.490502614391729, 51.5341557440713],
        [-0.491185546454667, 51.53430120864952],
        [-0.491228069191822, 51.53432333655197],
        [-0.491542609959297, 51.5348399313727],
        [-0.49161652847596, 51.534915516232964],
        [-0.493266566175905, 51.53577118557215],
        [-0.493349522327284, 51.53583519562841],
        [-0.493815247265954, 51.53627189718767],
        [-0.493958238905522, 51.53643918749955],
        [-0.494444141877011, 51.537357223117866],
        [-0.494499184069541, 51.53743705992231],
        [-0.495510470966221, 51.538427473380196],
        [-0.495508089183883, 51.538543440964055],
        [-0.494789472515909, 51.53912770299674],
        [-0.494675629945349, 51.5392566279754],
        [-0.493899063511927, 51.540285250147136],
        [-0.493810015879073, 51.540405500454625],
        [-0.493631147605186, 51.54097510184192],
        [-0.493605693979214, 51.54100354977864],
        [-0.49182765302959, 51.541571489863145],
        [-0.491806433093987, 51.54160268946249],
        [-0.492124822417522, 51.542397187223756],
        [-0.492118864142792, 51.542446567204365],
        [-0.491526977892444, 51.54394873283607],
        [-0.491506425363595, 51.544003320411754],
        [-0.490812898969754, 51.54495835521577],
        [-0.490801351158241, 51.54500226796625],
        [-0.490921472118405, 51.545163872245496],
        [-0.490976919148954, 51.545187964791914],
        [-0.491558707689776, 51.54530065300951],
        [-0.49158523514091, 51.54532707111254],
        [-0.491413377340372, 51.54607570171827],
        [-0.49137579234113, 51.54612197738833],
        [-0.491225511614126, 51.546218058965046],
        [-0.49119500071875, 51.54622486031813],
        [-0.490124152079141, 51.546116668801425],
        [-0.48999843794192, 51.54612404317395],
        [-0.489497656667282, 51.54626506803852],
        [-0.489394543823431, 51.546330282133475],
        [-0.489261123422899, 51.546483228481776],
        [-0.489256632775384, 51.54653172798801],
        [-0.489543051377075, 51.5471154055132],
        [-0.489535171767943, 51.54717914796213],
        [-0.488236167599512, 51.54738362472086],
        [-0.488169775873723, 51.54742862902371],
        [-0.487748756122446, 51.548077828369024],
        [-0.487692476706249, 51.54820928685077],
        [-0.487499864353879, 51.54901609285921],
        [-0.487407790766345, 51.54918305818799],
        [-0.486742642040753, 51.54992981812473],
        [-0.486618080637638, 51.55003251998889],
        [-0.485689274358443, 51.55059603135801],
        [-0.485530883666466, 51.55067491605653],
        [-0.48489699136754, 51.55086995440383],
        [-0.484792987117045, 51.5509180679961],
        [-0.484295510143074, 51.55143498309742],
        [-0.484248747325325, 51.55145326245694],
        [-0.482798399100484, 51.551476781786434],
        [-0.482685890375294, 51.55152028751461],
        [-0.479759261487696, 51.55403256661141],
        [-0.478903116603183, 51.55483435730024],
        [-0.47851366087339, 51.554661156151944],
        [-0.478058835396508, 51.554934013038135],
        [-0.477768932063186, 51.554846626232916],
        [-0.47773946521774, 51.55486512738142],
        [-0.477350901835171, 51.55527012570133],
        [-0.477339848478756, 51.555298756981685],
        [-0.477279463317315, 51.55611355643958],
        [-0.477209632831363, 51.55651999215136],
        [-0.476857520558808, 51.55704235904656],
        [-0.476816097026196, 51.55711645574977],
        [-0.476892978794873, 51.55766507211571],
        [-0.47688429798524, 51.5577090206977],
        [-0.476629440829182, 51.55799705632411],
        [-0.476616824267382, 51.55802926407329],
        [-0.476998410453831, 51.558697833423274],
        [-0.477003908951392, 51.55874915970288],
        [-0.476641621651114, 51.5591868681523],
        [-0.476654269613775, 51.55924008567329],
        [-0.477357851837669, 51.559900244181065],
        [-0.477519997802145, 51.56027192277267],
        [-0.47918745293327, 51.56045180472623],
        [-0.479318046848137, 51.5604723804635],
        [-0.480401992967564, 51.560802943010415],
        [-0.480442070181077, 51.560812454051444],
        [-0.481112634059056, 51.56073391187563],
        [-0.481149228447158, 51.56076136176463],
        [-0.481217960808425, 51.56099334788382],
        [-0.48120841033005, 51.56102020053128],
        [-0.480737079805726, 51.56165703352106],
        [-0.480734953184698, 51.5617208497801],
        [-0.481584946244999, 51.562406256971094],
        [-0.482814798162173, 51.562819613291296],
        [-0.482730578170575, 51.56318270365662],
        [-0.482577829360657, 51.56356738806986],
        [-0.482284186611049, 51.563850438146844],
        [-0.482266228508531, 51.563913150448684],
        [-0.483178433344132, 51.564898786249564],
        [-0.483219730901317, 51.56500182968028],
        [-0.483241047663061, 51.5650983204023],
        [-0.48324261610205, 51.56513790580739],
        [-0.483038037768947, 51.56512896712363],
        [-0.482827926598098, 51.56550301899263],
        [-0.482599823301407, 51.565723972562274],
        [-0.483469085433789, 51.56639702541131],
        [-0.483535792685665, 51.56643025887127],
        [-0.484733069485323, 51.56678562401916],
        [-0.484771658952573, 51.56684007469346],
        [-0.484386188620731, 51.568148838816526],
        [-0.484303471983301, 51.56833660403633],
        [-0.484581998049171, 51.56876912259818],
        [-0.484584621502892, 51.56882041126907],
        [-0.484138587481974, 51.57017065494932],
        [-0.484117445645551, 51.57024231841691],
        [-0.484024310883667, 51.57104680463838],
        [-0.484033861146985, 51.571193498684295],
        [-0.485035504124556, 51.57222883039636],
        [-0.485082304624246, 51.57229687498387],
        [-0.485550063748954, 51.57380998150931],
        [-0.485554877669154, 51.57383881822298],
        [-0.48463521464767, 51.57424238076405],
        [-0.484562800657479, 51.57429359972137],
        [-0.484015125187501, 51.575053549608484],
        [-0.484047382526509, 51.57512500354473],
        [-0.484204224106715, 51.57531226572588],
        [-0.484269592021404, 51.57534278374067],
        [-0.485014634603499, 51.57533082232369],
        [-0.4851896922373, 51.57536095725663],
        [-0.486053020787027, 51.57578483228102],
        [-0.486191331426477, 51.5758351734221],
        [-0.487376408818193, 51.576087842991114],
        [-0.487620006428863, 51.57618360039724],
        [-0.488127552547643, 51.57650126459668],
        [-0.488157856754632, 51.57654481682112],
        [-0.488141879683159, 51.57693936221218],
        [-0.488202179420682, 51.5769922928544],
        [-0.488881736910034, 51.57721505503402],
        [-0.488956433613829, 51.57726906984614],
        [-0.489499522630528, 51.57821303233545],
        [-0.489501645390263, 51.57827960083328],
        [-0.488585964371522, 51.57951860708699],
        [-0.488574058571524, 51.57961646711828],
        [-0.488721845396561, 51.58020824858291],
        [-0.48893491998065, 51.5807028570085],
        [-0.489452102502487, 51.581515201603445],
        [-0.489624065362551, 51.58177009108738],
        [-0.490854673302061, 51.58270131045843],
        [-0.491058526112745, 51.582821727111124],
        [-0.492928095259364, 51.58359388495719],
        [-0.49321840435427, 51.583719004663934],
        [-0.494638033591338, 51.5845249228961],
        [-0.494723162688211, 51.58461323742201],
        [-0.495119854166765, 51.58531970292665],
        [-0.49513381254474, 51.58542149188893],
        [-0.494953923485507, 51.58649733041304],
        [-0.494962479129932, 51.586544198693225],
        [-0.495285557532384, 51.58698895046602],
        [-0.495356934604979, 51.58710046746189],
        [-0.495634229460297, 51.587882731698656],
        [-0.495762292194784, 51.58811366972117],
        [-0.496485018002396, 51.58856533726314],
        [-0.496527504448133, 51.58859015994491],
        [-0.497113481320092, 51.58920552519097],
        [-0.497230417603779, 51.58933650754033],
        [-0.49759014512408, 51.589896819709814],
        [-0.4976888696983, 51.5900986054815],
        [-0.497872832118835, 51.590779857743854],
        [-0.497933340029695, 51.590958674142094],
        [-0.498385225253331, 51.591001323078956],
        [-0.49855116979546, 51.591003445815254],
        [-0.498813878688926, 51.59117945272645],
        [-0.498842996659815, 51.59121579320422],
        [-0.498597925396872, 51.59177466030011],
        [-0.498641455951935, 51.59189930699487],
        [-0.499287597007488, 51.591961521667486],
        [-0.499370700230637, 51.59198056813681],
        [-0.499563212686765, 51.592140389449895],
        [-0.499576310418184, 51.592181020967296],
        [-0.499441184174614, 51.59255785777748],
        [-0.499408015547111, 51.592600595467786],
        [-0.498849418512069, 51.59299179977582],
        [-0.498803400826686, 51.593073937870265],
        [-0.49859046206548, 51.59414666011538],
        [-0.498589400387351, 51.594441584778984],
        [-0.499384491751541, 51.59524215004347],
        [-0.499422589091416, 51.59531277479352],
        [-0.499515982539543, 51.59593981299878],
        [-0.499525973527596, 51.596381448694814],
        [-0.500521812476402, 51.59840928372161],
        [-0.500565827889254, 51.59851954848995],
        [-0.500562205394497, 51.599418703323146],
        [-0.500579710190537, 51.59954481505634],
        [-0.500902587192286, 51.6001316209132],
        [-0.500902580297294, 51.600175681669334],
        [-0.500306344865187, 51.60126868802996],
        [-0.500252408957754, 51.60128418459621],
        [-0.4993361404749, 51.60139656491185],
        [-0.499215138137247, 51.60138782442826],
        [-0.498346548415011, 51.600973874791876],
        [-0.498216215115208, 51.60094163468396],
        [-0.497733309225393, 51.60087341103095],
        [-0.497658108890691, 51.60087694466926],
        [-0.497301016882764, 51.601021641556315],
        [-0.497053506674183, 51.60112727632112],
        [-0.496707401172539, 51.60137641940256],
        [-0.496687569482621, 51.6014085366815],
        [-0.496752197281126, 51.60163776135958],
        [-0.496750980437776, 51.60167461302153],
        [-0.496366201228208, 51.60235127956255],
        [-0.496334406383536, 51.60239583236276],
        [-0.496380400050935, 51.60257716087738],
        [-0.496420832576582, 51.60262084039333],
        [-0.497160795003876, 51.60316983605726],
        [-0.497185173561441, 51.60321870498547],
        [-0.49745434599617, 51.60411955280042],
        [-0.497474404195442, 51.60425558882255],
        [-0.497273711520557, 51.604867174019695],
        [-0.497284161133689, 51.60490057820079],
        [-0.497866991499095, 51.60605541698557],
        [-0.497964920386426, 51.6062823692593],
        [-0.498544887629828, 51.6081817052427],
        [-0.498591705336808, 51.60829470399662],
        [-0.49925609746582, 51.60886160209876],
        [-0.499252549648564, 51.60892539993198],
        [-0.498359491687864, 51.609423826657675],
        [-0.498337591174517, 51.60947480091923],
        [-0.498982243028188, 51.610115182271855],
        [-0.498997114765188, 51.61014594520046],
        [-0.498841707596335, 51.61056658199557],
        [-0.498827786857642, 51.61063833996366],
        [-0.49895618796886, 51.61103652871985],
        [-0.498966957251615, 51.611104106374185],
        [-0.498535631904486, 51.611526609861215],
        [-0.498500974932776, 51.61157022740003],
        [-0.498577672230338, 51.61209094556293],
        [-0.498571443363405, 51.6121484146655],
        [-0.4979627873839, 51.61312974847969],
        [-0.497914531906183, 51.61323523661739],
        [-0.497936421571886, 51.61414730469977],
        [-0.497907200458115, 51.6142449435526],
        [-0.497701890184519, 51.61464515781995],
        [-0.497670740644599, 51.614669936805946],
        [-0.497087650508278, 51.6148755842633],
        [-0.497064717688412, 51.61491395625954],
        [-0.4968817623655, 51.61542415755659],
        [-0.496711284928347, 51.61586258239333],
        [-0.49613553142246, 51.61676339994934],
        [-0.496106286825577, 51.61681787648868],
        [-0.496081741783457, 51.61725457276207],
        [-0.496057945304636, 51.617319010261625],
        [-0.495410452801602, 51.61868469020982],
        [-0.495409833144613, 51.61879078772106],
        [-0.49595310723105, 51.61957285771659],
        [-0.496031499521451, 51.61964849539533],
        [-0.496687267215047, 51.61999948827891],
        [-0.496722385000354, 51.620029611468155],
        [-0.496826512938307, 51.62041939834706],
        [-0.496829704964758, 51.62049766947145],
        [-0.499117050746469, 51.62104756701379],
        [-0.499281236978873, 51.62110631518813],
        [-0.500088251713268, 51.621953780694206],
        [-0.50017557750145, 51.62206549755947],
        [-0.500065648102833, 51.62259551916685],
        [-0.500046296668347, 51.62270047808989],
        [-0.500116165724634, 51.6235169429408],
        [-0.500045938656071, 51.62367520379275],
        [-0.49981942485231, 51.6240167025579],
        [-0.499765542099459, 51.62407356274023],
        [-0.498447308959635, 51.624707731011235],
        [-0.498362534502378, 51.624781280249074],
        [-0.498396154204335, 51.62520703066115],
        [-0.498392108845223, 51.62524204762955],
        [-0.497891155770934, 51.62575627532297],
        [-0.497840888419728, 51.62583476161908],
        [-0.497692948640516, 51.62642094400628],
        [-0.497654398668247, 51.62666952844901],
        [-0.500251673806536, 51.6286521909117],
        [-0.500289066526283, 51.62870122513999],
        [-0.500328108491971, 51.62891932942457],
        [-0.500289602802172, 51.62899167256755],
        [-0.49976529744026, 51.62929339933768],
        [-0.499732220208005, 51.629332541374716],
        [-0.499651192799403, 51.62994925424919],
        [-0.499617038741813, 51.63006481421517],
        [-0.499394385755359, 51.63037578862294],
        [-0.499282686147486, 51.63047686949952],
        [-0.497645049657242, 51.631457633138005],
        [-0.497424458098598, 51.631574403723874],
        [-0.496714972211214, 51.631750557231975],
        [-0.496603435231846, 51.63175902039681],
        [-0.496154571228909, 51.63170021994134],
        [-0.496080508739414, 51.63166779949372],
        [-0.495629228320086, 51.63120162987269],
        [-0.495555434623954, 51.63116111975668],
        [-0.494169174563681, 51.631048934562926],
        [-0.494124878594356, 51.631033979339726],
        [-0.493629969616879, 51.630577133498875],
        [-0.493568581496579, 51.630554765209595],
        [-0.493193508779979, 51.63066774749568],
        [-0.493137123441998, 51.63066882230759],
        [-0.492421299213502, 51.63051306474799],
        [-0.492361995769859, 51.63051500091793],
        [-0.491874729719185, 51.63065621193766],
        [-0.491557630865387, 51.63076363922693],
        [-0.489107254023048, 51.62767216461426],
        [-0.48904781290128, 51.62759137109935],
        [-0.488147109868147, 51.6269143705092],
        [-0.487879189725247, 51.62675985515478],
        [-0.483918273371294, 51.624835747346964],
        [-0.483737514404579, 51.62475428369346],
        [-0.482690149367453, 51.624450312250254],
        [-0.482474467244399, 51.62437648811204],
        [-0.480817852604539, 51.62358535067096],
        [-0.480734222774289, 51.623623833346514],
        [-0.478821109749152, 51.622599152945405],
        [-0.47834982522648, 51.62239342371096],
        [-0.47692724099987, 51.62199461684392],
        [-0.476712332429476, 51.62189831201892],
        [-0.475781395538376, 51.62114079340268],
        [-0.475633819557784, 51.62097522302782],
        [-0.472941386722068, 51.619247040678076],
        [-0.47296945802934, 51.619185360925805],
        [-0.471107320308587, 51.61824484099713],
        [-0.470751894701856, 51.618032496586395],
        [-0.469190510084196, 51.61682790058742],
        [-0.468926077481571, 51.61670216104079],
        [-0.463901939342674, 51.614575562766],
        [-0.463261570847567, 51.61433428904312],
        [-0.457399435921808, 51.61236009190824],
        [-0.457151909754565, 51.61229119740726],
        [-0.455577595737727, 51.612632876618875],
        [-0.455368834759946, 51.61269846961986],
        [-0.449191414714649, 51.61516087906585],
        [-0.4488999189242, 51.615322481736925],
        [-0.448200361010154, 51.615844666670306],
        [-0.448131373535557, 51.615919287907026],
        [-0.446967094594623, 51.61795317752214],
        [-0.446498770062936, 51.618681630874676],
        [-0.445628455783584, 51.61959089613023],
        [-0.445569626281497, 51.61962158938166],
        [-0.443369699250616, 51.619492630899785],
        [-0.443277015275771, 51.61949949485373],
        [-0.442515972289772, 51.61957752352733],
        [-0.442143206454271, 51.61962203414898],
        [-0.440707194814788, 51.620048077035236],
        [-0.440596659074579, 51.62006998825253],
        [-0.438462040139691, 51.61993191397338],
        [-0.438303584369806, 51.61991901592609],
        [-0.43621107402618, 51.61927071268093],
        [-0.436122706679157, 51.619194002476874],
        [-0.432923438267259, 51.61838791910036],
        [-0.432751573120351, 51.61834516077623],
        [-0.428573475742461, 51.61777856420263],
        [-0.428417064227231, 51.61774859521041],
        [-0.426612018722795, 51.617023038561925],
        [-0.426502913685691, 51.617003592226226],
        [-0.421176507772569, 51.6169419757078],
        [-0.420924160668533, 51.616929589848496],
        [-0.417408394685807, 51.6165558381189],
        [-0.416973064561958, 51.61648882300529],
        [-0.416321195693742, 51.61633525929001],
        [-0.416058550631931, 51.61624539224866],
        [-0.411305976031667, 51.61385852363056],
        [-0.411156149025407, 51.61380614040141],
        [-0.405046614172259, 51.613351924220154],
        [-0.404071930241956, 51.61318041769482],
        [-0.40357150236361, 51.611388684767704],
        [-0.403415247573687, 51.61065550310226],
        [-0.40331023566656, 51.609408670550685],
        [-0.403237454096272, 51.609095655092354],
        [-0.402624693223378, 51.608367052393874],
        [-0.402514987852531, 51.60820100429592],
        [-0.402498761052677, 51.60788156418785],
        [-0.402370788579607, 51.60741313300715],
        [-0.401987212455411, 51.606903455703524],
        [-0.401782113684801, 51.60661651339519],
        [-0.402197544493505, 51.60625978702655],
        [-0.402372946496782, 51.606117401523],
        [-0.402421815019757, 51.60554796769409],
        [-0.402529759366694, 51.605187954376355],
        [-0.402546581520335, 51.60293925948091],
        [-0.402359388682396, 51.60193679034791],
        [-0.401407465641367, 51.59989071615217],
        [-0.401281917847003, 51.59968308711807],
        [-0.400275409198023, 51.59857683369528],
        [-0.399967439103917, 51.59821924636449],
        [-0.400067084882951, 51.59793105864569],
        [-0.400333369199902, 51.597420339104694],
        [-0.398094532158129, 51.5970768819822],
        [-0.397638739633202, 51.59702300276787],
        [-0.397739895637176, 51.596651210868224],
        [-0.397697049100506, 51.59651484508917],
        [-0.396573049453375, 51.59522351551215],
        [-0.396507118777698, 51.59508683391079],
        [-0.396419525222367, 51.59380246202928],
        [-0.396364660577806, 51.59359759137496],
        [-0.395548384669054, 51.59189322010807],
        [-0.395488781344899, 51.591618145616714],
        [-0.395535858796109, 51.5904048524044],
        [-0.395489690958246, 51.59019920085755],
        [-0.394891524248895, 51.590254866589405],
        [-0.394645297766503, 51.59031894014762],
        [-0.394698307858828, 51.59041228405031],
        [-0.394471820318396, 51.59044875161732],
        [-0.393495550258239, 51.58939590371945],
        [-0.39307145673845, 51.58901872349097],
        [-0.392179065558934, 51.588494850517016],
        [-0.39203337381551, 51.58832829870479],
        [-0.39151891596784, 51.585441968495125],
        [-0.391526096710007, 51.584993359303965],
        [-0.391121190284527, 51.58358413694837],
        [-0.39103415950232, 51.5830649966839],
        [-0.391171594170485, 51.58305609007579],
        [-0.391067952824488, 51.58206733234919],
        [-0.391048404272213, 51.581721766136596],
        [-0.391504973132174, 51.58170824148143],
        [-0.391572337273284, 51.58155809669829],
        [-0.389020642452229, 51.57812676629362],
        [-0.388613808486989, 51.577755200758176],
        [-0.38827700901865, 51.576791113577244],
        [-0.387878152528132, 51.575664314029225],
        [-0.38751337059929, 51.575287926717756],
        [-0.388075885663985, 51.57497013808312],
        [-0.38598684231292, 51.57250904818853],
        [-0.385708194366523, 51.572146428453316],
        [-0.38605479133909, 51.571853554965465],
        [-0.386460772863609, 51.57155430322265],
        [-0.385685334282091, 51.57063273318621],
        [-0.385023190580562, 51.569853893865144],
        [-0.38433010950724, 51.56876799179238],
        [-0.383297459890909, 51.56724938047298],
        [-0.383480981877361, 51.56716018846657],
        [-0.38249424170782, 51.5650001605636],
        [-0.382399238990399, 51.56470930304327],
        [-0.382514619303839, 51.56385663680261],
        [-0.382503540378833, 51.56372160146061],
        [-0.382060164207378, 51.56316516810965],
        [-0.381969685853066, 51.563072200405756],
        [-0.382146946809779, 51.562996412437506],
        [-0.382381307352425, 51.56289713243943],
        [-0.380508190444417, 51.56096045880214],
        [-0.380309100157487, 51.5606762557094],
        [-0.380355426669393, 51.5601031938714],
        [-0.380420102456963, 51.559703934369665],
        [-0.380089562955785, 51.55954650474047],
        [-0.380033957138675, 51.55944682308297],
        [-0.380207121737787, 51.559242393271],
        [-0.380292658124868, 51.55910869118703],
        [-0.379599282033695, 51.55811986945636],
        [-0.379386653352872, 51.55781119872012],
        [-0.378970635089063, 51.55689364452806],
        [-0.37887948872658, 51.556657689213495],
        [-0.37777659041822, 51.5548961635336],
        [-0.377688788057053, 51.55468812919768],
        [-0.378471381933182, 51.55438242126197],
        [-0.380193996757228, 51.553683241206635],
        [-0.384688452278967, 51.551408128260206],
        [-0.385269481007893, 51.55117063864436],
        [-0.388575514726334, 51.550146017265234],
        [-0.388903913246096, 51.55003632600889],
        [-0.388953608146013, 51.550058589588694],
        [-0.389094913575091, 51.55014145933868],
        [-0.394188476614458, 51.548646637547996],
        [-0.394986518751639, 51.54875647056213],
        [-0.395008128621736, 51.54801940697715],
        [-0.394888883776245, 51.54763740633297],
        [-0.398698770041421, 51.54789898059124],
        [-0.398720677484981, 51.5478911866013],
        [-0.398464939044022, 51.54757566751013],
        [-0.398428805526027, 51.54757787196345],
        [-0.398407557850752, 51.547197212591556],
        [-0.398442407317658, 51.547190494527804],
        [-0.397905841578154, 51.54571384641512],
        [-0.397886018515751, 51.545662320283704],
        [-0.397087311888834, 51.545860030422666],
        [-0.396557310589931, 51.54596249344966],
        [-0.396342326654535, 51.5456780998758],
        [-0.396242185318111, 51.54553195691861],
        [-0.395715881717925, 51.5440941046304],
        [-0.395592012570121, 51.54408971323219],
        [-0.395375542600791, 51.54298700794751],
        [-0.395272744230398, 51.54254768222644],
        [-0.397266910334993, 51.54234923558462],
        [-0.397672982080562, 51.542325107619355],
        [-0.404349868291626, 51.54252940262554],
        [-0.404852512098359, 51.54250656311691],
        [-0.407950444991549, 51.54195965182631],
        [-0.407876469882174, 51.54180668016494],
        [-0.413963470395539, 51.54076779615842],
        [-0.414446407243134, 51.54068889774895],
        [-0.416150544688312, 51.54024162384294],
        [-0.416462303335356, 51.54019187888268],
        [-0.41807672966977, 51.540085068937046],
        [-0.418321693597023, 51.54009016992516],
        [-0.419266686508253, 51.54045090241558],
        [-0.419307137534766, 51.54044874973937],
        [-0.41948147261733, 51.5402865415495],
        [-0.419507563279023, 51.540241032929536],
        [-0.419468935272527, 51.53998243722013],
        [-0.419408163483932, 51.53990518507753],
        [-0.41817738653067, 51.539178216382915],
        [-0.418161056892104, 51.539150120480386],
        [-0.419621629633666, 51.53861318755398],
        [-0.419614102660201, 51.53858071433729],
        [-0.419380231090688, 51.538255644002234],
        [-0.419305151346483, 51.5382168653718],
        [-0.417506097920593, 51.53782843049708],
        [-0.417466646686399, 51.537801821057585],
        [-0.417680309094346, 51.53700439892458],
        [-0.417700276769326, 51.536885971454545],
        [-0.417480199604735, 51.53666269479994],
        [-0.417396913191758, 51.53661121517081],
        [-0.41545819215543, 51.53659314065107],
        [-0.415339413783466, 51.53656725753137],
        [-0.414942737504227, 51.536073623603755],
        [-0.41485820118924, 51.536016729951065],
        [-0.413904169107534, 51.53579521771311],
        [-0.413850965899765, 51.53574953752952],
        [-0.413504767456233, 51.534717049820756],
        [-0.413481142716446, 51.53469155223261],
        [-0.41242479784289, 51.53455227150122],
        [-0.412326233933915, 51.534525759600875],
        [-0.411883151971388, 51.534124106461725],
        [-0.411832647313571, 51.53408385717232],
        [-0.41108445508353, 51.534287740794234],
        [-0.405500024731952, 51.53326330052329],
        [-0.405249684224686, 51.53320684395182],
        [-0.39355564250246, 51.531600456944155],
        [-0.392345827739599, 51.53140134288907],
        [-0.389603068594746, 51.53084577443041],
        [-0.389278889205017, 51.53079906064426],
        [-0.389273705132773, 51.530619145150155],
        [-0.387155190013902, 51.529576616633605],
        [-0.387115541406323, 51.52955628866412],
        [-0.386637564786065, 51.53039408584505],
        [-0.385868387499832, 51.53037451331554],
        [-0.383998898014214, 51.52991535167016],
        [-0.382474577283705, 51.52964346173865],
        [-0.376524700521568, 51.528915633606616],
        [-0.376377241974846, 51.528886616213526],
        [-0.376204100333609, 51.5288095843228],
        [-0.376202659388447, 51.5288095643783],
        [-0.37627082107553, 51.527379843587354],
        [-0.376238168697208, 51.52691988848736],
        [-0.375954483658741, 51.52573618031374],
        [-0.375929148487612, 51.52555688407188],
        [-0.376096933357184, 51.52505474227649],
        [-0.37618119835821, 51.524914730569],
        [-0.376633043103641, 51.524450690081906],
        [-0.37698362464577, 51.52423972724211],
        [-0.379107369269121, 51.52154893852232],
        [-0.379337466493748, 51.521279652777665],
        [-0.381733964222906, 51.518693297672634],
        [-0.381776404235845, 51.518634534347],
        [-0.382609525655122, 51.51794193177919],
        [-0.382618519500222, 51.51793216431975],
        [-0.382866017350341, 51.51794366951801],
        [-0.384844749078708, 51.516441350979775],
        [-0.384988753233963, 51.516363302735684],
        [-0.386776817436061, 51.51564424848097],
        [-0.388618441910449, 51.51491691068547],
        [-0.389569015783507, 51.514362554542195],
        [-0.390017847437432, 51.51393618895292],
        [-0.390170908863383, 51.51372337512197],
        [-0.390385199134559, 51.51340888976103],
        [-0.392769737180162, 51.508020164141584],
        [-0.392861275489183, 51.50779391459537],
        [-0.393415771963588, 51.50710551097487],
        [-0.39358627105839, 51.506969365577156],
        [-0.399070243435507, 51.50475851485359],
        [-0.399869903367209, 51.50443041905406],
        [-0.403142303046608, 51.50347777635644],
        [-0.40320987008443, 51.5034409288027],
        [-0.403889369755322, 51.50292143360234],
        [-0.404272955739, 51.502540885670214],
        [-0.406905196963529, 51.49969375475307],
        [-0.4069801450506, 51.49961024563874],
        [-0.40928526408195, 51.500315049836374],
        [-0.40968083642353, 51.499960724441316],
        [-0.4108670533297, 51.49779258714389],
        [-0.410891435139291, 51.49771288654093],
        [-0.410562585773832, 51.496315532121066],
        [-0.410565962122114, 51.496218461641085],
        [-0.411309785805576, 51.49521061737618],
        [-0.411408248834988, 51.494988943396294],
        [-0.412623407617124, 51.488621798960146],
        [-0.412637800755778, 51.48858062940764],
        [-0.412976070206578, 51.48829655605823],
        [-0.413007988872532, 51.48824842981337],
        [-0.413372340428893, 51.48754477002993],
        [-0.413389019126454, 51.48752071658612],
        [-0.413342298381709, 51.48728988280729],
        [-0.413365141210622, 51.48725422283069],
        [-0.413855062722274, 51.487248260738205],
        [-0.413927638328525, 51.48723215699682],
        [-0.414222496934036, 51.48682879522701],
        [-0.414535484560206, 51.486525491823436],
        [-0.414633745003001, 51.48622557964748],
        [-0.414609988248803, 51.48620457631222],
        [-0.414008743227829, 51.486098431337126],
        [-0.414025639329123, 51.4860680861629],
        [-0.414042005302042, 51.48605302065105],
        [-0.414686680660871, 51.485654387827054],
        [-0.41586789399117, 51.4838620067155],
        [-0.415961032280821, 51.483709497193175],
        [-0.416150454334687, 51.483147341852444],
        [-0.416191151617605, 51.483053472783084],
        [-0.416860050456526, 51.482494193851494],
        [-0.416867240177525, 51.482452926524644],
        [-0.416478480760573, 51.48211766193716],
        [-0.416476722453163, 51.48208526606443],
        [-0.416801994118785, 51.48063560940676],
        [-0.416744159177812, 51.48043430119663],
        [-0.415784718336685, 51.47882251975044],
        [-0.415603095605252, 51.47857817413316],
        [-0.415031513246529, 51.477203625826206],
        [-0.414966169375774, 51.47672075710987],
        [-0.414950423930953, 51.47605331799386],
        [-0.415464023166713, 51.47519430349904],
        [-0.41569585489392, 51.47490338864218],
        [-0.415788444564968, 51.474392080146984],
        [-0.415844823196208, 51.47401156952378],
        [-0.415691162762356, 51.47379188064083],
        [-0.415540184738267, 51.47370261572188],
        [-0.414786704962473, 51.47342356348349],
        [-0.414747497029778, 51.473391560499635],
        [-0.414403882938527, 51.472836587685606],
        [-0.414238974660344, 51.47265091535633],
        [-0.413608033546024, 51.47232675257196],
        [-0.413545140561869, 51.47227194805885],
        [-0.413046131460259, 51.471548511482396],
        [-0.412978508182188, 51.47142260364439],
        [-0.411640995107285, 51.47063205745251],
        [-0.411333194887385, 51.47045703444588],
        [-0.411282685250143, 51.47025312459297],
        [-0.411154483182527, 51.469881804833484],
        [-0.418858496015106, 51.4675580239508],
        [-0.419679308855658, 51.46730291767254],
        [-0.420161652443858, 51.46713496715769],
        [-0.420267658756935, 51.466858534002846],
        [-0.420290412329028, 51.46678330541832],
        [-0.421436140944683, 51.46674927759058],
        [-0.421725681828007, 51.46670281836438],
        [-0.432638534836967, 51.462121959520026],
        [-0.433598860175446, 51.461739132491076],
        [-0.435108605882243, 51.46002288396631],
        [-0.435453911788201, 51.45964891736444],
        [-0.436457452030604, 51.458125524352674],
        [-0.436633732149207, 51.45768455582508],
        [-0.434747586756722, 51.45711086279321],
        [-0.435061510914167, 51.45685427714954],
        [-0.440808569194932, 51.45669614418693],
        [-0.441479838726052, 51.45680758070515],
        [-0.443153445221136, 51.454449560748465],
        [-0.444003987325655, 51.45326667759595],
        [-0.448805294746729, 51.45373584922693],
        [-0.449421934241608, 51.453844719194876],
        [-0.452960534396737, 51.45467109231903],
        [-0.453783404520547, 51.454853699012745],
        [-0.453947861055969, 51.45492780575758],
        [-0.454092158003728, 51.45504480932289],
        [-0.453981768990184, 51.45545789704187],
        [-0.453988871341212, 51.45546068836951],
        [-0.455229454205666, 51.455592140632824],
        [-0.455432717309735, 51.455625392141926],
        [-0.455353663760658, 51.45536627287407],
        [-0.455370750606024, 51.455286466865296],
        [-0.455759182184125, 51.45524931975812],
        [-0.455779232764424, 51.455252281511974],
        [-0.456814610615827, 51.45549341741685],
        [-0.457335081890301, 51.45568101084012],
        [-0.458660936760938, 51.45631531644915]
      ]
    ]
  }
}
