{
  "type": "Feature",
  "properties": {
    "name": "Hounslow",
    "level": 2,
    "londonBorough": true,
    "center": [-0.368, 51.4746]
  },
  "geometry": {
    "type": "Polygon",
    "coordinates": [
      [
        [-0.422097871492435, 51.46655585791847],
        [-0.421963869771072, 51.46660081446196],
        [-0.421725681828007, 51.46670281836438],
        [-0.421436140944683, 51.46674927759058],
        [-0.420997387375946, 51.46682250218467],
        [-0.420813285478986, 51.46681732524249],
        [-0.420512848151079, 51.466720658250935],
        [-0.420290412329028, 51.46678330541832],
        [-0.420267658756935, 51.466858534002846],
        [-0.420238415252502, 51.4669966210823],
        [-0.420161652443858, 51.46713496715769],
        [-0.419679308855658, 51.46730291767254],
        [-0.418858496015106, 51.4675580239508],
        [-0.417782566653114, 51.46786273686195],
        [-0.417781127599228, 51.46786271744434],
        [-0.417443193615989, 51.46797595594263],
        [-0.416136542773772, 51.46837375711449],
        [-0.414498207538994, 51.46886957147452],
        [-0.412857302031257, 51.469355436771295],
        [-0.41119071076834, 51.469875101874315],
        [-0.411154483182527, 51.469881804833484],
        [-0.411282685250143, 51.47025312459297],
        [-0.411333194887385, 51.47045703444588],
        [-0.411640995107285, 51.47063205745251],
        [-0.412080082937546, 51.470923958727376],
        [-0.412853728831582, 51.47132559668504],
        [-0.412978508182188, 51.47142260364439],
        [-0.413046131460259, 51.471548511482396],
        [-0.413121516954174, 51.4716997026952],
        [-0.413135035501342, 51.471725064010734],
        [-0.413280140134454, 51.47198330742801],
        [-0.413524300977082, 51.47225008465755],
        [-0.413545140561869, 51.47227194805885],
        [-0.413608033546024, 51.47232675257196],
        [-0.413685256263336, 51.47238354935548],
        [-0.413747333838595, 51.47242035821076],
        [-0.413832282786508, 51.47246197254214],
        [-0.413978618669522, 51.47251880474089],
        [-0.414238974660344, 51.47265091535633],
        [-0.414403882938527, 51.472836587685606],
        [-0.414482838904559, 51.47296804323618],
        [-0.414571289741443, 51.47319944133228],
        [-0.414747497029778, 51.473391560499635],
        [-0.414786704962473, 51.47342356348349],
        [-0.414838928306021, 51.47345394394001],
        [-0.414891494390852, 51.47347443750617],
        [-0.414974315485232, 51.4734944407718],
        [-0.415360080069295, 51.473622848508064],
        [-0.415540184738267, 51.47370261572188],
        [-0.415691162762356, 51.47379188064083],
        [-0.41577503333407, 51.47390631635864],
        [-0.415816467093645, 51.47395723282865],
        [-0.415844823196208, 51.47401156952378],
        [-0.415788444564968, 51.474392080146984],
        [-0.415723595231314, 51.47464298760035],
        [-0.41569585489392, 51.47490338864218],
        [-0.415464023166713, 51.47519430349904],
        [-0.414950423930953, 51.47605331799386],
        [-0.414966169375774, 51.47672075710987],
        [-0.415031513246529, 51.477203625826206],
        [-0.415233166892262, 51.47753456888034],
        [-0.415275768763848, 51.47763495874807],
        [-0.415318339669686, 51.477736247405936],
        [-0.415603095605252, 51.47857817413316],
        [-0.415784718336685, 51.47882251975044],
        [-0.415888327832779, 51.47903253989657],
        [-0.416047296889193, 51.479265788344335],
        [-0.416076597671287, 51.47933452530021],
        [-0.416312041749732, 51.47989612459662],
        [-0.416351512742082, 51.479962301137945],
        [-0.416427475304126, 51.48005594722018],
        [-0.416664616300908, 51.4802776611661],
        [-0.416744159177812, 51.48043430119663],
        [-0.416801994118785, 51.48063560940676],
        [-0.416828604951195, 51.48086527128897],
        [-0.416757783376829, 51.48116375742431],
        [-0.416614130500901, 51.481569167287155],
        [-0.416502026944772, 51.48201996425836],
        [-0.416476722453163, 51.48208526606443],
        [-0.416478480760573, 51.48211766193716],
        [-0.416489000606551, 51.4821465792118],
        [-0.416531881938094, 51.482197514867856],
        [-0.416575634966226, 51.48222328395409],
        [-0.416705042494922, 51.482270891663624],
        [-0.416757432735859, 51.4822967772909],
        [-0.416799528608229, 51.48232881850013],
        [-0.416838434284414, 51.48236980888465],
        [-0.416861443161603, 51.482412383108226],
        [-0.416867240177525, 51.482452926524644],
        [-0.416860050456526, 51.482494193851494],
        [-0.416841375725591, 51.482534406907895],
        [-0.416776301830279, 51.48262524943616],
        [-0.416699050156357, 51.482693446874066],
        [-0.4166533355748, 51.482724302576834],
        [-0.41635087893547, 51.48289107151788],
        [-0.416282761505689, 51.48294500441927],
        [-0.416233388929806, 51.48299829120401],
        [-0.416191151617605, 51.483053472783084],
        [-0.416150454334687, 51.483147341852444],
        [-0.41605147768861, 51.48355155587114],
        [-0.415961032280821, 51.483709497193175],
        [-0.41586789399117, 51.4838620067155],
        [-0.415618579447262, 51.48411581727526],
        [-0.415174334624344, 51.48484088513031],
        [-0.414686680660871, 51.485654387827054],
        [-0.414042005302042, 51.48605302065105],
        [-0.414025639329123, 51.4860680861629],
        [-0.414008743227829, 51.486098431337126],
        [-0.414007807725176, 51.4861253954513],
        [-0.414014382189022, 51.486143468871205],
        [-0.414057669767784, 51.486182720957586],
        [-0.414081831621537, 51.486192039952854],
        [-0.414137758855711, 51.48619909081504],
        [-0.414462984632036, 51.486165720727],
        [-0.414494594092542, 51.48616794652179],
        [-0.414534716630703, 51.4861738842986],
        [-0.414576029429036, 51.486187031955936],
        [-0.414609988248803, 51.48620457631222],
        [-0.414633745003001, 51.48622557964748],
        [-0.414645828881259, 51.486250921310905],
        [-0.414644893749261, 51.48627788543267],
        [-0.414586047554085, 51.48643805128226],
        [-0.414535484560206, 51.486525491823436],
        [-0.414222496934036, 51.48682879522701],
        [-0.414002932119645, 51.48717922173012],
        [-0.413985001322456, 51.48719786297531],
        [-0.413927638328525, 51.48723215699682],
        [-0.413855062722274, 51.487248260738205],
        [-0.413803203727752, 51.48724845857501],
        [-0.413718825142308, 51.487231131255754],
        [-0.413541118272046, 51.48720534762235],
        [-0.413458839301884, 51.48721052915255],
        [-0.413415181562847, 51.48722342692024],
        [-0.413365141210622, 51.48725422283069],
        [-0.413342298381709, 51.48728988280729],
        [-0.413375139021005, 51.48738114887149],
        [-0.413401026410241, 51.487423762686646],
        [-0.413405537206575, 51.48745979272648],
        [-0.413389019126454, 51.48752071658612],
        [-0.413372340428893, 51.48754477002993],
        [-0.413307060610445, 51.48759963882861],
        [-0.41319193131396, 51.487721275025784],
        [-0.41315100073214, 51.48778007008963],
        [-0.413089482006389, 51.4878925400807],
        [-0.413043674684682, 51.488008819540816],
        [-0.413030609759573, 51.48817769711324],
        [-0.413007988872532, 51.48824842981337],
        [-0.412976070206578, 51.48829655605823],
        [-0.412926687887162, 51.48834984132067],
        [-0.412871983580153, 51.48839046538611],
        [-0.412723453108819, 51.48847837776634],
        [-0.412672786657049, 51.488527149416484],
        [-0.412637800755778, 51.48858062940764],
        [-0.412623407617124, 51.488621798960146],
        [-0.412618405687528, 51.488682878578246],
        [-0.412483913795124, 51.48932040729532],
        [-0.411950963743009, 51.49209809199537],
        [-0.411947209659816, 51.492123219459586],
        [-0.411889954625371, 51.49244436668074],
        [-0.411647910495234, 51.49381330589867],
        [-0.41160451011098, 51.49402583436655],
        [-0.411408248834988, 51.494988943396294],
        [-0.411309785805576, 51.49521061737618],
        [-0.411202773578319, 51.49538811346092],
        [-0.411044331934881, 51.49559458711203],
        [-0.410969429222935, 51.49567720019864],
        [-0.410685934282522, 51.49595841310937],
        [-0.410625210849516, 51.49604751268763],
        [-0.410590843743983, 51.49612438026494],
        [-0.410565962122114, 51.496218461641085],
        [-0.410562585773832, 51.496315532121066],
        [-0.410574423582223, 51.496430793265404],
        [-0.410606862240671, 51.49661647307759],
        [-0.41088901120646, 51.497451179462],
        [-0.410902631734665, 51.497515208921996],
        [-0.41090670593155, 51.49760518654072],
        [-0.410891435139291, 51.49771288654093],
        [-0.4108670533297, 51.49779258714389],
        [-0.410659838846565, 51.498199825617675],
        [-0.40968083642353, 51.499960724441316],
        [-0.40928526408195, 51.500315049836374],
        [-0.408369756743146, 51.50008501770735],
        [-0.407689049417988, 51.49989773209703],
        [-0.407270687360541, 51.49970681151688],
        [-0.4069801450506, 51.49961024563874],
        [-0.406905196963529, 51.49969375475307],
        [-0.406640888027262, 51.49962991641999],
        [-0.404840112070557, 51.49921337737417],
        [-0.403458661282627, 51.49883668966996],
        [-0.402798593240626, 51.49863706722813],
        [-0.401538791050228, 51.498284493844345],
        [-0.400241065370669, 51.49794577715036],
        [-0.400190500864894, 51.4979909479404],
        [-0.399962431456782, 51.49792129416548],
        [-0.398561963327229, 51.49755507955132],
        [-0.397914728235808, 51.497401465091244],
        [-0.395701406324749, 51.49679930357655],
        [-0.394032460638105, 51.49632684998002],
        [-0.392289892759136, 51.49585965782725],
        [-0.390721461967613, 51.49548025556689],
        [-0.389319497462416, 51.49516066890127],
        [-0.388212311705881, 51.49493863635085],
        [-0.387670933691665, 51.49488983070537],
        [-0.387554258632734, 51.494848660703056],
        [-0.387104712149817, 51.49468781232863],
        [-0.385987071120459, 51.494640064899656],
        [-0.385712023361721, 51.494637178691846],
        [-0.385474253605824, 51.49463930115004],
        [-0.385169836752578, 51.49465219545871],
        [-0.384762680366917, 51.49467806171847],
        [-0.384407231966758, 51.494708235770474],
        [-0.383932982227943, 51.494757454049875],
        [-0.383720175963396, 51.49478689374485],
        [-0.383527464144712, 51.49481840846514],
        [-0.38333740925094, 51.49485625408449],
        [-0.383030955118331, 51.49492666531386],
        [-0.382641949547913, 51.49500942578794],
        [-0.382413660780104, 51.49506922334274],
        [-0.382190940056734, 51.49513449262518],
        [-0.381846313224156, 51.49522505644284],
        [-0.381184516170287, 51.495444327581204],
        [-0.380103566488349, 51.49582416361418],
        [-0.379705468335115, 51.49595984323461],
        [-0.379140762680095, 51.49616245964971],
        [-0.379146910219885, 51.496192219115784],
        [-0.378965713966169, 51.496264350756604],
        [-0.378501244546861, 51.49640270586438],
        [-0.377893330241749, 51.496604718929966],
        [-0.377853039936975, 51.49656279721955],
        [-0.377836335101504, 51.496546380079884],
        [-0.377674101799981, 51.496530647707374],
        [-0.377651541599984, 51.49651684722999],
        [-0.377688173973234, 51.49645890414907],
        [-0.37771412051769, 51.496417898575096],
        [-0.377740944207055, 51.496189865779456],
        [-0.377757632574046, 51.49604442172836],
        [-0.377885434729913, 51.49544730373408],
        [-0.377220639767255, 51.4953041223313],
        [-0.377073033425138, 51.49528229688877],
        [-0.376773025848438, 51.49529253275421],
        [-0.376425664406283, 51.495338081451074],
        [-0.375839953646635, 51.495401910138256],
        [-0.37567155298155, 51.494870831912735],
        [-0.375480576147381, 51.49452917780729],
        [-0.375228714766365, 51.49423883514411],
        [-0.375086162203893, 51.49407499912984],
        [-0.374965753276811, 51.49393664814304],
        [-0.374974935659949, 51.49392148849147],
        [-0.375006802300231, 51.493876069380946],
        [-0.374798172916949, 51.49354496021802],
        [-0.374627975534604, 51.49326743775069],
        [-0.374005023367897, 51.49223278303804],
        [-0.373806807441331, 51.49193328932638],
        [-0.373796952841448, 51.49192685808266],
        [-0.373733537944752, 51.491887311924096],
        [-0.373708197602651, 51.491870774423106],
        [-0.373612755935203, 51.491840675602276],
        [-0.373493734200575, 51.49182553657126],
        [-0.373313377068176, 51.49163149941851],
        [-0.373221647484242, 51.49157807181368],
        [-0.3730383169406, 51.491467621253214],
        [-0.372794037742163, 51.491288882615066],
        [-0.372657837995684, 51.491108945503385],
        [-0.372420280283551, 51.49098425306018],
        [-0.372313163293502, 51.490958487279244],
        [-0.372161989673972, 51.49095638908214],
        [-0.371947946412778, 51.490980394828476],
        [-0.371857244302939, 51.4908982050714],
        [-0.371724342822426, 51.49078755326266],
        [-0.371808171359562, 51.490658328882475],
        [-0.371851269567854, 51.49058069428515],
        [-0.371863364800827, 51.49052421077002],
        [-0.371872484485824, 51.490470383632235],
        [-0.371169085898806, 51.49068542382583],
        [-0.369809649802057, 51.491160212190465],
        [-0.369381488250159, 51.491290942765104],
        [-0.368684398199469, 51.49153033504514],
        [-0.367921644611839, 51.491793088634346],
        [-0.367931402057722, 51.49180221671223],
        [-0.368248787525683, 51.492151937040425],
        [-0.368377585491842, 51.49229670640709],
        [-0.368274847101048, 51.492309664714384],
        [-0.368031225091276, 51.492395298624245],
        [-0.36774130408071, 51.49248658227465],
        [-0.367371706458614, 51.49263070983543],
        [-0.367028601026155, 51.492759018984074],
        [-0.367015450120655, 51.49276423125027],
        [-0.366974589699635, 51.49277894920984],
        [-0.366964409319224, 51.49282197045887],
        [-0.366982034835081, 51.49285278967103],
        [-0.366973267543463, 51.49285626451159],
        [-0.366844316438275, 51.49291741495845],
        [-0.36674473371376, 51.493003253441586],
        [-0.36666217137822, 51.49309652271382],
        [-0.366493015365442, 51.493274911873144],
        [-0.366063494680132, 51.49352341052924],
        [-0.365800816485769, 51.49365823195969],
        [-0.365381977347303, 51.49332597488108],
        [-0.36498093577344, 51.493704355545674],
        [-0.364745362899928, 51.49396724305712],
        [-0.36455501665375, 51.49413364401313],
        [-0.364376131202737, 51.494261537638515],
        [-0.364075967508279, 51.494437196999826],
        [-0.363878546278881, 51.494599901264024],
        [-0.36373236386987, 51.49469947479232],
        [-0.363698351883465, 51.495005637440336],
        [-0.363626675715469, 51.49547853119414],
        [-0.363554263047487, 51.49548921082439],
        [-0.363535447979295, 51.49549164598444],
        [-0.363497141904464, 51.495515390676466],
        [-0.363292490968811, 51.495638426997324],
        [-0.363250740066281, 51.49575834105725],
        [-0.363187141751435, 51.495844678720964],
        [-0.362998143204613, 51.495932863040466],
        [-0.362912512989443, 51.49595055162455],
        [-0.362875268806521, 51.49594463637493],
        [-0.362810827560243, 51.49593384531995],
        [-0.362634161575855, 51.495959255166305],
        [-0.362517455893466, 51.495999889580766],
        [-0.362418544173025, 51.49602638466367],
        [-0.362275317492372, 51.496043268574084],
        [-0.362159835423469, 51.49604974901036],
        [-0.361918147500292, 51.49608054435001],
        [-0.361734679627138, 51.49617509849736],
        [-0.361731338577269, 51.496228106353946],
        [-0.3617289319834, 51.49625504961493],
        [-0.361657248636503, 51.496285521311485],
        [-0.361591453736984, 51.496312478307026],
        [-0.361501782276021, 51.49636248166434],
        [-0.361165230237573, 51.49646748539452],
        [-0.360962212948011, 51.496544679816694],
        [-0.360773400714426, 51.49662746780425],
        [-0.360575314501661, 51.496687645124126],
        [-0.360109680916738, 51.49677645376932],
        [-0.359582758182302, 51.49700738082521],
        [-0.359193753773158, 51.497208762057895],
        [-0.358719034012447, 51.49747009013936],
        [-0.358497359726475, 51.49762525219327],
        [-0.358443209810021, 51.497648773499],
        [-0.358179252631214, 51.497737699399025],
        [-0.358027721245785, 51.49778503569588],
        [-0.357551890494889, 51.497796357757196],
        [-0.357301177023373, 51.49779734266656],
        [-0.356926225331073, 51.49784784270285],
        [-0.356597692315055, 51.497929565777234],
        [-0.356389838664503, 51.49798060691168],
        [-0.356306726415509, 51.49800821750852],
        [-0.356241087587571, 51.49803067756212],
        [-0.356118029148623, 51.49808740274568],
        [-0.356077031158829, 51.49810571192659],
        [-0.355841784488714, 51.498157267368235],
        [-0.355649460700528, 51.49817705186604],
        [-0.355507551193734, 51.49815707760235],
        [-0.35527461711294, 51.49818438513582],
        [-0.355150100748501, 51.49820152276164],
        [-0.354987514267488, 51.498275676997075],
        [-0.354873465645425, 51.49828217039223],
        [-0.35477698785741, 51.49828081708644],
        [-0.35460945033086, 51.498252389167654],
        [-0.354607848538584, 51.49825686284454],
        [-0.354585229217998, 51.49832488697165],
        [-0.354557675624834, 51.49832989579253],
        [-0.353322077742502, 51.4985553466224],
        [-0.352291366567247, 51.49877197306309],
        [-0.350956444823379, 51.49907423665622],
        [-0.350700204157463, 51.49910840127979],
        [-0.350537031042953, 51.4991186958089],
        [-0.350364134874067, 51.49911896182617],
        [-0.350194443219862, 51.4991102803649],
        [-0.350055251058938, 51.49909483388001],
        [-0.349932255910338, 51.49906972357224],
        [-0.34978821292541, 51.49902903008228],
        [-0.349644689620155, 51.49897395604503],
        [-0.349486203451045, 51.498894392051504],
        [-0.348278508341902, 51.49834684455172],
        [-0.347257868886027, 51.49792601430896],
        [-0.346183654017994, 51.49755297805733],
        [-0.344740676329688, 51.49702006026616],
        [-0.344739236409759, 51.497020039944125],
        [-0.343498217407495, 51.4965600968091],
        [-0.342113881737277, 51.496040563759884],
        [-0.341415969776147, 51.4960981384597],
        [-0.34138156660384, 51.496014023418525],
        [-0.340291816208278, 51.496150577115365],
        [-0.339323233777587, 51.49620340947342],
        [-0.338637358155649, 51.496246750383506],
        [-0.337596972469121, 51.49625358976373],
        [-0.336787263531865, 51.49625559834044],
        [-0.335999251365244, 51.49621564526271],
        [-0.33544617071762, 51.496212293012896],
        [-0.33531366831372, 51.49621131160143],
        [-0.334705937644945, 51.49620538168784],
        [-0.334696318309293, 51.49615308964646],
        [-0.334046147547492, 51.496086305139265],
        [-0.333257099737322, 51.49595639567083],
        [-0.332670062079675, 51.495857229104985],
        [-0.332095172852006, 51.4957015807157],
        [-0.331831389093968, 51.49562678969729],
        [-0.331772707825408, 51.49569519591468],
        [-0.331260849561362, 51.495549432271424],
        [-0.331135356035929, 51.495514375018764],
        [-0.330974260094064, 51.495468020189875],
        [-0.330553704066738, 51.49534693275719],
        [-0.329975866560975, 51.49507523091408],
        [-0.327418180447925, 51.4960369312193],
        [-0.326926152249061, 51.495625258478896],
        [-0.326158506621028, 51.49502980368703],
        [-0.325696531511526, 51.495371212615325],
        [-0.324870765051969, 51.49592953483529],
        [-0.324758237592618, 51.49601245545984],
        [-0.324025405441393, 51.49576458789676],
        [-0.323434137336421, 51.495899115136254],
        [-0.322514882042639, 51.49554965729395],
        [-0.321478584252972, 51.495210207130114],
        [-0.320966349155543, 51.49503651668893],
        [-0.320536934716061, 51.494882893918636],
        [-0.319914245825155, 51.494579026647465],
        [-0.319211380039342, 51.494222750655574],
        [-0.318595000600894, 51.49449177868776],
        [-0.318228613020207, 51.494700542997414],
        [-0.31724587531157, 51.49521609541707],
        [-0.315847224072907, 51.495875839967624],
        [-0.31578856953609, 51.49590377316216],
        [-0.315446983879605, 51.49563449252416],
        [-0.315381943372334, 51.49560118587534],
        [-0.315319716395762, 51.49556971807293],
        [-0.315291449508661, 51.49555492428399],
        [-0.315680000331477, 51.49537076669536],
        [-0.31573276235257, 51.49534634586992],
        [-0.314776758925277, 51.49458894608623],
        [-0.314546893368405, 51.494415687577145],
        [-0.314475385470066, 51.49436250430635],
        [-0.314924736274296, 51.49409199728873],
        [-0.315083037129461, 51.49397916966624],
        [-0.315103757694642, 51.49396418036763],
        [-0.314887165132443, 51.49382168715403],
        [-0.314746021191253, 51.49370365781793],
        [-0.314693757744579, 51.49371459684686],
        [-0.314414039137611, 51.49344800047528],
        [-0.314122150676928, 51.49358948093267],
        [-0.314111906370214, 51.49359382984301],
        [-0.314061466550983, 51.49355533690838],
        [-0.314044653296737, 51.49354250592546],
        [-0.313947903014268, 51.493587875232436],
        [-0.313936185742686, 51.49359310218596],
        [-0.313650873235762, 51.49340016077342],
        [-0.313305961347246, 51.4931047479934],
        [-0.31282769392297, 51.492714794592864],
        [-0.31268411057857, 51.49258503756185],
        [-0.312630673661832, 51.49258876490737],
        [-0.31247999206832, 51.49245620778568],
        [-0.311976242371996, 51.492015526971706],
        [-0.311924631926132, 51.49196982236054],
        [-0.310960079452696, 51.49242173843742],
        [-0.309691117289142, 51.49300234640915],
        [-0.308843965269214, 51.49339478925766],
        [-0.308403339283027, 51.493584467836456],
        [-0.30803267586172, 51.49371310691607],
        [-0.307530256967447, 51.493859626690465],
        [-0.306560405506719, 51.494180142062895],
        [-0.30544077354848, 51.494538051743255],
        [-0.305659567680068, 51.49497014806816],
        [-0.305822504960943, 51.49535467683777],
        [-0.305858950133293, 51.49561508223856],
        [-0.305892256481734, 51.49592130326048],
        [-0.305879525927622, 51.49607039237691],
        [-0.305850949722283, 51.49618058549213],
        [-0.305647488698903, 51.49615066922151],
        [-0.305388899918463, 51.49605341266511],
        [-0.30524112111343, 51.49599822241784],
        [-0.304650521707673, 51.495841312693884],
        [-0.303945277753341, 51.495707021436914],
        [-0.303307348502455, 51.49562225848168],
        [-0.302676349484768, 51.49550611909952],
        [-0.302229623503981, 51.49543221038668],
        [-0.301355625579101, 51.49522621928408],
        [-0.30136817013287, 51.495082523281965],
        [-0.301338254923084, 51.49491842911696],
        [-0.301250710677815, 51.49471573231833],
        [-0.301110523005825, 51.49441785311949],
        [-0.299423952743553, 51.494640699354754],
        [-0.298278736720651, 51.49479404341742],
        [-0.297553438321538, 51.4948896269283],
        [-0.298078946081225, 51.49551682767276],
        [-0.297981372228977, 51.49554508645962],
        [-0.298213524497799, 51.495771465820845],
        [-0.298392905770644, 51.49594492338946],
        [-0.298830534584769, 51.49645664255266],
        [-0.298929387125569, 51.496587566311284],
        [-0.299076360930147, 51.49678033591341],
        [-0.299357219393557, 51.49716928167066],
        [-0.299539493535308, 51.497420113592035],
        [-0.299636239583544, 51.4975303237562],
        [-0.299787838175248, 51.497676399216104],
        [-0.299818445990848, 51.49770561845995],
        [-0.299945565217143, 51.497812671717284],
        [-0.299997642245019, 51.49792313329705],
        [-0.300050597238059, 51.49816489593064],
        [-0.300100367725042, 51.49833737125674],
        [-0.300171632920128, 51.498435521564126],
        [-0.300243600548865, 51.49851479806557],
        [-0.300308903679064, 51.49857959017381],
        [-0.300401365232479, 51.49865017122331],
        [-0.300564222042152, 51.49880360264924],
        [-0.300671377200502, 51.49925387360277],
        [-0.300718299383148, 51.49934807389936],
        [-0.300112991502344, 51.499547025542626],
        [-0.299772494142782, 51.499637408868054],
        [-0.298544042134338, 51.50004942836048],
        [-0.296765118527287, 51.500656669446556],
        [-0.296127492992443, 51.50087131755938],
        [-0.295612197201533, 51.50105087134217],
        [-0.295052858413729, 51.501252263525686],
        [-0.294350080100179, 51.501474947263304],
        [-0.29422767522628, 51.50151183421953],
        [-0.294169403102366, 51.50152897141621],
        [-0.294050012233876, 51.501562305082885],
        [-0.293945961205769, 51.501570683173156],
        [-0.293814381822799, 51.501583156888344],
        [-0.293642649473728, 51.501590550109256],
        [-0.293415595368856, 51.501574657233384],
        [-0.293034861741246, 51.50154573654476],
        [-0.292058232726197, 51.501462277504224],
        [-0.291374368052031, 51.50137138564326],
        [-0.290680331124407, 51.50124437209233],
        [-0.289963930810875, 51.50109904362933],
        [-0.289236351668349, 51.500944555341114],
        [-0.288699616306689, 51.500849499147606],
        [-0.28812901440002, 51.50081239652612],
        [-0.287784593923233, 51.50077589562147],
        [-0.286810544114673, 51.500662755564754],
        [-0.286152077683748, 51.50074036130731],
        [-0.285732793405485, 51.500779195465896],
        [-0.285627865964619, 51.500810933509634],
        [-0.285165922500335, 51.50094985656315],
        [-0.285072750440756, 51.500975471334954],
        [-0.284732112418785, 51.501068506819195],
        [-0.283903612629369, 51.501376515407095],
        [-0.28321064487469, 51.501643338794615],
        [-0.28249316289399, 51.50198713348543],
        [-0.282376887052218, 51.50209064138346],
        [-0.281037788934983, 51.50271847327563],
        [-0.280783552691711, 51.502850531601965],
        [-0.280736045198893, 51.502811168034384],
        [-0.280256620795925, 51.502418366722964],
        [-0.279895967538573, 51.50208575573847],
        [-0.279851988269983, 51.502105793177726],
        [-0.279678448394713, 51.5019314936001],
        [-0.279551516689217, 51.50178215685511],
        [-0.27943037972078, 51.5016320057369],
        [-0.279219871624748, 51.50129170350321],
        [-0.278971330929253, 51.50085192668708],
        [-0.278834051691362, 51.50063319600828],
        [-0.278690912252362, 51.50041707685877],
        [-0.278541777217566, 51.50020716417882],
        [-0.278391034238443, 51.5000017238783],
        [-0.278211493436204, 51.499795860602575],
        [-0.27805889028147, 51.49963985059495],
        [-0.277896039147652, 51.49948818609187],
        [-0.277295567344689, 51.498982988472605],
        [-0.276738881056468, 51.49853957919494],
        [-0.276307692164031, 51.49828325468494],
        [-0.275708076800782, 51.49794711797073],
        [-0.274260670864673, 51.497285571400774],
        [-0.273734021317345, 51.49700175461189],
        [-0.27330438507499, 51.496781411209554],
        [-0.272949510248659, 51.49652709686233],
        [-0.272731959975076, 51.49633685143538],
        [-0.272481227257099, 51.49614791529372],
        [-0.272302930945032, 51.495643513751716],
        [-0.27216707072572, 51.495426594212375],
        [-0.272017960022242, 51.49525534044022],
        [-0.271798945804053, 51.49506597085905],
        [-0.271557860498114, 51.49488886491371],
        [-0.271425681190423, 51.49480328757125],
        [-0.271289047000563, 51.494721241364765],
        [-0.271000974156984, 51.49456772107068],
        [-0.270731971885701, 51.494443256899125],
        [-0.270050073059033, 51.494228173741],
        [-0.269400386703259, 51.49407560942111],
        [-0.268923121910675, 51.49401101437015],
        [-0.268420462995753, 51.4939703218877],
        [-0.268061936136093, 51.49400369501163],
        [-0.267718215293529, 51.494026494869125],
        [-0.267675549692805, 51.49393594072277],
        [-0.266689130300957, 51.49404006550703],
        [-0.265549169924328, 51.49416619080244],
        [-0.264439472904466, 51.49429185366933],
        [-0.263773728123651, 51.49437282273423],
        [-0.262673651164491, 51.494472533399524],
        [-0.262299210656584, 51.49450745167337],
        [-0.261895016844627, 51.494567106513514],
        [-0.26185559580072, 51.49458091010393],
        [-0.261741788624144, 51.494618789882246],
        [-0.261652180226301, 51.494626454086955],
        [-0.261470083779386, 51.49464173960304],
        [-0.261326033529417, 51.494603634498766],
        [-0.261282669099631, 51.49460748779652],
        [-0.260356074208933, 51.49469086459695],
        [-0.260093830848832, 51.49473013780112],
        [-0.259757847669625, 51.49473864131759],
        [-0.258541405292674, 51.494829392596195],
        [-0.257533007632307, 51.494904338480296],
        [-0.256348850194867, 51.49494159230295],
        [-0.255889351943836, 51.49494015511614],
        [-0.255575615419816, 51.49493189193201],
        [-0.255434447621971, 51.49493159054162],
        [-0.25540714030789, 51.4954959073174],
        [-0.25538498878563, 51.49566103802502],
        [-0.255472195744932, 51.495791825888844],
        [-0.255529886289044, 51.49594105868588],
        [-0.255588334417685, 51.49599498324593],
        [-0.255627345658635, 51.496029734630255],
        [-0.25548020801729, 51.4960725080537],
        [-0.255398651434658, 51.496095574353404],
        [-0.25551280296431, 51.496275321966],
        [-0.255268715310286, 51.49632924234225],
        [-0.255118286464948, 51.496344989144575],
        [-0.255116434796999, 51.49635575247887],
        [-0.255105148349012, 51.49653813033624],
        [-0.255094587381972, 51.4965883306629],
        [-0.255041509271287, 51.496808754043556],
        [-0.255034341016166, 51.49688328432905],
        [-0.255026657901695, 51.496971295556285],
        [-0.254682889416892, 51.49737173752345],
        [-0.254622273768063, 51.49744996858095],
        [-0.254235468694256, 51.49792080873327],
        [-0.253922436300074, 51.498345985487504],
        [-0.253593215499566, 51.49877991275261],
        [-0.253376661206662, 51.499017684231276],
        [-0.253115453822776, 51.4994058625571],
        [-0.252911846454733, 51.49971936219124],
        [-0.252786588412343, 51.49990543738631],
        [-0.252745568105533, 51.50007388340447],
        [-0.25274791428691, 51.5002762473628],
        [-0.252796315608771, 51.50036689242956],
        [-0.252862199306993, 51.5004901705471],
        [-0.252941108290827, 51.500649612248665],
        [-0.252960741905494, 51.50077669754235],
        [-0.253022705415626, 51.50104019858261],
        [-0.253067664695971, 51.501296252379504],
        [-0.253077053900662, 51.50135214510082],
        [-0.253083872440095, 51.50139990637274],
        [-0.253023152314365, 51.501405296617],
        [-0.252762051222645, 51.501225156109676],
        [-0.252839233198571, 51.50116605684252],
        [-0.252366232914117, 51.50083798094473],
        [-0.252142439202812, 51.500661991884236],
        [-0.251843472951002, 51.50037967082684],
        [-0.251646187268059, 51.500188788815954],
        [-0.251363277648527, 51.49986354230949],
        [-0.251348057477574, 51.49984712905571],
        [-0.251320733031591, 51.499845822408176],
        [-0.251271543991405, 51.49977584748594],
        [-0.250992615280897, 51.49945965179613],
        [-0.251128179766926, 51.49941850985066],
        [-0.251025851922738, 51.49934414544726],
        [-0.250735545823822, 51.49902418247074],
        [-0.250015374942562, 51.49796582351833],
        [-0.249394128678237, 51.49718410415619],
        [-0.249246854704124, 51.49696698716433],
        [-0.249234550368787, 51.496949717906446],
        [-0.248890544663129, 51.4970542893807],
        [-0.248582740405545, 51.497154005037714],
        [-0.247979803418538, 51.49739858529025],
        [-0.247767404935155, 51.49748983239313],
        [-0.247496307940017, 51.49760897770642],
        [-0.247253946094793, 51.49769258221227],
        [-0.246905705783793, 51.49783215501628],
        [-0.246355319901894, 51.49802086032347],
        [-0.2460053331553, 51.498130729406085],
        [-0.245372856809302, 51.49835597051097],
        [-0.245292523985773, 51.49838444357591],
        [-0.245131601855406, 51.49811046497626],
        [-0.245004469089617, 51.49789454320639],
        [-0.244595869922351, 51.497954971965285],
        [-0.244559665887526, 51.49795982551494],
        [-0.244420550580221, 51.49794335529001],
        [-0.244545060013343, 51.4975900187425],
        [-0.244638374884207, 51.4975986093914],
        [-0.244763438028916, 51.49734329819508],
        [-0.244640420543898, 51.496757849380266],
        [-0.244652187404143, 51.49660155749936],
        [-0.244709362465442, 51.49650079897039],
        [-0.244727268061216, 51.49633470729971],
        [-0.244771411089756, 51.49612314699307],
        [-0.244776628131433, 51.496099844795864],
        [-0.244556785143677, 51.49608486419016],
        [-0.244621313688858, 51.49579267732838],
        [-0.244715780564548, 51.4955836687345],
        [-0.244821852545753, 51.49556007750245],
        [-0.244840758377728, 51.49536792275921],
        [-0.244887705931058, 51.495045797643165],
        [-0.244973778201498, 51.494680195159965],
        [-0.245044884424032, 51.49425411945194],
        [-0.245285633420825, 51.49304914095924],
        [-0.245358765902863, 51.49272021342207],
        [-0.245424715476664, 51.492053063399126],
        [-0.245464475508026, 51.49165529406383],
        [-0.245466950294104, 51.49162835382928],
        [-0.245578933753857, 51.49081261814648],
        [-0.245609177787916, 51.49021237684786],
        [-0.245606997838826, 51.490156591219986],
        [-0.245577044532264, 51.48999877572684],
        [-0.245515109286253, 51.48984857492792],
        [-0.245329302242214, 51.48954814574805],
        [-0.24543427470063, 51.489477776966616],
        [-0.245283508827346, 51.48927768785569],
        [-0.245004664611262, 51.489037014450055],
        [-0.244844514646975, 51.4890813782504],
        [-0.244599277826262, 51.488790849261875],
        [-0.244562352179416, 51.48870217075751],
        [-0.243443027872278, 51.487918356074516],
        [-0.244702985347625, 51.48702808760335],
        [-0.245196121508026, 51.486789075402065],
        [-0.246217685237729, 51.486291789293226],
        [-0.246826249687427, 51.48600953437259],
        [-0.247215540147021, 51.48581122560323],
        [-0.247755548004573, 51.48551355329538],
        [-0.247827633004129, 51.48547416447012],
        [-0.248186072686709, 51.485253809719836],
        [-0.248420122123416, 51.485084651288645],
        [-0.248570191894833, 51.484964595741125],
        [-0.248711761812943, 51.48484081609486],
        [-0.248846236942649, 51.48471423260482],
        [-0.248973651742994, 51.484583946567014],
        [-0.249091092913559, 51.48445081374819],
        [-0.249206033128619, 51.484307751804415],
        [-0.249788895343937, 51.48349184703335],
        [-0.250069860785871, 51.482999658194245],
        [-0.250148401742291, 51.48282907486224],
        [-0.250223071095238, 51.48264674355022],
        [-0.2503058364084, 51.48240338447952],
        [-0.250331004491076, 51.48231023875819],
        [-0.250373937061321, 51.4821292322898],
        [-0.250403949296457, 51.481947133787486],
        [-0.250483821148226, 51.48129007968004],
        [-0.250487698638727, 51.481000581306496],
        [-0.250408572680514, 51.480471545119926],
        [-0.25037123128497, 51.480130174850544],
        [-0.250363070407715, 51.479666043635575],
        [-0.250408807981712, 51.47899768912914],
        [-0.250523540423238, 51.47821975700446],
        [-0.250648598713278, 51.4775858576894],
        [-0.250715761100812, 51.477335970720965],
        [-0.250787206006726, 51.477087046836026],
        [-0.251432663226315, 51.475873702485515],
        [-0.251704179283235, 51.475325615480905],
        [-0.25174737802936, 51.47509965016443],
        [-0.251786556342777, 51.47497883639373],
        [-0.251840057253202, 51.474860034628506],
        [-0.25190654457652, 51.47474052719878],
        [-0.251940129768243, 51.474690670241614],
        [-0.252378867011957, 51.47428805419781],
        [-0.252581120953236, 51.47404467568425],
        [-0.253268425283827, 51.47331663715401],
        [-0.253430063927068, 51.473118513575834],
        [-0.253615547968632, 51.47293693131464],
        [-0.253701692262792, 51.472868073286634],
        [-0.253792084931103, 51.472801076951626],
        [-0.254042906299833, 51.47264294812005],
        [-0.254576990844586, 51.472344257416104],
        [-0.254869368578009, 51.472191241638704],
        [-0.255173016870733, 51.4720446875581],
        [-0.255483584276601, 51.47190542959011],
        [-0.255802509942694, 51.47177348908741],
        [-0.25612979395297, 51.47164886598301],
        [-0.256427575633859, 51.4715426873934],
        [-0.256741014194814, 51.47144123704758],
        [-0.257100843352458, 51.4713314830036],
        [-0.257467523589364, 51.47123082211296],
        [-0.25783961604178, 51.47113923293223],
        [-0.258218525711492, 51.471057635523714],
        [-0.258521611771546, 51.47100098883791],
        [-0.258796807975725, 51.47095831511145],
        [-0.259122369878618, 51.47091638853359],
        [-0.259450433035698, 51.470884389861006],
        [-0.259781100246709, 51.47085962286732],
        [-0.260112932632456, 51.47084206617877],
        [-0.260445930349017, 51.470831719787],
        [-0.260780196084767, 51.47082588747458],
        [-0.261180520589364, 51.47082463081823],
        [-0.261664104075322, 51.47083000262723],
        [-0.262166053666573, 51.47084463707817],
        [-0.262667525670115, 51.47087185170403],
        [-0.263165676554261, 51.47091070514569],
        [-0.263660438447874, 51.47096299492413],
        [-0.264004341003231, 51.47100675447716],
        [-0.264313536681933, 51.47105449548057],
        [-0.264732686946171, 51.47112634401885],
        [-0.265147146408667, 51.47120801331735],
        [-0.265556881225061, 51.47130040216624],
        [-0.265959047618589, 51.47140256931505],
        [-0.266245469814831, 51.47148144189335],
        [-0.266511609909207, 51.47156361088888],
        [-0.266868556786819, 51.471681292724824],
        [-0.267219442782038, 51.47180697707708],
        [-0.267561355835196, 51.47194152021599],
        [-0.268064296592113, 51.47215847349373],
        [-0.269454393123719, 51.472827351334686],
        [-0.269923516283548, 51.47310134888471],
        [-0.270841371666247, 51.4736939996185],
        [-0.271589940688473, 51.47427065915931],
        [-0.272257676473326, 51.474891084833686],
        [-0.272554319189326, 51.4751958019662],
        [-0.272848019559697, 51.475502273456],
        [-0.273489431356496, 51.47628686520343],
        [-0.273944031350309, 51.47687087051819],
        [-0.274683673308498, 51.47795365070962],
        [-0.276120475126381, 51.48079030396317],
        [-0.276241528266484, 51.48105556086104],
        [-0.276334440487308, 51.48122688300153],
        [-0.276437496796448, 51.48139655567806],
        [-0.276561670277114, 51.48157912797601],
        [-0.276697529234705, 51.48175737565888],
        [-0.276832593472375, 51.48191852593519],
        [-0.276987607006806, 51.482085364607784],
        [-0.277836541339082, 51.48283251406082],
        [-0.278674120647195, 51.48349945812851],
        [-0.279430242444598, 51.48399704310752],
        [-0.279796738759876, 51.48417057759129],
        [-0.279849916675478, 51.484211823418306],
        [-0.279900655376629, 51.484241343330005],
        [-0.279998558508889, 51.48428054739559],
        [-0.280108687672799, 51.48430104666371],
        [-0.280265251964055, 51.4843123351749],
        [-0.280467304742459, 51.484339577562906],
        [-0.280555842164228, 51.48435975980156],
        [-0.280689766798859, 51.484398592205004],
        [-0.280817663360089, 51.48444452999494],
        [-0.282127956806664, 51.48506712131512],
        [-0.282327299764329, 51.48520492716864],
        [-0.282618280220147, 51.485625536499],
        [-0.282733775863862, 51.48573333803325],
        [-0.28281243069489, 51.48578664566179],
        [-0.282873080907252, 51.485820805588524],
        [-0.28399064460339, 51.48632275312915],
        [-0.284700913814095, 51.486548062327564],
        [-0.285709649560917, 51.486765141271526],
        [-0.286797941460256, 51.48697348211076],
        [-0.286926929315443, 51.486990653463174],
        [-0.287110687982614, 51.48700682620543],
        [-0.287250157113313, 51.487013359434044],
        [-0.287448951406339, 51.48701266571448],
        [-0.287457588780441, 51.48701279184885],
        [-0.287965552425994, 51.487025604114905],
        [-0.288138367333588, 51.4870263284274],
        [-0.288210177212223, 51.487031872838806],
        [-0.288361929588501, 51.48705656880107],
        [-0.288537145204925, 51.487108584134084],
        [-0.289399546635115, 51.48731090610797],
        [-0.289680189706737, 51.48735546512791],
        [-0.289829434730109, 51.48737023099424],
        [-0.290163113691238, 51.487383189701035],
        [-0.291688033563179, 51.48735595527087],
        [-0.291766140157446, 51.48734720142034],
        [-0.292116465341045, 51.48730014811713],
        [-0.29339611363235, 51.4869366013232],
        [-0.293951464449788, 51.4867603381224],
        [-0.29610001087297, 51.486076681558025],
        [-0.29637600286931, 51.48597548052442],
        [-0.296558959231704, 51.48589720687957],
        [-0.296739169861618, 51.485815296122404],
        [-0.296852324353958, 51.485754892170014],
        [-0.296924636009631, 51.48570828276818],
        [-0.296988377322857, 51.48565975038826],
        [-0.297064337823102, 51.485592511430305],
        [-0.297130388841664, 51.485520632342336],
        [-0.297196975315875, 51.485434373194295],
        [-0.297389535740935, 51.48521415821218],
        [-0.297837617005088, 51.48447519512573],
        [-0.298397125656962, 51.48376032815502],
        [-0.2990769234962, 51.48294738796815],
        [-0.299821472922406, 51.482174049887995],
        [-0.300914718937861, 51.48124030022561],
        [-0.302232560711599, 51.4803070946637],
        [-0.303067044367947, 51.47970769181439],
        [-0.304275206949118, 51.47854536918776],
        [-0.304822033512858, 51.4778959327524],
        [-0.305164428962367, 51.47740000660869],
        [-0.305271033850045, 51.4772046142997],
        [-0.305349166338229, 51.47707805172354],
        [-0.305529664198287, 51.47683157125246],
        [-0.30569186404842, 51.4766513697124],
        [-0.305806981900777, 51.47653703131444],
        [-0.305991774607063, 51.47636884587137],
        [-0.306241756585135, 51.47615124445473],
        [-0.306629045726835, 51.47584210471552],
        [-0.306998801235958, 51.47557857168763],
        [-0.308515822768648, 51.47474169247029],
        [-0.309564601096217, 51.474300003710155],
        [-0.310167240420268, 51.474046112498655],
        [-0.310523843610173, 51.47390377600026],
        [-0.311590728458039, 51.47347761717036],
        [-0.313268151912461, 51.47285520654358],
        [-0.314038088389795, 51.47259291113152],
        [-0.314781365287377, 51.47238957722141],
        [-0.315450381861985, 51.47213031833531],
        [-0.315904630859753, 51.47203343097091],
        [-0.316602153518002, 51.47186000250876],
        [-0.31688595473047, 51.471777749737534],
        [-0.317068124823729, 51.471718317083635],
        [-0.317406857401004, 51.471590990342946],
        [-0.317575131041376, 51.471517868939834],
        [-0.318231843505769, 51.47120086656688],
        [-0.318487829152061, 51.47105256668005],
        [-0.31863335283173, 51.47093235719111],
        [-0.318673760843777, 51.47089067245084],
        [-0.318729055128478, 51.47083571258362],
        [-0.318822572638543, 51.47072015259256],
        [-0.319221191781497, 51.46982483141314],
        [-0.319484608872426, 51.469160473667024],
        [-0.319655013798349, 51.46875466202554],
        [-0.319727561195347, 51.468543481623996],
        [-0.319908041098019, 51.46735367884841],
        [-0.31996046645261, 51.467063077039704],
        [-0.320118093114762, 51.46669125259369],
        [-0.320326172183432, 51.46623921928735],
        [-0.320751222541341, 51.46540631867099],
        [-0.320788634128684, 51.46540685446229],
        [-0.321734491142125, 51.465406908050156],
        [-0.321846791907285, 51.46540671691561],
        [-0.322514643150911, 51.46541087810186],
        [-0.322554833722231, 51.46541415079984],
        [-0.322618013886365, 51.4654186516074],
        [-0.322681259972685, 51.465421354848715],
        [-0.322744539020515, 51.465423159289784],
        [-0.322807851026132, 51.465424064930545],
        [-0.322871195985808, 51.46542407177088],
        [-0.322934606845317, 51.465422281044454],
        [-0.322999456609943, 51.46542051086372],
        [-0.323061494445849, 51.46541690195594],
        [-0.323074477575628, 51.465416188402074],
        [-0.323100443834071, 51.46541476129],
        [-0.323126410091027, 51.465413334172155],
        [-0.323152376346494, 51.46541190704856],
        [-0.323178375545178, 51.465409581152805],
        [-0.323204341797159, 51.46540815401766],
        [-0.323230340991331, 51.46540582811034],
        [-0.323256373126153, 51.46540260343082],
        [-0.323282405257433, 51.46539937874547],
        [-0.323306998476427, 51.46539613347808],
        [-0.323333096483993, 51.465391111248515],
        [-0.323357755577485, 51.4653860684375],
        [-0.323399945088193, 51.465374082391584],
        [-0.323450998598775, 51.46535592841166],
        [-0.323497801224711, 51.4653359151545],
        [-0.323544669684711, 51.465314104345076],
        [-0.323590132130992, 51.465291374177134],
        [-0.323635594532232, 51.465268643991045],
        [-0.323676674306109, 51.46524764960528],
        [-0.323720730651318, 51.465224000046945],
        [-0.323763380981107, 51.465199431134295],
        [-0.323804625295098, 51.465173942868866],
        [-0.323845902494409, 51.465147555821694],
        [-0.324070255882822, 51.46495742674947],
        [-0.32433548889149, 51.464751695201805],
        [-0.324657470681084, 51.4644901219633],
        [-0.32487625940204, 51.46429451642694],
        [-0.325140401887987, 51.46396107576751],
        [-0.32540607803116, 51.4636249587066],
        [-0.325582228761195, 51.463374788638376],
        [-0.325611079999123, 51.463333835722636],
        [-0.325701185792552, 51.46311390999659],
        [-0.32573299701228, 51.46299206793445],
        [-0.325774090495537, 51.46289194010786],
        [-0.325856284935356, 51.4628094846451],
        [-0.325943025767599, 51.46272079937392],
        [-0.325995234489706, 51.46263162102028],
        [-0.326033391776285, 51.46249368319998],
        [-0.326081275517542, 51.462444009515956],
        [-0.326208655757536, 51.462385579074834],
        [-0.326261644770598, 51.462314396494456],
        [-0.326340020427022, 51.46202146456833],
        [-0.326669691233066, 51.46174560780158],
        [-0.326720688689981, 51.46165011717368],
        [-0.326767369558403, 51.46155456492222],
        [-0.326809766733785, 51.46145805228389],
        [-0.326812874389353, 51.4614518019675],
        [-0.326861026505954, 51.4613553714354],
        [-0.3268890683443, 51.46125775467772],
        [-0.326889364146579, 51.46124966575916],
        [-0.326889922883842, 51.461234386690776],
        [-0.326889075707472, 51.46121818832252],
        [-0.326888195664688, 51.46120288872297],
        [-0.326887315622375, 51.46118758912337],
        [-0.326883558023437, 51.461172248461466],
        [-0.326878361648841, 51.46115688726824],
        [-0.326868783210534, 51.46114326201836],
        [-0.326863291038435, 51.461135989743084],
        [-0.326857798868061, 51.46112871746756],
        [-0.326850835054969, 51.46112232342898],
        [-0.326842432467068, 51.461115908858375],
        [-0.326835435790247, 51.46111041358763],
        [-0.326827000338714, 51.46110489778468],
        [-0.326817126113007, 51.461099361449186],
        [-0.326807251889695, 51.46109382511288],
        [-0.326797377668777, 51.46108828877576],
        [-0.326787470581534, 51.461083651206536],
        [-0.326777563496309, 51.46107901363648],
        [-0.326767689282198, 51.46107347729692],
        [-0.326740779855827, 51.461061403182526],
        [-0.326720899966598, 51.461053925571214],
        [-0.32670102008392, 51.46104644795658],
        [-0.326679602821229, 51.46104164611102],
        [-0.326656746788991, 51.46103682372769],
        [-0.326635329535619, 51.461032021874104],
        [-0.326612473513035, 51.461027199482224],
        [-0.326589584622829, 51.461023275854565],
        [-0.326568167383102, 51.46101847398882],
        [-0.326546783021314, 51.46101277335059],
        [-0.326526903185513, 51.46100529570681],
        [-0.326507023356261, 51.46099781805969],
        [-0.326497149192722, 51.460992281697706],
        [-0.3264844961104, 51.46098400795722],
        [-0.326471810157861, 51.460976632983964],
        [-0.326460595856273, 51.4609683797771],
        [-0.326449414433935, 51.46095922780061],
        [-0.326439638911894, 51.46095099512818],
        [-0.326429896268931, 51.460941863686394],
        [-0.326420153629835, 51.46093273224382],
        [-0.326411849764987, 51.46092362133733],
        [-0.326403578779477, 51.460913611661724],
        [-0.326395307797549, 51.46090360198553],
        [-0.326388475588624, 51.46089361284594],
        [-0.326383082151746, 51.460883644243154],
        [-0.326377721593691, 51.460872776871604],
        [-0.326373668300198, 51.46086552511133],
        [-0.326369746514597, 51.46085467827668],
        [-0.326367263498638, 51.46084385197935],
        [-0.326364780483796, 51.46083302568193],
        [-0.326363736237229, 51.46082221992189],
        [-0.326362691991095, 51.460811414161824],
        [-0.326363086511875, 51.46080062893917],
        [-0.326363481032409, 51.460789843716505],
        [-0.326363875552698, 51.4607790584938],
        [-0.326365741714836, 51.460767395039916],
        [-0.326367574999373, 51.46075663035454],
        [-0.326369408282989, 51.46074586566909],
        [-0.326372680330109, 51.4607351215209],
        [-0.32637614963388, 51.46071898476113],
        [-0.326379684687632, 51.46070105046407],
        [-0.32638606438792, 51.46068405600964],
        [-0.326392476959317, 51.460666162786204],
        [-0.326400328287257, 51.460648290099236],
        [-0.326408146733276, 51.46063131618025],
        [-0.326418842694683, 51.46061438333405],
        [-0.326428099887909, 51.46059742995019],
        [-0.32644023459337, 51.46058051763838],
        [-0.326452336415053, 51.460564504093796],
        [-0.326452402164431, 51.46056270655655],
        [-0.326557141028322, 51.460375361556075],
        [-0.326628878873111, 51.46022441422478],
        [-0.326683968312283, 51.46009571019689],
        [-0.32669139212116, 51.46008952148142],
        [-0.326697410053158, 51.460082413463525],
        [-0.326701956370133, 51.46007618368107],
        [-0.32670653555497, 51.460069055129594],
        [-0.326711114738358, 51.46006192657791],
        [-0.326715693920298, 51.460054798026015],
        [-0.326718834357722, 51.4600476489411],
        [-0.3267205360513, 51.460040479323254],
        [-0.326723676486936, 51.46003333023816],
        [-0.326725411047865, 51.46002526185139],
        [-0.326725641128678, 51.46001897046949],
        [-0.326725904078076, 51.460011780318744],
        [-0.326726199896019, 51.46000369139916],
        [-0.326726462845185, 51.45999650124838],
        [-0.326725287053008, 51.459989290564856],
        [-0.32672414412984, 51.45998118111248],
        [-0.326722968338367, 51.45997397042894],
        [-0.326718915066192, 51.459966718679745],
        [-0.326716300535569, 51.45995948746328],
        [-0.326710808525627, 51.45995221518095],
        [-0.326706722388271, 51.45994586220019],
        [-0.326703943515626, 51.45994312482768],
        [-0.326698352902205, 51.45993854885131],
        [-0.326692762289897, 51.459933972874694],
        [-0.326687171678704, 51.4599293968978],
        [-0.326680109459984, 51.459925699156216],
        [-0.326673047242408, 51.45992200141419],
        [-0.326665952156242, 51.459919202440595],
        [-0.326657418332057, 51.45991638293302],
        [-0.326648917378998, 51.459912664656],
        [-0.326641789425577, 51.45991076444981],
        [-0.326633255604483, 51.45990794494047],
        [-0.326623283045938, 51.459905104896585],
        [-0.326614716356341, 51.45990318415474],
        [-0.326606149667476, 51.4599012634123],
        [-0.326589049163163, 51.45989652315673],
        [-0.326579076609923, 51.45989368310911],
        [-0.326570509924386, 51.45989176236407],
        [-0.32656482071556, 51.459889882687854],
        [-0.326541998140721, 51.459884161517785],
        [-0.326517671088877, 51.4598802173456],
        [-0.326493278295181, 51.459878070705905],
        [-0.32646888550389, 51.45987592406117],
        [-0.326444492715004, 51.45987377741137],
        [-0.326420099928524, 51.45987163075652],
        [-0.326395740019434, 51.4598685853279],
        [-0.326372884601642, 51.45986376289388],
        [-0.326351500801467, 51.45985806222407],
        [-0.326334466092791, 51.45985152439434],
        [-0.326323153458243, 51.459845967481584],
        [-0.326311840826455, 51.459840410567736],
        [-0.326300561074237, 51.45983395488417],
        [-0.326289248448181, 51.459828397968195],
        [-0.326279407437771, 51.459821962820676],
        [-0.326269566430129, 51.45981552767234],
        [-0.326259758302838, 51.459808193754526],
        [-0.326251388913646, 51.45980088037446],
        [-0.326244458261846, 51.459793587532424],
        [-0.326237560490231, 51.45978539592133],
        [-0.326233540189473, 51.45977724538732],
        [-0.326229552768248, 51.459768196084525],
        [-0.326226905447678, 51.45976186362636],
        [-0.32622713559486, 51.45975557224579],
        [-0.326227332863808, 51.459750179633865],
        [-0.326227563010836, 51.45974388825328],
        [-0.326229231890737, 51.45973761741145],
        [-0.3262308678921, 51.459732245338266],
        [-0.326232536771087, 51.45972597449637],
        [-0.326235644381997, 51.45971972419316],
        [-0.326238719114154, 51.4597143726585],
        [-0.326241826723397, 51.45970812235508],
        [-0.326246340185898, 51.459702791358815],
        [-0.326257068859249, 51.45968495975468],
        [-0.326260176463906, 51.45967870945073],
        [-0.326264722798631, 51.45967247968496],
        [-0.326266260161457, 51.45966980391722],
        [-0.32627551721166, 51.45965285054156],
        [-0.326289057567477, 51.45963685754787],
        [-0.326302597913732, 51.4596208645525],
        [-0.326317576979275, 51.45960489209306],
        [-0.326333961886763, 51.459589838937774],
        [-0.326350346783406, 51.45957478578005],
        [-0.326365292941738, 51.459559712082864],
        [-0.326381710692031, 51.459543760151725],
        [-0.326395250977829, 51.459527767144856],
        [-0.326407352528079, 51.45951175359976],
        [-0.326416412248067, 51.45950019282446],
        [-0.326428678152863, 51.459479685433045],
        [-0.326440944046478, 51.45945917804018],
        [-0.326453209928911, 51.45943867064584],
        [-0.326462598353991, 51.45941812217848],
        [-0.326470548047995, 51.45939755317449],
        [-0.326471336998577, 51.45937598272274],
        [-0.326471632854793, 51.45936789380331],
        [-0.326469084141304, 51.45935886504363],
        [-0.326466535428781, 51.4593498362839],
        [-0.326463953844199, 51.45934170629293],
        [-0.326458527692778, 51.45933263646142],
        [-0.326454507390388, 51.45932448593442],
        [-0.326449048369525, 51.45931631487129],
        [-0.326443622223969, 51.45930724503911],
        [-0.326438163207049, 51.45929907397551],
        [-0.326431265472989, 51.459290882375484],
        [-0.326425806460174, 51.45928271131133],
        [-0.32642034744928, 51.45927454024692],
        [-0.326419007352226, 51.45927182340418],
        [-0.326399917268258, 51.459242775292175],
        [-0.326379355617043, 51.45921460540918],
        [-0.326358793990831, 51.45918643552267],
        [-0.326335322084644, 51.45915912332689],
        [-0.326311850206214, 51.45913181112654],
        [-0.3262854680531, 51.45910535661462],
        [-0.32625905305354, 51.459079800865695],
        [-0.326231232249083, 51.4590533258037],
        [-0.326026934611425, 51.45889304246753],
        [-0.326021344192362, 51.458888466459875],
        [-0.326017159599112, 51.458884809761784],
        [-0.326013007887866, 51.458880254294854],
        [-0.326008856177441, 51.4588756988278],
        [-0.326006143173389, 51.45887116390184],
        [-0.326001991464457, 51.45886660843453],
        [-0.326000717166869, 51.45886209404977],
        [-0.325998037046009, 51.45885666035496],
        [-0.325996762749068, 51.458852145970155],
        [-0.325995521334011, 51.458846732816646],
        [-0.325994181274242, 51.458844015969184],
        [-0.325994378564211, 51.45883862335706],
        [-0.325994575854118, 51.45883323074492],
        [-0.325994740262327, 51.45882873690147],
        [-0.325996376256164, 51.4588233648307],
        [-0.325997979368042, 51.45881889152861],
        [-0.326001021183361, 51.45881443876779],
        [-0.326002657175913, 51.45880906669691],
        [-0.326005698990104, 51.45880461393597],
        [-0.326008773685023, 51.45879926240621],
        [-0.326011782616685, 51.45879570841379],
        [-0.326016361775628, 51.458788579887575],
        [-0.326020940933123, 51.45878145136117],
        [-0.326025487208199, 51.45877522160327],
        [-0.326031472184379, 51.458769012386114],
        [-0.326038895861093, 51.458762823709456],
        [-0.32604481507267, 51.45875841202903],
        [-0.326050668522199, 51.458755797885736],
        [-0.326056521971061, 51.45875318374215],
        [-0.326063781240872, 51.45875148890752],
        [-0.326069601808371, 51.45874977353199],
        [-0.326076828197241, 51.458748977465284],
        [-0.32608405458587, 51.45874818139812],
        [-0.3260984744829, 51.458747488031214],
        [-0.326105733750309, 51.45874579319397],
        [-0.326112960137972, 51.45874499712502],
        [-0.326120186525394, 51.45874420105562],
        [-0.326127445791505, 51.458742506217014],
        [-0.326133299234351, 51.45873989206954],
        [-0.326137746853812, 51.458736358613365],
        [-0.326143600295287, 51.45873374446535],
        [-0.326146609212127, 51.45873019046929],
        [-0.326151056829612, 51.45872665701258],
        [-0.326155537324762, 51.45872222478695],
        [-0.326158546239903, 51.45871867079056],
        [-0.3261615880328, 51.45871421802531],
        [-0.326161653789249, 51.45871242048773],
        [-0.326163158246312, 51.45871064348946],
        [-0.326164761337727, 51.458706170184804],
        [-0.32616636442882, 51.458701696880134],
        [-0.326167967519589, 51.458697223575435],
        [-0.326169570610035, 51.458692750270686],
        [-0.326169735000234, 51.45868825642672],
        [-0.32616989939039, 51.45868376258276],
        [-0.32616865795891, 51.45867834943079],
        [-0.326168822349114, 51.45867385558682],
        [-0.326166109340622, 51.45866932066438],
        [-0.326164802153735, 51.45866570504998],
        [-0.326162089146109, 51.45866117012746],
        [-0.326159376139011, 51.458656635204875],
        [-0.326156663132442, 51.45865210028224],
        [-0.326152478549445, 51.458648443588935],
        [-0.326148293967112, 51.45864478689549],
        [-0.326144109385445, 51.458641130201876],
        [-0.326139957683005, 51.45863657473935],
        [-0.326134334404591, 51.45863289750586],
        [-0.326130116946371, 51.458630139580556],
        [-0.326124493669538, 51.458626462346594],
        [-0.326117431695782, 51.45862276457254],
        [-0.326111808420874, 51.45861908733799],
        [-0.326104713570058, 51.45861628833198],
        [-0.326097618720116, 51.45861348932552],
        [-0.326089085173623, 51.458610669778494],
        [-0.326081990325523, 51.45860787077113],
        [-0.32607342390123, 51.45860594999174],
        [-0.326064857477669, 51.45860402921172],
        [-0.326056291054841, 51.458602108431094],
        [-0.325922204429548, 51.45856872063506],
        [-0.32591261837532, 51.458437294981586],
        [-0.325729690936991, 51.45836184462015],
        [-0.325602355090267, 51.45826200922029],
        [-0.325570244425287, 51.45811677327364],
        [-0.325621149674661, 51.45798441299093],
        [-0.325739499549801, 51.45789707849116],
        [-0.325975030947878, 51.45783299876754],
        [-0.326168602179973, 51.45781418069611],
        [-0.326345170359336, 51.457630558984754],
        [-0.326528189612859, 51.45738857859766],
        [-0.326636860020024, 51.45729031418201],
        [-0.326910774111442, 51.45704243654772],
        [-0.327047650041899, 51.45699942778415],
        [-0.327117420906476, 51.45702020656154],
        [-0.327268617341767, 51.45697920034653],
        [-0.327635051342501, 51.457350417663875],
        [-0.328215309399344, 51.457857770105505],
        [-0.328411936313742, 51.457952295897464],
        [-0.328704797301656, 51.45801312289556],
        [-0.329055211817463, 51.458035202934724],
        [-0.329529817765899, 51.45800689562311],
        [-0.330367799135821, 51.457882147718045],
        [-0.330692464524245, 51.45774199337095],
        [-0.331083772969708, 51.45751106451685],
        [-0.33141569914779, 51.45729008013171],
        [-0.331837593174038, 51.45677272719114],
        [-0.332155743637374, 51.456574025674165],
        [-0.332344086938406, 51.45638246940186],
        [-0.332470947437348, 51.45586361503416],
        [-0.332561748673948, 51.45578127731743],
        [-0.332646631402475, 51.455703351551946],
        [-0.332858506393839, 51.45557687423578],
        [-0.332940543766684, 51.45549800856197],
        [-0.333030199478864, 51.45540756105626],
        [-0.333252566037944, 51.45530910857924],
        [-0.333494612237637, 51.45526309121249],
        [-0.33363203175078, 51.45524436195522],
        [-0.333701861728345, 51.45546117151187],
        [-0.33370951156683, 51.455488257369076],
        [-0.334278021479449, 51.455528708349576],
        [-0.334707216417165, 51.45556088319482],
        [-0.336033484183506, 51.45566244347657],
        [-0.336293121447266, 51.4556868105246],
        [-0.336532678294419, 51.455511261358936],
        [-0.336635303554769, 51.455301396547945],
        [-0.336983517672423, 51.45463100881359],
        [-0.337266462593179, 51.45468717765534],
        [-0.337421145664698, 51.454747821707144],
        [-0.337561641180909, 51.45484243540838],
        [-0.337669443558358, 51.454965361002294],
        [-0.337950845502638, 51.4554207677276],
        [-0.337736987229271, 51.45548338020111],
        [-0.338555108320781, 51.45610196174181],
        [-0.33858149308805, 51.45608884707334],
        [-0.33897301217042, 51.45589026761972],
        [-0.339402797154832, 51.45622367804818],
        [-0.339890989810848, 51.45661366657833],
        [-0.340481083629708, 51.457091422134965],
        [-0.340630494566429, 51.45725809719508],
        [-0.340677895959196, 51.45745929787963],
        [-0.340738939632126, 51.457720940470026],
        [-0.340732672816831, 51.45781437241078],
        [-0.340724743816478, 51.45795364190302],
        [-0.340651887274918, 51.45817652076737],
        [-0.340520969378767, 51.45849209843077],
        [-0.340364250574642, 51.45880461302091],
        [-0.340205173783575, 51.45910270622974],
        [-0.340134004060896, 51.45923928191397],
        [-0.340427602293817, 51.45924074029863],
        [-0.340575823853632, 51.45924193896553],
        [-0.34107017754614, 51.4591455224038],
        [-0.341557303009349, 51.45904990076045],
        [-0.34172386359379, 51.45902168257392],
        [-0.34185918426716, 51.458902199462294],
        [-0.341993651728092, 51.45876651787259],
        [-0.342148716220736, 51.458618538058786],
        [-0.342370898273947, 51.45840586269832],
        [-0.342679680299082, 51.458107185127716],
        [-0.342963714794309, 51.458054547815465],
        [-0.343521732303814, 51.45806782834326],
        [-0.343668836878283, 51.45806001497156],
        [-0.343878090569724, 51.458005419765364],
        [-0.34406786018529, 51.45797213067981],
        [-0.344325743535744, 51.457965881021956],
        [-0.344630128176081, 51.457987264437776],
        [-0.344842786202603, 51.457957894199325],
        [-0.345054330337247, 51.457919515489934],
        [-0.345293826735113, 51.45786444540593],
        [-0.345546837992331, 51.45771424649219],
        [-0.345596772232662, 51.45744787790523],
        [-0.345728592455747, 51.45738499286951],
        [-0.346040886693105, 51.45726710260637],
        [-0.346202203192981, 51.457224416335485],
        [-0.346410011453274, 51.45716979624767],
        [-0.346570158154889, 51.457159465481965],
        [-0.346641409536427, 51.45717935422949],
        [-0.346654519913169, 51.457175042925435],
        [-0.34703148531662, 51.45705986045773],
        [-0.347380497562592, 51.45696136826672],
        [-0.347562764404349, 51.45689649452795],
        [-0.347720811469934, 51.45686455093395],
        [-0.347738237631418, 51.4568603003295],
        [-0.347997379836025, 51.45681899015311],
        [-0.348704624772132, 51.45676510742891],
        [-0.349235034995546, 51.456785165887005],
        [-0.350140631035418, 51.456779028838795],
        [-0.350574152931063, 51.45677163995112],
        [-0.350872278968405, 51.456766841293636],
        [-0.351653729255705, 51.45677063637053],
        [-0.352414017836244, 51.456842470782476],
        [-0.352655486421229, 51.456852158405724],
        [-0.352671279342404, 51.45685327953684],
        [-0.352839376289889, 51.456861935868616],
        [-0.35284071588054, 51.456944684374115],
        [-0.352841997832048, 51.45738892480909],
        [-0.353015281051115, 51.45761347028506],
        [-0.353180289606771, 51.45782800767327],
        [-0.353461169886798, 51.45818265436404],
        [-0.354900588590443, 51.45834314048422],
        [-0.355163614081574, 51.45835402459287],
        [-0.356431330648339, 51.45840597320568],
        [-0.356795583319007, 51.458403884841516],
        [-0.357157087631763, 51.45839815989565],
        [-0.357533591986191, 51.45837555849939],
        [-0.357908786300629, 51.4583493406077],
        [-0.358606134848598, 51.45829076329872],
        [-0.359817809931751, 51.4582195947691],
        [-0.36144063653876, 51.45800218973168],
        [-0.36203313853469, 51.45781623391876],
        [-0.362424233460344, 51.4577074941517],
        [-0.362867456530786, 51.457670520504536],
        [-0.364209580810079, 51.45761371736393],
        [-0.364441981530407, 51.457595377885134],
        [-0.364480619698856, 51.457682243376034],
        [-0.365063593721202, 51.45780277833121],
        [-0.366971408863706, 51.45754430882176],
        [-0.367361047043847, 51.45747599789385],
        [-0.367585867726784, 51.45746833744896],
        [-0.367828946454006, 51.457433054482806],
        [-0.368131958948921, 51.457170199731294],
        [-0.368436499367806, 51.4569451332995],
        [-0.36845271272386, 51.45689410257148],
        [-0.368460835410532, 51.45686813781223],
        [-0.368480912747982, 51.45687021566444],
        [-0.369591500363077, 51.456968394091334],
        [-0.36982952035822, 51.45699418456053],
        [-0.370708966369916, 51.45707564989049],
        [-0.371974366670893, 51.457192143102766],
        [-0.372463264458689, 51.457246590033556],
        [-0.37258906879208, 51.45710895506568],
        [-0.372693931788835, 51.45699351015673],
        [-0.372714585097373, 51.45701987458669],
        [-0.372861524941558, 51.45721884607143],
        [-0.373045361471367, 51.457473182604595],
        [-0.373414654010793, 51.457288568139184],
        [-0.374201693077153, 51.45681120037762],
        [-0.374759149721811, 51.45655635281363],
        [-0.375275485337777, 51.45628384735901],
        [-0.375301471555468, 51.45620057873513],
        [-0.375932489520189, 51.4556976572661],
        [-0.376198493225757, 51.45550261098406],
        [-0.376478111936907, 51.455288868729106],
        [-0.376750598674408, 51.455073228604334],
        [-0.377268836360764, 51.454624490997475],
        [-0.377519130919403, 51.454425627385696],
        [-0.377769391435392, 51.454227662006616],
        [-0.378848890642769, 51.453414399220776],
        [-0.379729597340925, 51.45272696989082],
        [-0.380650000714513, 51.45197443824072],
        [-0.382133439914557, 51.45080523206241],
        [-0.382852521831103, 51.450249534839],
        [-0.383448184537236, 51.44976496948724],
        [-0.383739622589539, 51.44954058222227],
        [-0.383786763878224, 51.44950975891834],
        [-0.384567562634061, 51.44989550041079],
        [-0.387797483872463, 51.4494336919269],
        [-0.387693254464479, 51.449369312262355],
        [-0.38758905701092, 51.449304033709105],
        [-0.387433903561037, 51.44913284389898],
        [-0.386965092820113, 51.44871454582733],
        [-0.386773412879518, 51.4485590387543],
        [-0.38658954108525, 51.448427018883585],
        [-0.386411043819291, 51.44830586349046],
        [-0.386361066799464, 51.44825391931932],
        [-0.386318281960844, 51.44820207411948],
        [-0.386300267074692, 51.44814157750765],
        [-0.38629097774951, 51.4480785032926],
        [-0.38634601777217, 51.447864344022655],
        [-0.386363411739343, 51.44777915623009],
        [-0.386382712968266, 51.447558210396416],
        [-0.386444709321392, 51.44730997592962],
        [-0.386452490459009, 51.44725253206215],
        [-0.386408635530531, 51.44714941583099],
        [-0.386322484924688, 51.44702143811337],
        [-0.386313994295243, 51.44685406375973],
        [-0.386293166533934, 51.44679172994648],
        [-0.38626649030535, 51.44673201332829],
        [-0.385996547247956, 51.446592513035505],
        [-0.385751165143875, 51.44649111811821],
        [-0.384495767577488, 51.445894718996364],
        [-0.384167402453696, 51.44573912237616],
        [-0.383940917701327, 51.44563258866021],
        [-0.383253423074116, 51.44521485741954],
        [-0.382870760438907, 51.445048616720385],
        [-0.381839392668173, 51.444874321948454],
        [-0.381487475993823, 51.44481550997035],
        [-0.380570253218469, 51.444628392004475],
        [-0.379790177764393, 51.444388308971774],
        [-0.379753411562847, 51.44432935058769],
        [-0.379631563930273, 51.44427551090932],
        [-0.37980585510528, 51.44410796436857],
        [-0.379812598369458, 51.443917419770685],
        [-0.379722107467323, 51.44387210663891],
        [-0.379551575844257, 51.443770833788825],
        [-0.37948467043342, 51.443709660244096],
        [-0.37942495652932, 51.44364858607078],
        [-0.379391608765877, 51.44357438782091],
        [-0.379463883821793, 51.44344319936509],
        [-0.379628817977514, 51.4433366717137],
        [-0.379629758734872, 51.44322877651884],
        [-0.379517554976784, 51.44310582889532],
        [-0.37931735784252, 51.442948393042144],
        [-0.379090732836292, 51.44280587843549],
        [-0.378512563673938, 51.44259465590643],
        [-0.378244271749386, 51.442491129668596],
        [-0.3779158356201, 51.44242004235016],
        [-0.377627070692283, 51.44240705417599],
        [-0.377377302091747, 51.44243057445681],
        [-0.377146808243926, 51.44247864038172],
        [-0.376905358536864, 51.44259219835262],
        [-0.376708764666308, 51.44286104542079],
        [-0.376590359219622, 51.44295382555256],
        [-0.376412184481031, 51.44302779311988],
        [-0.376092579183879, 51.44307282436378],
        [-0.375961571336957, 51.44307460652655],
        [-0.375698436251994, 51.4430691625494],
        [-0.375560524197318, 51.44306275548536],
        [-0.374880484726541, 51.442965205516494],
        [-0.374716461440863, 51.44296473014219],
        [-0.374553748765315, 51.442967869652],
        [-0.373953142324421, 51.44302428564731],
        [-0.373670260156933, 51.44312916919482],
        [-0.373607684166451, 51.443229914711054],
        [-0.37356169780547, 51.44339023989796],
        [-0.373524561419209, 51.44346346199845],
        [-0.37348183153718, 51.443532110304474],
        [-0.373415513292819, 51.443576151956435],
        [-0.373345071744804, 51.44361474094598],
        [-0.373168422292639, 51.44364556146907],
        [-0.372893746371005, 51.44364085029416],
        [-0.372615074653007, 51.44358662504792],
        [-0.372367469393409, 51.44346808548633],
        [-0.372119130385914, 51.44337021762557],
        [-0.371971757518992, 51.44334658949004],
        [-0.371504614170788, 51.4432915425936],
        [-0.371242661677641, 51.44325283331623],
        [-0.370993398868504, 51.44318102805325],
        [-0.370878660042694, 51.44312997568284],
        [-0.370769770393631, 51.443076306778735],
        [-0.370622465533463, 51.44296994817808],
        [-0.370590569597199, 51.442936233136145],
        [-0.369712210851516, 51.44250857460218],
        [-0.369682520246498, 51.44249377393147],
        [-0.369420770451906, 51.44236873669711],
        [-0.369218048100654, 51.44232365277526],
        [-0.368976814527545, 51.442269040349316],
        [-0.368297128455786, 51.442081533319524],
        [-0.367773955745626, 51.441903395447945],
        [-0.367451998594821, 51.441812585695196],
        [-0.367100129103871, 51.44171326528299],
        [-0.366850817202779, 51.441643248903816],
        [-0.370401807981224, 51.44007313922956],
        [-0.374879370960317, 51.438131797444434],
        [-0.377891830238656, 51.4368021849434],
        [-0.377933723402717, 51.43630998323608],
        [-0.376138156342547, 51.43553965739259],
        [-0.376212928887897, 51.43550022750442],
        [-0.37628185367708, 51.43546341428037],
        [-0.376511280761231, 51.435322714052404],
        [-0.376981775867593, 51.435159273401275],
        [-0.377454665972647, 51.43500935256864],
        [-0.377865432979982, 51.43486666334406],
        [-0.378203083033831, 51.4347166664988],
        [-0.378886616311026, 51.434387108970164],
        [-0.379385030757602, 51.434084663202086],
        [-0.38153076023792, 51.433047813694664],
        [-0.382544792704498, 51.43252406639041],
        [-0.382771288094923, 51.43242467842387],
        [-0.382936469910363, 51.43235052208882],
        [-0.383314072079156, 51.432127324382506],
        [-0.383708682126985, 51.431829723372886],
        [-0.384104767596489, 51.43157170777739],
        [-0.384459002793728, 51.43135807590111],
        [-0.384910753410207, 51.43103068433254],
        [-0.385665001350809, 51.43052850928434],
        [-0.386022464258726, 51.43026366070976],
        [-0.386821183521335, 51.42972342342457],
        [-0.387123046622572, 51.429484783441616],
        [-0.387314570267809, 51.42931566439098],
        [-0.387910512836608, 51.42873216421349],
        [-0.387985534385136, 51.42864417154373],
        [-0.387445037699352, 51.428510844319],
        [-0.387147462416431, 51.428178529043116],
        [-0.388088716315365, 51.42787854190186],
        [-0.388216990132727, 51.42803497439377],
        [-0.388381765860798, 51.4280534262077],
        [-0.388382256989831, 51.42799857954636],
        [-0.388124585334911, 51.427758537467355],
        [-0.387746941122608, 51.42733070279924],
        [-0.387648009539295, 51.42719895274898],
        [-0.387347949069749, 51.426773982328235],
        [-0.38670213599858, 51.42595578267285],
        [-0.386483492530497, 51.42571087853312],
        [-0.386294763757227, 51.425392648373546],
        [-0.385858559187109, 51.4247499826682],
        [-0.385563331432206, 51.42435205101119],
        [-0.385207759057945, 51.42395238801795],
        [-0.38492476383735, 51.42361577129922],
        [-0.384684743193704, 51.423284242274484],
        [-0.384229386736517, 51.42277799023844],
        [-0.384112304283202, 51.42267206468889],
        [-0.384101594164357, 51.422527139807336],
        [-0.384218701806908, 51.42226527758519],
        [-0.384398163219107, 51.42198898766314],
        [-0.384613054943776, 51.42172757355525],
        [-0.384856513582663, 51.421390117501566],
        [-0.384877875201076, 51.421355341586214],
        [-0.384929730650398, 51.42127152777431],
        [-0.38511320379697, 51.42108521579207],
        [-0.385165957557415, 51.421016701291286],
        [-0.38526772207487, 51.42086343437789],
        [-0.385328942292305, 51.42079953262582],
        [-0.385392910751654, 51.42073926564948],
        [-0.38551772432724, 51.42074817878877],
        [-0.385732653959603, 51.42085275286068],
        [-0.386361609221826, 51.421085323323204],
        [-0.387029824140336, 51.42138767190283],
        [-0.388203630226353, 51.42187322051828],
        [-0.389271457788253, 51.42234651009125],
        [-0.39011364666608, 51.42269259629179],
        [-0.390435249139072, 51.42283189841354],
        [-0.390749791732324, 51.42296750576767],
        [-0.391129853231719, 51.42316246196578],
        [-0.39189913470334, 51.423291717628935],
        [-0.39234318020304, 51.42338503466328],
        [-0.3927703542044, 51.42346732783045],
        [-0.392906268162566, 51.423283049405136],
        [-0.392375833002135, 51.42311031611],
        [-0.392093480065685, 51.4229589684608],
        [-0.39202570428324, 51.42292296849504],
        [-0.391771695908137, 51.42278369896252],
        [-0.391567496842765, 51.42257766960912],
        [-0.391412322040397, 51.42240918138302],
        [-0.391363471381939, 51.42232578118932],
        [-0.391384719893423, 51.42233506516653],
        [-0.391583271135351, 51.42241512420962],
        [-0.391784792942086, 51.42249252595835],
        [-0.391989316838818, 51.42256637159332],
        [-0.392195373637387, 51.42263754018341],
        [-0.392404369390212, 51.42270695024132],
        [-0.392600710998823, 51.42276809326444],
        [-0.392614929532342, 51.42277278442862],
        [-0.392828460115205, 51.42283596125258],
        [-0.393043523490599, 51.42289646098779],
        [-0.393261525733187, 51.42295520213648],
        [-0.393295745081798, 51.422963764324074],
        [-0.393539530741032, 51.4230255560783],
        [-0.393784880737592, 51.42308377181177],
        [-0.394033232652736, 51.423138431211214],
        [-0.394281679671767, 51.42319039367438],
        [-0.394533160013694, 51.42323790097208],
        [-0.394786172997091, 51.423282731006765],
        [-0.394883428518763, 51.42329845061421],
        [-0.395016467639514, 51.42331915629593],
        [-0.395135224941592, 51.42333696857802],
        [-0.395388585355019, 51.423371910463274],
        [-0.39564350970369, 51.4234032762594],
        [-0.395898560288785, 51.42343104628165],
        [-0.396155174694293, 51.42345524019972],
        [-0.396413321404148, 51.42347675680868],
        [-0.396671562730264, 51.423495576433325],
        [-0.39692989862723, 51.423511699072755],
        [-0.397143793450886, 51.4235236165027],
        [-0.397472637285646, 51.42353890360074],
        [-0.397803076166415, 51.423549715396845],
        [-0.398117858219361, 51.42355581611456],
        [-0.398133672349628, 51.42355603222995],
        [-0.398462956670908, 51.42355873326188],
        [-0.398793867173677, 51.42355606016671],
        [-0.399123497038428, 51.42354887246743],
        [-0.399453283816566, 51.42353718980455],
        [-0.399657900855475, 51.42352649505969],
        [-0.399964904722424, 51.423508205252595],
        [-0.400270596246916, 51.423486299788664],
        [-0.400575006735252, 51.42345987986992],
        [-0.40087813609925, 51.423428945505464],
        [-0.401181390531536, 51.4233944151217],
        [-0.401481926030894, 51.42335535069768],
        [-0.401781180157427, 51.42331177185548],
        [-0.402031397163353, 51.42327201993361],
        [-0.402304960774295, 51.4232226941116],
        [-0.402572992615232, 51.42316699761707],
        [-0.402839742840585, 51.42310678687117],
        [-0.403103742413306, 51.42304294110497],
        [-0.403367803904991, 51.42297729711918],
        [-0.403630489652319, 51.42290983533388],
        [-0.403893143325419, 51.42284327176149],
        [-0.404157202567978, 51.42277762597501],
        [-0.404337064885931, 51.42273421357384],
        [-0.404927279542181, 51.42259567132041],
        [-0.405382947526869, 51.42247957515102],
        [-0.405931677119957, 51.422665087455634],
        [-0.406366963331929, 51.42284545793558],
        [-0.40651281994426, 51.42291128656941],
        [-0.406975644895014, 51.423168464117985],
        [-0.407797078096232, 51.42357798602392],
        [-0.408278572933635, 51.42375358154685],
        [-0.408462752563368, 51.423834315866856],
        [-0.408543110107718, 51.423963997502206],
        [-0.408558429408748, 51.424102687665226],
        [-0.408658321985039, 51.42424971989683],
        [-0.408742057293916, 51.42440642428203],
        [-0.408773224766704, 51.424585795110985],
        [-0.408806306935853, 51.424958527388846],
        [-0.408870415590571, 51.425100577474474],
        [-0.40897243755117, 51.42526921993607],
        [-0.40902798517146, 51.425450720047806],
        [-0.409362613729224, 51.42575560573305],
        [-0.409532428341353, 51.42587750815463],
        [-0.409741096371264, 51.426040402988576],
        [-0.410077132024651, 51.42622211053259],
        [-0.410179997213009, 51.42628375442079],
        [-0.410347788685607, 51.426464078425425],
        [-0.41042193409589, 51.426565798159366],
        [-0.410488828686566, 51.426669217990295],
        [-0.410547103500986, 51.42685525045599],
        [-0.410810930884121, 51.42721132736964],
        [-0.410889831870988, 51.42734188675135],
        [-0.411208877591688, 51.42751616674293],
        [-0.411327687496461, 51.427574428763535],
        [-0.41158643454653, 51.42766246323524],
        [-0.411743687349575, 51.427690671788135],
        [-0.412060005218664, 51.42773632199907],
        [-0.412211881263574, 51.427753666275756],
        [-0.41266078832869, 51.42779211839883],
        [-0.412838482775366, 51.427811609943845],
        [-0.413107417715091, 51.427854817279346],
        [-0.412474025362712, 51.42878144421917],
        [-0.41437374971229, 51.429295440453124],
        [-0.413827456332367, 51.43007487905446],
        [-0.416063077516835, 51.43069500539759],
        [-0.416165422347939, 51.4305642009585],
        [-0.416384960430824, 51.430622020200765],
        [-0.417921711696422, 51.431027642313786],
        [-0.417797439399509, 51.43121030781364],
        [-0.417315526926349, 51.431917793339885],
        [-0.417725923097882, 51.432031241420425],
        [-0.418377543097373, 51.43186648305564],
        [-0.418496425111143, 51.432006568824754],
        [-0.41857578017144, 51.43208317494243],
        [-0.418605076745615, 51.43210964791346],
        [-0.418653852723861, 51.432155267539564],
        [-0.418809708707427, 51.43226617706081],
        [-0.419008972091915, 51.43232821400225],
        [-0.419010410030005, 51.43232823339533],
        [-0.419099976353962, 51.43235911599587],
        [-0.419277153079662, 51.43235251293184],
        [-0.420015195731201, 51.43226804327405],
        [-0.420156795616229, 51.43225016857545],
        [-0.420343498394667, 51.43221761453811],
        [-0.42058116070823, 51.43220912685685],
        [-0.420901634422517, 51.43221883965981],
        [-0.421175170365506, 51.432171267776745],
        [-0.421449913865875, 51.432088641450754],
        [-0.42176781198356, 51.43196433156516],
        [-0.422093376042165, 51.4318680002171],
        [-0.422442781363615, 51.43174770953906],
        [-0.42274776676861, 51.43153869538849],
        [-0.422961787499921, 51.4314228761379],
        [-0.423519546572672, 51.43118398870883],
        [-0.423600904489804, 51.43116080353492],
        [-0.423596267554822, 51.43104474019408],
        [-0.423520030252265, 51.430877356945345],
        [-0.424214255829513, 51.43097841280377],
        [-0.424358633228925, 51.430963268084604],
        [-0.424944058425106, 51.430923476132975],
        [-0.42566298813957, 51.43080814033838],
        [-0.425882660191969, 51.430778717987565],
        [-0.426368575886478, 51.43078793966104],
        [-0.426749481505203, 51.43083891318842],
        [-0.427098008121658, 51.43082740400354],
        [-0.427395745323555, 51.43082870092009],
        [-0.427506833666945, 51.43081940036584],
        [-0.427555543164773, 51.43069955665939],
        [-0.427674196072529, 51.430344153046875],
        [-0.427837214329227, 51.42953433281643],
        [-0.427854597250621, 51.42940507650285],
        [-0.427852652248856, 51.42925218092865],
        [-0.429445941642866, 51.42939493494635],
        [-0.429555611384517, 51.42879751562872],
        [-0.429770002802031, 51.4287958914916],
        [-0.429993904549186, 51.42881058051658],
        [-0.43066774735509, 51.42887625520673],
        [-0.431103988156981, 51.42890727310114],
        [-0.431492380757463, 51.42894933915933],
        [-0.431833971476758, 51.42897189396704],
        [-0.432210624503227, 51.4289787305451],
        [-0.432432967151519, 51.42899699097599],
        [-0.432660969098673, 51.42901802434776],
        [-0.432920265605701, 51.42904936718541],
        [-0.433457121396154, 51.429124884439005],
        [-0.433736149443489, 51.42916817916317],
        [-0.434813162936077, 51.42939118631188],
        [-0.436172521525026, 51.42968719129143],
        [-0.438179972315344, 51.430172562413276],
        [-0.439085555234222, 51.430404036662544],
        [-0.44000439464426, 51.430626687964384],
        [-0.440009319731751, 51.430651032741295],
        [-0.440064260494721, 51.43093861852256],
        [-0.440063515427073, 51.43150962019984],
        [-0.440047048784193, 51.43186639569869],
        [-0.440052889072755, 51.43203283110529],
        [-0.440064573021049, 51.432196646576635],
        [-0.440125879060776, 51.43250859617809],
        [-0.440148697473604, 51.432810142072455],
        [-0.440018072339188, 51.433519695261104],
        [-0.439927770466319, 51.434143458748366],
        [-0.439773431712758, 51.434619795299945],
        [-0.441273781905882, 51.434709894162566],
        [-0.442455077413336, 51.43474807595754],
        [-0.443457234362206, 51.434808146619766],
        [-0.444407991210291, 51.43485673588831],
        [-0.445197445980557, 51.43491037204774],
        [-0.445989499708592, 51.43492986660003],
        [-0.446989247027059, 51.434976386622566],
        [-0.447737887492096, 51.43500338728346],
        [-0.447550197793585, 51.43557461035616],
        [-0.447478957802413, 51.43593605641102],
        [-0.447332704174518, 51.4363882303131],
        [-0.447183355831829, 51.43705887575677],
        [-0.447043670931307, 51.43748685706462],
        [-0.446969237116069, 51.43781498894258],
        [-0.446688320919311, 51.43863136423046],
        [-0.446470191385761, 51.43950522225581],
        [-0.446309629978424, 51.4399967712028],
        [-0.448257707521815, 51.43957565587389],
        [-0.449619059490366, 51.43927174330075],
        [-0.450976787617079, 51.438989348590226],
        [-0.45212937913078, 51.438773470513816],
        [-0.453681198174433, 51.43849450630752],
        [-0.453812555915342, 51.438481851200045],
        [-0.454245052311721, 51.438413817854865],
        [-0.454352082431127, 51.43839724446077],
        [-0.456074075612251, 51.438148368275485],
        [-0.456488399048358, 51.43810706419289],
        [-0.456495935423999, 51.438224962326466],
        [-0.45646503557149, 51.43833066443052],
        [-0.45640824877223, 51.438436025679025],
        [-0.456382159871323, 51.43865509386465],
        [-0.456304522751104, 51.43890945240818],
        [-0.45622253990175, 51.43916465289631],
        [-0.456036348242624, 51.43965138103983],
        [-0.456026699636024, 51.439809518119155],
        [-0.455941567274521, 51.43998734329423],
        [-0.45581790570034, 51.44015566863622],
        [-0.45580406280181, 51.44031015353045],
        [-0.455874653445253, 51.44039291306736],
        [-0.455877331318258, 51.44044150665249],
        [-0.455855856319112, 51.440651643158624],
        [-0.455800998656365, 51.44087033223097],
        [-0.455753678578877, 51.44112149276535],
        [-0.455713326962417, 51.44125134929419],
        [-0.455668599735288, 51.44138294662429],
        [-0.455420604030628, 51.44195248773345],
        [-0.45541208769589, 51.44211963191269],
        [-0.455477910719113, 51.44221581725899],
        [-0.455595195475011, 51.442279409072114],
        [-0.455877154998811, 51.44236675127106],
        [-0.456310587387276, 51.44252802557916],
        [-0.457464559804918, 51.442999122889525],
        [-0.45745695913341, 51.443139302377254],
        [-0.45733833072698, 51.44422580667986],
        [-0.45732243193902, 51.44444141204155],
        [-0.457319266134133, 51.44466347953182],
        [-0.457334735617301, 51.445314723615276],
        [-0.457398203926538, 51.4456518696901],
        [-0.457426757953936, 51.446000246286545],
        [-0.457505140522849, 51.44670627156622],
        [-0.45754281121237, 51.44695495382151],
        [-0.45762457402984, 51.44717634008175],
        [-0.457636247927725, 51.44729968774295],
        [-0.457643227915848, 51.44756235381447],
        [-0.457639972359975, 51.44770169114755],
        [-0.457621726567798, 51.44785881581116],
        [-0.45755345171794, 51.44830483331745],
        [-0.457481828380719, 51.44889288452104],
        [-0.457482357353694, 51.44909072134684],
        [-0.457577176351966, 51.44918099223447],
        [-0.457708488125048, 51.44921329336563],
        [-0.457921173429424, 51.44922238554622],
        [-0.458872077563384, 51.449147663740725],
        [-0.460119247653497, 51.449078624225535],
        [-0.460821365193884, 51.44904108398226],
        [-0.461502266822971, 51.448992470423924],
        [-0.461431842670187, 51.45031700569869],
        [-0.461379013864461, 51.45150329078288],
        [-0.461340529412131, 51.45239122091327],
        [-0.459858905374538, 51.452239581603074],
        [-0.45955927140753, 51.45267536675559],
        [-0.459314694878274, 51.45271531599663],
        [-0.459086899923469, 51.45341102098273],
        [-0.45901799435705, 51.45387591437217],
        [-0.458970144950579, 51.45465581344981],
        [-0.45890178677579, 51.4553608071327],
        [-0.458900192356206, 51.45583557728507],
        [-0.458876087215368, 51.4560384854234],
        [-0.458660936760938, 51.45631531644915],
        [-0.457870307985348, 51.455943431717415],
        [-0.457335081890301, 51.45568101084012],
        [-0.456814610615827, 51.45549341741685],
        [-0.456362365431368, 51.45537416184103],
        [-0.455871958690281, 51.45527688258747],
        [-0.455853468086113, 51.45527034449046],
        [-0.455834916832022, 51.45526560404357],
        [-0.455816365581828, 51.45526086359378],
        [-0.45579781433553, 51.4552561231411],
        [-0.455779232764424, 51.455252281511974],
        [-0.455759182184125, 51.45524931975812],
        [-0.455739161935975, 51.45524545917439],
        [-0.455720519714611, 51.455243415188974],
        [-0.455700438811961, 51.455241352251605],
        [-0.455694684079919, 51.45524127645541],
        [-0.455674603179465, 51.45523921351363],
        [-0.455654491949755, 51.45523804939485],
        [-0.455634350389606, 51.45523778409907],
        [-0.455614208829767, 51.45523751879983],
        [-0.45559403693791, 51.45523815232354],
        [-0.455573865045568, 51.455238785843775],
        [-0.455553662819621, 51.45524031818692],
        [-0.455534868941817, 51.45524276830402],
        [-0.455518952428088, 51.45524525632059],
        [-0.45550303591267, 51.45524774433501],
        [-0.455487089061124, 51.45525113117359],
        [-0.455471111872501, 51.45525541683635],
        [-0.455455134680922, 51.455259702496896],
        [-0.455440565834568, 51.455264905933795],
        [-0.455410019784094, 51.45527439502318],
        [-0.455395481264287, 51.45527869962805],
        [-0.455370750606024, 51.455286466865296],
        [-0.455353663760658, 51.45536627287407],
        [-0.455454986997368, 51.4554773132295],
        [-0.455475778643755, 51.4555009669932],
        [-0.455432717309735, 51.455625392141926],
        [-0.455229454205666, 51.455592140632824],
        [-0.455155474001394, 51.45560915043425],
        [-0.454739588125548, 51.45556410416795],
        [-0.454517471066307, 51.45553509906738],
        [-0.454128860921487, 51.45549220860148],
        [-0.453988871341212, 51.45546068836951],
        [-0.453981768990184, 51.45545789704187],
        [-0.453934929933423, 51.455438395677916],
        [-0.453930632711093, 51.4553951761623],
        [-0.454035797034622, 51.45534980307385],
        [-0.454126611618544, 51.455217914994364],
        [-0.454092158003728, 51.45504480932289],
        [-0.453947861055969, 51.45492780575758],
        [-0.453783404520547, 51.454853699012745],
        [-0.452960534396737, 51.45467109231903],
        [-0.452385373235234, 51.45452681952358],
        [-0.451221627436486, 51.45425247571043],
        [-0.450245726582472, 51.45404175071448],
        [-0.449421934241608, 51.453844719194876],
        [-0.448805294746729, 51.45373584922693],
        [-0.448146816156074, 51.453630019142615],
        [-0.447340777802519, 51.453546510486305],
        [-0.44633899854504, 51.453463100319674],
        [-0.444813746582545, 51.45332508025216],
        [-0.444003987325655, 51.45326667759595],
        [-0.443153445221136, 51.454449560748465],
        [-0.442615041765333, 51.45517168374528],
        [-0.441917418185982, 51.45613088297345],
        [-0.441609874133136, 51.456581804652984],
        [-0.441479838726052, 51.45680758070515],
        [-0.440808569194932, 51.45669614418693],
        [-0.440316589868991, 51.45664553867058],
        [-0.43981873116889, 51.456682977119236],
        [-0.439570965293912, 51.456688672240794],
        [-0.438841137094951, 51.45669064694336],
        [-0.438434744179646, 51.45670501819534],
        [-0.437293185715995, 51.45683548388913],
        [-0.436770649560395, 51.45687887509828],
        [-0.436153678947085, 51.45690571761108],
        [-0.435635554771417, 51.45690420123338],
        [-0.435331129737065, 51.45688305382936],
        [-0.435061510914167, 51.45685427714954],
        [-0.434747586756722, 51.45711086279321],
        [-0.435742693812283, 51.45739121353006],
        [-0.436633732149207, 51.45768455582508],
        [-0.436457452030604, 51.458125524352674],
        [-0.43634149323559, 51.458401839233005],
        [-0.436207908895473, 51.45860418228294],
        [-0.435942641409632, 51.45895314119315],
        [-0.435714850769821, 51.45921627367894],
        [-0.435661962399364, 51.459373832069055],
        [-0.435453911788201, 51.45964891736444],
        [-0.435108605882243, 51.46002288396631],
        [-0.434852053018939, 51.46032699535813],
        [-0.434560558357609, 51.46068459332045],
        [-0.434291632811373, 51.46097145298655],
        [-0.434002252233476, 51.46126703112249],
        [-0.433860169608466, 51.461464761859595],
        [-0.433598860175446, 51.461739132491076],
        [-0.432638534836967, 51.462121959520026],
        [-0.431694227877978, 51.46254096207165],
        [-0.430625510108338, 51.46297717576344],
        [-0.429900244319698, 51.46330467660617],
        [-0.429551221198851, 51.46344927425261],
        [-0.428385855783021, 51.46393183223553],
        [-0.427058874606579, 51.46450842815191],
        [-0.425832060748748, 51.46501801265478],
        [-0.424349434792841, 51.465639248318],
        [-0.423468777549421, 51.46600328825624],
        [-0.422367251170553, 51.46646776134617],
        [-0.422097871492435, 51.46655585791847]
      ]
    ]
  }
}
