{
  "type": "Feature",
  "properties": {
    "name": "Hounslow",
    "level": 2,
    "londonBorough": true
  },
  "geometry": {
    "type": "Polygon",
    "coordinates": [
      [
        [-0.422097871492435, 51.46655585791847],
        [-0.421436140944683, 51.46674927759058],
        [-0.420997387375946, 51.46682250218467],
        [-0.420512848151079, 51.466720658250935],
        [-0.420290412329028, 51.46678330541832],
        [-0.420161652443858, 51.46713496715769],
        [-0.419679308855658, 51.46730291767254],
        [-0.41119071076834, 51.469875101874315],
        [-0.411154483182527, 51.469881804833484],
        [-0.411282685250143, 51.47025312459297],
        [-0.411333194887385, 51.47045703444588],
        [-0.412853728831582, 51.47132559668504],
        [-0.412978508182188, 51.47142260364439],
        [-0.413135035501342, 51.471725064010734],
        [-0.413280140134454, 51.47198330742801],
        [-0.413978618669522, 51.47251880474089],
        [-0.414238974660344, 51.47265091535633],
        [-0.414571289741443, 51.47319944133228],
        [-0.414747497029778, 51.473391560499635],
        [-0.415816467093645, 51.47395723282865],
        [-0.415844823196208, 51.47401156952378],
        [-0.415723595231314, 51.47464298760035],
        [-0.41569585489392, 51.47490338864218],
        [-0.414950423930953, 51.47605331799386],
        [-0.414966169375774, 51.47672075710987],
        [-0.415318339669686, 51.477736247405936],
        [-0.415603095605252, 51.47857817413316],
        [-0.416664616300908, 51.4802776611661],
        [-0.416744159177812, 51.48043430119663],
        [-0.416801994118785, 51.48063560940676],
        [-0.416828604951195, 51.48086527128897],
        [-0.416476722453163, 51.48208526606443],
        [-0.416478480760573, 51.48211766193716],
        [-0.416861443161603, 51.482412383108226],
        [-0.416867240177525, 51.482452926524644],
        [-0.416233388929806, 51.48299829120401],
        [-0.416191151617605, 51.483053472783084],
        [-0.416150454334687, 51.483147341852444],
        [-0.41605147768861, 51.48355155587114],
        [-0.415174334624344, 51.48484088513031],
        [-0.414686680660871, 51.485654387827054],
        [-0.414042005302042, 51.48605302065105],
        [-0.414025639329123, 51.4860680861629],
        [-0.414057669767784, 51.486182720957586],
        [-0.414081831621537, 51.486192039952854],
        [-0.414576029429036, 51.486187031955936],
        [-0.414609988248803, 51.48620457631222],
        [-0.414586047554085, 51.48643805128226],
        [-0.414535484560206, 51.486525491823436],
        [-0.414002932119645, 51.48717922173012],
        [-0.413985001322456, 51.48719786297531],
        [-0.413415181562847, 51.48722342692024],
        [-0.413365141210622, 51.48725422283069],
        [-0.413405537206575, 51.48745979272648],
        [-0.413389019126454, 51.48752071658612],
        [-0.413030609759573, 51.48817769711324],
        [-0.413007988872532, 51.48824842981337],
        [-0.412672786657049, 51.488527149416484],
        [-0.412637800755778, 51.48858062940764],
        [-0.41160451011098, 51.49402583436655],
        [-0.411408248834988, 51.494988943396294],
        [-0.410590843743983, 51.49612438026494],
        [-0.410565962122114, 51.496218461641085],
        [-0.41090670593155, 51.49760518654072],
        [-0.410891435139291, 51.49771288654093],
        [-0.40968083642353, 51.499960724441316],
        [-0.40928526408195, 51.500315049836374],
        [-0.394032460638105, 51.49632684998002],
        [-0.392289892759136, 51.49585965782725],
        [-0.387554258632734, 51.494848660703056],
        [-0.387104712149817, 51.49468781232863],
        [-0.385712023361721, 51.494637178691846],
        [-0.385474253605824, 51.49463930115004],
        [-0.383527464144712, 51.49481840846514],
        [-0.38333740925094, 51.49485625408449],
        [-0.382190940056734, 51.49513449262518],
        [-0.381846313224156, 51.49522505644284],
        [-0.378501244546861, 51.49640270586438],
        [-0.377893330241749, 51.496604718929966],
        [-0.377674101799981, 51.496530647707374],
        [-0.377651541599984, 51.49651684722999],
        [-0.377757632574046, 51.49604442172836],
        [-0.377885434729913, 51.49544730373408],
        [-0.377220639767255, 51.4953041223313],
        [-0.377073033425138, 51.49528229688877],
        [-0.376425664406283, 51.495338081451074],
        [-0.375839953646635, 51.495401910138256],
        [-0.37567155298155, 51.494870831912735],
        [-0.375480576147381, 51.49452917780729],
        [-0.375086162203893, 51.49407499912984],
        [-0.374965753276811, 51.49393664814304],
        [-0.374005023367897, 51.49223278303804],
        [-0.373806807441331, 51.49193328932638],
        [-0.372794037742163, 51.491288882615066],
        [-0.372657837995684, 51.491108945503385],
        [-0.372161989673972, 51.49095638908214],
        [-0.371947946412778, 51.490980394828476],
        [-0.371857244302939, 51.4908982050714],
        [-0.371724342822426, 51.49078755326266],
        [-0.371863364800827, 51.49052421077002],
        [-0.371872484485824, 51.490470383632235],
        [-0.368684398199469, 51.49153033504514],
        [-0.367921644611839, 51.491793088634346],
        [-0.368248787525683, 51.492151937040425],
        [-0.368377585491842, 51.49229670640709],
        [-0.367015450120655, 51.49276423125027],
        [-0.366974589699635, 51.49277894920984],
        [-0.36666217137822, 51.49309652271382],
        [-0.366493015365442, 51.493274911873144],
        [-0.365800816485769, 51.49365823195969],
        [-0.365381977347303, 51.49332597488108],
        [-0.363878546278881, 51.494599901264024],
        [-0.36373236386987, 51.49469947479232],
        [-0.363698351883465, 51.495005637440336],
        [-0.363626675715469, 51.49547853119414],
        [-0.363187141751435, 51.495844678720964],
        [-0.362998143204613, 51.495932863040466],
        [-0.362159835423469, 51.49604974901036],
        [-0.361918147500292, 51.49608054435001],
        [-0.358179252631214, 51.497737699399025],
        [-0.358027721245785, 51.49778503569588],
        [-0.357301177023373, 51.49779734266656],
        [-0.356926225331073, 51.49784784270285],
        [-0.35477698785741, 51.49828081708644],
        [-0.35460945033086, 51.498252389167654],
        [-0.350956444823379, 51.49907423665622],
        [-0.350700204157463, 51.49910840127979],
        [-0.349932255910338, 51.49906972357224],
        [-0.34978821292541, 51.49902903008228],
        [-0.348278508341902, 51.49834684455172],
        [-0.347257868886027, 51.49792601430896],
        [-0.343498217407495, 51.4965600968091],
        [-0.342113881737277, 51.496040563759884],
        [-0.339323233777587, 51.49620340947342],
        [-0.338637358155649, 51.496246750383506],
        [-0.33531366831372, 51.49621131160143],
        [-0.334705937644945, 51.49620538168784],
        [-0.330553704066738, 51.49534693275719],
        [-0.329975866560975, 51.49507523091408],
        [-0.327418180447925, 51.4960369312193],
        [-0.326926152249061, 51.495625258478896],
        [-0.326158506621028, 51.49502980368703],
        [-0.324870765051969, 51.49592953483529],
        [-0.324758237592618, 51.49601245545984],
        [-0.324025405441393, 51.49576458789676],
        [-0.323434137336421, 51.495899115136254],
        [-0.319914245825155, 51.494579026647465],
        [-0.319211380039342, 51.494222750655574],
        [-0.315847224072907, 51.495875839967624],
        [-0.31578856953609, 51.49590377316216],
        [-0.315319716395762, 51.49556971807293],
        [-0.315291449508661, 51.49555492428399],
        [-0.315680000331477, 51.49537076669536],
        [-0.31573276235257, 51.49534634586992],
        [-0.314546893368405, 51.494415687577145],
        [-0.314475385470066, 51.49436250430635],
        [-0.315083037129461, 51.49397916966624],
        [-0.315103757694642, 51.49396418036763],
        [-0.314693757744579, 51.49371459684686],
        [-0.314414039137611, 51.49344800047528],
        [-0.313947903014268, 51.493587875232436],
        [-0.313936185742686, 51.49359310218596],
        [-0.311976242371996, 51.492015526971706],
        [-0.311924631926132, 51.49196982236054],
        [-0.308843965269214, 51.49339478925766],
        [-0.308403339283027, 51.493584467836456],
        [-0.306560405506719, 51.494180142062895],
        [-0.30544077354848, 51.494538051743255],
        [-0.305659567680068, 51.49497014806816],
        [-0.305822504960943, 51.49535467683777],
        [-0.305879525927622, 51.49607039237691],
        [-0.305850949722283, 51.49618058549213],
        [-0.302229623503981, 51.49543221038668],
        [-0.301355625579101, 51.49522621928408],
        [-0.301250710677815, 51.49471573231833],
        [-0.301110523005825, 51.49441785311949],
        [-0.298278736720651, 51.49479404341742],
        [-0.297553438321538, 51.4948896269283],
        [-0.299818445990848, 51.49770561845995],
        [-0.299945565217143, 51.497812671717284],
        [-0.300050597238059, 51.49816489593064],
        [-0.300100367725042, 51.49833737125674],
        [-0.300401365232479, 51.49865017122331],
        [-0.300564222042152, 51.49880360264924],
        [-0.300671377200502, 51.49925387360277],
        [-0.300718299383148, 51.49934807389936],
        [-0.294169403102366, 51.50152897141621],
        [-0.294050012233876, 51.501562305082885],
        [-0.293034861741246, 51.50154573654476],
        [-0.292058232726197, 51.501462277504224],
        [-0.287784593923233, 51.50077589562147],
        [-0.286810544114673, 51.500662755564754],
        [-0.285072750440756, 51.500975471334954],
        [-0.284732112418785, 51.501068506819195],
        [-0.281037788934983, 51.50271847327563],
        [-0.280783552691711, 51.502850531601965],
        [-0.279678448394713, 51.5019314936001],
        [-0.279551516689217, 51.50178215685511],
        [-0.27805889028147, 51.49963985059495],
        [-0.277896039147652, 51.49948818609187],
        [-0.276738881056468, 51.49853957919494],
        [-0.276307692164031, 51.49828325468494],
        [-0.27330438507499, 51.496781411209554],
        [-0.272949510248659, 51.49652709686233],
        [-0.272731959975076, 51.49633685143538],
        [-0.272481227257099, 51.49614791529372],
        [-0.272302930945032, 51.495643513751716],
        [-0.27216707072572, 51.495426594212375],
        [-0.271798945804053, 51.49506597085905],
        [-0.271557860498114, 51.49488886491371],
        [-0.270050073059033, 51.494228173741],
        [-0.269400386703259, 51.49407560942111],
        [-0.267718215293529, 51.494026494869125],
        [-0.267675549692805, 51.49393594072277],
        [-0.261652180226301, 51.494626454086955],
        [-0.261470083779386, 51.49464173960304],
        [-0.255575615419816, 51.49493189193201],
        [-0.255434447621971, 51.49493159054162],
        [-0.25540714030789, 51.4954959073174],
        [-0.25538498878563, 51.49566103802502],
        [-0.255588334417685, 51.49599498324593],
        [-0.255627345658635, 51.496029734630255],
        [-0.255398651434658, 51.496095574353404],
        [-0.25551280296431, 51.496275321966],
        [-0.255268715310286, 51.49632924234225],
        [-0.255118286464948, 51.496344989144575],
        [-0.255034341016166, 51.49688328432905],
        [-0.255026657901695, 51.496971295556285],
        [-0.252911846454733, 51.49971936219124],
        [-0.252786588412343, 51.49990543738631],
        [-0.252745568105533, 51.50007388340447],
        [-0.25274791428691, 51.5002762473628],
        [-0.253083872440095, 51.50139990637274],
        [-0.253023152314365, 51.501405296617],
        [-0.251348057477574, 51.49984712905571],
        [-0.251320733031591, 51.499845822408176],
        [-0.249246854704124, 51.49696698716433],
        [-0.249234550368787, 51.496949717906446],
        [-0.245372856809302, 51.49835597051097],
        [-0.245292523985773, 51.49838444357591],
        [-0.245131601855406, 51.49811046497626],
        [-0.245004469089617, 51.49789454320639],
        [-0.244559665887526, 51.49795982551494],
        [-0.244420550580221, 51.49794335529001],
        [-0.244638374884207, 51.4975986093914],
        [-0.244763438028916, 51.49734329819508],
        [-0.244640420543898, 51.496757849380266],
        [-0.244776628131433, 51.496099844795864],
        [-0.244556785143677, 51.49608486419016],
        [-0.244715780564548, 51.4955836687345],
        [-0.244821852545753, 51.49556007750245],
        [-0.245578933753857, 51.49081261814648],
        [-0.245609177787916, 51.49021237684786],
        [-0.245329302242214, 51.48954814574805],
        [-0.24543427470063, 51.489477776966616],
        [-0.244562352179416, 51.48870217075751],
        [-0.243443027872278, 51.487918356074516],
        [-0.244702985347625, 51.48702808760335],
        [-0.247755548004573, 51.48551355329538],
        [-0.247827633004129, 51.48547416447012],
        [-0.248973651742994, 51.484583946567014],
        [-0.249091092913559, 51.48445081374819],
        [-0.250223071095238, 51.48264674355022],
        [-0.2503058364084, 51.48240338447952],
        [-0.250403949296457, 51.481947133787486],
        [-0.250483821148226, 51.48129007968004],
        [-0.25037123128497, 51.480130174850544],
        [-0.250363070407715, 51.479666043635575],
        [-0.250523540423238, 51.47821975700446],
        [-0.250648598713278, 51.4775858576894],
        [-0.251840057253202, 51.474860034628506],
        [-0.25190654457652, 51.47474052719878],
        [-0.253701692262792, 51.472868073286634],
        [-0.253792084931103, 51.472801076951626],
        [-0.255173016870733, 51.4720446875581],
        [-0.255483584276601, 51.47190542959011],
        [-0.257467523589364, 51.47123082211296],
        [-0.25783961604178, 51.47113923293223],
        [-0.259450433035698, 51.470884389861006],
        [-0.259781100246709, 51.47085962286732],
        [-0.262667525670115, 51.47087185170403],
        [-0.263165676554261, 51.47091070514569],
        [-0.265147146408667, 51.47120801331735],
        [-0.265556881225061, 51.47130040216624],
        [-0.267561355835196, 51.47194152021599],
        [-0.268064296592113, 51.47215847349373],
        [-0.269923516283548, 51.47310134888471],
        [-0.270841371666247, 51.4736939996185],
        [-0.272554319189326, 51.4751958019662],
        [-0.272848019559697, 51.475502273456],
        [-0.273944031350309, 51.47687087051819],
        [-0.274683673308498, 51.47795365070962],
        [-0.276437496796448, 51.48139655567806],
        [-0.276561670277114, 51.48157912797601],
        [-0.278674120647195, 51.48349945812851],
        [-0.279430242444598, 51.48399704310752],
        [-0.280817663360089, 51.48444452999494],
        [-0.282127956806664, 51.48506712131512],
        [-0.282733775863862, 51.48573333803325],
        [-0.28281243069489, 51.48578664566179],
        [-0.28399064460339, 51.48632275312915],
        [-0.284700913814095, 51.486548062327564],
        [-0.289399546635115, 51.48731090610797],
        [-0.289680189706737, 51.48735546512791],
        [-0.291688033563179, 51.48735595527087],
        [-0.291766140157446, 51.48734720142034],
        [-0.29339611363235, 51.4869366013232],
        [-0.293951464449788, 51.4867603381224],
        [-0.296924636009631, 51.48570828276818],
        [-0.296988377322857, 51.48565975038826],
        [-0.2990769234962, 51.48294738796815],
        [-0.299821472922406, 51.482174049887995],
        [-0.302232560711599, 51.4803070946637],
        [-0.303067044367947, 51.47970769181439],
        [-0.304275206949118, 51.47854536918776],
        [-0.305529664198287, 51.47683157125246],
        [-0.30569186404842, 51.4766513697124],
        [-0.306629045726835, 51.47584210471552],
        [-0.306998801235958, 51.47557857168763],
        [-0.308515822768648, 51.47474169247029],
        [-0.310523843610173, 51.47390377600026],
        [-0.311590728458039, 51.47347761717036],
        [-0.314781365287377, 51.47238957722141],
        [-0.315450381861985, 51.47213031833531],
        [-0.31688595473047, 51.471777749737534],
        [-0.317068124823729, 51.471718317083635],
        [-0.318487829152061, 51.47105256668005],
        [-0.31863335283173, 51.47093235719111],
        [-0.319484608872426, 51.469160473667024],
        [-0.319655013798349, 51.46875466202554],
        [-0.319908041098019, 51.46735367884841],
        [-0.31996046645261, 51.467063077039704],
        [-0.320326172183432, 51.46623921928735],
        [-0.320751222541341, 51.46540631867099],
        [-0.323126410091027, 51.465413334172155],
        [-0.323152376346494, 51.46541190704856],
        [-0.323720730651318, 51.465224000046945],
        [-0.323763380981107, 51.465199431134295],
        [-0.324657470681084, 51.4644901219633],
        [-0.32487625940204, 51.46429451642694],
        [-0.326340020427022, 51.46202146456833],
        [-0.326669691233066, 51.46174560780158],
        [-0.326887315622375, 51.46118758912337],
        [-0.326883558023437, 51.461172248461466],
        [-0.326363736237229, 51.46082221992189],
        [-0.326362691991095, 51.460811414161824],
        [-0.32672414412984, 51.45998118111248],
        [-0.326722968338367, 51.45997397042894],
        [-0.326244458261846, 51.459793587532424],
        [-0.326237560490231, 51.45978539592133],
        [-0.326466535428781, 51.4593498362839],
        [-0.326463953844199, 51.45934170629293],
        [-0.326006143173389, 51.45887116390184],
        [-0.326001991464457, 51.45886660843453],
        [-0.326159376139011, 51.458656635204875],
        [-0.326156663132442, 51.45865210028224],
        [-0.325602355090267, 51.45826200922029],
        [-0.325570244425287, 51.45811677327364],
        [-0.325975030947878, 51.45783299876754],
        [-0.326168602179973, 51.45781418069611],
        [-0.326636860020024, 51.45729031418201],
        [-0.326910774111442, 51.45704243654772],
        [-0.327117420906476, 51.45702020656154],
        [-0.327268617341767, 51.45697920034653],
        [-0.328215309399344, 51.457857770105505],
        [-0.328411936313742, 51.457952295897464],
        [-0.329529817765899, 51.45800689562311],
        [-0.330367799135821, 51.457882147718045],
        [-0.331083772969708, 51.45751106451685],
        [-0.33141569914779, 51.45729008013171],
        [-0.332344086938406, 51.45638246940186],
        [-0.332470947437348, 51.45586361503416],
        [-0.333030199478864, 51.45540756105626],
        [-0.333252566037944, 51.45530910857924],
        [-0.333494612237637, 51.45526309121249],
        [-0.33363203175078, 51.45524436195522],
        [-0.333701861728345, 51.45546117151187],
        [-0.33370951156683, 51.455488257369076],
        [-0.336033484183506, 51.45566244347657],
        [-0.336293121447266, 51.4556868105246],
        [-0.336635303554769, 51.455301396547945],
        [-0.336983517672423, 51.45463100881359],
        [-0.337421145664698, 51.454747821707144],
        [-0.337561641180909, 51.45484243540838],
        [-0.337669443558358, 51.454965361002294],
        [-0.337950845502638, 51.4554207677276],
        [-0.337736987229271, 51.45548338020111],
        [-0.338555108320781, 51.45610196174181],
        [-0.33858149308805, 51.45608884707334],
        [-0.33897301217042, 51.45589026761972],
        [-0.340481083629708, 51.457091422134965],
        [-0.340630494566429, 51.45725809719508],
        [-0.340732672816831, 51.45781437241078],
        [-0.340724743816478, 51.45795364190302],
        [-0.340205173783575, 51.45910270622974],
        [-0.340134004060896, 51.45923928191397],
        [-0.341557303009349, 51.45904990076045],
        [-0.34172386359379, 51.45902168257392],
        [-0.342370898273947, 51.45840586269832],
        [-0.342679680299082, 51.458107185127716],
        [-0.345054330337247, 51.457919515489934],
        [-0.345293826735113, 51.45786444540593],
        [-0.345546837992331, 51.45771424649219],
        [-0.345596772232662, 51.45744787790523],
        [-0.345728592455747, 51.45738499286951],
        [-0.347997379836025, 51.45681899015311],
        [-0.348704624772132, 51.45676510742891],
        [-0.352671279342404, 51.45685327953684],
        [-0.352839376289889, 51.456861935868616],
        [-0.35284071588054, 51.456944684374115],
        [-0.352841997832048, 51.45738892480909],
        [-0.353180289606771, 51.45782800767327],
        [-0.353461169886798, 51.45818265436404],
        [-0.355163614081574, 51.45835402459287],
        [-0.356431330648339, 51.45840597320568],
        [-0.358606134848598, 51.45829076329872],
        [-0.359817809931751, 51.4582195947691],
        [-0.36203313853469, 51.45781623391876],
        [-0.362424233460344, 51.4577074941517],
        [-0.364480619698856, 51.457682243376034],
        [-0.365063593721202, 51.45780277833121],
        [-0.367585867726784, 51.45746833744896],
        [-0.367828946454006, 51.457433054482806],
        [-0.36845271272386, 51.45689410257148],
        [-0.368460835410532, 51.45686813781223],
        [-0.371974366670893, 51.457192143102766],
        [-0.372463264458689, 51.457246590033556],
        [-0.37258906879208, 51.45710895506568],
        [-0.372693931788835, 51.45699351015673],
        [-0.372861524941558, 51.45721884607143],
        [-0.373045361471367, 51.457473182604595],
        [-0.374759149721811, 51.45655635281363],
        [-0.375275485337777, 51.45628384735901],
        [-0.383448184537236, 51.44976496948724],
        [-0.383739622589539, 51.44954058222227],
        [-0.384567562634061, 51.44989550041079],
        [-0.387797483872463, 51.4494336919269],
        [-0.386361066799464, 51.44825391931932],
        [-0.386318281960844, 51.44820207411948],
        [-0.386444709321392, 51.44730997592962],
        [-0.386452490459009, 51.44725253206215],
        [-0.386293166533934, 51.44679172994648],
        [-0.38626649030535, 51.44673201332829],
        [-0.383253423074116, 51.44521485741954],
        [-0.382870760438907, 51.445048616720385],
        [-0.380570253218469, 51.444628392004475],
        [-0.379790177764393, 51.444388308971774],
        [-0.379753411562847, 51.44432935058769],
        [-0.379631563930273, 51.44427551090932],
        [-0.37980585510528, 51.44410796436857],
        [-0.379812598369458, 51.443917419770685],
        [-0.37942495652932, 51.44364858607078],
        [-0.379391608765877, 51.44357438782091],
        [-0.379628817977514, 51.4433366717137],
        [-0.379629758734872, 51.44322877651884],
        [-0.37931735784252, 51.442948393042144],
        [-0.379090732836292, 51.44280587843549],
        [-0.377627070692283, 51.44240705417599],
        [-0.377377302091747, 51.44243057445681],
        [-0.377146808243926, 51.44247864038172],
        [-0.376905358536864, 51.44259219835262],
        [-0.376590359219622, 51.44295382555256],
        [-0.376412184481031, 51.44302779311988],
        [-0.374553748765315, 51.442967869652],
        [-0.373953142324421, 51.44302428564731],
        [-0.373670260156933, 51.44312916919482],
        [-0.373524561419209, 51.44346346199845],
        [-0.37348183153718, 51.443532110304474],
        [-0.373168422292639, 51.44364556146907],
        [-0.372893746371005, 51.44364085029416],
        [-0.371242661677641, 51.44325283331623],
        [-0.370993398868504, 51.44318102805325],
        [-0.369682520246498, 51.44249377393147],
        [-0.369420770451906, 51.44236873669711],
        [-0.367100129103871, 51.44171326528299],
        [-0.366850817202779, 51.441643248903816],
        [-0.374879370960317, 51.438131797444434],
        [-0.377891830238656, 51.4368021849434],
        [-0.377933723402717, 51.43630998323608],
        [-0.376138156342547, 51.43553965739259],
        [-0.377865432979982, 51.43486666334406],
        [-0.378203083033831, 51.4347166664988],
        [-0.382771288094923, 51.43242467842387],
        [-0.382936469910363, 51.43235052208882],
        [-0.387314570267809, 51.42931566439098],
        [-0.387910512836608, 51.42873216421349],
        [-0.387985534385136, 51.42864417154373],
        [-0.387445037699352, 51.428510844319],
        [-0.387147462416431, 51.428178529043116],
        [-0.388088716315365, 51.42787854190186],
        [-0.388381765860798, 51.4280534262077],
        [-0.388382256989831, 51.42799857954636],
        [-0.384229386736517, 51.42277799023844],
        [-0.384112304283202, 51.42267206468889],
        [-0.384218701806908, 51.42226527758519],
        [-0.384398163219107, 51.42198898766314],
        [-0.385328942292305, 51.42079953262582],
        [-0.385392910751654, 51.42073926564948],
        [-0.390749791732324, 51.42296750576767],
        [-0.391129853231719, 51.42316246196578],
        [-0.39234318020304, 51.42338503466328],
        [-0.3927703542044, 51.42346732783045],
        [-0.392906268162566, 51.423283049405136],
        [-0.39202570428324, 51.42292296849504],
        [-0.391771695908137, 51.42278369896252],
        [-0.391412322040397, 51.42240918138302],
        [-0.391363471381939, 51.42232578118932],
        [-0.394281679671767, 51.42319039367438],
        [-0.394533160013694, 51.42323790097208],
        [-0.398117858219361, 51.42355581611456],
        [-0.398133672349628, 51.42355603222995],
        [-0.401481926030894, 51.42335535069768],
        [-0.401781180157427, 51.42331177185548],
        [-0.405382947526869, 51.42247957515102],
        [-0.405931677119957, 51.422665087455634],
        [-0.408278572933635, 51.42375358154685],
        [-0.408462752563368, 51.423834315866856],
        [-0.40897243755117, 51.42526921993607],
        [-0.40902798517146, 51.425450720047806],
        [-0.410077132024651, 51.42622211053259],
        [-0.410179997213009, 51.42628375442079],
        [-0.410810930884121, 51.42721132736964],
        [-0.410889831870988, 51.42734188675135],
        [-0.411327687496461, 51.427574428763535],
        [-0.41158643454653, 51.42766246323524],
        [-0.413107417715091, 51.427854817279346],
        [-0.412474025362712, 51.42878144421917],
        [-0.41437374971229, 51.429295440453124],
        [-0.413827456332367, 51.43007487905446],
        [-0.416063077516835, 51.43069500539759],
        [-0.416165422347939, 51.4305642009585],
        [-0.416384960430824, 51.430622020200765],
        [-0.417921711696422, 51.431027642313786],
        [-0.417797439399509, 51.43121030781364],
        [-0.417315526926349, 51.431917793339885],
        [-0.417725923097882, 51.432031241420425],
        [-0.418377543097373, 51.43186648305564],
        [-0.419010410030005, 51.43232823339533],
        [-0.419099976353962, 51.43235911599587],
        [-0.420901634422517, 51.43221883965981],
        [-0.421175170365506, 51.432171267776745],
        [-0.422093376042165, 51.4318680002171],
        [-0.422442781363615, 51.43174770953906],
        [-0.423519546572672, 51.43118398870883],
        [-0.423600904489804, 51.43116080353492],
        [-0.423596267554822, 51.43104474019408],
        [-0.423520030252265, 51.430877356945345],
        [-0.424214255829513, 51.43097841280377],
        [-0.42566298813957, 51.43080814033838],
        [-0.425882660191969, 51.430778717987565],
        [-0.427395745323555, 51.43082870092009],
        [-0.427506833666945, 51.43081940036584],
        [-0.427854597250621, 51.42940507650285],
        [-0.427852652248856, 51.42925218092865],
        [-0.429445941642866, 51.42939493494635],
        [-0.429555611384517, 51.42879751562872],
        [-0.433457121396154, 51.429124884439005],
        [-0.433736149443489, 51.42916817916317],
        [-0.439085555234222, 51.430404036662544],
        [-0.44000439464426, 51.430626687964384],
        [-0.440125879060776, 51.43250859617809],
        [-0.440148697473604, 51.432810142072455],
        [-0.439927770466319, 51.434143458748366],
        [-0.439773431712758, 51.434619795299945],
        [-0.446989247027059, 51.434976386622566],
        [-0.447737887492096, 51.43500338728346],
        [-0.446470191385761, 51.43950522225581],
        [-0.446309629978424, 51.4399967712028],
        [-0.449619059490366, 51.43927174330075],
        [-0.450976787617079, 51.438989348590226],
        [-0.456074075612251, 51.438148368275485],
        [-0.456488399048358, 51.43810706419289],
        [-0.455420604030628, 51.44195248773345],
        [-0.45541208769589, 51.44211963191269],
        [-0.456310587387276, 51.44252802557916],
        [-0.457464559804918, 51.442999122889525],
        [-0.457319266134133, 51.44466347953182],
        [-0.457334735617301, 51.445314723615276],
        [-0.457636247927725, 51.44729968774295],
        [-0.457643227915848, 51.44756235381447],
        [-0.457481828380719, 51.44889288452104],
        [-0.457482357353694, 51.44909072134684],
        [-0.457708488125048, 51.44921329336563],
        [-0.457921173429424, 51.44922238554622],
        [-0.460821365193884, 51.44904108398226],
        [-0.461502266822971, 51.448992470423924],
        [-0.461379013864461, 51.45150329078288],
        [-0.461340529412131, 51.45239122091327],
        [-0.459858905374538, 51.452239581603074],
        [-0.45955927140753, 51.45267536675559],
        [-0.459314694878274, 51.45271531599663],
        [-0.459086899923469, 51.45341102098273],
        [-0.45901799435705, 51.45387591437217],
        [-0.458876087215368, 51.4560384854234],
        [-0.458660936760938, 51.45631531644915],
        [-0.457870307985348, 51.455943431717415],
        [-0.457335081890301, 51.45568101084012],
        [-0.45579781433553, 51.4552561231411],
        [-0.455779232764424, 51.455252281511974],
        [-0.455395481264287, 51.45527869962805],
        [-0.455370750606024, 51.455286466865296],
        [-0.455475778643755, 51.4555009669932],
        [-0.455432717309735, 51.455625392141926],
        [-0.454128860921487, 51.45549220860148],
        [-0.453988871341212, 51.45546068836951],
        [-0.454035797034622, 51.45534980307385],
        [-0.454126611618544, 51.455217914994364],
        [-0.453947861055969, 51.45492780575758],
        [-0.453783404520547, 51.454853699012745],
        [-0.450245726582472, 51.45404175071448],
        [-0.449421934241608, 51.453844719194876],
        [-0.444813746582545, 51.45332508025216],
        [-0.444003987325655, 51.45326667759595],
        [-0.441609874133136, 51.456581804652984],
        [-0.441479838726052, 51.45680758070515],
        [-0.440808569194932, 51.45669614418693],
        [-0.440316589868991, 51.45664553867058],
        [-0.435331129737065, 51.45688305382936],
        [-0.435061510914167, 51.45685427714954],
        [-0.434747586756722, 51.45711086279321],
        [-0.435742693812283, 51.45739121353006],
        [-0.436633732149207, 51.45768455582508],
        [-0.436457452030604, 51.458125524352674],
        [-0.43634149323559, 51.458401839233005],
        [-0.435714850769821, 51.45921627367894],
        [-0.435661962399364, 51.459373832069055],
        [-0.433860169608466, 51.461464761859595],
        [-0.433598860175446, 51.461739132491076],
        [-0.422097871492435, 51.46655585791847]
      ]
    ]
  }
}
