{
  "type": "Feature",
  "properties": {
    "name": "Islington",
    "level": 2,
    "londonBorough": true,
    "center": [-0.1022, 51.5416]
  },
  "geometry": {
    "type": "Polygon",
    "coordinates": [
      [
        [-0.138394391740721, 51.55685918486237],
        [-0.140937758393521, 51.56021772287076],
        [-0.141005900859494, 51.560350991398245],
        [-0.141043260125946, 51.561239137152924],
        [-0.141018066729655, 51.561397004943025],
        [-0.140638776503704, 51.56227764960407],
        [-0.140597464134983, 51.562547667340546],
        [-0.140802841766821, 51.56352570196226],
        [-0.14081722397734, 51.56363293984319],
        [-0.140670849271266, 51.5644624208225],
        [-0.140681602254329, 51.56455251556874],
        [-0.141111745095186, 51.5653263854136],
        [-0.141145569861941, 51.56541684560133],
        [-0.141670449005418, 51.567689453713776],
        [-0.141890159998804, 51.5683170076655],
        [-0.142500988225009, 51.56901370003986],
        [-0.142415838433851, 51.569120261237146],
        [-0.140915836968558, 51.5693509916744],
        [-0.140706165745528, 51.56939712797917],
        [-0.138856869628787, 51.57033629604176],
        [-0.138677202859886, 51.57046023953222],
        [-0.135258147812421, 51.571884311988555],
        [-0.135190559786254, 51.57191381218623],
        [-0.133396077739616, 51.57288344113655],
        [-0.133112109070691, 51.573016507954414],
        [-0.131612080481097, 51.57348991556242],
        [-0.131389701255489, 51.57356370955526],
        [-0.128755296516635, 51.57393268427857],
        [-0.127496470596509, 51.57415360119332],
        [-0.125105585761697, 51.57407406014029],
        [-0.12488093796511, 51.57409744794988],
        [-0.1238228781604, 51.57462907499488],
        [-0.123775321558762, 51.574662485912114],
        [-0.119568283301559, 51.5755078785215],
        [-0.119539401741595, 51.575508314950454],
        [-0.119140318257435, 51.574897626707035],
        [-0.118890210280824, 51.57473355210612],
        [-0.119487393791245, 51.57442569030166],
        [-0.119567015178733, 51.57438470173409],
        [-0.117800067555724, 51.574188214926444],
        [-0.117585262765509, 51.57414790027614],
        [-0.115818784943984, 51.57282373753237],
        [-0.115585284469398, 51.5725726955558],
        [-0.116127823047599, 51.572190235125255],
        [-0.11574902128544, 51.57203307990118],
        [-0.115405642936176, 51.571891779529274],
        [-0.115601493005481, 51.57162245343066],
        [-0.115606005112743, 51.57161802966228],
        [-0.115199520362591, 51.57143255143899],
        [-0.115142728855519, 51.57141005733024],
        [-0.115159494007205, 51.57083031320446],
        [-0.115166036047755, 51.57067215105073],
        [-0.115045876611668, 51.57061176993795],
        [-0.115043074504095, 51.57057485585208],
        [-0.110672272957799, 51.56858826899732],
        [-0.110337264269251, 51.56842011082799],
        [-0.108815354764921, 51.56750623680259],
        [-0.108614450257132, 51.56737530554271],
        [-0.106204608302437, 51.56553884118491],
        [-0.104871463448887, 51.5646351549799],
        [-0.104603475396649, 51.56476481423537],
        [-0.104463582500634, 51.5648326957084],
        [-0.104391109230795, 51.564771275300636],
        [-0.104510703755623, 51.56470576375189],
        [-0.099479635178757, 51.56148510539308],
        [-0.098587621785283, 51.560837582190686],
        [-0.096032179896182, 51.561226882788155],
        [-0.093756348266909, 51.560552362535525],
        [-0.093635304574931, 51.56051442593555],
        [-0.091702767175619, 51.56022222829762],
        [-0.091591392183282, 51.56016016707659],
        [-0.09031153103747, 51.55782287440631],
        [-0.090292552677433, 51.557793789493665],
        [-0.090383391061479, 51.55772602571659],
        [-0.090420286440814, 51.557671771939766],
        [-0.090319923742063, 51.55669265320264],
        [-0.090266331006007, 51.555802422058434],
        [-0.090393339457685, 51.55442324019407],
        [-0.090403339507118, 51.55415003070044],
        [-0.089529099277067, 51.55391098547076],
        [-0.08929965748669, 51.55374088766806],
        [-0.089049958016451, 51.55381325724414],
        [-0.088588488212061, 51.553947821732535],
        [-0.087656039132544, 51.55289579019192],
        [-0.087552347076332, 51.552823059137246],
        [-0.085504396600439, 51.55216198075118],
        [-0.085404362478424, 51.55213966554575],
        [-0.083714259940062, 51.55212915833038],
        [-0.083217644316815, 51.55213903087723],
        [-0.079724828503981, 51.55181213861188],
        [-0.079579349993751, 51.551738716454736],
        [-0.07880293171176, 51.5510632556967],
        [-0.078683967855798, 51.5509426061919],
        [-0.077090430906204, 51.54867735871757],
        [-0.076916246839783, 51.54842990676126],
        [-0.076635701925941, 51.54793431544345],
        [-0.076441068411634, 51.54731693430307],
        [-0.076373877750071, 51.546653082781305],
        [-0.076357637974358, 51.54642260758565],
        [-0.076377889569333, 51.54635279786874],
        [-0.076839387135842, 51.54607979693592],
        [-0.083165874308933, 51.54657630912595],
        [-0.083838271856327, 51.54660347995682],
        [-0.083629407032597, 51.54522421158355],
        [-0.083660628832786, 51.54506465457525],
        [-0.086570862266746, 51.53740196072513],
        [-0.086617390930976, 51.53725524205406],
        [-0.087409632511435, 51.53713776960174],
        [-0.087701284982235, 51.53702562136075],
        [-0.092548222889102, 51.53466845654951],
        [-0.093284577134123, 51.53433421517056],
        [-0.09655246369791, 51.53311034722716],
        [-0.097033608100967, 51.53298236630771],
        [-0.095524832405355, 51.53078618392945],
        [-0.095317669464741, 51.53046448460333],
        [-0.09511285727993, 51.530051998437905],
        [-0.095083530547897, 51.52992562668574],
        [-0.095141916248856, 51.52966669051754],
        [-0.09540531887285, 51.52919346390797],
        [-0.089601311427835, 51.5277043381451],
        [-0.089049973960406, 51.52754698047894],
        [-0.088484756452386, 51.5272392184576],
        [-0.088310233086732, 51.52706911288663],
        [-0.087837832153497, 51.526232299886644],
        [-0.087804130585512, 51.526107653297004],
        [-0.087032148172877, 51.52584956922073],
        [-0.086795377284974, 51.52578905449051],
        [-0.08629907529864, 51.5259014586149],
        [-0.085020668718096, 51.52620342723083],
        [-0.084908945554161, 51.525876972023276],
        [-0.084750980438679, 51.525415772582704],
        [-0.085409709467263, 51.524592916775674],
        [-0.085443391956264, 51.524511634307764],
        [-0.085111053724994, 51.52442707479239],
        [-0.085139330906803, 51.523924852543146],
        [-0.084527807602366, 51.52389778193108],
        [-0.084223509326025, 51.52390090555944],
        [-0.084703230079292, 51.521606644847125],
        [-0.08490627320443, 51.52099307055447],
        [-0.085904578895836, 51.519289089246605],
        [-0.086227409628961, 51.51880875879518],
        [-0.089780487251857, 51.51990981520085],
        [-0.090004267967259, 51.51997011258242],
        [-0.089704633412887, 51.52068913367154],
        [-0.089693459590328, 51.52071503009857],
        [-0.092176094997457, 51.52101442307018],
        [-0.092374468004252, 51.5210275413272],
        [-0.092516763635231, 51.521485777844966],
        [-0.093301537171222, 51.52133307462623],
        [-0.09341461883491, 51.52152465560459],
        [-0.093875277434959, 51.52153933663904],
        [-0.094344662056499, 51.52148311649676],
        [-0.09462281570156, 51.52231315118177],
        [-0.095088625394926, 51.52313724023105],
        [-0.096017382618236, 51.52295448383798],
        [-0.09646979721747, 51.522821543034645],
        [-0.096713806492414, 51.52319239848415],
        [-0.096786275636301, 51.52332126849249],
        [-0.097972410815338, 51.52287739250766],
        [-0.097512100143367, 51.52223145674712],
        [-0.097383667155994, 51.52185438442641],
        [-0.097624077240186, 51.521031868952804],
        [-0.097670128210815, 51.5207223730132],
        [-0.100300985468676, 51.5201283401474],
        [-0.100430083645909, 51.52010884887118],
        [-0.105341089186077, 51.518544444058584],
        [-0.105349880835, 51.51854098905728],
        [-0.105884372820218, 51.520284282262594],
        [-0.106036428258869, 51.52068420774791],
        [-0.106647705757206, 51.52168955016234],
        [-0.107020506684813, 51.52218925733825],
        [-0.108274398548586, 51.52208988599916],
        [-0.108966709695257, 51.52298501519817],
        [-0.108991224994869, 51.52301958204046],
        [-0.109244424164064, 51.52292744369411],
        [-0.112194177781737, 51.52364939455284],
        [-0.112357874679325, 51.52369968939754],
        [-0.113506817258386, 51.52443128057562],
        [-0.113612106412743, 51.5245345893878],
        [-0.114206773876208, 51.52545869069685],
        [-0.114253379329995, 51.52551699208376],
        [-0.113224629001526, 51.52623603712735],
        [-0.112949346510852, 51.526408761505685],
        [-0.113625314133602, 51.5265868950027],
        [-0.113760358188443, 51.52663312999893],
        [-0.115303514208631, 51.52759585401303],
        [-0.115432378938077, 51.5277220211527],
        [-0.115569721012778, 51.52795713376522],
        [-0.115680221943364, 51.528318609484494],
        [-0.115783271670488, 51.52945422077575],
        [-0.115806972991196, 51.52954362735969],
        [-0.116016645596071, 51.529842848718054],
        [-0.116052881544685, 51.52987310598051],
        [-0.1190113785554, 51.53074609578907],
        [-0.119895945411922, 51.53093742897536],
        [-0.121995481425598, 51.53078941205432],
        [-0.122556070568083, 51.5307255462889],
        [-0.122360479652859, 51.53404244711283],
        [-0.122340360825186, 51.534566387746594],
        [-0.122400682289069, 51.53688471958056],
        [-0.12252093385923, 51.53736144789779],
        [-0.122724395861192, 51.537918641588185],
        [-0.123075478011488, 51.53849798026494],
        [-0.124050294455236, 51.53951443687058],
        [-0.124297571168922, 51.53981334444361],
        [-0.125479436031413, 51.541758425615576],
        [-0.12568993036032, 51.542110697193536],
        [-0.126395616796977, 51.54518840556111],
        [-0.126509349335892, 51.545614666819034],
        [-0.12717308936362, 51.547609004526436],
        [-0.127204063097215, 51.5476625545643],
        [-0.127781711506935, 51.54817175567404],
        [-0.12797235157616, 51.548306087859864],
        [-0.128235688518121, 51.54842629236076],
        [-0.129137549598805, 51.548838144500614],
        [-0.130025485173451, 51.549484471062726],
        [-0.130162805036894, 51.54961794972226],
        [-0.130344827707797, 51.549892423101305],
        [-0.130714452958534, 51.55065727703397],
        [-0.130925565319137, 51.55141870526549],
        [-0.131027072631845, 51.55151114620598],
        [-0.134005018306006, 51.55335973647556],
        [-0.134379502565283, 51.55362017833384],
        [-0.135204131061791, 51.55454871992177],
        [-0.135255925645658, 51.55458731144014],
        [-0.137017382258778, 51.555289727756055],
        [-0.137178906989947, 51.555396604830264],
        [-0.138394391740721, 51.55685918486237]
      ]
    ]
  }
}
