{
  "type": "Feature",
  "properties": { "name": "Islington", "level": 2, "londonBorough": true },
  "geometry": {
    "type": "Polygon",
    "coordinates": [
      [
        [-0.138394391740721, 51.556859184862368],
        [-0.138515239372949, 51.557008578367295],
        [-0.139267767234039, 51.558010583433706],
        [-0.13945105091562, 51.558256285977514],
        [-0.139692992677739, 51.558584749505222],
        [-0.140529082155789, 51.55980299013676],
        [-0.140702189513685, 51.559980186746166],
        [-0.140804028699306, 51.560065430179328],
        [-0.140884278585665, 51.560149432202884],
        [-0.140937758393521, 51.56021772287076],
        [-0.141005900859494, 51.560350991398245],
        [-0.141031547802217, 51.560429631971246],
        [-0.141056388602348, 51.560528043134724],
        [-0.141077821383209, 51.56071002999348],
        [-0.141032139664107, 51.561051918221025],
        [-0.141043198435662, 51.561169894389835],
        [-0.141043260125946, 51.561239137152924],
        [-0.141018066729655, 51.561397004943025],
        [-0.140996538068935, 51.561465006394009],
        [-0.140805232600469, 51.561910698000389],
        [-0.140699051918713, 51.562108647651044],
        [-0.14065901091862, 51.562206030737343],
        [-0.140638776503704, 51.56227764960407],
        [-0.140597464134983, 51.562547667340546],
        [-0.140592649267542, 51.562842543011897],
        [-0.140622560988849, 51.563064230983031],
        [-0.140718749378563, 51.563252797894002],
        [-0.140755272359389, 51.563347797210227],
        [-0.140802841766821, 51.563525701962263],
        [-0.14081722397734, 51.563632939843188],
        [-0.140816894550369, 51.563853249316708],
        [-0.140682531264931, 51.564246787475703],
        [-0.140672938994914, 51.564305086310696],
        [-0.140667342428239, 51.56437154165264],
        [-0.140670849271266, 51.564462420822501],
        [-0.140681602254329, 51.564552515568742],
        [-0.140690265803614, 51.564587723347948],
        [-0.141036263280741, 51.565160628056482],
        [-0.141111745095186, 51.565326385413599],
        [-0.141145569861941, 51.565416845601327],
        [-0.141197237084188, 51.56567125071571],
        [-0.141202015237684, 51.565695605977766],
        [-0.14130339514485, 51.566110863832485],
        [-0.141541408441015, 51.567280052928318],
        [-0.141670449005418, 51.567689453713776],
        [-0.141890159998804, 51.568317007665499],
        [-0.142224473906626, 51.568681998193036],
        [-0.142536449159828, 51.568922538613826],
        [-0.142500988225009, 51.569013700039861],
        [-0.142415838433851, 51.569120261237146],
        [-0.142170851415178, 51.56914785622228],
        [-0.141587609127954, 51.569260917587556],
        [-0.140915836968558, 51.569350991674398],
        [-0.140706165745528, 51.569397127979173],
        [-0.140521094232142, 51.569476925721759],
        [-0.139489646093586, 51.570000122057074],
        [-0.139094328391764, 51.570210571067079],
        [-0.138856869628787, 51.570336296041759],
        [-0.138677202859886, 51.570460239532217],
        [-0.138448163539433, 51.570556422220776],
        [-0.138429012640542, 51.570566010080135],
        [-0.13834390331578, 51.57060062957175],
        [-0.138072381146715, 51.570712323909575],
        [-0.137595485505791, 51.570941256818251],
        [-0.13728502287325, 51.571052331307186],
        [-0.136892956041302, 51.571182791946804],
        [-0.136703838333333, 51.571255325537699],
        [-0.136550809407441, 51.571327532685359],
        [-0.13617029215781, 51.571528315301236],
        [-0.135904895289107, 51.571631109527559],
        [-0.13560315014887, 51.571740519600311],
        [-0.135258147812421, 51.571884311988555],
        [-0.135190559786254, 51.571913812186231],
        [-0.13422522372247, 51.572440711046518],
        [-0.133427099195929, 51.572865949722491],
        [-0.133396077739616, 51.572883441136547],
        [-0.133112109070691, 51.573016507954414],
        [-0.132977147753566, 51.573070113820265],
        [-0.132801547888445, 51.573129367604587],
        [-0.132681707225409, 51.573166128108866],
        [-0.132353611408498, 51.573249032524522],
        [-0.131915509866295, 51.573375147015838],
        [-0.131732622940823, 51.573436081692407],
        [-0.131612080481097, 51.573489915562419],
        [-0.131389701255489, 51.573563709555259],
        [-0.131197528553025, 51.573604712183254],
        [-0.131024804147052, 51.573628938628154],
        [-0.130529778413223, 51.573700186725667],
        [-0.129751866755473, 51.573807390448103],
        [-0.129375018902668, 51.573847245120838],
        [-0.128755296516635, 51.573932684278567],
        [-0.127496470596509, 51.574153601193323],
        [-0.127124237060844, 51.574116187324101],
        [-0.126777373630986, 51.574128635671329],
        [-0.126699606444432, 51.5741246965027],
        [-0.126530167577634, 51.57410400660789],
        [-0.12623237363411, 51.574046196472864],
        [-0.126155419727084, 51.57402248656215],
        [-0.12547777958526, 51.574042238006577],
        [-0.12547633740328, 51.574042214968784],
        [-0.125105585761697, 51.57407406014029],
        [-0.12488093796511, 51.574097447949882],
        [-0.124713644420279, 51.57412984510681],
        [-0.124623156337989, 51.574154477080548],
        [-0.12457796651778, 51.57427065659968],
        [-0.124554039868984, 51.574361097854954],
        [-0.124506558530553, 51.57435764126123],
        [-0.124404458908965, 51.574348815455473],
        [-0.124283499866916, 51.574342385837518],
        [-0.124119310625786, 51.574404506829424],
        [-0.123960296792593, 51.574516168760177],
        [-0.123845214236331, 51.574612346470666],
        [-0.1238228781604, 51.574629074994881],
        [-0.123775321558762, 51.574662485912114],
        [-0.123609061445379, 51.574669719194908],
        [-0.123435442232266, 51.574680431535327],
        [-0.123273656677524, 51.574684138921931],
        [-0.122407579339603, 51.574968833652001],
        [-0.12237108395645, 51.574908899587967],
        [-0.121794818310875, 51.575059743030053],
        [-0.12177584729015, 51.575064834852682],
        [-0.121758691536404, 51.575025892756528],
        [-0.119928291015245, 51.575456994504719],
        [-0.119650638397224, 51.575505601212264],
        [-0.119568283301559, 51.575507878521499],
        [-0.119539401741595, 51.575508314950454],
        [-0.119393879426535, 51.575257791414778],
        [-0.119238819668892, 51.574993626150849],
        [-0.119263967809742, 51.574978742048252],
        [-0.119140318257435, 51.574897626707035],
        [-0.118890210280824, 51.574733552106117],
        [-0.118899011880576, 51.57473009621993],
        [-0.119487393791245, 51.574425690301659],
        [-0.119567015178733, 51.57438470173409],
        [-0.119063988494966, 51.574369445875561],
        [-0.118867962383047, 51.574363605888159],
        [-0.118234413116903, 51.57425902729257],
        [-0.117800067555724, 51.574188214926444],
        [-0.117585262765509, 51.574147900276138],
        [-0.117451157825169, 51.574040537287836],
        [-0.117184392001339, 51.573825834004609],
        [-0.11658693672554, 51.573372019209444],
        [-0.115818784943984, 51.572823737532367],
        [-0.115585284469398, 51.572572695555799],
        [-0.116127823047599, 51.572190235125255],
        [-0.11609942658458, 51.572178988293217],
        [-0.11574902128544, 51.572033079901182],
        [-0.115405642936176, 51.571891779529274],
        [-0.115601493005481, 51.571622453430663],
        [-0.115606005112743, 51.571618029662282],
        [-0.115507548376348, 51.571556199075822],
        [-0.115199520362591, 51.571432551438988],
        [-0.115142728855519, 51.57141005733024],
        [-0.115139272776933, 51.571319178012402],
        [-0.115159494007205, 51.570830313204461],
        [-0.115166036047755, 51.570672151050729],
        [-0.115093457113032, 51.57064760482907],
        [-0.115047868594795, 51.570633383833183],
        [-0.115045876611668, 51.570611769937948],
        [-0.115043074504095, 51.57057485585208],
        [-0.111621234603167, 51.569053167819817],
        [-0.110707615030081, 51.568605923727567],
        [-0.110672272957799, 51.568588268997317],
        [-0.110337264269251, 51.568420110827986],
        [-0.109308521272539, 51.567792051510658],
        [-0.109056076162631, 51.567651298074296],
        [-0.108815354764921, 51.567506236802593],
        [-0.108614450257132, 51.567375305542711],
        [-0.108422497010916, 51.567237324254094],
        [-0.108320442355331, 51.567158343784733],
        [-0.10784373618435, 51.566789160273728],
        [-0.1077700371915, 51.566722326770233],
        [-0.107611229656331, 51.566550707230498],
        [-0.107330321080172, 51.566331256422117],
        [-0.107021533574632, 51.566123045371306],
        [-0.106903921393175, 51.566036618661364],
        [-0.106634143966548, 51.5658272374367],
        [-0.106204608302437, 51.56553884118491],
        [-0.104871463448887, 51.564635154979896],
        [-0.104603475396649, 51.564764814235367],
        [-0.104463582500634, 51.564832695708397],
        [-0.104402270451921, 51.564780448091135],
        [-0.104391109230795, 51.564771275300636],
        [-0.104510703755623, 51.564705763751888],
        [-0.103793712511508, 51.564321890419237],
        [-0.102164510376995, 51.56328839242375],
        [-0.102085938596841, 51.563234965136829],
        [-0.101929880808272, 51.563102049764801],
        [-0.101515679540496, 51.562793201231827],
        [-0.101417335849003, 51.562729561836704],
        [-0.101329927926972, 51.562680487291651],
        [-0.101101803514151, 51.562580576034819],
        [-0.100999098030662, 51.562517764939017],
        [-0.100961142940798, 51.562493770185],
        [-0.100864804086813, 51.562416674035923],
        [-0.099479635178757, 51.561485105393082],
        [-0.098587621785283, 51.560837582190686],
        [-0.096032179896182, 51.561226882788155],
        [-0.09575879492092, 51.5611747860031],
        [-0.094825482670596, 51.560964498000821],
        [-0.094499042544384, 51.560870171290588],
        [-0.094291478963142, 51.560796658760019],
        [-0.093756348266909, 51.560552362535525],
        [-0.093635304574931, 51.560514425935551],
        [-0.093340614966423, 51.56048895480123],
        [-0.093126060874844, 51.560479173311101],
        [-0.092985222861801, 51.560466093326966],
        [-0.092768537488312, 51.560438291547001],
        [-0.092282513138576, 51.56029640195532],
        [-0.092167927780218, 51.5602765538314],
        [-0.091702767175619, 51.560222228297619],
        [-0.091591392183282, 51.560160167076589],
        [-0.091556529045351, 51.560062481027138],
        [-0.0915114988477, 51.559966428089197],
        [-0.091250068651027, 51.559560210663221],
        [-0.091047599022875, 51.559261962661232],
        [-0.090884106497142, 51.558997620752081],
        [-0.090770822317789, 51.558774561869875],
        [-0.090557721418419, 51.558316972654126],
        [-0.090375335694024, 51.557918334185551],
        [-0.09031153103747, 51.557822874406313],
        [-0.090292552677433, 51.557793789493665],
        [-0.090383391061479, 51.55772602571659],
        [-0.090420286440814, 51.557671771939766],
        [-0.090319923742063, 51.556692653202639],
        [-0.090266331006007, 51.555802422058434],
        [-0.090307915333162, 51.555360667589603],
        [-0.090333039491963, 51.554933033178827],
        [-0.090393339457685, 51.554423240194069],
        [-0.090403339507118, 51.554150030700441],
        [-0.090257820905827, 51.554145863632641],
        [-0.090037418421851, 51.554138678854578],
        [-0.089872837050593, 51.554073051916703],
        [-0.089753481173585, 51.554029743122342],
        [-0.08964603418017, 51.553977635603111],
        [-0.089529099277067, 51.553910985470758],
        [-0.08929965748669, 51.553740887668063],
        [-0.089049958016451, 51.553813257244137],
        [-0.088588488212061, 51.553947821732535],
        [-0.087744855063034, 51.552944898153136],
        [-0.087656039132544, 51.552895790191918],
        [-0.087552347076332, 51.552823059137246],
        [-0.08735662699798, 51.552743432248967],
        [-0.086993432730093, 51.552667369176518],
        [-0.08678896102778, 51.552624467941278],
        [-0.086509834924306, 51.552573154780276],
        [-0.086351377986921, 51.552533701001146],
        [-0.08627034571943, 51.552505401717823],
        [-0.08607887824389, 51.552427640540991],
        [-0.08563963725094, 51.552204653878213],
        [-0.085504396600439, 51.55216198075118],
        [-0.085404362478424, 51.552139665545752],
        [-0.08530118140611, 51.552123593658635],
        [-0.085180438795688, 51.552113529823174],
        [-0.084698601301917, 51.552046314175335],
        [-0.084632445484166, 51.552041637152172],
        [-0.084512578462434, 51.552045075698842],
        [-0.084378945556728, 51.552067173646684],
        [-0.083714259940062, 51.552129158330381],
        [-0.083217644316815, 51.552139030877228],
        [-0.081121414154933, 51.551976171532928],
        [-0.080287607279301, 51.551909475283246],
        [-0.079963316637401, 51.55186909771983],
        [-0.079724828503981, 51.551812138611879],
        [-0.079579349993751, 51.551738716454736],
        [-0.07950913262506, 51.55169350369021],
        [-0.079461297084819, 51.551664843815317],
        [-0.079333268077662, 51.551588109979171],
        [-0.079041053455554, 51.551334232838762],
        [-0.078868750192855, 51.551144366973006],
        [-0.07880293171176, 51.551063255696697],
        [-0.078683967855798, 51.550942606191903],
        [-0.077905188864838, 51.54967359365989],
        [-0.077718251689257, 51.54942053852475],
        [-0.077090430906204, 51.548677358717569],
        [-0.076916246839783, 51.548429906761257],
        [-0.076757501097112, 51.548158427772741],
        [-0.076728900821486, 51.548118391770153],
        [-0.076635701925941, 51.547934315443449],
        [-0.076441068411634, 51.547316934303069],
        [-0.076415115173122, 51.546974792444651],
        [-0.076373877750071, 51.546653082781305],
        [-0.076357637974358, 51.546422607585647],
        [-0.076377889569333, 51.546352797868742],
        [-0.076839387135842, 51.546079796935921],
        [-0.07832097247439, 51.54624166082553],
        [-0.079719766243966, 51.5463490948596],
        [-0.083165874308933, 51.546576309125953],
        [-0.083838271856327, 51.546603479956822],
        [-0.083629407032597, 51.545224211583552],
        [-0.083660628832786, 51.545064654575249],
        [-0.084086171858528, 51.543929553759106],
        [-0.084689094693795, 51.542381892490482],
        [-0.085494342698205, 51.540376213134223],
        [-0.085682262901865, 51.539781276332484],
        [-0.086036242144835, 51.538734026385804],
        [-0.086404170871399, 51.53773196553081],
        [-0.086462219701793, 51.537551263208123],
        [-0.086570862266746, 51.537401960725127],
        [-0.086617390930976, 51.537255242054059],
        [-0.086815832589128, 51.537268370391573],
        [-0.087086041648063, 51.537220620205055],
        [-0.087409632511435, 51.537137769601742],
        [-0.087701284982235, 51.537025621360748],
        [-0.088198993333344, 51.536779244935104],
        [-0.088661473153103, 51.53654757974406],
        [-0.089139336455521, 51.536292782745448],
        [-0.089690558890699, 51.536007704598781],
        [-0.089718576573599, 51.535992873544252],
        [-0.090257598786449, 51.53575795227831],
        [-0.0907729468678, 51.535502859680001],
        [-0.091375045581841, 51.535241982308811],
        [-0.091588528146836, 51.535136645897239],
        [-0.091981560053631, 51.534944304313825],
        [-0.092548222889102, 51.534668456549511],
        [-0.093284577134123, 51.53433421517056],
        [-0.093779208507511, 51.534125533930556],
        [-0.093986166003922, 51.534038072230793],
        [-0.094484062848796, 51.533854620192564],
        [-0.094553165164313, 51.533891712796546],
        [-0.09504976736777, 51.533704640332864],
        [-0.095045526844733, 51.533633530473352],
        [-0.096011769532851, 51.533283221551798],
        [-0.096163832141926, 51.533232633658244],
        [-0.09655246369791, 51.533110347227158],
        [-0.097033608100967, 51.532982366307706],
        [-0.096261427676978, 51.53186105803286],
        [-0.095895166540213, 51.531309266611167],
        [-0.095524832405355, 51.53078618392945],
        [-0.095317669464741, 51.530464484603328],
        [-0.09511285727993, 51.530051998437905],
        [-0.095083530547897, 51.529925626685738],
        [-0.095081946618289, 51.529859955448082],
        [-0.095093442049395, 51.52979179884975],
        [-0.095141916248856, 51.529666690517537],
        [-0.09540531887285, 51.529193463907973],
        [-0.089601311427835, 51.527704338145099],
        [-0.089049973960406, 51.527546980478938],
        [-0.088780421578175, 51.527442771561184],
        [-0.088662952794272, 51.527390499256555],
        [-0.088598187092709, 51.52735347372176],
        [-0.088552187902933, 51.527315854706565],
        [-0.088484756452386, 51.527239218457602],
        [-0.088310233086732, 51.527069112886629],
        [-0.088131933356194, 51.526817113298719],
        [-0.087837832153497, 51.526232299886644],
        [-0.087804130585512, 51.526107653297004],
        [-0.087439912368556, 51.525957834421945],
        [-0.087294474427338, 51.525919492738467],
        [-0.087032148172877, 51.525849569220732],
        [-0.086795377284974, 51.525789054490509],
        [-0.086456320889978, 51.525864456727163],
        [-0.08629907529864, 51.525901458614896],
        [-0.085020668718096, 51.526203427230833],
        [-0.084908945554161, 51.525876972023276],
        [-0.084750980438679, 51.525415772582704],
        [-0.085030826559852, 51.525205419573126],
        [-0.085270678052499, 51.524848733659375],
        [-0.085409709467263, 51.524592916775674],
        [-0.085443391956264, 51.524511634307764],
        [-0.085111053724994, 51.524427074792392],
        [-0.085139330906803, 51.523924852543146],
        [-0.084527807602366, 51.523897781931083],
        [-0.084223509326025, 51.523900905559437],
        [-0.084315375004608, 51.523601155278378],
        [-0.084338190920012, 51.523400993869437],
        [-0.084441293454768, 51.522489933007861],
        [-0.084523727136056, 51.522071326702715],
        [-0.084703230079292, 51.521606644847125],
        [-0.08490627320443, 51.520993070554468],
        [-0.085067103481213, 51.520629699173362],
        [-0.085217864214879, 51.520334506648005],
        [-0.085376415227545, 51.520128467449233],
        [-0.085556094005875, 51.519831048762512],
        [-0.085813753784203, 51.519426991729638],
        [-0.085904578895836, 51.519289089246605],
        [-0.086227409628961, 51.518808758795181],
        [-0.086357092683454, 51.518844147171237],
        [-0.08754287171827, 51.519199809325023],
        [-0.088129334299429, 51.519410803563218],
        [-0.089303016937213, 51.519780638627893],
        [-0.089780487251857, 51.519909815200847],
        [-0.090004267967259, 51.519970112582421],
        [-0.089704633412887, 51.520689133671539],
        [-0.089693459590328, 51.520715030098572],
        [-0.090263607794715, 51.520799851964647],
        [-0.090926249151122, 51.520878982464339],
        [-0.091372019705481, 51.52093929308198],
        [-0.091821461279737, 51.52098077735851],
        [-0.092176094997457, 51.521014423070177],
        [-0.092374468004252, 51.5210275413272],
        [-0.092516763635231, 51.521485777844966],
        [-0.093301537171222, 51.521333074626227],
        [-0.09341461883491, 51.521524655604587],
        [-0.093593150920269, 51.521495184288248],
        [-0.093615326898829, 51.521585470213694],
        [-0.093875277434959, 51.521539336639037],
        [-0.094344662056499, 51.521483116496761],
        [-0.094410129333398, 51.521744964022609],
        [-0.09462281570156, 51.52231315118177],
        [-0.095088625394926, 51.523137240231051],
        [-0.095987564896766, 51.522909037097442],
        [-0.096017382618236, 51.522954483837978],
        [-0.09646979721747, 51.522821543034645],
        [-0.096623651322456, 51.523176547485726],
        [-0.096684641579692, 51.523165846862234],
        [-0.096697718946384, 51.523163361300263],
        [-0.096713806492414, 51.523192398484149],
        [-0.096786275636301, 51.523321268492488],
        [-0.097972410815338, 51.52287739250766],
        [-0.097933498583072, 51.522842589849887],
        [-0.097901676770431, 51.522810599922153],
        [-0.097787204992141, 51.522686444971029],
        [-0.097701057621125, 51.522574439578719],
        [-0.097640053710537, 51.52248172625437],
        [-0.097512100143367, 51.522231456747122],
        [-0.097383667155994, 51.521854384426412],
        [-0.097374543324533, 51.52172744154776],
        [-0.097393105913867, 51.521627925400267],
        [-0.097403209671451, 51.521593018365358],
        [-0.097516672215251, 51.521602952045917],
        [-0.097568074596066, 51.521303434764107],
        [-0.097624077240186, 51.521031868952804],
        [-0.097670128210815, 51.5207223730132],
        [-0.098451280054015, 51.52058666257787],
        [-0.098901867811434, 51.520496847120377],
        [-0.09934830081969, 51.520368294674434],
        [-0.099654539280137, 51.520283331210535],
        [-0.100110171884798, 51.520141436116852],
        [-0.100257472566613, 51.520134829430823],
        [-0.100300985468676, 51.520128340147402],
        [-0.100430083645909, 51.520108848871182],
        [-0.10080270908382, 51.519987188870395],
        [-0.101072632039125, 51.519908827738277],
        [-0.101575098330778, 51.519749700117373],
        [-0.101820755227668, 51.519665548992421],
        [-0.102083958051062, 51.519575386490182],
        [-0.103256725550231, 51.519206778709666],
        [-0.104756083036306, 51.518748115970858],
        [-0.105341089186077, 51.518544444058584],
        [-0.105349880835, 51.518540989057279],
        [-0.105489475180056, 51.51913675148522],
        [-0.105884372820218, 51.520284282262594],
        [-0.106036428258869, 51.520684207747912],
        [-0.106165021204019, 51.52092009002385],
        [-0.106352486570689, 51.521265732293067],
        [-0.106501585284931, 51.521493851929378],
        [-0.106647705757206, 51.521689550162343],
        [-0.107020506684813, 51.522189257338248],
        [-0.108274398548586, 51.522089885999158],
        [-0.108285699309619, 51.522095463775116],
        [-0.108336913323783, 51.522146647909942],
        [-0.10860212631734, 51.522460267859984],
        [-0.108758293892786, 51.522692095491891],
        [-0.108966709695257, 51.522985015198167],
        [-0.108991224994869, 51.523019582040462],
        [-0.109244424164064, 51.522927443694108],
        [-0.109321618495963, 51.522943076050353],
        [-0.109481535241175, 51.523014896088682],
        [-0.109604630650401, 51.523070835184051],
        [-0.109809588538364, 51.523099317271623],
        [-0.109985177344917, 51.523140814566354],
        [-0.110602515334155, 51.52327126007404],
        [-0.111201315446785, 51.523396907534568],
        [-0.111885029317761, 51.523560788147783],
        [-0.112194177781737, 51.523649394552841],
        [-0.112357874679325, 51.523699689397539],
        [-0.112563005753406, 51.52379381485612],
        [-0.113212128498028, 51.524236798511446],
        [-0.113506817258386, 51.524431280575619],
        [-0.113612106412743, 51.524534589387798],
        [-0.113679613699658, 51.524610312954614],
        [-0.113880792389744, 51.524904905720454],
        [-0.114103122539103, 51.525280770866942],
        [-0.114206773876208, 51.525458690696851],
        [-0.114253379329995, 51.525516992083759],
        [-0.113735295183002, 51.525879153832676],
        [-0.113224629001526, 51.526236037127347],
        [-0.112949346510852, 51.526408761505685],
        [-0.113437671304127, 51.526522728114223],
        [-0.113625314133602, 51.526586895002701],
        [-0.113760358188443, 51.526633129998928],
        [-0.113824809415896, 51.526678229730997],
        [-0.114494792909349, 51.527071183111602],
        [-0.114705624929066, 51.527202265614683],
        [-0.115303514208631, 51.527595854013029],
        [-0.115432378938077, 51.527722021152698],
        [-0.115476069675873, 51.527781174433869],
        [-0.115528695220651, 51.527868348035028],
        [-0.115569721012778, 51.52795713376522],
        [-0.115680221943364, 51.528318609484494],
        [-0.115726880432134, 51.528724921378164],
        [-0.115783271670488, 51.529454220775747],
        [-0.115806972991196, 51.529543627359693],
        [-0.115841056615037, 51.529626006691643],
        [-0.115880204717037, 51.529690482333045],
        [-0.115943289579969, 51.52976883118987],
        [-0.116016645596071, 51.529842848718054],
        [-0.116052881544685, 51.529873105980514],
        [-0.116532478183881, 51.530094829326458],
        [-0.117102891827482, 51.530282038417866],
        [-0.117557648431824, 51.530407138929348],
        [-0.11814111610984, 51.530557683112228],
        [-0.1190113785554, 51.53074609578907],
        [-0.119895945411922, 51.530937428975363],
        [-0.12121884275762, 51.530848016533092],
        [-0.121995481425598, 51.530789412054318],
        [-0.122556070568083, 51.530725546288899],
        [-0.12255322262615, 51.530829813743495],
        [-0.122563410489607, 51.531107845135352],
        [-0.122464677365214, 51.532736605430941],
        [-0.122360479652859, 51.534042447112832],
        [-0.122340360825186, 51.534566387746594],
        [-0.122340988169436, 51.5345861812838],
        [-0.122338661608869, 51.535518666027784],
        [-0.122329080325337, 51.535821559803239],
        [-0.122340561559791, 51.536068137969046],
        [-0.122352264783687, 51.536309324179413],
        [-0.122400682289069, 51.536884719580563],
        [-0.12252093385923, 51.537361447897787],
        [-0.122606942969383, 51.53761911045639],
        [-0.122724395861192, 51.537918641588185],
        [-0.123075478011488, 51.538497980264943],
        [-0.123176237950961, 51.53864257294164],
        [-0.12337798214326, 51.538891295393519],
        [-0.123734329247448, 51.539237810652068],
        [-0.124050294455236, 51.539514436870583],
        [-0.124297571168922, 51.539813344443608],
        [-0.124861051717415, 51.540593907912765],
        [-0.125008863715068, 51.540857052546272],
        [-0.125086209226802, 51.541115473807814],
        [-0.125093157675468, 51.541192020986855],
        [-0.125266765865474, 51.541459174513797],
        [-0.125479436031413, 51.541758425615576],
        [-0.12568993036032, 51.542110697193536],
        [-0.125741122244112, 51.542479307633123],
        [-0.125827158508678, 51.542736967897163],
        [-0.125900517815942, 51.5429170902229],
        [-0.125938473994862, 51.54304628905502],
        [-0.125909654893817, 51.543186111404765],
        [-0.125994034483241, 51.543554352563199],
        [-0.12615529175393, 51.544192696752503],
        [-0.126361907660661, 51.545061073260996],
        [-0.126395616796977, 51.545188405561113],
        [-0.126509349335892, 51.545614666819034],
        [-0.126653649940182, 51.546104363379591],
        [-0.126888186918996, 51.546995665623562],
        [-0.127088595216515, 51.547453884373567],
        [-0.127138935684882, 51.547527527044849],
        [-0.12717308936362, 51.547609004526436],
        [-0.127204063097215, 51.547662554564297],
        [-0.127268596081589, 51.547741819214082],
        [-0.127609847152425, 51.548036823574257],
        [-0.127699401058814, 51.548103897831353],
        [-0.127781711506935, 51.548171755674041],
        [-0.12797235157616, 51.548306087859864],
        [-0.128235688518121, 51.548426292360759],
        [-0.129137549598805, 51.548838144500614],
        [-0.129347082005189, 51.548969178671982],
        [-0.129349964789771, 51.548969224636707],
        [-0.129834645734519, 51.549319564731142],
        [-0.130025485173451, 51.549484471062726],
        [-0.130162805036894, 51.549617949722261],
        [-0.130344827707797, 51.549892423101305],
        [-0.130714452958534, 51.55065727703397],
        [-0.130761975927928, 51.55087025639024],
        [-0.130814100945877, 51.5512172967711],
        [-0.130837321451858, 51.551284210955046],
        [-0.130879023271615, 51.55135771428958],
        [-0.130925565319137, 51.55141870526549],
        [-0.131027072631845, 51.551511146205982],
        [-0.131244940056238, 51.551650402821423],
        [-0.131354871205314, 51.551713302511565],
        [-0.131840689670201, 51.551966533421137],
        [-0.132161797142008, 51.552120920823434],
        [-0.13325044369179, 51.552835162883262],
        [-0.134005018306006, 51.553359736475556],
        [-0.134379502565283, 51.553620178333837],
        [-0.134639438999423, 51.553859913686075],
        [-0.134722402843655, 51.553947560268576],
        [-0.134883381881831, 51.554138061757563],
        [-0.135089185298517, 51.554431789497265],
        [-0.135147121605964, 51.554496556809205],
        [-0.135204131061791, 51.554548719921769],
        [-0.135255925645658, 51.554587311440137],
        [-0.135337552392322, 51.554637167999438],
        [-0.135474776126361, 51.554703195209413],
        [-0.135912756965923, 51.554857630836146],
        [-0.13654410657092, 51.555045710463375],
        [-0.137017382258778, 51.555289727756055],
        [-0.137178906989947, 51.555396604830264],
        [-0.137272336863435, 51.555475423258621],
        [-0.137384224064841, 51.555596799146869],
        [-0.137445572143746, 51.555684100574815],
        [-0.138394391740721, 51.556859184862368]
      ]
    ]
  }
}
