{
  "type": "Feature",
  "properties": {
    "name": "Kensington and Chelsea",
    "level": 2,
    "londonBorough": true
  },
  "geometry": {
    "type": "Polygon",
    "coordinates": [
      [
        [-0.207388486815905, 51.49614849755865],
        [-0.208001399858425, 51.4960220785484],
        [-0.210051750623643, 51.497926518026766],
        [-0.210270061759818, 51.498127683685766],
        [-0.213062620158492, 51.4998473575656],
        [-0.214133059861852, 51.50077010066167],
        [-0.215075143986526, 51.502250209894996],
        [-0.214966513085012, 51.502301611965606],
        [-0.216342136818202, 51.50367680174752],
        [-0.216375538297795, 51.50367011576848],
        [-0.217748305058514, 51.50574845293866],
        [-0.217990725824633, 51.506146004907876],
        [-0.217180934874618, 51.50629286437318],
        [-0.21638817462364, 51.50644627196495],
        [-0.216243211557441, 51.506357740027994],
        [-0.215963408558681, 51.50640114416156],
        [-0.216056880846251, 51.506590507744626],
        [-0.216227388403715, 51.50694740284029],
        [-0.21615525611939, 51.507466068242],
        [-0.216144544303934, 51.5075189606584],
        [-0.215397351914971, 51.50761190617833],
        [-0.215202896032835, 51.5076467154454],
        [-0.215611845054535, 51.508539591396136],
        [-0.215817065708037, 51.509114631826286],
        [-0.216091970117281, 51.509160178494064],
        [-0.216430733059092, 51.509120368306796],
        [-0.216612979236055, 51.50932456988537],
        [-0.216841767000617, 51.50944405070303],
        [-0.216994953119879, 51.5101343000706],
        [-0.217209701739341, 51.51039205004604],
        [-0.218053287292987, 51.51023041638662],
        [-0.217888647731003, 51.50975940964359],
        [-0.218844524661177, 51.509637244654414],
        [-0.219286490792475, 51.50957471386854],
        [-0.219882097194808, 51.511079194730534],
        [-0.219937084742285, 51.511184341340886],
        [-0.222402191815544, 51.51527370925705],
        [-0.222604014295094, 51.51564275884585],
        [-0.224464245749229, 51.517655556943254],
        [-0.224747418726456, 51.51797187949719],
        [-0.226722746987315, 51.51977236269669],
        [-0.228301541991189, 51.52109741960628],
        [-0.228077120055758, 51.52119744231514],
        [-0.228070910956141, 51.52135741319591],
        [-0.226820412120748, 51.52193381344854],
        [-0.226729383306425, 51.52197650013124],
        [-0.226733484078278, 51.5223533435855],
        [-0.2266198619781, 51.524795759073854],
        [-0.227195157901396, 51.52479276475884],
        [-0.227391965448684, 51.525961152987044],
        [-0.227416850496613, 51.52624838631016],
        [-0.22737766672922, 51.5277027629458],
        [-0.227412120132996, 51.527892123735384],
        [-0.227588331095541, 51.52832911862715],
        [-0.22774002609503, 51.52854363085595],
        [-0.228365673241034, 51.52921312249324],
        [-0.228727694430198, 51.52987773114078],
        [-0.228503091391323, 51.53035273446444],
        [-0.227590893351269, 51.53015641034674],
        [-0.227588011597721, 51.53015636680673],
        [-0.227680517201338, 51.52992755935381],
        [-0.227685223721561, 51.529917738836],
        [-0.225463193299758, 51.53003791700411],
        [-0.225446564317812, 51.530168954320644],
        [-0.224296689719306, 51.5300418472129],
        [-0.223803793571225, 51.52996334534232],
        [-0.221903771933112, 51.529367141396435],
        [-0.221526610259763, 51.52927869395471],
        [-0.217331725183072, 51.528455163810506],
        [-0.217067104002001, 51.5283648151373],
        [-0.216028870217723, 51.5279281862027],
        [-0.215815104107892, 51.527827817164315],
        [-0.215923898588293, 51.527589374707055],
        [-0.215923159453285, 51.52749764096516],
        [-0.215674918634752, 51.52691475453822],
        [-0.21557297465917, 51.526719867159365],
        [-0.213315684932376, 51.52689682950083],
        [-0.212698407312407, 51.52686674355754],
        [-0.211261133761019, 51.52675581115111],
        [-0.210277982453008, 51.5266814654535],
        [-0.206724657258905, 51.52612452261191],
        [-0.206507855254889, 51.52606545510879],
        [-0.205902251472693, 51.52573876206566],
        [-0.205691210963923, 51.52553320477021],
        [-0.204365276524172, 51.52383942629045],
        [-0.204075970353419, 51.52360838830061],
        [-0.202584140309998, 51.52301901583087],
        [-0.201639340024831, 51.522741955973466],
        [-0.201531503340203, 51.52203979274414],
        [-0.201528006925649, 51.52198218761231],
        [-0.200636405084639, 51.520795002186965],
        [-0.200633972516262, 51.5207104360446],
        [-0.202225570910231, 51.5208868123916],
        [-0.202669052523024, 51.52089900399162],
        [-0.20372586525668, 51.52063642720468],
        [-0.203766766634327, 51.520622665666664],
        [-0.202379404320592, 51.51884698968047],
        [-0.201488114023965, 51.51779919740163],
        [-0.200747479510419, 51.51797667991804],
        [-0.199893991924037, 51.5167756843088],
        [-0.199207744084053, 51.51455121257058],
        [-0.195767374323923, 51.51495605750516],
        [-0.195072585586659, 51.515031695469084],
        [-0.19436728380838, 51.51271247942113],
        [-0.194064975201054, 51.511756424194004],
        [-0.192984737818292, 51.511813524673784],
        [-0.192143741166405, 51.50986808706885],
        [-0.188562697224446, 51.5101572458482],
        [-0.187933515567751, 51.51017900045938],
        [-0.184409344376091, 51.50211221211291],
        [-0.184259202691047, 51.50179335266162],
        [-0.183080978559071, 51.50156647991334],
        [-0.182615429318555, 51.50149811777022],
        [-0.180931267843866, 51.50142164970285],
        [-0.180336082308999, 51.50146097590211],
        [-0.179749298590097, 51.498685783130306],
        [-0.179570784406172, 51.49777836846867],
        [-0.173566946169616, 51.49822097159061],
        [-0.171800980024058, 51.49860800929505],
        [-0.171499552769604, 51.49868783942511],
        [-0.169643922510673, 51.49890258941216],
        [-0.168414542452028, 51.499020980927526],
        [-0.168202273715061, 51.49899698284881],
        [-0.168051202577291, 51.49888401540466],
        [-0.167928904509375, 51.49852060662371],
        [-0.167643829079478, 51.49830033294511],
        [-0.165803680918363, 51.4992418578711],
        [-0.165505721015219, 51.498696748289355],
        [-0.162857634744476, 51.50013006556737],
        [-0.162598969407924, 51.50029237453637],
        [-0.161187610237715, 51.5014941333135],
        [-0.161023835858289, 51.501589583615754],
        [-0.158477192615514, 51.502250139347616],
        [-0.15846862542109, 51.50224820632422],
        [-0.158436489145052, 51.5010795756774],
        [-0.157874142364644, 51.49901775512513],
        [-0.157239692983487, 51.498566255581245],
        [-0.1560964963243, 51.49776234147134],
        [-0.155547472267631, 51.495338319022736],
        [-0.155319399041975, 51.49506405697932],
        [-0.155938789240209, 51.49463766137255],
        [-0.156013733707651, 51.49449406034218],
        [-0.155015220429941, 51.49385607322232],
        [-0.156008901871484, 51.493221543388344],
        [-0.155989544527351, 51.493201455469226],
        [-0.154817960436755, 51.49196274225347],
        [-0.155821066522154, 51.49145066060545],
        [-0.155196294452555, 51.49004879144041],
        [-0.155873887258504, 51.489606226052345],
        [-0.151413790333243, 51.486875112730196],
        [-0.150366710862066, 51.48623272128642],
        [-0.150195225488876, 51.486092430505494],
        [-0.150119236762621, 51.485977026598384],
        [-0.150003790792139, 51.48548421297736],
        [-0.149843876983426, 51.48455995514554],
        [-0.160347828269661, 51.48309577047299],
        [-0.160569312962319, 51.48306777120329],
        [-0.163101216586853, 51.48288984196839],
        [-0.163286570918486, 51.48286486859537],
        [-0.170780101802059, 51.48171405936019],
        [-0.170928097465971, 51.48168669265397],
        [-0.174243093467737, 51.48054145108469],
        [-0.174948401578203, 51.480190032542026],
        [-0.175253067449236, 51.4799897447644],
        [-0.175885004661892, 51.47945553007448],
        [-0.177484677958864, 51.47780150222906],
        [-0.177815681013755, 51.47755395690167],
        [-0.17968260498155, 51.47782844993562],
        [-0.180210286943133, 51.47784923011144],
        [-0.182238662628905, 51.47728718676793],
        [-0.182424734691349, 51.47724331014919],
        [-0.18342111828182, 51.477283030511465],
        [-0.183619735636715, 51.477322077428795],
        [-0.185374744737361, 51.47860280573199],
        [-0.185632392617821, 51.47878754200865],
        [-0.186364291058577, 51.47972329381525],
        [-0.186549937140947, 51.47987184356247],
        [-0.186729839669638, 51.479765816419906],
        [-0.187589523731852, 51.48045804097112],
        [-0.188194980374445, 51.48087925399127],
        [-0.194316660966616, 51.48636108016244],
        [-0.194494361774999, 51.48649330806214],
        [-0.195324313560293, 51.486996173893964],
        [-0.195987877304251, 51.4873723779157],
        [-0.196448165026975, 51.487205903153374],
        [-0.198222001978708, 51.48806407612344],
        [-0.198298944073415, 51.48812191089171],
        [-0.201774454214678, 51.49112838447658],
        [-0.202387033198774, 51.49166833172983],
        [-0.20230819653665, 51.49169499988737],
        [-0.201835316098099, 51.49185141288023],
        [-0.203131385795574, 51.493290289800505],
        [-0.203027895202585, 51.49332107692705],
        [-0.204865362739261, 51.49454881237908],
        [-0.204783811671386, 51.49460781351654],
        [-0.206590854145545, 51.49547535710644],
        [-0.206719227641922, 51.49554476359459],
        [-0.207388486815905, 51.49614849755865]
      ]
    ]
  }
}
