{
  "type": "Feature",
  "properties": {
    "name": "Kensington and Chelsea",
    "level": 2,
    "londonBorough": true,
    "center": [-0.195, 51.494]
  },
  "geometry": {
    "type": "Polygon",
    "coordinates": [
      [
        [-0.207388486815905, 51.49614849755865],
        [-0.208001399858425, 51.4960220785484],
        [-0.208209478598995, 51.49618981977192],
        [-0.208967436267333, 51.49681018680103],
        [-0.20958705386993, 51.49739516479306],
        [-0.209922179556602, 51.497777064195105],
        [-0.210051750623643, 51.497926518026766],
        [-0.210270061759818, 51.498127683685766],
        [-0.210825075534723, 51.49852372675067],
        [-0.211507863682469, 51.498894738392764],
        [-0.211678571250479, 51.498987266018204],
        [-0.211943289716214, 51.499144173861076],
        [-0.21259241602915, 51.4995290537399],
        [-0.213062620158492, 51.4998473575656],
        [-0.214133059861852, 51.50077010066167],
        [-0.21436962894496, 51.501131601881966],
        [-0.21471844862534, 51.501644085840006],
        [-0.215075143986526, 51.502250209894996],
        [-0.214966513085012, 51.502301611965606],
        [-0.215375896965884, 51.502702610091276],
        [-0.216019069940323, 51.50338952559204],
        [-0.216235996721266, 51.503701265569916],
        [-0.216342136818202, 51.50367680174752],
        [-0.216375538297795, 51.50367011576848],
        [-0.216409679338584, 51.503718294878844],
        [-0.216582106345909, 51.50395202250458],
        [-0.217008840148226, 51.504462986168015],
        [-0.217040523258957, 51.504500336795914],
        [-0.217418556514559, 51.50511487071996],
        [-0.21759837186001, 51.505381081787064],
        [-0.217636344747101, 51.505441908149606],
        [-0.217573403892157, 51.50546702967974],
        [-0.217588403224591, 51.505488839463766],
        [-0.217748305058514, 51.50574845293866],
        [-0.217990725824633, 51.506146004907876],
        [-0.217180934874618, 51.50629286437318],
        [-0.21638817462364, 51.50644627196495],
        [-0.216363445673682, 51.506415321634506],
        [-0.216322242529093, 51.50636343816942],
        [-0.216319362294261, 51.506363394366915],
        [-0.216243211557441, 51.506357740027994],
        [-0.215963408558681, 51.50640114416156],
        [-0.216056880846251, 51.506590507744626],
        [-0.216227388403715, 51.50694740284029],
        [-0.216189250561427, 51.50722289041648],
        [-0.216169550198897, 51.50739524544779],
        [-0.21615525611939, 51.507466068242],
        [-0.216144544303934, 51.5075189606584],
        [-0.216086938157159, 51.507518084493704],
        [-0.215882366149093, 51.50751677129861],
        [-0.215862063578582, 51.50752005943507],
        [-0.215397351914971, 51.50761190617833],
        [-0.215202896032835, 51.5076467154454],
        [-0.215392966450647, 51.50805606549674],
        [-0.215611845054535, 51.508539591396136],
        [-0.215817065708037, 51.509114631826286],
        [-0.216086173222601, 51.50912412061563],
        [-0.216091970117281, 51.509160178494064],
        [-0.216430733059092, 51.509120368306796],
        [-0.21646213933547, 51.50920177773143],
        [-0.216511037495997, 51.509241188722214],
        [-0.216612979236055, 51.50932456988537],
        [-0.216841767000617, 51.50944405070303],
        [-0.216815321445258, 51.50956774412618],
        [-0.21685962209697, 51.509688016901386],
        [-0.216913020475725, 51.50979673781131],
        [-0.216984264923067, 51.50992821105207],
        [-0.217010050424339, 51.50996906895092],
        [-0.216993471060303, 51.509987701009535],
        [-0.216963227845105, 51.51002411019903],
        [-0.216960210343809, 51.51010139918408],
        [-0.216994953119879, 51.5101343000706],
        [-0.217209701739341, 51.51039205004604],
        [-0.217246163934504, 51.510380914109426],
        [-0.217489631328355, 51.5103090780917],
        [-0.217511515583176, 51.51030221673616],
        [-0.217555284073315, 51.510288494012606],
        [-0.217600457704254, 51.510275691868564],
        [-0.217646966329615, 51.51026560772128],
        [-0.217793097079554, 51.51025074265102],
        [-0.217840835458642, 51.5102460725676],
        [-0.218053287292987, 51.51023041638662],
        [-0.217888647731003, 51.50975940964359],
        [-0.218844524661177, 51.509637244654414],
        [-0.219286490792475, 51.50957471386854],
        [-0.219300756396241, 51.50961539635679],
        [-0.219518359663844, 51.51020680427838],
        [-0.219570783965309, 51.51034068792523],
        [-0.219768428741943, 51.51081579008095],
        [-0.21978954612009, 51.51086556891431],
        [-0.219834381286577, 51.51097235997197],
        [-0.219882097194808, 51.511079194730534],
        [-0.219937084742285, 51.511184341340886],
        [-0.220040345464295, 51.5113450742701],
        [-0.220139321080511, 51.511504842833006],
        [-0.220268937276754, 51.51172892241434],
        [-0.220333868423985, 51.51183781666604],
        [-0.220345920467839, 51.5118613798211],
        [-0.220435945672581, 51.512065974397835],
        [-0.220538014910358, 51.51222039407563],
        [-0.221131645273179, 51.51311155479954],
        [-0.221359864594405, 51.51346841771477],
        [-0.221497143697662, 51.51364405296357],
        [-0.221463266436868, 51.51381079820437],
        [-0.221478875795832, 51.513891067384186],
        [-0.221480071132787, 51.51389738019957],
        [-0.221757210464025, 51.51433052030109],
        [-0.222032209055519, 51.51474474317173],
        [-0.222276987461532, 51.51508387030548],
        [-0.222402191815544, 51.51527370925705],
        [-0.222604014295094, 51.51564275884585],
        [-0.222751193933408, 51.515712432078736],
        [-0.222927802469207, 51.515914739423856],
        [-0.223668123634734, 51.51674246399985],
        [-0.224315027748123, 51.51745276745345],
        [-0.22429985406869, 51.517472321042774],
        [-0.224277163430059, 51.517499853999624],
        [-0.224464245749229, 51.517655556943254],
        [-0.224747418726456, 51.51797187949719],
        [-0.224917498147843, 51.518120130428876],
        [-0.225077145792351, 51.51827721565837],
        [-0.225299032164809, 51.51850178613264],
        [-0.225677516840964, 51.5188878906123],
        [-0.225894764510318, 51.519083614048064],
        [-0.226369644474098, 51.51951163991656],
        [-0.22642676817718, 51.51948822416208],
        [-0.226472630201917, 51.51953208111968],
        [-0.226484119615312, 51.519533154075866],
        [-0.226528671644547, 51.519536525397186],
        [-0.226563114208365, 51.51957751194388],
        [-0.226625844067523, 51.51963241474363],
        [-0.226701085189022, 51.51969919677265],
        [-0.226768416274179, 51.519746975132435],
        [-0.226722746987315, 51.51977236269669],
        [-0.228301541991189, 51.52109741960628],
        [-0.228077120055758, 51.52119744231514],
        [-0.228070910956141, 51.52135741319591],
        [-0.226820412120748, 51.52193381344854],
        [-0.226729383306425, 51.52197650013124],
        [-0.226733484078278, 51.5223533435855],
        [-0.2266198619781, 51.524795759073854],
        [-0.227195157901396, 51.52479276475884],
        [-0.227271402866943, 51.5251680005707],
        [-0.227298745552054, 51.525317687495104],
        [-0.227374961370985, 51.525842196465035],
        [-0.227391965448684, 51.525961152987044],
        [-0.227416850496613, 51.52624838631016],
        [-0.227414153279083, 51.52628071816126],
        [-0.227350520194278, 51.527102560340765],
        [-0.227347617365819, 51.52728865894758],
        [-0.227355019173803, 51.527506386628325],
        [-0.22737766672922, 51.5277027629458],
        [-0.227412120132996, 51.527892123735384],
        [-0.227457881093797, 51.52805018200796],
        [-0.227507815376798, 51.52817503147811],
        [-0.227588331095541, 51.52832911862715],
        [-0.22774002609503, 51.52854363085595],
        [-0.227826750136212, 51.52864925272629],
        [-0.228019279211575, 51.528851792102515],
        [-0.228207546866897, 51.5290155995217],
        [-0.228269872759878, 51.52908128604054],
        [-0.228324855053502, 51.52915045857098],
        [-0.228365673241034, 51.52921312249324],
        [-0.228727694430198, 51.52987773114078],
        [-0.228503091391323, 51.53035273446444],
        [-0.228372483829086, 51.530300404728],
        [-0.228164348177594, 51.53023970998159],
        [-0.228009884699785, 51.53020770200088],
        [-0.22784660168678, 51.53018005677446],
        [-0.227718817285567, 51.53016643620745],
        [-0.227590893351269, 51.53015641034674],
        [-0.227588011597721, 51.53015636680673],
        [-0.227680517201338, 51.52992755935381],
        [-0.227685223721561, 51.529917738836],
        [-0.226716838558573, 51.529980438925286],
        [-0.226200308414465, 51.52999061452179],
        [-0.225465333068641, 51.530019964596256],
        [-0.225463193299758, 51.53003791700411],
        [-0.225446564317812, 51.530168954320644],
        [-0.225016791239775, 51.53013547512859],
        [-0.224600755848617, 51.530082419013766],
        [-0.224296689719306, 51.5300418472129],
        [-0.223803793571225, 51.52996334534232],
        [-0.22363372955779, 51.529924800687695],
        [-0.223388139646853, 51.529863530251525],
        [-0.223087406526396, 51.52977444686501],
        [-0.222819884326137, 51.529684067358275],
        [-0.222668973345922, 51.529635020581686],
        [-0.222296544986097, 51.52949898767612],
        [-0.221903771933112, 51.529367141396435],
        [-0.221526610259763, 51.52927869395471],
        [-0.221005471053026, 51.52918536421917],
        [-0.220714627125031, 51.5291386889113],
        [-0.219517308641677, 51.528935278940835],
        [-0.219057747535373, 51.5288527667439],
        [-0.218712366853671, 51.5287998630255],
        [-0.218260258354514, 51.52871116617251],
        [-0.217979012791217, 51.52864035035285],
        [-0.217331725183072, 51.528455163810506],
        [-0.217067104002001, 51.5283648151373],
        [-0.216666905267341, 51.528202264128225],
        [-0.216391884341167, 51.52808298012904],
        [-0.216028870217723, 51.5279281862027],
        [-0.215815104107892, 51.527827817164315],
        [-0.215889918251782, 51.52768417736562],
        [-0.215906820840842, 51.52765745723002],
        [-0.215923898588293, 51.527589374707055],
        [-0.215923159453285, 51.52749764096516],
        [-0.215887841577056, 51.52740538131773],
        [-0.215832914644038, 51.52726156672079],
        [-0.215674918634752, 51.52691475453822],
        [-0.21557297465917, 51.526719867159365],
        [-0.215071168721704, 51.526759892451096],
        [-0.214599512466115, 51.526803072206135],
        [-0.213753396782864, 51.526873820554236],
        [-0.213315684932376, 51.52689682950083],
        [-0.212698407312407, 51.52686674355754],
        [-0.211962392485197, 51.52681326277845],
        [-0.211261133761019, 51.52675581115111],
        [-0.210277982453008, 51.5266814654535],
        [-0.209994017361357, 51.52664386074143],
        [-0.20957852604199, 51.52657816994236],
        [-0.209223899944732, 51.52650441443693],
        [-0.208837684441601, 51.52642747778403],
        [-0.208236558540978, 51.52631668320899],
        [-0.208069750208125, 51.52630604201364],
        [-0.207831399009488, 51.52628171819911],
        [-0.207607455457216, 51.52625761404569],
        [-0.207341413103632, 51.52624095928462],
        [-0.207319872638587, 51.52623883161652],
        [-0.206976002173606, 51.52618501695288],
        [-0.206724657258905, 51.52612452261191],
        [-0.206507855254889, 51.52606545510879],
        [-0.206178232544332, 51.52594261433227],
        [-0.205902251472693, 51.52573876206566],
        [-0.205691210963923, 51.52553320477021],
        [-0.205490017880216, 51.52529722350745],
        [-0.205190255880763, 51.52492844446283],
        [-0.205044300591009, 51.52471758707286],
        [-0.204537051887685, 51.524053377526315],
        [-0.204365276524172, 51.52383942629045],
        [-0.204075970353419, 51.52360838830061],
        [-0.20388148373968, 51.52345883403259],
        [-0.203558392226987, 51.52331720161501],
        [-0.203017917890122, 51.523131772425835],
        [-0.202803733184473, 51.523079931971964],
        [-0.20269397205731, 51.52304857525205],
        [-0.202584140309998, 51.52301901583087],
        [-0.201639340024831, 51.522741955973466],
        [-0.201625533226678, 51.52261674959618],
        [-0.201555445041195, 51.52234680152493],
        [-0.201531503340203, 51.52203979274414],
        [-0.201528006925649, 51.52198218761231],
        [-0.201488212351831, 51.52193121988175],
        [-0.201132001503872, 51.52145995001685],
        [-0.200636405084639, 51.520795002186965],
        [-0.200633972516262, 51.5207104360446],
        [-0.200772336885489, 51.520710759989164],
        [-0.200767980305398, 51.520821300031194],
        [-0.201244487448296, 51.520836701323766],
        [-0.201546616060849, 51.52085122568396],
        [-0.201768144138014, 51.52086271517457],
        [-0.202225570910231, 51.5208868123916],
        [-0.202669052523024, 51.52089900399162],
        [-0.203109010426976, 51.520817618708406],
        [-0.203498167585925, 51.520708476474404],
        [-0.20372586525668, 51.52063642720468],
        [-0.203766766634327, 51.520622665666664],
        [-0.203715446244487, 51.520571522189904],
        [-0.203580309651449, 51.52045255113398],
        [-0.203453614307606, 51.52030223571215],
        [-0.203419192133976, 51.52026124257991],
        [-0.203353257659245, 51.520068694010774],
        [-0.203303610236607, 51.51993844261472],
        [-0.203278998841307, 51.51986792470338],
        [-0.203209563858849, 51.51976434744273],
        [-0.202970231622411, 51.51947292339265],
        [-0.202379404320592, 51.51884698968047],
        [-0.201488114023965, 51.51779919740163],
        [-0.200747479510419, 51.51797667991804],
        [-0.199944524355674, 51.51684660080047],
        [-0.199895396925342, 51.51677660511456],
        [-0.199893991924037, 51.5167756843088],
        [-0.199207744084053, 51.51455121257058],
        [-0.195767374323923, 51.51495605750516],
        [-0.195072585586659, 51.515031695469084],
        [-0.19436728380838, 51.51271247942113],
        [-0.194064975201054, 51.511756424194004],
        [-0.193655368698242, 51.5116916657704],
        [-0.192984737818292, 51.511813524673784],
        [-0.192143741166405, 51.50986808706885],
        [-0.191722984912479, 51.50993983519386],
        [-0.190937355230979, 51.510018543973715],
        [-0.189720228681057, 51.510076200439435],
        [-0.188562697224446, 51.5101572458482],
        [-0.187933515567751, 51.51017900045938],
        [-0.186883414238961, 51.50777167685651],
        [-0.185621680701772, 51.50489076253895],
        [-0.184409344376091, 51.50211221211291],
        [-0.184259202691047, 51.50179335266162],
        [-0.183080978559071, 51.50156647991334],
        [-0.182615429318555, 51.50149811777022],
        [-0.182408757715777, 51.50147782926165],
        [-0.182061258708554, 51.501448163536196],
        [-0.181657459663401, 51.50142122088485],
        [-0.18137473172232, 51.50142942649051],
        [-0.180931267843866, 51.50142164970285],
        [-0.180336082308999, 51.50146097590211],
        [-0.179749298590097, 51.498685783130306],
        [-0.179570784406172, 51.49777836846867],
        [-0.173566946169616, 51.49822097159061],
        [-0.173559429279366, 51.49830088768329],
        [-0.172482443212448, 51.49839201977253],
        [-0.172472152565904, 51.49846919483352],
        [-0.171805440577608, 51.49853254190216],
        [-0.171800980024058, 51.49860800929505],
        [-0.171499552769604, 51.49868783942511],
        [-0.169643922510673, 51.49890258941216],
        [-0.168414542452028, 51.499020980927526],
        [-0.168202273715061, 51.49899698284881],
        [-0.168051202577291, 51.49888401540466],
        [-0.167928904509375, 51.49852060662371],
        [-0.167643829079478, 51.49830033294511],
        [-0.165803680918363, 51.4992418578711],
        [-0.165505721015219, 51.498696748289355],
        [-0.162857634744476, 51.50013006556737],
        [-0.162598969407924, 51.50029237453637],
        [-0.162367045578269, 51.50047038920892],
        [-0.161570140276647, 51.5012258591762],
        [-0.161344329028402, 51.501394975169845],
        [-0.161187610237715, 51.5014941333135],
        [-0.161023835858289, 51.501589583615754],
        [-0.160888577133232, 51.501656704867585],
        [-0.160781508805135, 51.50170358531511],
        [-0.160588833184212, 51.501765309520515],
        [-0.159173298585307, 51.50210279958374],
        [-0.158600348400388, 51.50223318883301],
        [-0.158477192615514, 51.502250139347616],
        [-0.15846862542109, 51.50224820632422],
        [-0.158502506538488, 51.50151495017867],
        [-0.158525318999339, 51.50141369310023],
        [-0.158525771932817, 51.501330969189226],
        [-0.158517114465937, 51.50125979248064],
        [-0.158500569189168, 51.50120557767142],
        [-0.158436489145052, 51.5010795756774],
        [-0.157874142364644, 51.49901775512513],
        [-0.157239692983487, 51.498566255581245],
        [-0.1560964963243, 51.49776234147134],
        [-0.156047583827299, 51.49751068136898],
        [-0.155678397059357, 51.495628138575064],
        [-0.155633048717721, 51.4955024294392],
        [-0.155547472267631, 51.495338319022736],
        [-0.155319399041975, 51.49506405697932],
        [-0.155636591194195, 51.49487930391027],
        [-0.155781781150783, 51.49477997184688],
        [-0.155847340592457, 51.49472614847983],
        [-0.155938789240209, 51.49463766137255],
        [-0.156013733707651, 51.49449406034218],
        [-0.155015220429941, 51.49385607322232],
        [-0.156008901871484, 51.493221543388344],
        [-0.155989544527351, 51.493201455469226],
        [-0.154817960436755, 51.49196274225347],
        [-0.155821066522154, 51.49145066060545],
        [-0.155701811019961, 51.49105041649338],
        [-0.155654748263852, 51.49089590422382],
        [-0.155568803417033, 51.4906697394711],
        [-0.15546112079708, 51.49044682973219],
        [-0.155196294452555, 51.49004879144041],
        [-0.155873887258504, 51.489606226052345],
        [-0.154917457683127, 51.48903454421769],
        [-0.153485610135063, 51.48818019790227],
        [-0.151724786434338, 51.48705626855681],
        [-0.151413790333243, 51.486875112730196],
        [-0.150366710862066, 51.48623272128642],
        [-0.150195225488876, 51.486092430505494],
        [-0.150119236762621, 51.485977026598384],
        [-0.15008652464825, 51.485895577742866],
        [-0.150003790792139, 51.48548421297736],
        [-0.149843876983426, 51.48455995514554],
        [-0.150270129905701, 51.48452621339698],
        [-0.152819319295413, 51.484137453802965],
        [-0.153044477798681, 51.484125713134944],
        [-0.153166110758757, 51.48410964382053],
        [-0.153267737744522, 51.48408966229748],
        [-0.153368252020178, 51.48406156988473],
        [-0.153486474167665, 51.484022965195194],
        [-0.15376785223781, 51.483974339784304],
        [-0.15392921837185, 51.483937313182054],
        [-0.154149525440171, 51.48390301269135],
        [-0.154775707048047, 51.48384002847566],
        [-0.155531258986543, 51.48374760208204],
        [-0.157847025435051, 51.483430598926965],
        [-0.157978802840167, 51.48341288549798],
        [-0.158249264427865, 51.48338476070042],
        [-0.158595612862686, 51.48336771877389],
        [-0.1589193018986, 51.48330535742303],
        [-0.160347828269661, 51.48309577047299],
        [-0.160569312962319, 51.48306777120329],
        [-0.160656107239411, 51.48305834165526],
        [-0.161514610572883, 51.4830196483054],
        [-0.162574269823084, 51.48292115321292],
        [-0.163101216586853, 51.48288984196839],
        [-0.163286570918486, 51.48286486859537],
        [-0.163437525450559, 51.48283575914847],
        [-0.163587257074192, 51.48280123484268],
        [-0.164049264600582, 51.482665488313245],
        [-0.164512011095709, 51.48265474759476],
        [-0.164823844306135, 51.482636247777094],
        [-0.166387584819516, 51.482429602793175],
        [-0.166782574504031, 51.48238452126308],
        [-0.166792721840236, 51.48238288139958],
        [-0.167698530464295, 51.48224146842779],
        [-0.16798643158393, 51.48220909747546],
        [-0.168084989469254, 51.482193551467496],
        [-0.168313195921303, 51.48210539275054],
        [-0.168544171278668, 51.482055944667266],
        [-0.168780435408707, 51.48201826899782],
        [-0.169164768328017, 51.48198740107277],
        [-0.169391963912476, 51.48196037360377],
        [-0.169531505220907, 51.48192838040878],
        [-0.169667376074778, 51.481880143225375],
        [-0.16996495249371, 51.48178587008951],
        [-0.170034758686153, 51.481768974476694],
        [-0.170118813993132, 51.48175589819248],
        [-0.17027188396946, 51.48174569727973],
        [-0.170512067456006, 51.481717971060235],
        [-0.170681869465702, 51.481721519439155],
        [-0.170780101802059, 51.48171405936019],
        [-0.170928097465971, 51.48168669265397],
        [-0.171418246048699, 51.48153067340705],
        [-0.172545015288149, 51.48119303482964],
        [-0.173370461857486, 51.48093522159913],
        [-0.173940716841051, 51.480684219827566],
        [-0.174243093467737, 51.48054145108469],
        [-0.174948401578203, 51.480190032542026],
        [-0.175253067449236, 51.4799897447644],
        [-0.175885004661892, 51.47945553007448],
        [-0.176150469187859, 51.47919078330695],
        [-0.177036994701125, 51.47830262008317],
        [-0.177191209950346, 51.478118872493916],
        [-0.177460827036454, 51.47782181429411],
        [-0.177484677958864, 51.47780150222906],
        [-0.177815681013755, 51.47755395690167],
        [-0.177948629389104, 51.47757850415295],
        [-0.178224457622543, 51.4776313495084],
        [-0.179329530613349, 51.477798688418495],
        [-0.17954325406868, 51.47781999178082],
        [-0.17968260498155, 51.47782844993562],
        [-0.180210286943133, 51.47784923011144],
        [-0.180438608980624, 51.47782939285354],
        [-0.180587846915364, 51.47780652956852],
        [-0.180733124725082, 51.477774612141666],
        [-0.180850986253262, 51.47774406769774],
        [-0.182238662628905, 51.47728718676793],
        [-0.182424734691349, 51.47724331014919],
        [-0.182553535578677, 51.47722732158828],
        [-0.18264880676543, 51.47722160422568],
        [-0.182825682181827, 51.477227942483516],
        [-0.182920381901329, 51.47723660405776],
        [-0.18342111828182, 51.477283030511465],
        [-0.183619735636715, 51.477322077428795],
        [-0.183739269935821, 51.47735810056356],
        [-0.183880867493498, 51.47741874507227],
        [-0.184033312153522, 51.4775326131893],
        [-0.184339440488559, 51.47780173352371],
        [-0.184576942775987, 51.47802213027047],
        [-0.184669004059564, 51.47809729411062],
        [-0.185374744737361, 51.47860280573199],
        [-0.185632392617821, 51.47878754200865],
        [-0.185685121705996, 51.478837816658725],
        [-0.185770431015674, 51.47893805414068],
        [-0.186042374388575, 51.4793433269742],
        [-0.186166749473503, 51.47951161224452],
        [-0.186236906711831, 51.47959452922729],
        [-0.186364291058577, 51.47972329381525],
        [-0.186549937140947, 51.47987184356247],
        [-0.186729839669638, 51.479765816419906],
        [-0.186880539175027, 51.47988774697114],
        [-0.186881907154135, 51.47988956662363],
        [-0.18704603789992, 51.48003598438514],
        [-0.187217508577241, 51.480178918380346],
        [-0.187224491120329, 51.48018442182734],
        [-0.187403337434007, 51.48032297331506],
        [-0.187589523731852, 51.48045804097112],
        [-0.188194980374445, 51.48087925399127],
        [-0.188281046834684, 51.480960617015604],
        [-0.188353183592479, 51.48103007451716],
        [-0.189041301085952, 51.481691760492836],
        [-0.189519612151715, 51.48208762225603],
        [-0.19015618169369, 51.48263340158934],
        [-0.190221874297087, 51.482683874196034],
        [-0.190445304655888, 51.482860877434916],
        [-0.190658518920812, 51.48304131959735],
        [-0.190794774814053, 51.48316482056778],
        [-0.190864324620372, 51.48322704255233],
        [-0.19102664940823, 51.48338331840138],
        [-0.191213461710304, 51.48357594170231],
        [-0.191391497030992, 51.48377202631514],
        [-0.191707945364016, 51.48407365879295],
        [-0.191732983901524, 51.48405965692151],
        [-0.191775615110383, 51.48403783308859],
        [-0.191821018420646, 51.484018749732485],
        [-0.192029889387192, 51.48427286074124],
        [-0.19257533808374, 51.4848298109593],
        [-0.192724790573194, 51.4849840874501],
        [-0.192953271718023, 51.485216017736015],
        [-0.193190533899597, 51.48544448585906],
        [-0.19325173792178, 51.485499383786625],
        [-0.193621008343458, 51.48581351495102],
        [-0.194005033524507, 51.48611887966207],
        [-0.194143350592295, 51.48622712109971],
        [-0.194316660966616, 51.48636108016244],
        [-0.194494361774999, 51.48649330806214],
        [-0.194680877959091, 51.48662117515657],
        [-0.194717417019823, 51.486644218879434],
        [-0.194912819782304, 51.48676592766386],
        [-0.19511559845927, 51.48688325339909],
        [-0.195324313560293, 51.486996173893964],
        [-0.195987877304251, 51.4873723779157],
        [-0.196448165026975, 51.487205903153374],
        [-0.197099678127889, 51.487449726025794],
        [-0.197543886280425, 51.48765438911284],
        [-0.197727372970653, 51.48774983177728],
        [-0.197902010708384, 51.4878505336495],
        [-0.198066430832369, 51.48795467524257],
        [-0.198222001978708, 51.48806407612344],
        [-0.198298944073415, 51.48812191089171],
        [-0.199025801941603, 51.48875715387987],
        [-0.198950720454976, 51.48879826540437],
        [-0.199374512045896, 51.4891195099839],
        [-0.199580911350883, 51.48929173750862],
        [-0.200374782331263, 51.48998195546439],
        [-0.200623242822778, 51.49007389431412],
        [-0.20093424917662, 51.49037002201394],
        [-0.200935653400393, 51.49037094280353],
        [-0.201774454214678, 51.49112838447658],
        [-0.202387033198774, 51.49166833172983],
        [-0.20230819653665, 51.49169499988737],
        [-0.201835316098099, 51.49185141288023],
        [-0.201864346440442, 51.49188243239869],
        [-0.202247503097487, 51.492285773784324],
        [-0.202425513136359, 51.49248453826639],
        [-0.202569750161119, 51.49266300140494],
        [-0.202780371446951, 51.49291172370453],
        [-0.203002724571786, 51.49315522989529],
        [-0.203094068938125, 51.49325015117898],
        [-0.203131385795574, 51.493290289800505],
        [-0.203027895202585, 51.49332107692705],
        [-0.203189537839981, 51.49342337001652],
        [-0.203448321174836, 51.49361977342599],
        [-0.203638327277055, 51.49377016044012],
        [-0.203787651307594, 51.49385607755487],
        [-0.204036926752937, 51.49403794605704],
        [-0.204385776078784, 51.49428878212156],
        [-0.204865362739261, 51.49454881237908],
        [-0.204783811671386, 51.49460781351654],
        [-0.205191494757005, 51.49482807410891],
        [-0.205616917600829, 51.49503691448974],
        [-0.206009166209593, 51.49521017523878],
        [-0.206327502608473, 51.49535802458372],
        [-0.206590854145545, 51.49547535710644],
        [-0.206719227641922, 51.49554476359459],
        [-0.206840014723612, 51.49562394564378],
        [-0.207103533411397, 51.495810521460854],
        [-0.207135555157096, 51.495838887616095],
        [-0.207136571784557, 51.495849694105004],
        [-0.207169051983777, 51.49586637706677],
        [-0.207198582123994, 51.49588481341268],
        [-0.207225162204926, 51.49590500314492],
        [-0.207248792225618, 51.495926946265485],
        [-0.207263995137564, 51.49594336508664],
        [-0.207281795546175, 51.49596701757654],
        [-0.207298120929933, 51.49599154676151],
        [-0.207308651934513, 51.49601688661592],
        [-0.207317743165365, 51.496042204460736],
        [-0.207388486815905, 51.49614849755865]
      ]
    ]
  }
}
