{
  "type": "Feature",
  "properties": {
    "name": "Kingston upon Thames",
    "level": 2,
    "londonBorough": true,
    "center": [-0.282, 51.377]
  },
  "geometry": {
    "type": "Polygon",
    "coordinates": [
      [
        [-0.330679021016926, 51.329011005044364],
        [-0.330594406810491, 51.32908803431963],
        [-0.330506075925535, 51.32914882394779],
        [-0.330409169564462, 51.329208592011945],
        [-0.330292079923585, 51.329270770036544],
        [-0.329913420047195, 51.32946050987163],
        [-0.329633552692133, 51.32965705299382],
        [-0.329428742906734, 51.32984207645098],
        [-0.329320873758987, 51.32996643369373],
        [-0.329214438696163, 51.33009081129484],
        [-0.329116281627208, 51.33026386671784],
        [-0.329112913821622, 51.33039600930825],
        [-0.329171125781775, 51.33072956444696],
        [-0.329191260385589, 51.330965456726595],
        [-0.329302868614078, 51.33152818443574],
        [-0.329362729602387, 51.33161896386252],
        [-0.329554510400961, 51.331871692282014],
        [-0.329578946681417, 51.332186780292645],
        [-0.32959416870674, 51.33228141923108],
        [-0.32968995815288, 51.3324896140952],
        [-0.329719262083907, 51.33267078236792],
        [-0.329718669536159, 51.33276609501378],
        [-0.329713609392105, 51.33286584022663],
        [-0.329643333026612, 51.333496115442294],
        [-0.329628930756486, 51.33385291448312],
        [-0.329550454552107, 51.3341557436515],
        [-0.329484342900232, 51.334355334732535],
        [-0.329546391429291, 51.33446502956665],
        [-0.329431907129243, 51.334850076588346],
        [-0.32941069302679, 51.3351177521074],
        [-0.32935918903065, 51.33531035739911],
        [-0.329208181827413, 51.335633733876776],
        [-0.329197301178175, 51.33593303066508],
        [-0.329212372961589, 51.33630823506912],
        [-0.32919209287576, 51.33670811432257],
        [-0.329041495176206, 51.33757284791903],
        [-0.328900402352745, 51.33817603365734],
        [-0.328869184946132, 51.33867917102559],
        [-0.328882267006354, 51.33903006705205],
        [-0.32886547324978, 51.33941290999665],
        [-0.32887074274502, 51.339583843577685],
        [-0.328876208378502, 51.339749384423655],
        [-0.328959278098641, 51.340110271400825],
        [-0.328979227840216, 51.34023285463345],
        [-0.328909130274563, 51.34077860140944],
        [-0.328780508915491, 51.34107801665475],
        [-0.328542138322205, 51.341749955611995],
        [-0.328525372062646, 51.34177669400031],
        [-0.328346097208237, 51.34204750905007],
        [-0.3282012288315, 51.34231971414149],
        [-0.328010139026467, 51.34295455806789],
        [-0.327944150358561, 51.34334748953359],
        [-0.327906764343717, 51.34374352700103],
        [-0.327796114023781, 51.34390381322417],
        [-0.327480770274375, 51.34400722161426],
        [-0.328177349649399, 51.34404144530448],
        [-0.3284835039808, 51.344545799697265],
        [-0.328666776381595, 51.34491531041554],
        [-0.328898421719637, 51.345297201206975],
        [-0.329205726985631, 51.34588879756721],
        [-0.329345800291645, 51.34614348569527],
        [-0.329970751253103, 51.34728006112612],
        [-0.330327238121345, 51.347902030728704],
        [-0.330533820950687, 51.34842114648758],
        [-0.33036722591514, 51.34857973846513],
        [-0.330215568132236, 51.3487619237145],
        [-0.330102593582006, 51.34898602586459],
        [-0.329936935170516, 51.3492372536723],
        [-0.329751960043775, 51.34954575803285],
        [-0.329563226533948, 51.3499180554831],
        [-0.329472922247272, 51.35007143928332],
        [-0.329311170002793, 51.35033351294215],
        [-0.329035950834521, 51.35071446784244],
        [-0.328765225720016, 51.35112965782882],
        [-0.32835306411927, 51.35172178035256],
        [-0.328046475389044, 51.352135557647244],
        [-0.327946973134796, 51.352186294141454],
        [-0.327759712675816, 51.3522807404994],
        [-0.327275572674184, 51.352522022309955],
        [-0.326841758931451, 51.35280089031523],
        [-0.326479944183282, 51.35303492340092],
        [-0.325766081167267, 51.353352950564016],
        [-0.324837670042074, 51.35372545783805],
        [-0.324453894912527, 51.353891726704674],
        [-0.324158744705003, 51.35410872109848],
        [-0.323752687183813, 51.354413153911615],
        [-0.323535035762504, 51.35467082277975],
        [-0.323184811053885, 51.35517658607889],
        [-0.32286192003149, 51.35552357185728],
        [-0.322576059919962, 51.355839613136254],
        [-0.322259713125154, 51.35620377677808],
        [-0.321952973306839, 51.35661933460319],
        [-0.321529222212906, 51.357210368038324],
        [-0.321217560736058, 51.35768160710743],
        [-0.32094815833832, 51.35809679809309],
        [-0.320744851151999, 51.3583933352567],
        [-0.320259403795036, 51.359099483340785],
        [-0.320079308796247, 51.35942872526637],
        [-0.32017829794381, 51.35954974531766],
        [-0.32016513640043, 51.35959541848801],
        [-0.319956964722208, 51.359632000469766],
        [-0.319792372434972, 51.35992999041948],
        [-0.319546590379066, 51.36048400184897],
        [-0.319408575899689, 51.3609190588868],
        [-0.319187470731755, 51.36162269945107],
        [-0.319060203794327, 51.362313297947345],
        [-0.318285367063541, 51.36350627709294],
        [-0.318304691613293, 51.36368460646188],
        [-0.318410287719996, 51.36468429223962],
        [-0.318436573636021, 51.365339325120914],
        [-0.318446927805995, 51.36540961540081],
        [-0.318522193272103, 51.365864817963],
        [-0.318523330368145, 51.36618676651233],
        [-0.318419500726202, 51.36698201352882],
        [-0.318293959165095, 51.36789924696791],
        [-0.318118775946003, 51.368916483741735],
        [-0.318016868459832, 51.369580466991],
        [-0.317923073566289, 51.36978774678952],
        [-0.317915189144739, 51.369846084945046],
        [-0.31790567117775, 51.36990979515606],
        [-0.318029423075935, 51.370296451447565],
        [-0.317949485183631, 51.370635220892446],
        [-0.317747858113487, 51.371236623000584],
        [-0.317505450355897, 51.371970528313035],
        [-0.317485003591101, 51.37201879426151],
        [-0.317397735750954, 51.37220458529802],
        [-0.317284276067244, 51.37243855967006],
        [-0.317109152243868, 51.37270851753258],
        [-0.316949158560604, 51.3729184426439],
        [-0.316694339421088, 51.373167471522244],
        [-0.31642617934288, 51.37338843136449],
        [-0.316224418307467, 51.37356178527069],
        [-0.315991740662872, 51.37375537725164],
        [-0.315667865211114, 51.373967441305936],
        [-0.315222749736677, 51.37423351474538],
        [-0.31478304237436, 51.37443042195017],
        [-0.314341466059258, 51.37463899089508],
        [-0.313886318872421, 51.37466931114168],
        [-0.313377129460241, 51.37468446366677],
        [-0.312960523533285, 51.37472162988132],
        [-0.312674895613625, 51.37475258766193],
        [-0.312510458028778, 51.37477000298673],
        [-0.312155171523404, 51.37481973975216],
        [-0.311542017021841, 51.374926908740576],
        [-0.311089652115958, 51.374998623805425],
        [-0.310483752687237, 51.37514276116849],
        [-0.309642710446548, 51.3753122792984],
        [-0.309096994077213, 51.375382639879604],
        [-0.308695082477729, 51.37544967833477],
        [-0.308457218974758, 51.37586079955202],
        [-0.30834212431144, 51.37605967099041],
        [-0.307993630624822, 51.37666523078588],
        [-0.307964589188141, 51.37706317984731],
        [-0.307842120819957, 51.37753981301764],
        [-0.30789215450302, 51.37836514916361],
        [-0.307388501591147, 51.378384852076415],
        [-0.307520635305618, 51.37900994198725],
        [-0.308301985619949, 51.3800328833039],
        [-0.308325982000962, 51.38008358781978],
        [-0.308517491067567, 51.38050180659026],
        [-0.309276738142336, 51.380448917800166],
        [-0.309318629909581, 51.38110597542015],
        [-0.309245492479061, 51.38114089012504],
        [-0.309282221507769, 51.381314076267664],
        [-0.30929355819852, 51.38135740388749],
        [-0.309317282710377, 51.381493533083024],
        [-0.309300460606102, 51.38163806973043],
        [-0.309302186214875, 51.381708236189205],
        [-0.309330927428922, 51.38186422127617],
        [-0.309498363505216, 51.38184415580552],
        [-0.309558078479105, 51.38244661602559],
        [-0.309654600169791, 51.38251815004104],
        [-0.30975194192354, 51.38264544934046],
        [-0.309842558353591, 51.382838296835104],
        [-0.309886785946335, 51.382847028038505],
        [-0.309911348313474, 51.38288245309512],
        [-0.310347175325265, 51.38365220219044],
        [-0.310288337571344, 51.38380602479929],
        [-0.310307293691097, 51.38395467446219],
        [-0.310412834177753, 51.38421068417945],
        [-0.31044291138021, 51.38425248338343],
        [-0.310540821552417, 51.384364502903665],
        [-0.310654512349517, 51.38451631686247],
        [-0.310566457353669, 51.38460497233858],
        [-0.310580337766982, 51.38465732897848],
        [-0.310630981306373, 51.38476506991478],
        [-0.310665004127463, 51.38481681769286],
        [-0.31072983297164, 51.3848905915863],
        [-0.310950016193859, 51.38503854494271],
        [-0.311127228024543, 51.38514361377434],
        [-0.311787662058188, 51.38578620284302],
        [-0.310868909866957, 51.386187516604366],
        [-0.311409328334349, 51.386733057052396],
        [-0.311458856475752, 51.3867931212596],
        [-0.311499997700672, 51.38684676984257],
        [-0.311363961035775, 51.38691135399035],
        [-0.311693816770698, 51.387125632254005],
        [-0.311822992874061, 51.387208425841266],
        [-0.311768785904873, 51.387236420860795],
        [-0.311735086071638, 51.38725392032188],
        [-0.311845503751378, 51.387377809098986],
        [-0.311740028430422, 51.38743204297376],
        [-0.312872427856055, 51.38849058292212],
        [-0.31315854363781, 51.388800446824725],
        [-0.313188956774323, 51.38883325760702],
        [-0.313348145867005, 51.388764508349176],
        [-0.315981045979793, 51.38763335223199],
        [-0.316518342957323, 51.388266050879565],
        [-0.316599042033681, 51.38845605254296],
        [-0.316617276345858, 51.38858580636037],
        [-0.316816040119995, 51.3885742736251],
        [-0.31681178201263, 51.388611980919734],
        [-0.316809817851876, 51.38862634069039],
        [-0.316805823567817, 51.38865685778206],
        [-0.316800425760636, 51.388686455463805],
        [-0.316792154950761, 51.388716011876355],
        [-0.316778171115486, 51.38874458697464],
        [-0.316759877764185, 51.38877310016665],
        [-0.316716537242436, 51.38881833928654],
        [-0.316663273048581, 51.3888598388368],
        [-0.316605798198539, 51.38889858012607],
        [-0.316545483227216, 51.388936381335945],
        [-0.316489642602178, 51.388969750552754],
        [-0.316425149870624, 51.38900389468355],
        [-0.316357850005469, 51.389036199948116],
        [-0.315848094420517, 51.38925818315052],
        [-0.315457631147964, 51.38948008062368],
        [-0.31498075818439, 51.389745696742914],
        [-0.314134076710629, 51.390218213896205],
        [-0.314273948674584, 51.3903623074859],
        [-0.314682225872316, 51.39075126018269],
        [-0.314819872096194, 51.39091690305357],
        [-0.314926938343095, 51.391054229301275],
        [-0.315146554932054, 51.391336154325806],
        [-0.315242625649147, 51.39145983343855],
        [-0.315732495818622, 51.39197585018064],
        [-0.316343484388379, 51.39256014942929],
        [-0.316755331406908, 51.39293116089408],
        [-0.316997602041633, 51.393105497860816],
        [-0.317113478964993, 51.39319888537298],
        [-0.317294603213023, 51.39335525784079],
        [-0.317720101113875, 51.39366801067521],
        [-0.31760271508879, 51.393772436726195],
        [-0.317444574486674, 51.39389066547626],
        [-0.316645319971358, 51.39444031779461],
        [-0.314212099909949, 51.39619034732902],
        [-0.31297794601867, 51.39711050279641],
        [-0.312586258450064, 51.39740251457857],
        [-0.312522559223218, 51.3974537537338],
        [-0.31221119409131, 51.39802388931492],
        [-0.31214788601936, 51.398142577513205],
        [-0.312022937260919, 51.398373683085715],
        [-0.311988269767144, 51.39841724688873],
        [-0.311890000044402, 51.39850935314836],
        [-0.311473371271913, 51.39881449068222],
        [-0.310722466848916, 51.3993351244336],
        [-0.310482303424125, 51.399493526900535],
        [-0.310217579652612, 51.399655171732846],
        [-0.309950079714756, 51.39981407819152],
        [-0.309793157355027, 51.39989814284892],
        [-0.309694072683701, 51.39997314981568],
        [-0.309653720628216, 51.400014832445834],
        [-0.309406458432293, 51.400365569434506],
        [-0.309350047077992, 51.40045288194027],
        [-0.30925446609686, 51.40062775562414],
        [-0.309075748236901, 51.40102983869719],
        [-0.309022099741962, 51.401198123232234],
        [-0.308896090009005, 51.401652223679356],
        [-0.30878808404772, 51.40220280331689],
        [-0.308713955029371, 51.40296519497023],
        [-0.308694592362409, 51.40349007623885],
        [-0.308725821494421, 51.40400759436035],
        [-0.308840265658, 51.4047637146468],
        [-0.30898467008433, 51.405565229387136],
        [-0.308990805770998, 51.40563276147596],
        [-0.309016997388128, 51.40605308792099],
        [-0.309005260067905, 51.40625434996966],
        [-0.309011618953606, 51.40651072720359],
        [-0.308999273229438, 51.40668949927784],
        [-0.309066676493063, 51.40813646123776],
        [-0.309095564358357, 51.40930230210372],
        [-0.309091839535588, 51.4093642963979],
        [-0.309081382947298, 51.409491838588124],
        [-0.308837220015456, 51.41104311327369],
        [-0.308716994428189, 51.4116124000066],
        [-0.308510498534465, 51.41229824282249],
        [-0.308464871027996, 51.412521496682494],
        [-0.308444162336023, 51.4128098559176],
        [-0.308442038145285, 51.41310118110558],
        [-0.308498708569064, 51.41351385385166],
        [-0.30851200841403, 51.413621056113705],
        [-0.30850891209877, 51.41378287576583],
        [-0.308501371214344, 51.413948228253965],
        [-0.30847031315796, 51.414283198871665],
        [-0.308473839141994, 51.41446040126874],
        [-0.308451725886124, 51.414630938899215],
        [-0.308402170883405, 51.414804677442994],
        [-0.308372715474728, 51.415018272897804],
        [-0.308308166843374, 51.41524754824814],
        [-0.307780011850872, 51.41654293138684],
        [-0.307690292435359, 51.41679162635949],
        [-0.307672367228369, 51.416887586857555],
        [-0.307618318450889, 51.41702708880489],
        [-0.307561394570091, 51.417166549209796],
        [-0.307499251915671, 51.41729154628986],
        [-0.307431359354426, 51.41741646030211],
        [-0.307232104931588, 51.417710333853535],
        [-0.307141321823417, 51.41787088692964],
        [-0.306873356714794, 51.41838947814373],
        [-0.306714759502466, 51.418750482311545],
        [-0.306688926617383, 51.419060348896245],
        [-0.30670357445277, 51.41936450557288],
        [-0.306694516322852, 51.41964853634932],
        [-0.306636768583355, 51.42000470257751],
        [-0.306590208242272, 51.420174886557454],
        [-0.306536559788397, 51.420342270368536],
        [-0.306402879511968, 51.42065147781371],
        [-0.306117754431324, 51.42108888715353],
        [-0.306030400376022, 51.42123420172113],
        [-0.306036942089901, 51.42148518575969],
        [-0.306102929486856, 51.42176220777361],
        [-0.306214254210159, 51.42205786981304],
        [-0.306283125179174, 51.42221803146559],
        [-0.306357647125438, 51.42238097246144],
        [-0.306536980896806, 51.42270459418658],
        [-0.306742326205034, 51.42302499439788],
        [-0.306890793046648, 51.42328881942901],
        [-0.306971723984872, 51.42339520012134],
        [-0.307496398181743, 51.42402685349492],
        [-0.307773769133795, 51.42434469478697],
        [-0.307997709423085, 51.424629391296435],
        [-0.308580924323418, 51.42515667294715],
        [-0.309261216243099, 51.42570423603421],
        [-0.309633339224747, 51.425949701374385],
        [-0.310014809718588, 51.42613684938727],
        [-0.310389007772744, 51.426365256546475],
        [-0.31110452140715, 51.42673886294481],
        [-0.31182743396777, 51.42710717598754],
        [-0.312369297586798, 51.4273532784954],
        [-0.312888924986213, 51.427578375798575],
        [-0.313419397447183, 51.42782161168529],
        [-0.314469205599771, 51.42825935683697],
        [-0.314225807166173, 51.42854091684536],
        [-0.313969646560805, 51.428856464040884],
        [-0.313754218010902, 51.429198674707195],
        [-0.31282300692476, 51.4303443999683],
        [-0.312246688348053, 51.43091521618802],
        [-0.312016884363331, 51.43113941578646],
        [-0.310916198746141, 51.4320021214366],
        [-0.310678319150793, 51.43221091492853],
        [-0.310417807422923, 51.43201921836484],
        [-0.310131490710467, 51.432176055704744],
        [-0.310118251556965, 51.432183958037506],
        [-0.309983590617996, 51.432168527990584],
        [-0.309783086992864, 51.43214405521629],
        [-0.309635749680377, 51.432004346364906],
        [-0.309375918322313, 51.431833339865186],
        [-0.308105743599686, 51.43109022306838],
        [-0.308088854968093, 51.43108008761974],
        [-0.30853049024431, 51.430807695647026],
        [-0.308567265288033, 51.43078574520892],
        [-0.308111561110991, 51.4305822342041],
        [-0.30774076736569, 51.43041681627359],
        [-0.30747180361057, 51.43029872898228],
        [-0.307328878180187, 51.43023461733117],
        [-0.307295410380787, 51.43024492496852],
        [-0.307261942566491, 51.43025523259614],
        [-0.306957130529931, 51.43025083042835],
        [-0.306955375215128, 51.430181563275305],
        [-0.306954967292182, 51.43015368081438],
        [-0.306430008119586, 51.43015059357505],
        [-0.306427652716568, 51.430525544372905],
        [-0.306419025912566, 51.43052541973228],
        [-0.306263876393089, 51.4305195810369],
        [-0.306247941820849, 51.43118389220985],
        [-0.306130888557046, 51.431237054682235],
        [-0.305942126793392, 51.43136201949588],
        [-0.305867825233897, 51.43134835624312],
        [-0.304231531652427, 51.43105402339989],
        [-0.302177281036582, 51.43066458930107],
        [-0.301780280273608, 51.430391762690675],
        [-0.301762626873632, 51.430402297867836],
        [-0.301531694137824, 51.43053923408706],
        [-0.301834447358358, 51.430909613094116],
        [-0.302070012298102, 51.43115222458178],
        [-0.301618071052956, 51.43142983854959],
        [-0.301180637225655, 51.431122252819385],
        [-0.300902784767164, 51.43093388048594],
        [-0.300648276831267, 51.43077552098789],
        [-0.300406910950496, 51.43061195600799],
        [-0.300094187351182, 51.43039430025667],
        [-0.29888512284085, 51.42959891308006],
        [-0.298216609619045, 51.429200735438606],
        [-0.298297355546164, 51.42915694544326],
        [-0.298323802700429, 51.4291420422211],
        [-0.298066169196071, 51.42895215801085],
        [-0.297700470641509, 51.42868966348567],
        [-0.29764593686085, 51.428686173756496],
        [-0.297493800134732, 51.42856076752902],
        [-0.297314281741982, 51.42847542939512],
        [-0.297158970465826, 51.42835806981525],
        [-0.29665168371599, 51.42811239909508],
        [-0.296238054390233, 51.42790135960625],
        [-0.296146207878172, 51.42785686076209],
        [-0.295963117208961, 51.42775168518937],
        [-0.295946934664386, 51.42776134163342],
        [-0.295827872391805, 51.4278297518262],
        [-0.295465070269509, 51.42764462740394],
        [-0.295365972905446, 51.42733114802115],
        [-0.295435787605815, 51.427039908428114],
        [-0.295422848458072, 51.42703972026269],
        [-0.294943298022788, 51.427015659800325],
        [-0.294732159538486, 51.427007192811566],
        [-0.294771684318467, 51.42679554579468],
        [-0.29478399149808, 51.42665814021505],
        [-0.294789880680015, 51.426461291031764],
        [-0.293437302906341, 51.42651174729999],
        [-0.293409953788348, 51.42651224835602],
        [-0.29340244935695, 51.42679090537236],
        [-0.293396715192827, 51.42709926326908],
        [-0.293389321613097, 51.427181886251915],
        [-0.293333976652429, 51.42855153117542],
        [-0.293303616907648, 51.42855558536121],
        [-0.292894796916985, 51.42860178836261],
        [-0.293021763833638, 51.42893905609681],
        [-0.292968500433194, 51.42894007891913],
        [-0.290699570920807, 51.42898884563136],
        [-0.290639085191974, 51.42899066132146],
        [-0.290051985113159, 51.42768538519017],
        [-0.289988612179216, 51.42753338730311],
        [-0.289895892076136, 51.427319812467864],
        [-0.289570036020657, 51.42660825024197],
        [-0.289509038028244, 51.426469775406964],
        [-0.28941351401982, 51.42625436072074],
        [-0.287444164775188, 51.422025220999444],
        [-0.286618828047418, 51.42017239928451],
        [-0.286209833523593, 51.42026353849109],
        [-0.285639025601139, 51.420412559190005],
        [-0.284956981295662, 51.42061300512866],
        [-0.282753149628554, 51.42123808708256],
        [-0.282692101249448, 51.42125517759041],
        [-0.280458897897036, 51.42185640584886],
        [-0.276824152521155, 51.424766947212255],
        [-0.276807171799683, 51.42475950358533],
        [-0.276439641802584, 51.425085023020166],
        [-0.275835796090697, 51.4255743255292],
        [-0.27538999486653, 51.42587710837123],
        [-0.274183429327019, 51.42690067857593],
        [-0.273550729074383, 51.42742911148822],
        [-0.273003181840426, 51.42787336710652],
        [-0.272161669072429, 51.42855968122081],
        [-0.271377762859929, 51.429205473506016],
        [-0.271192550888106, 51.42934842013725],
        [-0.271114044001433, 51.42940841107786],
        [-0.270962237749698, 51.42954285758673],
        [-0.270634698646042, 51.42972147221695],
        [-0.270308594746497, 51.429900107118634],
        [-0.269383589646972, 51.430395428066255],
        [-0.268943744351504, 51.43065241291285],
        [-0.268680980669294, 51.43079151255823],
        [-0.268410177003564, 51.43095297405059],
        [-0.268018314795449, 51.43108207180429],
        [-0.267729913633283, 51.43125226420002],
        [-0.267339324565579, 51.43142364317679],
        [-0.266721163686047, 51.43179218833774],
        [-0.266260863312952, 51.43209472239457],
        [-0.265812008433719, 51.43232278639702],
        [-0.26529944188859, 51.43256159607527],
        [-0.264599734844279, 51.43291723310099],
        [-0.26425645958982, 51.43305423167741],
        [-0.26299151273951, 51.433557057828224],
        [-0.262778107313204, 51.43364561860987],
        [-0.262210018523855, 51.43390607322547],
        [-0.261857482325166, 51.43402134557496],
        [-0.260926367555487, 51.43440770071898],
        [-0.260424291648316, 51.43459628698105],
        [-0.260014479916803, 51.434817714387485],
        [-0.258785830529792, 51.435309344056265],
        [-0.258115950079388, 51.43559704286254],
        [-0.257152419202418, 51.436001770776905],
        [-0.256814337412527, 51.43615231367069],
        [-0.256403603335804, 51.43632155842807],
        [-0.256343655157112, 51.43634674492749],
        [-0.256279324626976, 51.43637366470422],
        [-0.256457118838281, 51.436503103388986],
        [-0.256335441815882, 51.43656244241124],
        [-0.256360572076359, 51.436582599688556],
        [-0.256208252740147, 51.436653173010384],
        [-0.256180486179639, 51.43662668174221],
        [-0.255682954087969, 51.43661927925587],
        [-0.255269096070651, 51.43679476832325],
        [-0.255138925975187, 51.43685038270652],
        [-0.255030324998569, 51.436906318027816],
        [-0.254507072707823, 51.43712064211354],
        [-0.254090535362038, 51.43729069166405],
        [-0.254034901187409, 51.4372404043542],
        [-0.253814112122316, 51.43703118763472],
        [-0.253738074423236, 51.43695002177842],
        [-0.253609965235816, 51.4368006364498],
        [-0.253556661341024, 51.43672700315045],
        [-0.253512156724051, 51.43664900468217],
        [-0.25347354117249, 51.436567496943496],
        [-0.253451194110956, 51.436361235991036],
        [-0.253449050436283, 51.436077940644495],
        [-0.253456077494687, 51.435893699312054],
        [-0.253399527337072, 51.43571660392304],
        [-0.253321886898821, 51.435564373211314],
        [-0.253256809186784, 51.43545998984365],
        [-0.253110458489892, 51.43529864183956],
        [-0.253024462355839, 51.43521462932092],
        [-0.252935179276137, 51.43514135873658],
        [-0.252843772794974, 51.435086041415296],
        [-0.252726415723498, 51.43503213570356],
        [-0.252609436159732, 51.43496834375889],
        [-0.252099822328279, 51.43471255305811],
        [-0.25198948501703, 51.43466324751549],
        [-0.251785825580732, 51.434571184625376],
        [-0.251670114839252, 51.43451190689471],
        [-0.251615135348227, 51.43448231088097],
        [-0.251474572642578, 51.43439568478994],
        [-0.251411652467508, 51.43434798524163],
        [-0.251299336807753, 51.43423750056584],
        [-0.251254495181667, 51.434168488642456],
        [-0.251214138901911, 51.43409504737014],
        [-0.251093421365781, 51.43379019924946],
        [-0.251037302051544, 51.43352678107118],
        [-0.251026252842926, 51.43343938900374],
        [-0.25103959321213, 51.43320308541277],
        [-0.251036514182739, 51.43283164938074],
        [-0.251065495043669, 51.432637843865955],
        [-0.251084056775743, 51.432566180840155],
        [-0.251247173032002, 51.43228804856906],
        [-0.251586625956592, 51.43198826670909],
        [-0.251722269266761, 51.431864394937655],
        [-0.251841272750895, 51.43176185683984],
        [-0.252106701837803, 51.4315167229614],
        [-0.252236111027765, 51.4314053471356],
        [-0.252394380681587, 51.43125393522263],
        [-0.252541793747859, 51.43116081248002],
        [-0.252655929296227, 51.43111035747527],
        [-0.252919355527542, 51.43103065386372],
        [-0.25310305199173, 51.430966847202804],
        [-0.253208628363334, 51.43091446560482],
        [-0.253327829924841, 51.43084430195337],
        [-0.253445768029344, 51.43069408613445],
        [-0.253619950898036, 51.430502443459474],
        [-0.253738435396807, 51.4303378474933],
        [-0.253933362103204, 51.430092558410905],
        [-0.254085324678695, 51.42987990130382],
        [-0.254153449785797, 51.42975322254446],
        [-0.254220583092678, 51.42957707023674],
        [-0.254227500675523, 51.42947106179373],
        [-0.254237498221211, 51.42939747221321],
        [-0.2542477355139, 51.429317591453355],
        [-0.254204948371451, 51.42923242470664],
        [-0.254125877997196, 51.42908017303133],
        [-0.254103355224858, 51.42902947956714],
        [-0.25399419873895, 51.42879854491922],
        [-0.25399152887881, 51.428793109649874],
        [-0.253875047952902, 51.4285656627714],
        [-0.253696750196498, 51.42826175780229],
        [-0.253527795846166, 51.42805241300707],
        [-0.253381539071737, 51.42781373092414],
        [-0.253291282582607, 51.42761545017946],
        [-0.253208251230337, 51.42737860927225],
        [-0.253084385603262, 51.42711867845601],
        [-0.252987213757012, 51.42698863739487],
        [-0.252801152637722, 51.42677543949287],
        [-0.252528016918675, 51.426506988121915],
        [-0.252429346532219, 51.42630318569571],
        [-0.252360560915254, 51.42607015350117],
        [-0.252334928730485, 51.42598793952658],
        [-0.252299372990804, 51.42586421205587],
        [-0.252261045083549, 51.425737745483495],
        [-0.252279775851166, 51.42562381996267],
        [-0.252333190291303, 51.4253548412489],
        [-0.252430113640829, 51.42500108240999],
        [-0.252494094387482, 51.42486984648941],
        [-0.25259932334803, 51.42467537868727],
        [-0.252704997022913, 51.42446922716085],
        [-0.252801905177604, 51.42430431040365],
        [-0.252871394158926, 51.424179451137476],
        [-0.252909256494776, 51.424054120415796],
        [-0.252922897554403, 51.42369642196789],
        [-0.25295056519644, 51.423461230676466],
        [-0.252958272717971, 51.42333455120322],
        [-0.252954411397788, 51.4232094977906],
        [-0.252783214303566, 51.42309723729766],
        [-0.252422468316686, 51.42301452355632],
        [-0.252022156191083, 51.422951002155784],
        [-0.251804035828171, 51.422862320188415],
        [-0.251708136549948, 51.42281233022944],
        [-0.251442897644867, 51.42260154585629],
        [-0.251247066403141, 51.422456542531265],
        [-0.25123334314529, 51.422439252007486],
        [-0.251174000481729, 51.42237362050782],
        [-0.251122974227666, 51.422316206327494],
        [-0.250925221542119, 51.42188251415096],
        [-0.250825896075897, 51.42154561117616],
        [-0.250743817912942, 51.42124673405578],
        [-0.250674834478569, 51.42109463026764],
        [-0.250583019924506, 51.42097545795859],
        [-0.250551826862813, 51.42077535856424],
        [-0.25056577826051, 51.42056064572189],
        [-0.250579794321126, 51.420381903894025],
        [-0.250533438002107, 51.42020226092872],
        [-0.250475411013027, 51.42002693998806],
        [-0.250386897613579, 51.41978372005628],
        [-0.250277056070205, 51.41960942401439],
        [-0.250147194574738, 51.41943213121189],
        [-0.249886826694407, 51.41905685272549],
        [-0.249845219588419, 51.41897889578859],
        [-0.249780927736521, 51.41885473824651],
        [-0.249642361131948, 51.41852893830279],
        [-0.249613734784163, 51.418374738726094],
        [-0.249594071586552, 51.41824944905915],
        [-0.249574722076517, 51.41807830222591],
        [-0.24959718894273, 51.41794195148016],
        [-0.249617634675128, 51.41782085782541],
        [-0.249684148821875, 51.417660885077616],
        [-0.24977366891746, 51.417425718685315],
        [-0.2498512518105, 51.417126527077876],
        [-0.24985845152192, 51.41701332883974],
        [-0.249833210972653, 51.41658221021368],
        [-0.249820421115182, 51.41650288504274],
        [-0.249755000810501, 51.41610713643331],
        [-0.249714023252321, 51.41593746508113],
        [-0.249601118969272, 51.41542949992864],
        [-0.249543183508195, 51.41513907542005],
        [-0.249546582115551, 51.41505010020382],
        [-0.249603022363539, 51.414965514187266],
        [-0.24959967625345, 51.414902516551756],
        [-0.249533953257637, 51.41477833738639],
        [-0.249385364238778, 51.41452702511137],
        [-0.249059981018109, 51.4138594153562],
        [-0.248909558270107, 51.413543328831054],
        [-0.24823556973131, 51.412139414982114],
        [-0.247475046284769, 51.410555251363746],
        [-0.247425005946186, 51.410434902392495],
        [-0.247170894058041, 51.40970990097794],
        [-0.247136938439675, 51.409582598401435],
        [-0.24715104731472, 51.40951446617158],
        [-0.247179739699882, 51.40940338789751],
        [-0.247193360909841, 51.409385606554515],
        [-0.247211430858262, 51.40936429473268],
        [-0.24722833863998, 51.40933577150003],
        [-0.247240694557004, 51.40931347496112],
        [-0.247246614756032, 51.409309067236194],
        [-0.247257224263102, 51.40929483785654],
        [-0.247428943818292, 51.40916611494186],
        [-0.247508848724896, 51.40910705986429],
        [-0.247557068887808, 51.409049329454305],
        [-0.247555868346178, 51.408855072777165],
        [-0.247538550773369, 51.408668668370716],
        [-0.247509971229403, 51.40851356941775],
        [-0.247507612516378, 51.408500045344866],
        [-0.247460848386424, 51.40844449157811],
        [-0.247394446590529, 51.40837605456939],
        [-0.247363249830061, 51.40832702833991],
        [-0.247338729202757, 51.408253822100605],
        [-0.247295423839488, 51.408183032680334],
        [-0.247292281085233, 51.40815241105976],
        [-0.247283224578542, 51.408088428615194],
        [-0.24725747334106, 51.408009808428986],
        [-0.247203181097576, 51.40796313449594],
        [-0.247103900153432, 51.40788970928553],
        [-0.247032363675284, 51.40784277734318],
        [-0.246956413101672, 51.40779847708854],
        [-0.246841827784069, 51.407786871216594],
        [-0.246733609453988, 51.40775917392024],
        [-0.246598630697038, 51.407754456742204],
        [-0.246297072556885, 51.407669011738804],
        [-0.246192313480608, 51.407626078390635],
        [-0.246042490671128, 51.40759595932228],
        [-0.245847948022615, 51.4075696669713],
        [-0.245810757083533, 51.4075646140224],
        [-0.245801420104534, 51.40754558993452],
        [-0.245758427320417, 51.407466711316715],
        [-0.245703827693187, 51.407428125355715],
        [-0.24550486820828, 51.40725428868879],
        [-0.245487356462717, 51.40722345188977],
        [-0.245473131579639, 51.40718187325043],
        [-0.245386994691793, 51.407103247810944],
        [-0.245353675873344, 51.40707217432581],
        [-0.245338289353437, 51.40702338424494],
        [-0.245399855920262, 51.406955063482386],
        [-0.245503944416378, 51.406752491211435],
        [-0.245532845277028, 51.40663602087847],
        [-0.245477367929108, 51.406545264933456],
        [-0.245358239110414, 51.40635194027034],
        [-0.245229740408374, 51.40614049009565],
        [-0.245221634517726, 51.40612687991214],
        [-0.245195895808498, 51.4060104907424],
        [-0.24519211682999, 51.405921408008155],
        [-0.245184394851603, 51.40570996767908],
        [-0.245050468526876, 51.4054525740399],
        [-0.245013131657659, 51.405338708891726],
        [-0.244946641051534, 51.40508502273041],
        [-0.244884668441667, 51.404826008656194],
        [-0.244886474040353, 51.404703737122915],
        [-0.244848518790692, 51.40460604921882],
        [-0.244811561563436, 51.40448229787378],
        [-0.24471828884049, 51.4043648970656],
        [-0.244684722173356, 51.40422770764202],
        [-0.244703416693265, 51.4038520993359],
        [-0.244700094405874, 51.403713564398615],
        [-0.244682986935826, 51.40340936016381],
        [-0.244739592000661, 51.403170107068746],
        [-0.244845024440495, 51.402894715810746],
        [-0.244855228456136, 51.402853502930455],
        [-0.244892276025129, 51.40271197557639],
        [-0.245044570461205, 51.402301498526164],
        [-0.245055591791568, 51.402276484448066],
        [-0.245070690890141, 51.402220057525035],
        [-0.245234259567527, 51.40170273775046],
        [-0.245238604516441, 51.40170190355684],
        [-0.245294125743496, 51.40171622373327],
        [-0.245376076095406, 51.401641014141966],
        [-0.245495693713066, 51.40155827515297],
        [-0.245697906206841, 51.40142101873403],
        [-0.246085230200606, 51.40110488320236],
        [-0.24612382549764, 51.40107308767663],
        [-0.246461425530366, 51.40081645677201],
        [-0.246477574310777, 51.4008077058684],
        [-0.246673036592117, 51.400696425160554],
        [-0.246688092146968, 51.400678665325515],
        [-0.246719021433315, 51.40065934447368],
        [-0.246792793391484, 51.40057232123103],
        [-0.246834370969507, 51.400500103633135],
        [-0.246846449675995, 51.40048499700674],
        [-0.246823989141449, 51.400395634779336],
        [-0.246710424165075, 51.4001322526238],
        [-0.246660128245251, 51.399981324573936],
        [-0.246619401319002, 51.39969295369633],
        [-0.246591640245214, 51.39940387753815],
        [-0.246609245257685, 51.399281842300994],
        [-0.246621983332129, 51.39921189101816],
        [-0.246685392981365, 51.39909503738015],
        [-0.246721056996893, 51.398989458904936],
        [-0.246730983457275, 51.398955435736084],
        [-0.246754272747314, 51.39879751532234],
        [-0.246759798815644, 51.398690586669744],
        [-0.246763915943652, 51.398620506386294],
        [-0.246769407594666, 51.39851447647054],
        [-0.246893075424903, 51.398287915882094],
        [-0.246959088007745, 51.398140526362425],
        [-0.247070079348059, 51.398019888031314],
        [-0.247212821771788, 51.397858358790124],
        [-0.247415642827256, 51.39762938453986],
        [-0.247423004152771, 51.39758722965112],
        [-0.247424784370394, 51.39757826372597],
        [-0.246940066539141, 51.3971339754525],
        [-0.246769673931447, 51.39696596332552],
        [-0.246493695327571, 51.396739717944094],
        [-0.24639998674399, 51.3966340020672],
        [-0.246298036525414, 51.39651827096384],
        [-0.246174791061867, 51.396320388822815],
        [-0.246002864432749, 51.39615505033425],
        [-0.245889862594314, 51.396065231838655],
        [-0.245775301563562, 51.395903449459695],
        [-0.245692333253353, 51.395817677385246],
        [-0.245585045117155, 51.3957288433768],
        [-0.245536007190937, 51.39565796726289],
        [-0.245488268533562, 51.39559070760199],
        [-0.24511551411139, 51.39530186044892],
        [-0.244992157926126, 51.39518221055648],
        [-0.244792986064259, 51.3949777941749],
        [-0.244707817826829, 51.3947993650894],
        [-0.244595174070795, 51.39466278936277],
        [-0.244232971132695, 51.394511683480225],
        [-0.244101214617836, 51.394498918179934],
        [-0.244076895244264, 51.39449585599648],
        [-0.243925000454265, 51.39444591924281],
        [-0.243753303068928, 51.39438759219832],
        [-0.243548116427036, 51.39434045325113],
        [-0.243543840992782, 51.394339489909704],
        [-0.243188489214631, 51.394309882994406],
        [-0.242791476053695, 51.394279650263535],
        [-0.242510012591625, 51.39423496266198],
        [-0.242285438745885, 51.3941686463417],
        [-0.242048693979026, 51.39408236336556],
        [-0.24182303999966, 51.39396926862988],
        [-0.241745783961715, 51.39392224739324],
        [-0.241691686009654, 51.39387107731691],
        [-0.241345296143188, 51.39338297861065],
        [-0.241345169165047, 51.39334880496934],
        [-0.241344559699888, 51.39332721367347],
        [-0.241301576448682, 51.39328610203538],
        [-0.241168593147488, 51.393155512430084],
        [-0.240935208887334, 51.392719466885374],
        [-0.240860115630997, 51.39254118607782],
        [-0.240824063124783, 51.392431834815156],
        [-0.240885213814664, 51.39233653240517],
        [-0.240961706068088, 51.392178512317194],
        [-0.240967934833857, 51.39216601623103],
        [-0.240847850784117, 51.392148926163514],
        [-0.240789883087163, 51.39212377598141],
        [-0.240693163181847, 51.392097144698496],
        [-0.240619807350101, 51.39206097231674],
        [-0.240560863042832, 51.39198634825029],
        [-0.240471786273668, 51.39179796537321],
        [-0.240402510958711, 51.39173038014395],
        [-0.240236208377051, 51.3914194377526],
        [-0.240108256385946, 51.39119539972965],
        [-0.24010490163124, 51.39109553185716],
        [-0.240137345371656, 51.39092426110481],
        [-0.240115902216667, 51.390808834197536],
        [-0.240063592189952, 51.39063629051149],
        [-0.24003515117999, 51.39047849341146],
        [-0.240027349181252, 51.390382155755034],
        [-0.239954563104725, 51.3900690203954],
        [-0.239892419561827, 51.389740757465404],
        [-0.239886009445534, 51.38957070162939],
        [-0.239785562024418, 51.38945408787207],
        [-0.239743652916217, 51.389385114781156],
        [-0.239706881078218, 51.389294636682735],
        [-0.239646012263815, 51.389157934454445],
        [-0.239638497275992, 51.38912904533194],
        [-0.239600279344177, 51.388963907138404],
        [-0.239581893708215, 51.38891866806798],
        [-0.239571367936283, 51.388893330734334],
        [-0.239573804665531, 51.38886728888993],
        [-0.239584655301273, 51.38873436186779],
        [-0.239612248008299, 51.38865204476345],
        [-0.239580350389095, 51.38850948292866],
        [-0.239490995821299, 51.38836605782654],
        [-0.239494871381388, 51.38822763046084],
        [-0.239470752749619, 51.38814453643013],
        [-0.239459460952837, 51.38795192574334],
        [-0.239323696995111, 51.38770708637871],
        [-0.239223878952957, 51.38746188774721],
        [-0.239097309894639, 51.387239667690935],
        [-0.239013717443062, 51.38705855996056],
        [-0.238995832340738, 51.38685056271937],
        [-0.238971003437478, 51.38674857347946],
        [-0.238956147548255, 51.386686301446055],
        [-0.238744585275388, 51.38609500722932],
        [-0.238854934274564, 51.38602832229314],
        [-0.238914182564908, 51.38598245141001],
        [-0.239035918358738, 51.385918635218516],
        [-0.239191022320556, 51.38588409658518],
        [-0.23937761245444, 51.38577809026206],
        [-0.239750916049188, 51.38560025036881],
        [-0.239912775644943, 51.38550196499558],
        [-0.240059581611521, 51.385421438443615],
        [-0.240720064233297, 51.385062661568604],
        [-0.241065009467429, 51.38487449990366],
        [-0.241403252625787, 51.384673647039264],
        [-0.241620212425069, 51.38452492862823],
        [-0.241826472559416, 51.38435536634945],
        [-0.241951206497814, 51.384175587937655],
        [-0.242094266889039, 51.38400507691909],
        [-0.242558482477084, 51.3834041425626],
        [-0.24255541303716, 51.3833717232551],
        [-0.242553297891218, 51.38335190786552],
        [-0.24282157809295, 51.383063672833416],
        [-0.242931485118439, 51.382933130186125],
        [-0.242959762891875, 51.38294524458026],
        [-0.244174723886194, 51.38349222069703],
        [-0.244340053455091, 51.38292726671734],
        [-0.24448402531887, 51.38243213456002],
        [-0.244695284788587, 51.38164305380629],
        [-0.244672416285603, 51.381602244624496],
        [-0.244778683928472, 51.38100313256337],
        [-0.244792736522442, 51.38101143639323],
        [-0.244835784822069, 51.38086280450147],
        [-0.244922739699225, 51.38088119293549],
        [-0.244984782592718, 51.38064921455422],
        [-0.244992349299621, 51.380601667240136],
        [-0.245036255288633, 51.380092445803136],
        [-0.245054253159246, 51.380035162887445],
        [-0.245528973212678, 51.38005935822418],
        [-0.245587698708299, 51.37998919621565],
        [-0.245979780619242, 51.380145242431205],
        [-0.246111696017613, 51.38019038151642],
        [-0.246517934607508, 51.38016408854713],
        [-0.246626163045779, 51.38015221933642],
        [-0.246840193822026, 51.38011675396729],
        [-0.247223092240206, 51.37998669471361],
        [-0.247588539165927, 51.380163019982],
        [-0.247642667715329, 51.380175519885746],
        [-0.247691497777172, 51.38017625017675],
        [-0.247747783306947, 51.380169897885736],
        [-0.247775379583146, 51.38016221727063],
        [-0.247847296694268, 51.380122826176276],
        [-0.247917320979502, 51.3801706346973],
        [-0.248374246084823, 51.38005876452912],
        [-0.248655432302284, 51.38003329236163],
        [-0.248868470763916, 51.37998611811903],
        [-0.249100762045525, 51.379923943824494],
        [-0.249941499300747, 51.37961996587301],
        [-0.250541422372552, 51.37941310331044],
        [-0.250808384627188, 51.37930827898495],
        [-0.2510021336195, 51.37923923073871],
        [-0.251476004208596, 51.379097026750394],
        [-0.251661748747256, 51.3790494401378],
        [-0.252373058052967, 51.37889818570938],
        [-0.252790156425182, 51.37885045086906],
        [-0.253421580868454, 51.378796917085246],
        [-0.253604552096158, 51.37878435708593],
        [-0.253971417438422, 51.37877273883775],
        [-0.254549189972559, 51.37876965708881],
        [-0.255084151712887, 51.37875874087974],
        [-0.255611146741314, 51.37876838652428],
        [-0.255779482636288, 51.37876279929121],
        [-0.256315301439348, 51.37880494636156],
        [-0.257198838796765, 51.378847767351296],
        [-0.257301968106906, 51.37885649535624],
        [-0.257387693065063, 51.378869460701],
        [-0.257491576022183, 51.378896184877824],
        [-0.258444327925056, 51.378970600510414],
        [-0.259359278591828, 51.37917034268486],
        [-0.259793381847475, 51.3792424366312],
        [-0.259922368155324, 51.37928931511447],
        [-0.260017636623243, 51.37931590909985],
        [-0.260173019532897, 51.379348791201764],
        [-0.260840555753266, 51.379555638658964],
        [-0.261029999438966, 51.37959981625754],
        [-0.261124820753513, 51.37960032427235],
        [-0.261172214383203, 51.37960102762627],
        [-0.261165663462497, 51.37947053828062],
        [-0.261377521879829, 51.37918861801662],
        [-0.261419362893196, 51.379108305832034],
        [-0.261440723042372, 51.37903758155069],
        [-0.261491727525926, 51.37852576237025],
        [-0.261519008097464, 51.37848839839453],
        [-0.261590598419898, 51.378419318625056],
        [-0.261901316303565, 51.37822069646188],
        [-0.26193707695173, 51.37818705521109],
        [-0.261968903617827, 51.37814346377572],
        [-0.261991460278793, 51.37807905193225],
        [-0.262411155962572, 51.37735508079537],
        [-0.262492550771342, 51.377254671912866],
        [-0.262896704861065, 51.37705473494237],
        [-0.263299037675814, 51.37682689265125],
        [-0.263857315048423, 51.376426904166046],
        [-0.264258312485992, 51.37608213551824],
        [-0.264702393286955, 51.37562379807787],
        [-0.265527576727022, 51.37523225077993],
        [-0.266804624226199, 51.374631561516416],
        [-0.268009883742272, 51.374066666746536],
        [-0.268875071159055, 51.373641515696114],
        [-0.268910212907366, 51.37362404980281],
        [-0.2692609974788, 51.37350423556428],
        [-0.269759389544904, 51.37331825676697],
        [-0.270490730748654, 51.37308895350055],
        [-0.271065422876874, 51.372898699939604],
        [-0.271203634125104, 51.37285307884583],
        [-0.271956079461254, 51.372597100214534],
        [-0.272191058383613, 51.37249984907234],
        [-0.272446631949567, 51.37235164354826],
        [-0.272569130965785, 51.372265322661995],
        [-0.272601635147615, 51.372241521990716],
        [-0.272771267633135, 51.37212442185323],
        [-0.272983251740176, 51.37198906139084],
        [-0.273222348342393, 51.371858596427714],
        [-0.273235609905567, 51.37184979932353],
        [-0.273394782076001, 51.371743335193734],
        [-0.273430461602484, 51.371711487786975],
        [-0.273612474049672, 51.37153252022752],
        [-0.2737377580258, 51.3713338321832],
        [-0.273819574141261, 51.371183063399236],
        [-0.273946697716981, 51.370973611163045],
        [-0.274014558973829, 51.37081184558077],
        [-0.274046251868901, 51.37065674119372],
        [-0.274262701603026, 51.37059338470083],
        [-0.274388739818266, 51.37056556569715],
        [-0.274636474326168, 51.3705107625993],
        [-0.274985176494943, 51.370407087299704],
        [-0.27499970431086, 51.37040280492093],
        [-0.275387493971396, 51.37025294262254],
        [-0.275421093470258, 51.370238149858324],
        [-0.275650478290952, 51.37013631321722],
        [-0.275856161036494, 51.37001524295585],
        [-0.275986738200164, 51.36990475750127],
        [-0.276001603325621, 51.369891487404225],
        [-0.276121266595822, 51.36976555385344],
        [-0.276131824015191, 51.369752220356546],
        [-0.276206198301099, 51.36964630321934],
        [-0.276267511477664, 51.36946735414483],
        [-0.276311593846362, 51.36928815153069],
        [-0.276307961253532, 51.36927011296838],
        [-0.276284358651962, 51.369171746819596],
        [-0.276293983255201, 51.36906847399049],
        [-0.276433153224005, 51.368920345714045],
        [-0.276523304548827, 51.36885332847956],
        [-0.276583861404747, 51.36880925649644],
        [-0.276631919127786, 51.3687919783026],
        [-0.276813896333907, 51.368728110054604],
        [-0.277003067001353, 51.36862567931239],
        [-0.27706024541542, 51.36859504623891],
        [-0.277267237607217, 51.36851535855503],
        [-0.27747198384065, 51.36845721962836],
        [-0.277548959887406, 51.36843497069582],
        [-0.277550395721123, 51.36843499180533],
        [-0.277917322846666, 51.36838103487186],
        [-0.277923099892479, 51.368380220531385],
        [-0.277931782319026, 51.36837854963997],
        [-0.278066123855295, 51.36835894206246],
        [-0.27847636065297, 51.36829932512882],
        [-0.278667946065803, 51.3682472855267],
        [-0.279017720971737, 51.36815260663981],
        [-0.279130928339719, 51.36812189632624],
        [-0.279440005732816, 51.368001439234256],
        [-0.279504125068615, 51.36797720170035],
        [-0.279843061933246, 51.367826607347915],
        [-0.280061679286842, 51.36770482042358],
        [-0.280164374856907, 51.36764787638257],
        [-0.280493604944368, 51.367449477117226],
        [-0.280555356308989, 51.36741171542221],
        [-0.280556825776816, 51.36741083773291],
        [-0.280802461728265, 51.367257972019345],
        [-0.280839198166017, 51.367236029700784],
        [-0.281057013695377, 51.36709714331108],
        [-0.281197586894476, 51.36698769802367],
        [-0.281278484541035, 51.36689895926688],
        [-0.281370890243235, 51.366733053279006],
        [-0.281471394306083, 51.36661942284307],
        [-0.281486290420245, 51.36660525325574],
        [-0.281640960511834, 51.36646454026945],
        [-0.281813296193699, 51.36631239583629],
        [-0.281903905452902, 51.36623279163586],
        [-0.28199007256195, 51.366156719248295],
        [-0.282185512618979, 51.366001316055616],
        [-0.282417709380331, 51.365861738770185],
        [-0.282636613123743, 51.36573185798328],
        [-0.282850199878407, 51.365628876532526],
        [-0.28312702576615, 51.36552502294622],
        [-0.283239393173101, 51.36547810978429],
        [-0.28327879685968, 51.36546160132715],
        [-0.283445755823645, 51.365414588648],
        [-0.283457342587337, 51.365412060648445],
        [-0.283654686986776, 51.36535919808073],
        [-0.283686676515373, 51.365348875658626],
        [-0.283803081366837, 51.365309215153175],
        [-0.283810394460771, 51.36530572525873],
        [-0.283934582507695, 51.36524999203539],
        [-0.284034530686659, 51.365189407366636],
        [-0.284094840361654, 51.36515162270675],
        [-0.284105125655186, 51.36514547855895],
        [-0.284380930074617, 51.364953480013945],
        [-0.28459632273905, 51.36480196204449],
        [-0.28476146375075, 51.36464970797142],
        [-0.284929332794848, 51.36453975862132],
        [-0.285049948861683, 51.36446418831004],
        [-0.285213770195962, 51.364385653253066],
        [-0.285461574577011, 51.36425079471285],
        [-0.285661100502418, 51.36410084110729],
        [-0.28572611721991, 51.36405233342604],
        [-0.285768960682581, 51.364020587124834],
        [-0.28595516779601, 51.363842561212714],
        [-0.286026664767613, 51.363774364551546],
        [-0.286327973415747, 51.363514391159306],
        [-0.286534450148525, 51.3632934965537],
        [-0.286669966699378, 51.36312641843945],
        [-0.286780673432275, 51.362969768428904],
        [-0.286839682750807, 51.36288969833479],
        [-0.286889541321906, 51.36282388249346],
        [-0.287044752031654, 51.36266788299822],
        [-0.287223294947542, 51.36254100060084],
        [-0.287372514479036, 51.36246854386666],
        [-0.287497589834167, 51.362427207965474],
        [-0.287706603150811, 51.362369113673296],
        [-0.28791828616382, 51.36231645355952],
        [-0.288154307709199, 51.362265947214915],
        [-0.288178417378446, 51.36223572481141],
        [-0.288301937047167, 51.36208195836628],
        [-0.287966481939278, 51.3619484630459],
        [-0.287960772896755, 51.36194748035983],
        [-0.287622515546799, 51.36181214457791],
        [-0.287595640729355, 51.361800960685635],
        [-0.287237381321143, 51.36170130164074],
        [-0.28702698691363, 51.36164247163224],
        [-0.287021311460597, 51.361640590135266],
        [-0.286523973261339, 51.36149573093977],
        [-0.286165483796308, 51.36140236001275],
        [-0.285847085271259, 51.36135094036918],
        [-0.285425792944161, 51.361285424416295],
        [-0.285101023651835, 51.36121232734784],
        [-0.28536049725519, 51.361072244322926],
        [-0.286054472384098, 51.360297348743025],
        [-0.286413690459456, 51.35998606546702],
        [-0.28661179889576, 51.359796522249724],
        [-0.286702889806373, 51.35970343256776],
        [-0.286857425993317, 51.35952674053977],
        [-0.286996666624011, 51.35937500382775],
        [-0.2880977532711, 51.35904398618672],
        [-0.288996346341479, 51.35871179947055],
        [-0.289236077537525, 51.35844552374165],
        [-0.289368803123241, 51.35823703596557],
        [-0.289486632636771, 51.35808138665087],
        [-0.289610270349, 51.35792402350628],
        [-0.289794771375533, 51.357713593396156],
        [-0.289881779430552, 51.35761414686934],
        [-0.290223125534409, 51.35728010972375],
        [-0.290623157273172, 51.35691275618824],
        [-0.290898586296461, 51.35669016225903],
        [-0.290939749626167, 51.35666468436534],
        [-0.291108775795076, 51.356561037923846],
        [-0.291130580663895, 51.3564768259197],
        [-0.291203647903367, 51.356095707867],
        [-0.291208990973589, 51.35606790886176],
        [-0.291243053198164, 51.35588585669552],
        [-0.291251513686127, 51.355658468268416],
        [-0.291224329746724, 51.35530826104658],
        [-0.291223969429728, 51.35520214354261],
        [-0.291346731063048, 51.354952142380746],
        [-0.291499835649232, 51.35469718808532],
        [-0.291724976289774, 51.35443609002224],
        [-0.292003257523484, 51.35417486708055],
        [-0.292081138472354, 51.354127442721776],
        [-0.292307469717609, 51.35398865977825],
        [-0.292420135070144, 51.35389408167232],
        [-0.292524187631879, 51.35379937792181],
        [-0.292684656586556, 51.35361646994031],
        [-0.292782134736931, 51.353428147475675],
        [-0.292772670165267, 51.35291003781318],
        [-0.292783692225331, 51.35269077985239],
        [-0.292799717215098, 51.35260738253466],
        [-0.292819914562448, 51.35252764304539],
        [-0.292930407018697, 51.352375480364444],
        [-0.293176855925379, 51.35219742163312],
        [-0.293319423289779, 51.352109573141995],
        [-0.293470635497095, 51.35202095115926],
        [-0.29417241277629, 51.35164718989321],
        [-0.294349924806882, 51.35154636016552],
        [-0.294519224624587, 51.3514346195319],
        [-0.294840564721959, 51.35121178556144],
        [-0.294991136422064, 51.35110157015299],
        [-0.295264539013365, 51.35085465662237],
        [-0.295638072861664, 51.35054085586177],
        [-0.29603930694249, 51.350254434550735],
        [-0.296476584432633, 51.34996403975798],
        [-0.297268191450103, 51.34956728648942],
        [-0.297558868114923, 51.34939615629063],
        [-0.297795006318103, 51.34926290090984],
        [-0.297821406984383, 51.34924799717973],
        [-0.298158673331063, 51.349059557359965],
        [-0.298415363841299, 51.34887534170351],
        [-0.298674186545725, 51.34867227207059],
        [-0.298993157479691, 51.348512340358035],
        [-0.299199480063182, 51.34836965664791],
        [-0.299452650824379, 51.348125137449266],
        [-0.299949075835059, 51.347671024510056],
        [-0.30010061623228, 51.347495170926415],
        [-0.300184141339853, 51.3473722855886],
        [-0.300270702641094, 51.347244947964505],
        [-0.300547661221604, 51.34678405075117],
        [-0.30067285337974, 51.34654396694806],
        [-0.300788629698084, 51.34628666054744],
        [-0.301045672602675, 51.34574274163114],
        [-0.301175968292289, 51.34551981717721],
        [-0.301337935211596, 51.345294654088335],
        [-0.301550900366734, 51.345088215375426],
        [-0.301790798579776, 51.344891159312766],
        [-0.301944874051238, 51.34480166874765],
        [-0.302021061138982, 51.34476050808595],
        [-0.302311091735426, 51.34460554346564],
        [-0.302536474338732, 51.34445143983389],
        [-0.3032875966118, 51.34378608110807],
        [-0.303431412769657, 51.34366316750087],
        [-0.303699325001302, 51.343445830403176],
        [-0.303806300043747, 51.34334846126683],
        [-0.303903162809003, 51.34325274412458],
        [-0.304048526336603, 51.3430489190647],
        [-0.304146091912473, 51.34281742412721],
        [-0.304215494983396, 51.342609801329885],
        [-0.304329142689398, 51.34237044574407],
        [-0.304396753181417, 51.34221135675195],
        [-0.304461658963445, 51.342047732284115],
        [-0.304518285770406, 51.3418749953751],
        [-0.30456917206271, 51.341702175346946],
        [-0.304618420963869, 51.3413791556895],
        [-0.304663888797291, 51.341158596567105],
        [-0.304753855832017, 51.34086044609706],
        [-0.304810920239922, 51.34071469307103],
        [-0.304939464036292, 51.3404215970199],
        [-0.305010877022514, 51.34027605153263],
        [-0.305087631609922, 51.34014137437836],
        [-0.305341216551754, 51.33972778819195],
        [-0.305437929826881, 51.33948009316869],
        [-0.305439395782194, 51.33920674020863],
        [-0.305380959094877, 51.338922628776174],
        [-0.305379697758813, 51.33868430736591],
        [-0.305321868328248, 51.33842268609275],
        [-0.305296356051136, 51.33821908482672],
        [-0.305245110909535, 51.33812931690617],
        [-0.305080271611203, 51.33788862855643],
        [-0.304980719169429, 51.33770733648304],
        [-0.304883241621584, 51.3375476565223],
        [-0.304956175032265, 51.337360767185565],
        [-0.304960977339748, 51.3370748728028],
        [-0.304949953462137, 51.33675098056259],
        [-0.305052789885837, 51.336453915208025],
        [-0.305196937165778, 51.33616554082865],
        [-0.30527932399892, 51.33603364276877],
        [-0.305710079387622, 51.33540859564069],
        [-0.30588805590096, 51.33525379987932],
        [-0.306031914541548, 51.33516775326634],
        [-0.306215814915714, 51.33508588255523],
        [-0.30662395391783, 51.334918227179706],
        [-0.307014772999409, 51.334753017822294],
        [-0.307491611005659, 51.33459084869564],
        [-0.3076359299711, 51.334609120660396],
        [-0.307729487473311, 51.3344854756156],
        [-0.308351590197691, 51.33408170290983],
        [-0.308757222256659, 51.33374764129851],
        [-0.309137114790768, 51.33348874435572],
        [-0.309644345253105, 51.33308510499385],
        [-0.309880991967001, 51.332934746956106],
        [-0.310419155477619, 51.33266554000263],
        [-0.310953206670721, 51.33239087574844],
        [-0.311603644355494, 51.332152058658295],
        [-0.312008980745358, 51.33209854996907],
        [-0.312422101010625, 51.33198939807039],
        [-0.312603783788329, 51.33192816837773],
        [-0.312776890772447, 51.331865915611736],
        [-0.313094409068226, 51.331740996030916],
        [-0.313716395452637, 51.33141632805403],
        [-0.313955922682054, 51.33126510406649],
        [-0.314268319365506, 51.33104478631614],
        [-0.315047006695459, 51.33051733586904],
        [-0.31520999308354, 51.330378497061346],
        [-0.315978869622702, 51.32968723449898],
        [-0.316142494726977, 51.32956998576633],
        [-0.316765148142137, 51.32914729227309],
        [-0.316850232787357, 51.329097257358654],
        [-0.317148175648315, 51.328918090123565],
        [-0.317831282586667, 51.32852953212892],
        [-0.318393999568414, 51.32825344741865],
        [-0.318978951863713, 51.32795789550212],
        [-0.319307257234786, 51.327811531864924],
        [-0.319608544253378, 51.327736720264014],
        [-0.320082276900974, 51.32765628813806],
        [-0.321235989717746, 51.32750736714643],
        [-0.321599540326131, 51.32745682356556],
        [-0.321774339271534, 51.32742605584717],
        [-0.322102098456474, 51.32733363202723],
        [-0.322648052041257, 51.32720116800636],
        [-0.323094262795733, 51.327087956329414],
        [-0.323095697371759, 51.327087976869095],
        [-0.323550397334024, 51.32689934741476],
        [-0.323836554086581, 51.326766755964435],
        [-0.323970401899257, 51.326717413772485],
        [-0.324028603634379, 51.32669576520815],
        [-0.324259968567083, 51.32664871734094],
        [-0.324448748036742, 51.32662803750531],
        [-0.324638896399348, 51.32660917546132],
        [-0.325113480802688, 51.32658358992278],
        [-0.325604853913808, 51.32656993281862],
        [-0.326003891217533, 51.32656934206198],
        [-0.32670636881178, 51.32659196992176],
        [-0.326981669588724, 51.32663906708873],
        [-0.327231639284373, 51.32667231297083],
        [-0.327322993707184, 51.32668620728045],
        [-0.327597555319253, 51.32631963434956],
        [-0.328314267408319, 51.326463855481464],
        [-0.328926050366203, 51.326809807115346],
        [-0.32925100179426, 51.32699159653705],
        [-0.329588605791714, 51.32718075954266],
        [-0.329590040375392, 51.327180780002834],
        [-0.330138981506158, 51.32751863484],
        [-0.330157204990136, 51.32757015226702],
        [-0.330339613701943, 51.32788299617403],
        [-0.330398688759372, 51.327995346082375],
        [-0.330480388348908, 51.328196145564995],
        [-0.330590389413692, 51.32840813945018],
        [-0.330674143856401, 51.32863144946772],
        [-0.330756431816168, 51.32885563776918],
        [-0.33071932430743, 51.328928847906575],
        [-0.330679021016926, 51.329011005044364]
      ]
    ]
  }
}
