{
  "type": "Feature",
  "properties": {
    "name": "Kingston upon Thames",
    "level": 2,
    "londonBorough": true
  },
  "geometry": {
    "type": "Polygon",
    "coordinates": [
      [
        [-0.330679021016926, 51.329011005044364],
        [-0.329913420047195, 51.32946050987163],
        [-0.329633552692133, 51.32965705299382],
        [-0.329214438696163, 51.33009081129484],
        [-0.329116281627208, 51.33026386671784],
        [-0.329191260385589, 51.330965456726595],
        [-0.329302868614078, 51.33152818443574],
        [-0.329362729602387, 51.33161896386252],
        [-0.329554510400961, 51.331871692282014],
        [-0.32959416870674, 51.33228141923108],
        [-0.32968995815288, 51.3324896140952],
        [-0.329643333026612, 51.333496115442294],
        [-0.329628930756486, 51.33385291448312],
        [-0.32935918903065, 51.33531035739911],
        [-0.329208181827413, 51.335633733876776],
        [-0.329041495176206, 51.33757284791903],
        [-0.328900402352745, 51.33817603365734],
        [-0.328979227840216, 51.34023285463345],
        [-0.328909130274563, 51.34077860140944],
        [-0.328346097208237, 51.34204750905007],
        [-0.3282012288315, 51.34231971414149],
        [-0.327796114023781, 51.34390381322417],
        [-0.327480770274375, 51.34400722161426],
        [-0.328177349649399, 51.34404144530448],
        [-0.330327238121345, 51.347902030728704],
        [-0.330533820950687, 51.34842114648758],
        [-0.32835306411927, 51.35172178035256],
        [-0.328046475389044, 51.352135557647244],
        [-0.324158744705003, 51.35410872109848],
        [-0.323752687183813, 51.354413153911615],
        [-0.322259713125154, 51.35620377677808],
        [-0.321952973306839, 51.35661933460319],
        [-0.320744851151999, 51.3583933352567],
        [-0.320259403795036, 51.359099483340785],
        [-0.320079308796247, 51.35942872526637],
        [-0.32017829794381, 51.35954974531766],
        [-0.32016513640043, 51.35959541848801],
        [-0.319956964722208, 51.359632000469766],
        [-0.319792372434972, 51.35992999041948],
        [-0.319060203794327, 51.362313297947345],
        [-0.318285367063541, 51.36350627709294],
        [-0.318522193272103, 51.365864817963],
        [-0.318523330368145, 51.36618676651233],
        [-0.31790567117775, 51.36990979515606],
        [-0.318029423075935, 51.370296451447565],
        [-0.317284276067244, 51.37243855967006],
        [-0.317109152243868, 51.37270851753258],
        [-0.316224418307467, 51.37356178527069],
        [-0.315991740662872, 51.37375537725164],
        [-0.31478304237436, 51.37443042195017],
        [-0.314341466059258, 51.37463899089508],
        [-0.312510458028778, 51.37477000298673],
        [-0.312155171523404, 51.37481973975216],
        [-0.309096994077213, 51.375382639879604],
        [-0.308695082477729, 51.37544967833477],
        [-0.30834212431144, 51.37605967099041],
        [-0.307993630624822, 51.37666523078588],
        [-0.30789215450302, 51.37836514916361],
        [-0.307388501591147, 51.378384852076415],
        [-0.307520635305618, 51.37900994198725],
        [-0.308517491067567, 51.38050180659026],
        [-0.309276738142336, 51.380448917800166],
        [-0.309302186214875, 51.381708236189205],
        [-0.309330927428922, 51.38186422127617],
        [-0.309498363505216, 51.38184415580552],
        [-0.309558078479105, 51.38244661602559],
        [-0.309911348313474, 51.38288245309512],
        [-0.310347175325265, 51.38365220219044],
        [-0.310288337571344, 51.38380602479929],
        [-0.310307293691097, 51.38395467446219],
        [-0.310540821552417, 51.384364502903665],
        [-0.310654512349517, 51.38451631686247],
        [-0.310580337766982, 51.38465732897848],
        [-0.310630981306373, 51.38476506991478],
        [-0.311787662058188, 51.38578620284302],
        [-0.310868909866957, 51.386187516604366],
        [-0.311845503751378, 51.387377809098986],
        [-0.311740028430422, 51.38743204297376],
        [-0.31315854363781, 51.388800446824725],
        [-0.313188956774323, 51.38883325760702],
        [-0.313348145867005, 51.388764508349176],
        [-0.315981045979793, 51.38763335223199],
        [-0.316617276345858, 51.38858580636037],
        [-0.316816040119995, 51.3885742736251],
        [-0.316663273048581, 51.3888598388368],
        [-0.316605798198539, 51.38889858012607],
        [-0.31498075818439, 51.389745696742914],
        [-0.314134076710629, 51.390218213896205],
        [-0.315242625649147, 51.39145983343855],
        [-0.315732495818622, 51.39197585018064],
        [-0.317294603213023, 51.39335525784079],
        [-0.317720101113875, 51.39366801067521],
        [-0.31297794601867, 51.39711050279641],
        [-0.312586258450064, 51.39740251457857],
        [-0.311988269767144, 51.39841724688873],
        [-0.311890000044402, 51.39850935314836],
        [-0.309793157355027, 51.39989814284892],
        [-0.309694072683701, 51.39997314981568],
        [-0.309350047077992, 51.40045288194027],
        [-0.30925446609686, 51.40062775562414],
        [-0.308896090009005, 51.401652223679356],
        [-0.30878808404772, 51.40220280331689],
        [-0.308713955029371, 51.40296519497023],
        [-0.308694592362409, 51.40349007623885],
        [-0.30898467008433, 51.405565229387136],
        [-0.308990805770998, 51.40563276147596],
        [-0.309066676493063, 51.40813646123776],
        [-0.309095564358357, 51.40930230210372],
        [-0.308510498534465, 51.41229824282249],
        [-0.308464871027996, 51.412521496682494],
        [-0.308473839141994, 51.41446040126874],
        [-0.308451725886124, 51.414630938899215],
        [-0.307618318450889, 51.41702708880489],
        [-0.307561394570091, 51.417166549209796],
        [-0.306873356714794, 51.41838947814373],
        [-0.306714759502466, 51.418750482311545],
        [-0.306636768583355, 51.42000470257751],
        [-0.306590208242272, 51.420174886557454],
        [-0.306030400376022, 51.42123420172113],
        [-0.306036942089901, 51.42148518575969],
        [-0.306742326205034, 51.42302499439788],
        [-0.306890793046648, 51.42328881942901],
        [-0.307997709423085, 51.424629391296435],
        [-0.308580924323418, 51.42515667294715],
        [-0.309261216243099, 51.42570423603421],
        [-0.309633339224747, 51.425949701374385],
        [-0.313419397447183, 51.42782161168529],
        [-0.314469205599771, 51.42825935683697],
        [-0.313754218010902, 51.429198674707195],
        [-0.31282300692476, 51.4303443999683],
        [-0.310916198746141, 51.4320021214366],
        [-0.310678319150793, 51.43221091492853],
        [-0.310417807422923, 51.43201921836484],
        [-0.309983590617996, 51.432168527990584],
        [-0.309783086992864, 51.43214405521629],
        [-0.308105743599686, 51.43109022306838],
        [-0.308088854968093, 51.43108008761974],
        [-0.30853049024431, 51.430807695647026],
        [-0.308567265288033, 51.43078574520892],
        [-0.306955375215128, 51.430181563275305],
        [-0.306954967292182, 51.43015368081438],
        [-0.306430008119586, 51.43015059357505],
        [-0.306130888557046, 51.431237054682235],
        [-0.305942126793392, 51.43136201949588],
        [-0.302177281036582, 51.43066458930107],
        [-0.301780280273608, 51.430391762690675],
        [-0.301762626873632, 51.430402297867836],
        [-0.301531694137824, 51.43053923408706],
        [-0.302070012298102, 51.43115222458178],
        [-0.301618071052956, 51.43142983854959],
        [-0.29764593686085, 51.428686173756496],
        [-0.297493800134732, 51.42856076752902],
        [-0.296146207878172, 51.42785686076209],
        [-0.295963117208961, 51.42775168518937],
        [-0.295827872391805, 51.4278297518262],
        [-0.295465070269509, 51.42764462740394],
        [-0.295365972905446, 51.42733114802115],
        [-0.295435787605815, 51.427039908428114],
        [-0.294943298022788, 51.427015659800325],
        [-0.294732159538486, 51.427007192811566],
        [-0.29478399149808, 51.42665814021505],
        [-0.294789880680015, 51.426461291031764],
        [-0.293437302906341, 51.42651174729999],
        [-0.293409953788348, 51.42651224835602],
        [-0.293389321613097, 51.427181886251915],
        [-0.293333976652429, 51.42855153117542],
        [-0.292894796916985, 51.42860178836261],
        [-0.293021763833638, 51.42893905609681],
        [-0.290699570920807, 51.42898884563136],
        [-0.290639085191974, 51.42899066132146],
        [-0.287444164775188, 51.422025220999444],
        [-0.286618828047418, 51.42017239928451],
        [-0.282692101249448, 51.42125517759041],
        [-0.280458897897036, 51.42185640584886],
        [-0.271114044001433, 51.42940841107786],
        [-0.270962237749698, 51.42954285758673],
        [-0.26529944188859, 51.43256159607527],
        [-0.264599734844279, 51.43291723310099],
        [-0.256343655157112, 51.43634674492749],
        [-0.256279324626976, 51.43637366470422],
        [-0.256457118838281, 51.436503103388986],
        [-0.256360572076359, 51.436582599688556],
        [-0.256208252740147, 51.436653173010384],
        [-0.256180486179639, 51.43662668174221],
        [-0.255682954087969, 51.43661927925587],
        [-0.254507072707823, 51.43712064211354],
        [-0.254090535362038, 51.43729069166405],
        [-0.253512156724051, 51.43664900468217],
        [-0.25347354117249, 51.436567496943496],
        [-0.253321886898821, 51.435564373211314],
        [-0.253256809186784, 51.43545998984365],
        [-0.252935179276137, 51.43514135873658],
        [-0.252843772794974, 51.435086041415296],
        [-0.251474572642578, 51.43439568478994],
        [-0.251411652467508, 51.43434798524163],
        [-0.251037302051544, 51.43352678107118],
        [-0.251026252842926, 51.43343938900374],
        [-0.251084056775743, 51.432566180840155],
        [-0.251247173032002, 51.43228804856906],
        [-0.252236111027765, 51.4314053471356],
        [-0.252394380681587, 51.43125393522263],
        [-0.253208628363334, 51.43091446560482],
        [-0.253327829924841, 51.43084430195337],
        [-0.254153449785797, 51.42975322254446],
        [-0.254220583092678, 51.42957707023674],
        [-0.25399152887881, 51.428793109649874],
        [-0.253875047952902, 51.4285656627714],
        [-0.252801152637722, 51.42677543949287],
        [-0.252528016918675, 51.426506988121915],
        [-0.252299372990804, 51.42586421205587],
        [-0.252261045083549, 51.425737745483495],
        [-0.252333190291303, 51.4253548412489],
        [-0.252430113640829, 51.42500108240999],
        [-0.252871394158926, 51.424179451137476],
        [-0.252909256494776, 51.424054120415796],
        [-0.252958272717971, 51.42333455120322],
        [-0.252954411397788, 51.4232094977906],
        [-0.252022156191083, 51.422951002155784],
        [-0.251804035828171, 51.422862320188415],
        [-0.251122974227666, 51.422316206327494],
        [-0.250925221542119, 51.42188251415096],
        [-0.250674834478569, 51.42109463026764],
        [-0.250583019924506, 51.42097545795859],
        [-0.250475411013027, 51.42002693998806],
        [-0.250386897613579, 51.41978372005628],
        [-0.249780927736521, 51.41885473824651],
        [-0.249642361131948, 51.41852893830279],
        [-0.249594071586552, 51.41824944905915],
        [-0.249574722076517, 51.41807830222591],
        [-0.2498512518105, 51.417126527077876],
        [-0.24985845152192, 51.41701332883974],
        [-0.249603022363539, 51.414965514187266],
        [-0.24959967625345, 51.414902516551756],
        [-0.247170894058041, 51.40970990097794],
        [-0.247136938439675, 51.409582598401435],
        [-0.247508848724896, 51.40910705986429],
        [-0.247557068887808, 51.409049329454305],
        [-0.247509971229403, 51.40851356941775],
        [-0.247507612516378, 51.408500045344866],
        [-0.247203181097576, 51.40796313449594],
        [-0.247103900153432, 51.40788970928553],
        [-0.245847948022615, 51.4075696669713],
        [-0.245810757083533, 51.4075646140224],
        [-0.245386994691793, 51.407103247810944],
        [-0.245353675873344, 51.40707217432581],
        [-0.245503944416378, 51.406752491211435],
        [-0.245532845277028, 51.40663602087847],
        [-0.245229740408374, 51.40614049009565],
        [-0.245221634517726, 51.40612687991214],
        [-0.24471828884049, 51.4043648970656],
        [-0.244684722173356, 51.40422770764202],
        [-0.244700094405874, 51.403713564398615],
        [-0.244682986935826, 51.40340936016381],
        [-0.245070690890141, 51.402220057525035],
        [-0.245234259567527, 51.40170273775046],
        [-0.246834370969507, 51.400500103633135],
        [-0.246846449675995, 51.40048499700674],
        [-0.246609245257685, 51.399281842300994],
        [-0.246621983332129, 51.39921189101816],
        [-0.246763915943652, 51.398620506386294],
        [-0.246769407594666, 51.39851447647054],
        [-0.247423004152771, 51.39758722965112],
        [-0.247424784370394, 51.39757826372597],
        [-0.244707817826829, 51.3947993650894],
        [-0.244595174070795, 51.39466278936277],
        [-0.242791476053695, 51.394279650263535],
        [-0.242510012591625, 51.39423496266198],
        [-0.241745783961715, 51.39392224739324],
        [-0.241691686009654, 51.39387107731691],
        [-0.241168593147488, 51.393155512430084],
        [-0.240935208887334, 51.392719466885374],
        [-0.240860115630997, 51.39254118607782],
        [-0.240824063124783, 51.392431834815156],
        [-0.240961706068088, 51.392178512317194],
        [-0.240967934833857, 51.39216601623103],
        [-0.240693163181847, 51.392097144698496],
        [-0.240619807350101, 51.39206097231674],
        [-0.240236208377051, 51.3914194377526],
        [-0.240108256385946, 51.39119539972965],
        [-0.239892419561827, 51.389740757465404],
        [-0.239886009445534, 51.38957070162939],
        [-0.239706881078218, 51.389294636682735],
        [-0.239646012263815, 51.389157934454445],
        [-0.239470752749619, 51.38814453643013],
        [-0.239459460952837, 51.38795192574334],
        [-0.238956147548255, 51.386686301446055],
        [-0.238744585275388, 51.38609500722932],
        [-0.241403252625787, 51.384673647039264],
        [-0.241620212425069, 51.38452492862823],
        [-0.242959762891875, 51.38294524458026],
        [-0.244174723886194, 51.38349222069703],
        [-0.245036255288633, 51.380092445803136],
        [-0.245054253159246, 51.380035162887445],
        [-0.245528973212678, 51.38005935822418],
        [-0.245587698708299, 51.37998919621565],
        [-0.245979780619242, 51.380145242431205],
        [-0.246111696017613, 51.38019038151642],
        [-0.246840193822026, 51.38011675396729],
        [-0.247223092240206, 51.37998669471361],
        [-0.247847296694268, 51.380122826176276],
        [-0.247917320979502, 51.3801706346973],
        [-0.248868470763916, 51.37998611811903],
        [-0.249100762045525, 51.379923943824494],
        [-0.251476004208596, 51.379097026750394],
        [-0.251661748747256, 51.3790494401378],
        [-0.253604552096158, 51.37878435708593],
        [-0.253971417438422, 51.37877273883775],
        [-0.257491576022183, 51.378896184877824],
        [-0.258444327925056, 51.378970600510414],
        [-0.261124820753513, 51.37960032427235],
        [-0.261172214383203, 51.37960102762627],
        [-0.261440723042372, 51.37903758155069],
        [-0.261491727525926, 51.37852576237025],
        [-0.261901316303565, 51.37822069646188],
        [-0.26193707695173, 51.37818705521109],
        [-0.262411155962572, 51.37735508079537],
        [-0.262492550771342, 51.377254671912866],
        [-0.264258312485992, 51.37608213551824],
        [-0.264702393286955, 51.37562379807787],
        [-0.268875071159055, 51.373641515696114],
        [-0.268910212907366, 51.37362404980281],
        [-0.271956079461254, 51.372597100214534],
        [-0.272191058383613, 51.37249984907234],
        [-0.273394782076001, 51.371743335193734],
        [-0.273430461602484, 51.371711487786975],
        [-0.274014558973829, 51.37081184558077],
        [-0.274046251868901, 51.37065674119372],
        [-0.275650478290952, 51.37013631321722],
        [-0.275856161036494, 51.37001524295585],
        [-0.276131824015191, 51.369752220356546],
        [-0.276206198301099, 51.36964630321934],
        [-0.276284358651962, 51.369171746819596],
        [-0.276293983255201, 51.36906847399049],
        [-0.276523304548827, 51.36885332847956],
        [-0.276583861404747, 51.36880925649644],
        [-0.27747198384065, 51.36845721962836],
        [-0.277548959887406, 51.36843497069582],
        [-0.279017720971737, 51.36815260663981],
        [-0.279130928339719, 51.36812189632624],
        [-0.280061679286842, 51.36770482042358],
        [-0.280164374856907, 51.36764787638257],
        [-0.281057013695377, 51.36709714331108],
        [-0.281197586894476, 51.36698769802367],
        [-0.28199007256195, 51.366156719248295],
        [-0.282185512618979, 51.366001316055616],
        [-0.284094840361654, 51.36515162270675],
        [-0.284105125655186, 51.36514547855895],
        [-0.28572611721991, 51.36405233342604],
        [-0.285768960682581, 51.364020587124834],
        [-0.286889541321906, 51.36282388249346],
        [-0.287044752031654, 51.36266788299822],
        [-0.28791828616382, 51.36231645355952],
        [-0.288154307709199, 51.362265947214915],
        [-0.288178417378446, 51.36223572481141],
        [-0.288301937047167, 51.36208195836628],
        [-0.287622515546799, 51.36181214457791],
        [-0.287595640729355, 51.361800960685635],
        [-0.285425792944161, 51.361285424416295],
        [-0.285101023651835, 51.36121232734784],
        [-0.286857425993317, 51.35952674053977],
        [-0.286996666624011, 51.35937500382775],
        [-0.2880977532711, 51.35904398618672],
        [-0.288996346341479, 51.35871179947055],
        [-0.289794771375533, 51.357713593396156],
        [-0.289881779430552, 51.35761414686934],
        [-0.290939749626167, 51.35666468436534],
        [-0.291108775795076, 51.356561037923846],
        [-0.291224329746724, 51.35530826104658],
        [-0.291223969429728, 51.35520214354261],
        [-0.291499835649232, 51.35469718808532],
        [-0.291724976289774, 51.35443609002224],
        [-0.292524187631879, 51.35379937792181],
        [-0.292684656586556, 51.35361646994031],
        [-0.292819914562448, 51.35252764304539],
        [-0.292930407018697, 51.352375480364444],
        [-0.294349924806882, 51.35154636016552],
        [-0.294519224624587, 51.3514346195319],
        [-0.29603930694249, 51.350254434550735],
        [-0.296476584432633, 51.34996403975798],
        [-0.298993157479691, 51.348512340358035],
        [-0.299199480063182, 51.34836965664791],
        [-0.299949075835059, 51.347671024510056],
        [-0.30010061623228, 51.347495170926415],
        [-0.301175968292289, 51.34551981717721],
        [-0.301337935211596, 51.345294654088335],
        [-0.303806300043747, 51.34334846126683],
        [-0.303903162809003, 51.34325274412458],
        [-0.304396753181417, 51.34221135675195],
        [-0.304461658963445, 51.342047732284115],
        [-0.304753855832017, 51.34086044609706],
        [-0.304810920239922, 51.34071469307103],
        [-0.305341216551754, 51.33972778819195],
        [-0.305437929826881, 51.33948009316869],
        [-0.305321868328248, 51.33842268609275],
        [-0.305296356051136, 51.33821908482672],
        [-0.304980719169429, 51.33770733648304],
        [-0.304883241621584, 51.3375476565223],
        [-0.304949953462137, 51.33675098056259],
        [-0.305052789885837, 51.336453915208025],
        [-0.305710079387622, 51.33540859564069],
        [-0.30588805590096, 51.33525379987932],
        [-0.307491611005659, 51.33459084869564],
        [-0.3076359299711, 51.334609120660396],
        [-0.310419155477619, 51.33266554000263],
        [-0.310953206670721, 51.33239087574844],
        [-0.313094409068226, 51.331740996030916],
        [-0.313716395452637, 51.33141632805403],
        [-0.316142494726977, 51.32956998576633],
        [-0.316765148142137, 51.32914729227309],
        [-0.318978951863713, 51.32795789550212],
        [-0.319307257234786, 51.327811531864924],
        [-0.321599540326131, 51.32745682356556],
        [-0.321774339271534, 51.32742605584717],
        [-0.324028603634379, 51.32669576520815],
        [-0.324259968567083, 51.32664871734094],
        [-0.325604853913808, 51.32656993281862],
        [-0.326003891217533, 51.32656934206198],
        [-0.327322993707184, 51.32668620728045],
        [-0.327597555319253, 51.32631963434956],
        [-0.328314267408319, 51.326463855481464],
        [-0.329590040375392, 51.327180780002834],
        [-0.330138981506158, 51.32751863484],
        [-0.330674143856401, 51.32863144946772],
        [-0.330756431816168, 51.32885563776918],
        [-0.330679021016926, 51.329011005044364]
      ]
    ]
  }
}
