{
  "type": "Feature",
  "properties": {
    "name": "Lambeth",
    "level": 2,
    "londonBorough": true,
    "center": [-0.1163, 51.4607]
  },
  "geometry": {
    "type": "Polygon",
    "coordinates": [
      [
        [-0.122826043980215, 51.49453674109927],
        [-0.12250136369552, 51.49588222471814],
        [-0.122433323514274, 51.49620576647416],
        [-0.122337760236284, 51.49768980567578],
        [-0.12226033449597, 51.49824160772121],
        [-0.121215040590861, 51.50435598350812],
        [-0.12110879138208, 51.50483718081139],
        [-0.120803577556639, 51.50567129469926],
        [-0.120672745464919, 51.505874228190486],
        [-0.119662233052084, 51.507038751642085],
        [-0.119240371425589, 51.50741506947735],
        [-0.118062549836712, 51.50826665357201],
        [-0.11780490323131, 51.50839920564179],
        [-0.115813269422967, 51.50910011833825],
        [-0.115565296712761, 51.50917257092338],
        [-0.113911961647931, 51.50949670364765],
        [-0.1127234024089, 51.50966283025944],
        [-0.109939073737012, 51.50984010884612],
        [-0.109188414629608, 51.509871173563766],
        [-0.108862333064814, 51.508071003331956],
        [-0.108799676775978, 51.507704895445634],
        [-0.108593065117699, 51.50775282112606],
        [-0.108506362921678, 51.507758616882214],
        [-0.108175537640372, 51.50690888028732],
        [-0.107363587739521, 51.507063940865166],
        [-0.106592661581951, 51.50529075501756],
        [-0.106465685935054, 51.5049820587976],
        [-0.106566456759707, 51.5042543893312],
        [-0.106599541038383, 51.5040471953702],
        [-0.106395574426816, 51.503371258815214],
        [-0.107457970444313, 51.503012518924734],
        [-0.106751544702339, 51.50222236121464],
        [-0.10613681358096, 51.50252267904258],
        [-0.106115508659149, 51.502132957086516],
        [-0.105947663669828, 51.50204571636279],
        [-0.106527300432707, 51.501583866069055],
        [-0.106704007634665, 51.501665853507234],
        [-0.108227979837171, 51.50049353678209],
        [-0.10835358963654, 51.50034808493819],
        [-0.110295066692235, 51.4967778641121],
        [-0.111442547115137, 51.49644743753919],
        [-0.110957352575244, 51.495499000598514],
        [-0.110813551009011, 51.49542294504547],
        [-0.105337771034506, 51.49361342514438],
        [-0.104896206455507, 51.49352715541824],
        [-0.10410508530697, 51.49224821303437],
        [-0.103943088730465, 51.491951536556144],
        [-0.103883320503275, 51.491968555314266],
        [-0.103731628509372, 51.492013763120255],
        [-0.103582889784358, 51.491883663209535],
        [-0.103405681242906, 51.49178008038772],
        [-0.103527417875655, 51.49169302269458],
        [-0.103156213542036, 51.491473894695915],
        [-0.103395948694322, 51.491320402173486],
        [-0.103159773730185, 51.49117989492026],
        [-0.108121488224374, 51.48615496229366],
        [-0.108452499215687, 51.48584825977406],
        [-0.10784448730931, 51.485504825457625],
        [-0.106357607348087, 51.48489001032842],
        [-0.106926294647231, 51.48406108385322],
        [-0.107222566917687, 51.48365400620732],
        [-0.105663928350918, 51.482965183379555],
        [-0.105635738393538, 51.48295033981611],
        [-0.105904913083955, 51.482780231966004],
        [-0.10604374306002, 51.482697044857176],
        [-0.105280741206844, 51.48209840141236],
        [-0.105155599799338, 51.48209458070195],
        [-0.104621077238756, 51.481439374387264],
        [-0.104046885294002, 51.4809076218414],
        [-0.108237743851139, 51.48035302344867],
        [-0.108245917822625, 51.480294703495325],
        [-0.101511410712796, 51.47752674616505],
        [-0.099997698624791, 51.47687274489765],
        [-0.100169838173265, 51.47664622282001],
        [-0.100337838968067, 51.47627665103635],
        [-0.100682650097752, 51.47445853680342],
        [-0.10065421864544, 51.47434566866281],
        [-0.100367987092666, 51.47399121917608],
        [-0.099775247027428, 51.47342407255988],
        [-0.099247391107339, 51.47226626093517],
        [-0.099177179802999, 51.47218868548996],
        [-0.097135720482201, 51.47069247294219],
        [-0.095997457693305, 51.469880844845314],
        [-0.094200651194962, 51.47067267782552],
        [-0.094105640723834, 51.47074127583643],
        [-0.093486909718497, 51.471905652353485],
        [-0.09308024610382, 51.472127451498125],
        [-0.09274012060065, 51.46982160692685],
        [-0.092717608705812, 51.469774479081956],
        [-0.090079668568757, 51.46615786633535],
        [-0.090071123027577, 51.46608668534735],
        [-0.090106012359614, 51.46573384335008],
        [-0.090667113889375, 51.463294289069296],
        [-0.091539123254603, 51.46199286513422],
        [-0.092211795521963, 51.461120736799664],
        [-0.094571920589015, 51.459169049825974],
        [-0.094729590601236, 51.45901244273319],
        [-0.095664866769666, 51.457604104984526],
        [-0.095837119455748, 51.457408165704464],
        [-0.097207029986882, 51.45641514019364],
        [-0.097602155549593, 51.45615537083771],
        [-0.09859130810384, 51.45569840577639],
        [-0.099117482710534, 51.45540208849358],
        [-0.100627606158588, 51.454391513128876],
        [-0.100938373686328, 51.45415194816969],
        [-0.101118597577953, 51.453867103286115],
        [-0.101162675619863, 51.45377609238733],
        [-0.101034805639109, 51.45321557853125],
        [-0.101038774627204, 51.45308524961767],
        [-0.101387442502918, 51.45252166328893],
        [-0.101468797404086, 51.45236471048963],
        [-0.101457133810571, 51.45205607418989],
        [-0.101425314325459, 51.45195574059889],
        [-0.100877789253148, 51.4512418490617],
        [-0.100830880126949, 51.45115835683904],
        [-0.100766268680963, 51.450356965237],
        [-0.100760942057052, 51.45031191574239],
        [-0.099858739454178, 51.4502379438154],
        [-0.099808641255665, 51.4501966648712],
        [-0.09930410857154, 51.44914174199764],
        [-0.099253320264807, 51.44908246632441],
        [-0.097429865176855, 51.44776693734891],
        [-0.096108004600452, 51.44674639246418],
        [-0.095251610198412, 51.44571181413796],
        [-0.095140528902297, 51.445545443577],
        [-0.094953059564553, 51.444344575616576],
        [-0.094507372745095, 51.44340119611545],
        [-0.093357009779626, 51.44196434819942],
        [-0.093206653730629, 51.441773955856995],
        [-0.092040058935304, 51.439105734441334],
        [-0.091989448620681, 51.43897361771843],
        [-0.090981301657112, 51.437408665601716],
        [-0.090665359734419, 51.436669717728144],
        [-0.089593005399983, 51.43278359656029],
        [-0.089308729428173, 51.43180415654836],
        [-0.088497094849862, 51.429707318685125],
        [-0.088319571829073, 51.42944543409808],
        [-0.087873798763394, 51.42909644052688],
        [-0.087680714660131, 51.42900066569098],
        [-0.085916820115472, 51.428524036966536],
        [-0.08589044531724, 51.42850112451795],
        [-0.086092339781185, 51.42786953787758],
        [-0.086074016664431, 51.427826073767264],
        [-0.085438109185246, 51.42748385757106],
        [-0.085261713835146, 51.42736766808494],
        [-0.083862716537185, 51.42539159187715],
        [-0.083683124325103, 51.42500826464023],
        [-0.083495278265271, 51.42310323803282],
        [-0.083476641176594, 51.4229986179868],
        [-0.081779402594847, 51.42337552272217],
        [-0.081726519902499, 51.42336746301418],
        [-0.081158499972572, 51.42233389603646],
        [-0.080896916910382, 51.42184850345565],
        [-0.08007732619852, 51.422048206945284],
        [-0.079856255305034, 51.422140807103936],
        [-0.079465106067062, 51.42169285626227],
        [-0.078930850444587, 51.421570792069126],
        [-0.079149830345917, 51.421184997230235],
        [-0.079261682086026, 51.4209871923768],
        [-0.079160891111126, 51.420818276169626],
        [-0.078306681580984, 51.42060913099274],
        [-0.078589454521492, 51.41986827197314],
        [-0.078548602385852, 51.41984781824731],
        [-0.078674663718685, 51.4198256046695],
        [-0.079103566352737, 51.419749902461206],
        [-0.081742864228779, 51.41974816847842],
        [-0.082345959730506, 51.41977152739287],
        [-0.086079139069973, 51.41926871078545],
        [-0.086185309603568, 51.41927494095155],
        [-0.088010880946328, 51.41985059501865],
        [-0.088190342221356, 51.41992726278185],
        [-0.089584119814847, 51.42095987037565],
        [-0.089720393189732, 51.421037630274355],
        [-0.091101399938749, 51.421584405841905],
        [-0.091394790374952, 51.42172317521539],
        [-0.092140653914503, 51.422221823818916],
        [-0.092307749671943, 51.42235403851557],
        [-0.093434365340945, 51.42272488468816],
        [-0.093644202906113, 51.422763369541705],
        [-0.094839476026527, 51.42279809316716],
        [-0.096186014622971, 51.422757924794645],
        [-0.097809890029975, 51.42258555380033],
        [-0.098108100752186, 51.42257420665282],
        [-0.105987299924615, 51.42257680528099],
        [-0.106054894578991, 51.42257699835723],
        [-0.109211983105171, 51.423136959029435],
        [-0.109373669112951, 51.42315755271207],
        [-0.112052865175339, 51.423204338564716],
        [-0.112685545060417, 51.42324420423654],
        [-0.113295021770195, 51.4227648163494],
        [-0.113822711316365, 51.422454969696005],
        [-0.114872068195883, 51.421247052345045],
        [-0.11485423303096, 51.42122608234402],
        [-0.115593953435412, 51.42065615310622],
        [-0.115715067981167, 51.420578964975604],
        [-0.11774627352658, 51.41980046639653],
        [-0.117782794609217, 51.41982173605681],
        [-0.119507053116577, 51.41898611978199],
        [-0.11984662755818, 51.41880721839232],
        [-0.120795615199669, 51.417059877302506],
        [-0.120771661382049, 51.41704780274615],
        [-0.122494289986038, 51.41519504687254],
        [-0.122480944573793, 51.41502936807866],
        [-0.122582836411453, 51.415034597469365],
        [-0.122993315171954, 51.41505466150794],
        [-0.123122690829497, 51.414915548752354],
        [-0.123405617607183, 51.4147141475647],
        [-0.12391521455234, 51.41463148062625],
        [-0.124074295382095, 51.41460974696442],
        [-0.124393814725548, 51.41400605790391],
        [-0.124458669931467, 51.41400259952436],
        [-0.124508928732997, 51.41347733310618],
        [-0.124467501465618, 51.413365161099655],
        [-0.124497901659769, 51.41336025201865],
        [-0.124936474546882, 51.41329083231478],
        [-0.125676903427696, 51.41276761335514],
        [-0.125785997992639, 51.41263177038829],
        [-0.126230387956384, 51.41291225345331],
        [-0.126259832331378, 51.41293070955461],
        [-0.127780188158038, 51.412253580575424],
        [-0.12788811579846, 51.412005308781296],
        [-0.132101291573376, 51.41229285778401],
        [-0.132714499949919, 51.412348492528466],
        [-0.133203882144431, 51.412478589205286],
        [-0.133572357745326, 51.41257618327583],
        [-0.133354186950798, 51.41288385425413],
        [-0.133577910368128, 51.41293417931027],
        [-0.13376881153112, 51.412625174406834],
        [-0.133803282283577, 51.41255558063637],
        [-0.134096115799308, 51.41101440618527],
        [-0.134099941186945, 51.41099108618936],
        [-0.137542759349578, 51.411656452777834],
        [-0.138101981272041, 51.411802027104805],
        [-0.14204632533436, 51.41311730223419],
        [-0.142582218222889, 51.41334251961407],
        [-0.1445752723184, 51.41245684153956],
        [-0.144623042552313, 51.412413533898025],
        [-0.147530585170243, 51.41273740208911],
        [-0.148090361577819, 51.41287034751525],
        [-0.147329583126538, 51.41358312963778],
        [-0.147083333676628, 51.41380495170557],
        [-0.145184978076106, 51.4149088937043],
        [-0.144347477601438, 51.41534796549527],
        [-0.14466749953839, 51.41557784815809],
        [-0.145009410300408, 51.415799983008405],
        [-0.143048747849096, 51.41712502272357],
        [-0.143260310674626, 51.41726326422496],
        [-0.138171661387461, 51.42084703539695],
        [-0.137851888833411, 51.421106338626764],
        [-0.138866464372442, 51.42381844602932],
        [-0.138922116545187, 51.42457291226461],
        [-0.138926371544725, 51.425282498371985],
        [-0.138871874287119, 51.42609276818251],
        [-0.138489371762971, 51.42831956319897],
        [-0.138437191086983, 51.42875397754255],
        [-0.138387002786461, 51.43048426064215],
        [-0.138398493692724, 51.43055548487348],
        [-0.135332054586857, 51.4302567463944],
        [-0.135264140022571, 51.430334801047174],
        [-0.136455555334039, 51.43382849944352],
        [-0.136522532002402, 51.433914994174515],
        [-0.13759893761905, 51.43380260849618],
        [-0.137857541307514, 51.43377614228385],
        [-0.139489586085677, 51.43517882862971],
        [-0.139648057136466, 51.43531533386707],
        [-0.13987734275051, 51.436258700927944],
        [-0.139972896844513, 51.436881606838],
        [-0.139737107356059, 51.43730231631139],
        [-0.139381205892295, 51.43756284880954],
        [-0.138003154717178, 51.43826217395509],
        [-0.137815435259579, 51.438420159642995],
        [-0.137683683793296, 51.43858173203705],
        [-0.137504138619644, 51.438821679880384],
        [-0.137303312180106, 51.43969077213511],
        [-0.137259856408429, 51.43973324611437],
        [-0.137497594536012, 51.44014978468353],
        [-0.137477182614045, 51.44019172562553],
        [-0.137433202552898, 51.44021170980953],
        [-0.137371856723198, 51.440340228625644],
        [-0.137046996613985, 51.44026132667124],
        [-0.137011376378092, 51.440252667203836],
        [-0.13594182343031, 51.441783292065836],
        [-0.13590398804685, 51.44200570713161],
        [-0.137370303719866, 51.44172236809761],
        [-0.137885102703355, 51.44169547596518],
        [-0.143271173291691, 51.44179979773069],
        [-0.143620703765543, 51.441838606272064],
        [-0.145146017523951, 51.444466109374304],
        [-0.145406915870432, 51.444917169364224],
        [-0.145687936764537, 51.445830766365994],
        [-0.145696438416253, 51.44586956900257],
        [-0.144937041246084, 51.44823789346695],
        [-0.144795179005385, 51.44854229583474],
        [-0.143617226643806, 51.44930510415818],
        [-0.143360131537587, 51.44950516441848],
        [-0.142820891563815, 51.45006135751048],
        [-0.142583701209146, 51.450338168450955],
        [-0.142327893642894, 51.450967193459455],
        [-0.142322593777829, 51.45099138946952],
        [-0.143147381163118, 51.45109528176038],
        [-0.143612246914673, 51.451166491461336],
        [-0.14735990258133, 51.45223654401133],
        [-0.147729947537102, 51.45233951128483],
        [-0.147377972478052, 51.45296343025104],
        [-0.147631018549592, 51.45297012667592],
        [-0.14765108314586, 51.45297224223092],
        [-0.148333386826421, 51.457203238091736],
        [-0.1483407489411, 51.457305869728025],
        [-0.148964323670383, 51.458437090955314],
        [-0.149217177190282, 51.45887632345362],
        [-0.149390425407792, 51.45936195942041],
        [-0.149671268335892, 51.461244939969305],
        [-0.150535688088426, 51.462474374441996],
        [-0.150660512162377, 51.46269845982889],
        [-0.15099177822887, 51.464226125709466],
        [-0.151231398464975, 51.46588453570707],
        [-0.150470343120773, 51.465977745422535],
        [-0.150643177046084, 51.467400396896764],
        [-0.150618665268571, 51.46761493240354],
        [-0.143100362719462, 51.47051940065731],
        [-0.142676823234557, 51.470063963207025],
        [-0.141495664741038, 51.47067832298113],
        [-0.141784358850975, 51.47090861209099],
        [-0.140981294181852, 51.47128885695529],
        [-0.140342596099961, 51.47159256890582],
        [-0.13974124998426, 51.47136720796227],
        [-0.139316188808102, 51.47151603456966],
        [-0.139599669505944, 51.47173275748323],
        [-0.139502065392219, 51.471795955213594],
        [-0.139066242884926, 51.47189065477942],
        [-0.138746573059931, 51.471997088465095],
        [-0.138515971190213, 51.47189630786437],
        [-0.138349148274193, 51.47196200270731],
        [-0.137492509235017, 51.472595862849005],
        [-0.136917994560667, 51.473090318994764],
        [-0.1362755322284, 51.47270781632335],
        [-0.136258557315699, 51.47270035244546],
        [-0.135909881425594, 51.472705600620834],
        [-0.135787127398132, 51.47271444003286],
        [-0.13472195606462, 51.47330539709548],
        [-0.134557725903976, 51.47344846392322],
        [-0.13447917618759, 51.473891447041474],
        [-0.134449112393275, 51.47392244269325],
        [-0.134706443001701, 51.47407401485598],
        [-0.135230530363994, 51.47428738169665],
        [-0.134952873075291, 51.474704716846475],
        [-0.134710774020643, 51.474956254551145],
        [-0.13452781132051, 51.474887698021355],
        [-0.134243984958673, 51.47517364189427],
        [-0.134111617229322, 51.475276748557896],
        [-0.133833637367545, 51.47594856556861],
        [-0.133645963024223, 51.4762423330997],
        [-0.131989571056696, 51.478436220516],
        [-0.131988131886521, 51.47843619758824],
        [-0.131611654813629, 51.47915589918133],
        [-0.131544363811049, 51.47925194661292],
        [-0.130188952926883, 51.48066645294166],
        [-0.129947501750722, 51.48118237259886],
        [-0.127989830008966, 51.48186154732321],
        [-0.127496434935096, 51.48202272948851],
        [-0.127279817037196, 51.4828807577505],
        [-0.127161028029149, 51.48335456713771],
        [-0.12687346905968, 51.48386974410003],
        [-0.1263636592726, 51.484465899424876],
        [-0.12803588848075, 51.48474619733934],
        [-0.128171704061491, 51.484735775856855],
        [-0.129411192433982, 51.48584185623616],
        [-0.129491215607516, 51.48589259182363],
        [-0.127144313236142, 51.48766443427772],
        [-0.126764768666104, 51.48799829048338],
        [-0.124699300675958, 51.4902781632228],
        [-0.12455996688775, 51.490444095733075],
        [-0.124030307692428, 51.49120538648908],
        [-0.123972874985046, 51.49130608357742],
        [-0.123953727797203, 51.49177249089309],
        [-0.123940110451798, 51.49192874350049],
        [-0.123372588733924, 51.49287467216115],
        [-0.123253323295323, 51.493112864709865],
        [-0.122826043980215, 51.49453674109927]
      ]
    ]
  }
}
