{
  "type": "Feature",
  "properties": { "name": "Lambeth", "level": 2, "londonBorough": true },
  "geometry": {
    "type": "Polygon",
    "coordinates": [
      [
        [-0.122826043980215, 51.494536741099267],
        [-0.122791749200355, 51.494740323070609],
        [-0.122704480689929, 51.495006004884459],
        [-0.12250136369552, 51.495882224718137],
        [-0.122433323514274, 51.496205766474162],
        [-0.122395591074816, 51.496492923976945],
        [-0.122388899654839, 51.497111504289215],
        [-0.122337760236284, 51.497689805675783],
        [-0.12226033449597, 51.498241607721212],
        [-0.122140225091186, 51.498990562254768],
        [-0.122073688341747, 51.499417542053465],
        [-0.121759232692674, 51.501248784100731],
        [-0.121431564534986, 51.50319042157173],
        [-0.121334624163582, 51.503690652583273],
        [-0.121274798968435, 51.503954074962273],
        [-0.121215040590861, 51.50435598350812],
        [-0.12110879138208, 51.504837180811393],
        [-0.121052253329626, 51.505020622100631],
        [-0.120906277403915, 51.505381581939496],
        [-0.120803577556639, 51.505671294699262],
        [-0.120672745464919, 51.505874228190486],
        [-0.120548931737061, 51.506011628469267],
        [-0.120465440403486, 51.506114603927095],
        [-0.119987086508864, 51.506673466863589],
        [-0.119662233052084, 51.507038751642085],
        [-0.119240371425589, 51.507415069477346],
        [-0.118727481383814, 51.507797119731293],
        [-0.118340434201627, 51.508097556224435],
        [-0.118062549836712, 51.508266653572008],
        [-0.11780490323131, 51.508399205641787],
        [-0.11763965302505, 51.508457702796932],
        [-0.117458301937084, 51.508522236059548],
        [-0.116893787632318, 51.508722699687269],
        [-0.116316561371023, 51.508951732582304],
        [-0.115813269422967, 51.509100118338253],
        [-0.115565296712761, 51.509172570923383],
        [-0.115297458140635, 51.509237509718794],
        [-0.114958755783622, 51.509308502999218],
        [-0.114580834966581, 51.509386958133959],
        [-0.113911961647931, 51.509496703647649],
        [-0.1127234024089, 51.509662830259437],
        [-0.112049103384543, 51.509729313667549],
        [-0.111463803135594, 51.509769349437548],
        [-0.111073478540892, 51.509799033841482],
        [-0.11061720440104, 51.50982046051444],
        [-0.110382163951879, 51.509823867925135],
        [-0.109939073737012, 51.50984010884612],
        [-0.109188414629608, 51.509871173563766],
        [-0.109178791080604, 51.509825156423311],
        [-0.109140669146307, 51.50963210130314],
        [-0.108924841439813, 51.508440705793213],
        [-0.108921525839455, 51.508416372447748],
        [-0.108862333064814, 51.508071003331956],
        [-0.108799676775978, 51.507704895445634],
        [-0.108593065117699, 51.507752821126061],
        [-0.108506362921678, 51.507758616882214],
        [-0.108424445008119, 51.507474929583132],
        [-0.108406368386294, 51.507424279742857],
        [-0.108290932525641, 51.507114872575244],
        [-0.108244960081989, 51.507007119669694],
        [-0.108175537640372, 51.50690888028732],
        [-0.107363587739521, 51.507063940865166],
        [-0.106596832558063, 51.505294419378359],
        [-0.106592661581951, 51.505290755017562],
        [-0.106465685935054, 51.504982058797601],
        [-0.106434542409884, 51.504829581742037],
        [-0.106434631485759, 51.50468840002528],
        [-0.106467120668549, 51.504495584594395],
        [-0.106545613893899, 51.504305310406416],
        [-0.106566456759707, 51.504254389331201],
        [-0.106599541038383, 51.504047195370198],
        [-0.106519864642043, 51.503640344599575],
        [-0.106518424699127, 51.503640321351249],
        [-0.106395574426816, 51.503371258815214],
        [-0.107457970444313, 51.503012518924734],
        [-0.106751544702339, 51.502222361214642],
        [-0.10613681358096, 51.502522679042578],
        [-0.106080808511113, 51.50241386388425],
        [-0.106050623332649, 51.502273092455319],
        [-0.106064974185002, 51.502204980745745],
        [-0.106086883879407, 51.502163069532195],
        [-0.106115508659149, 51.502132957086516],
        [-0.105947663669828, 51.502045716362787],
        [-0.105986591262896, 51.502010374804946],
        [-0.106527300432707, 51.501583866069055],
        [-0.106704007634665, 51.501665853507234],
        [-0.10682576491417, 51.501578792734328],
        [-0.107846500959368, 51.50079852510293],
        [-0.108188831995153, 51.500534271058612],
        [-0.108227979837171, 51.500493536782088],
        [-0.10835358963654, 51.500348084938189],
        [-0.109121078673243, 51.499105999774066],
        [-0.109470433151175, 51.498497440136951],
        [-0.109520123682928, 51.498375942324365],
        [-0.109516250571483, 51.498365088812797],
        [-0.110295371718951, 51.496874988719227],
        [-0.110303871266926, 51.496843651706413],
        [-0.110295066692235, 51.496777864112097],
        [-0.111442547115137, 51.496447437539189],
        [-0.110972873375789, 51.495576586673927],
        [-0.110957352575244, 51.495499000598514],
        [-0.110813551009011, 51.495422945045469],
        [-0.110664380899454, 51.495407053009394],
        [-0.110584315843669, 51.495392274203589],
        [-0.110507353185443, 51.495372149790278],
        [-0.109399431646586, 51.494955922576146],
        [-0.107158977406333, 51.49416260635472],
        [-0.105742055979079, 51.493695493984674],
        [-0.105337771034506, 51.493613425144382],
        [-0.104896206455507, 51.493527155418242],
        [-0.104886911768503, 51.49350812080376],
        [-0.104793890770605, 51.49331957192998],
        [-0.10469904900348, 51.493070743287497],
        [-0.104519042881008, 51.492930247432859],
        [-0.104400559107015, 51.492730495543832],
        [-0.104257319428565, 51.492502466330578],
        [-0.10410508530697, 51.492248213034372],
        [-0.103943088730465, 51.491951536556144],
        [-0.103883320503275, 51.491968555314266],
        [-0.103731628509372, 51.492013763120255],
        [-0.103712145711888, 51.491997261428288],
        [-0.103582889784358, 51.491883663209535],
        [-0.103405681242906, 51.49178008038772],
        [-0.103527417875655, 51.491693022694577],
        [-0.103156213542036, 51.491473894695915],
        [-0.103395948694322, 51.491320402173486],
        [-0.103159773730185, 51.491179894920258],
        [-0.103258566188327, 51.491055596787405],
        [-0.10326019222632, 51.491051126798133],
        [-0.103392966356473, 51.490871624197283],
        [-0.103803261867548, 51.490461003751193],
        [-0.104188458857317, 51.490030192444216],
        [-0.104711011180925, 51.489552140792426],
        [-0.105519868887633, 51.488769367903281],
        [-0.108121488224374, 51.486154962293661],
        [-0.108452499215687, 51.485848259774059],
        [-0.108281097204014, 51.485743878563682],
        [-0.108136672185168, 51.485648924925023],
        [-0.107991801383836, 51.485564755009392],
        [-0.10784448730931, 51.485504825457625],
        [-0.106357607348087, 51.484890010328421],
        [-0.106550145819151, 51.484692584860632],
        [-0.106615896621523, 51.484530880765092],
        [-0.106926294647231, 51.48406108385322],
        [-0.107222566917687, 51.483654006207317],
        [-0.106823330417156, 51.483521664864767],
        [-0.106328618730592, 51.483295156649106],
        [-0.105663928350918, 51.482965183379555],
        [-0.105635738393538, 51.482950339816107],
        [-0.105904913083955, 51.482780231966004],
        [-0.10604374306002, 51.482697044857176],
        [-0.105634048984245, 51.482435037176693],
        [-0.105421860950525, 51.482203197167522],
        [-0.10532676038972, 51.482100044273615],
        [-0.105280741206844, 51.482098401412358],
        [-0.105155599799338, 51.482094580701947],
        [-0.104898551710054, 51.481833238479226],
        [-0.104623713948964, 51.481584197735089],
        [-0.104640444191103, 51.48145857188441],
        [-0.104621077238756, 51.481439374387264],
        [-0.104046885294002, 51.480907621841403],
        [-0.104085967980817, 51.480902858223068],
        [-0.105006604954484, 51.48079004564854],
        [-0.10555704724385, 51.48071351056204],
        [-0.108085388264697, 51.480415311930933],
        [-0.108178353207796, 51.480396128928938],
        [-0.108214928509785, 51.480382330894429],
        [-0.108237743851139, 51.480353023448671],
        [-0.108245917822625, 51.480294703495325],
        [-0.108219390965382, 51.480274491820914],
        [-0.108068110543704, 51.480206405079713],
        [-0.107854249486534, 51.480119323112092],
        [-0.107203006149226, 51.479848027041648],
        [-0.105554275235194, 51.479146956105005],
        [-0.103621903320452, 51.478341456682095],
        [-0.101511410712796, 51.477526746165047],
        [-0.099997698624791, 51.476872744897648],
        [-0.10011160540314, 51.476730708990289],
        [-0.100169838173265, 51.476646222820008],
        [-0.100337838968067, 51.476276651036351],
        [-0.100591355223063, 51.474784388738783],
        [-0.100682650097752, 51.474458536803418],
        [-0.10065421864544, 51.474345668662806],
        [-0.100619641202992, 51.474276764721658],
        [-0.100573402456411, 51.474211268899637],
        [-0.100367987092666, 51.473991219176078],
        [-0.099775247027428, 51.47342407255988],
        [-0.099542867548842, 51.473056105521671],
        [-0.099375093724091, 51.472623539226369],
        [-0.099247391107339, 51.472266260935172],
        [-0.099177179802999, 51.472188685489961],
        [-0.098917081051997, 51.471933574588874],
        [-0.097135720482201, 51.47069247294219],
        [-0.095997457693305, 51.469880844845314],
        [-0.095069850319433, 51.470200302631596],
        [-0.094797105929592, 51.470353241737541],
        [-0.094452880571738, 51.470528399288817],
        [-0.094323150127356, 51.470600929485542],
        [-0.094200651194962, 51.470672677825519],
        [-0.094105640723834, 51.470741275836431],
        [-0.094065142607452, 51.470780185030392],
        [-0.093999224991947, 51.470876233740988],
        [-0.09372703516873, 51.471602908457349],
        [-0.093663206775443, 51.471717875443893],
        [-0.093623696778411, 51.471767591694473],
        [-0.093486909718497, 51.471905652353485],
        [-0.09308024610382, 51.472127451498125],
        [-0.093031052598529, 51.472029531118856],
        [-0.093024457510278, 51.472015035662821],
        [-0.092946519336511, 51.470949041893206],
        [-0.09292882611325, 51.470751815724746],
        [-0.092849008163077, 51.470145314035506],
        [-0.092781929498132, 51.469923903664451],
        [-0.09274012060065, 51.46982160692685],
        [-0.092717608705812, 51.469774479081956],
        [-0.092265330013942, 51.469088177706169],
        [-0.091146240843502, 51.467613157712734],
        [-0.090136331875826, 51.466317958944487],
        [-0.090094569528983, 51.466214762647148],
        [-0.090079668568757, 51.466157866335351],
        [-0.090071123027577, 51.466086685347349],
        [-0.09007184789492, 51.466000367908364],
        [-0.090106012359614, 51.46573384335008],
        [-0.090667113889375, 51.463294289069296],
        [-0.090939782433967, 51.462832011765109],
        [-0.091124157231134, 51.462553544498562],
        [-0.091539123254603, 51.461992865134221],
        [-0.092211795521963, 51.461120736799664],
        [-0.092327715636778, 51.461033596038646],
        [-0.092551859751825, 51.460836707374483],
        [-0.092758469123429, 51.460715071152421],
        [-0.09283998867492, 51.46065884446196],
        [-0.092938268895296, 51.460580408775911],
        [-0.093094173745295, 51.460431868512721],
        [-0.093650361299912, 51.460004771185062],
        [-0.094142531139536, 51.459593716551389],
        [-0.094571920589015, 51.459169049825974],
        [-0.094729590601236, 51.45901244273319],
        [-0.094866820829079, 51.458862697379494],
        [-0.09502537011987, 51.458650349849798],
        [-0.09512261923932, 51.458492760417769],
        [-0.095148570539114, 51.458457211548172],
        [-0.09520811452249, 51.45837544678669],
        [-0.095503630884369, 51.45788115670095],
        [-0.095664866769666, 51.457604104984526],
        [-0.095837119455748, 51.457408165704464],
        [-0.09620141784171, 51.457163187776494],
        [-0.096575950643109, 51.456879706569438],
        [-0.097207029986882, 51.456415140193641],
        [-0.097602155549593, 51.456155370837713],
        [-0.097848894425542, 51.456037074749666],
        [-0.09859130810384, 51.455698405776388],
        [-0.099117482710534, 51.455402088493578],
        [-0.100044836733157, 51.454768752861689],
        [-0.100627606158588, 51.454391513128876],
        [-0.100938373686328, 51.454151948169688],
        [-0.101005764772617, 51.454054120880123],
        [-0.101118597577953, 51.453867103286115],
        [-0.101162675619863, 51.453776092387329],
        [-0.101034805639109, 51.45321557853125],
        [-0.101038774627204, 51.453085249617672],
        [-0.101060605621404, 51.453010065116267],
        [-0.101106046668989, 51.452920874836856],
        [-0.101335146323167, 51.45260264927812],
        [-0.101387442502918, 51.452521663288927],
        [-0.101468797404086, 51.452364710489633],
        [-0.101478912725045, 51.452259660472606],
        [-0.101474495680163, 51.452157972154581],
        [-0.101457133810571, 51.45205607418989],
        [-0.101425314325459, 51.451955740598891],
        [-0.101380475626304, 51.451856994665754],
        [-0.101340271813904, 51.451785301690535],
        [-0.101322617793399, 51.451759836376375],
        [-0.101131999402567, 51.451567004232238],
        [-0.100957875074803, 51.45135825221486],
        [-0.100877789253148, 51.451241849061702],
        [-0.100830880126949, 51.451158356839038],
        [-0.100802221334379, 51.451085951436887],
        [-0.100789197262246, 51.45101829564706],
        [-0.100792533953859, 51.45066044269786],
        [-0.100766268680963, 51.450356965236999],
        [-0.100760942057052, 51.45031191574239],
        [-0.100322198247276, 51.450306605145279],
        [-0.100205102365716, 51.450319095744007],
        [-0.100147571977403, 51.450318163378945],
        [-0.10006876615617, 51.45030969205618],
        [-0.099993135352856, 51.450294078029074],
        [-0.099923630735286, 51.450269570609933],
        [-0.099858739454178, 51.450237943815402],
        [-0.099808641255665, 51.4501966648712],
        [-0.099723424677006, 51.450099961520529],
        [-0.099645511646855, 51.450000678710516],
        [-0.09956485150678, 51.449863582217041],
        [-0.099427308001224, 51.44953671795475],
        [-0.099416973304176, 51.449404358562816],
        [-0.099403466550745, 51.449348385195549],
        [-0.099344680161351, 51.44920444905388],
        [-0.09930410857154, 51.449141741997643],
        [-0.099253320264807, 51.449082466324413],
        [-0.0988920550822, 51.448736686110152],
        [-0.09845141516866, 51.448430983348565],
        [-0.097958520835687, 51.448136121466469],
        [-0.097429865176855, 51.447766937348909],
        [-0.096108004600452, 51.446746392464178],
        [-0.095903478413803, 51.446508362274699],
        [-0.095697740528328, 51.446264916432213],
        [-0.095251610198412, 51.445711814137958],
        [-0.095140528902297, 51.445545443576997],
        [-0.09509654947287, 51.445461097231849],
        [-0.095040042238655, 51.445297411936586],
        [-0.095025012118957, 51.445209039684286],
        [-0.095013140521891, 51.445079352554806],
        [-0.095017054101205, 51.444881577786354],
        [-0.09504326631013, 51.444701251431873],
        [-0.095037517517233, 51.44463191457556],
        [-0.095016194785171, 51.444521857680677],
        [-0.094953059564553, 51.444344575616576],
        [-0.094507372745095, 51.443401196115452],
        [-0.094105696603397, 51.442818236563639],
        [-0.094004521467007, 51.44269069427996],
        [-0.093798997493028, 51.442442751948839],
        [-0.09363407094918, 51.442256619572134],
        [-0.093357009779626, 51.44196434819942],
        [-0.093206653730629, 51.441773955856995],
        [-0.09300264193918, 51.441420822517493],
        [-0.092874470912157, 51.441077915403],
        [-0.092767954422072, 51.440836977536911],
        [-0.092540455268257, 51.440322492476056],
        [-0.092258380043908, 51.43959848886891],
        [-0.092040058935304, 51.439105734441334],
        [-0.091989448620681, 51.438973617718432],
        [-0.091898038565215, 51.438819254414227],
        [-0.091837879966227, 51.438743635974035],
        [-0.091726317612354, 51.438624015855524],
        [-0.09148893687712, 51.438312601833069],
        [-0.091194587353279, 51.437849182774514],
        [-0.090981301657112, 51.437408665601716],
        [-0.090665359734419, 51.436669717728144],
        [-0.090577794784885, 51.436457862832718],
        [-0.090464745013743, 51.436098112886597],
        [-0.09022539096503, 51.435144587142261],
        [-0.090023269821027, 51.434367923841364],
        [-0.089593005399983, 51.432783596560292],
        [-0.089308729428173, 51.43180415654836],
        [-0.0888909637601, 51.430541967487294],
        [-0.088497094849862, 51.429707318685125],
        [-0.088319571829073, 51.429445434098078],
        [-0.08822609174658, 51.429341392776962],
        [-0.088114910869299, 51.429247853858051],
        [-0.087873798763394, 51.429096440526877],
        [-0.087680714660131, 51.429000665690978],
        [-0.087257682740788, 51.428865167361067],
        [-0.086613342580548, 51.428724256271195],
        [-0.086121313302507, 51.428587627384836],
        [-0.086045460307898, 51.428578295312398],
        [-0.085997108850038, 51.428564915962333],
        [-0.085916820115472, 51.428524036966536],
        [-0.08589044531724, 51.42850112451795],
        [-0.085868683684271, 51.428471093254146],
        [-0.08585629858077, 51.428423229747395],
        [-0.08588739497285, 51.428298739254807],
        [-0.085945278917951, 51.428187275982289],
        [-0.086066479291471, 51.428040875901161],
        [-0.086098647448689, 51.427959567749198],
        [-0.086100525018065, 51.427914634974606],
        [-0.086092339781185, 51.427869537877577],
        [-0.086074016664431, 51.427826073767264],
        [-0.086040068400076, 51.427777858149987],
        [-0.085991557054188, 51.427733901043169],
        [-0.085904269849616, 51.427688411391891],
        [-0.085794706201022, 51.427659643958073],
        [-0.085438109185246, 51.427483857571062],
        [-0.085261713835146, 51.427367668084941],
        [-0.085250739564146, 51.427354899035166],
        [-0.08517267015662, 51.427260998897779],
        [-0.084955215801866, 51.426957090181453],
        [-0.084652237012817, 51.426531281355864],
        [-0.084372348058257, 51.426138222771343],
        [-0.084078803262461, 51.425727854116971],
        [-0.083862716537185, 51.425391591877151],
        [-0.083683124325103, 51.425008264640233],
        [-0.083631681548555, 51.424725052914383],
        [-0.083618353369942, 51.424527894976592],
        [-0.083585496447166, 51.424144268921729],
        [-0.083536923719404, 51.423689343551239],
        [-0.083511093155255, 51.423412845399412],
        [-0.083495278265271, 51.423103238032823],
        [-0.083476641176594, 51.422998617986799],
        [-0.083438893118961, 51.42300699339571],
        [-0.082843734753663, 51.423136646069125],
        [-0.082031767453307, 51.423325696748662],
        [-0.081779402594847, 51.423375522722168],
        [-0.081726519902499, 51.423367463014181],
        [-0.081694506035611, 51.423307587211283],
        [-0.081158499972572, 51.422333896036463],
        [-0.080896916910382, 51.421848503455649],
        [-0.080851869668205, 51.421859456316525],
        [-0.080343374770946, 51.421980623392059],
        [-0.08007732619852, 51.422048206945284],
        [-0.079856255305034, 51.422140807103936],
        [-0.079828826474083, 51.422108883257046],
        [-0.079629789647352, 51.421881703783988],
        [-0.079515876768437, 51.421751241536185],
        [-0.079465106067062, 51.421692856262268],
        [-0.078930850444587, 51.421570792069126],
        [-0.079149830345917, 51.421184997230235],
        [-0.079261682086026, 51.420987192376799],
        [-0.079269045805653, 51.420914472153932],
        [-0.079255463814239, 51.420895364879883],
        [-0.079222852009689, 51.420849866877234],
        [-0.079197507784203, 51.420836861714093],
        [-0.079160891111126, 51.420818276169626],
        [-0.078306681580984, 51.420609130992737],
        [-0.078325135494102, 51.420580656923377],
        [-0.078335912830559, 51.420563747497219],
        [-0.078404200134034, 51.420410192632325],
        [-0.078445027544083, 51.420259784579805],
        [-0.07849522715873, 51.420057372476464],
        [-0.078529830124814, 51.420021069711019],
        [-0.078559819658892, 51.419991885463311],
        [-0.078589454521492, 51.419868271973137],
        [-0.078548602385852, 51.419847818247312],
        [-0.078674663718685, 51.419825604669498],
        [-0.079103566352737, 51.419749902461206],
        [-0.079324826827839, 51.419721155069553],
        [-0.07971462558421, 51.419686176217425],
        [-0.080092059401834, 51.41967167673139],
        [-0.080291992073045, 51.419671354779794],
        [-0.080595107812373, 51.419679916599989],
        [-0.081742864228779, 51.419748168478421],
        [-0.082345959730506, 51.419771527392868],
        [-0.08287698686143, 51.419729856126494],
        [-0.082887123063208, 51.419728223395985],
        [-0.083333988613087, 51.419669885712928],
        [-0.083895216079586, 51.41955945994696],
        [-0.085011350572514, 51.419351986163456],
        [-0.085538960123381, 51.419288664546116],
        [-0.085863435474923, 51.419267885753449],
        [-0.086079139069973, 51.419268710785452],
        [-0.086185309603568, 51.419274940951553],
        [-0.086425645579182, 51.419305843494946],
        [-0.086619426120599, 51.419349474520658],
        [-0.086826641674393, 51.419415806288946],
        [-0.086970730054585, 51.419478409450356],
        [-0.087764505254903, 51.419757547603659],
        [-0.088010880946328, 51.419850595018652],
        [-0.088190342221356, 51.419927262781847],
        [-0.088452092558694, 51.420065523533601],
        [-0.089047653539116, 51.420545553853358],
        [-0.089367367752468, 51.420811554591658],
        [-0.089584119814847, 51.420959870375647],
        [-0.089720393189732, 51.421037630274355],
        [-0.089814783488527, 51.421085031491039],
        [-0.089909436256162, 51.421126142023574],
        [-0.090043959955749, 51.421176894946655],
        [-0.090197244275603, 51.421226154890284],
        [-0.09084282143608, 51.421473180881613],
        [-0.091101399938749, 51.421584405841905],
        [-0.091394790374952, 51.421723175215391],
        [-0.091768854328783, 51.421928004753475],
        [-0.092140653914503, 51.422221823818916],
        [-0.092307749671943, 51.422354038515572],
        [-0.092734391723785, 51.422539936803659],
        [-0.093008589225374, 51.422621735785448],
        [-0.093206403188702, 51.42267261554867],
        [-0.093434365340945, 51.422724884688158],
        [-0.093644202906113, 51.422763369541705],
        [-0.093918910365741, 51.422798412705717],
        [-0.094101047711971, 51.4228112667126],
        [-0.094346692080187, 51.422818858189657],
        [-0.094591422443229, 51.422813844533643],
        [-0.094839476026527, 51.42279809316716],
        [-0.096186014622971, 51.422757924794645],
        [-0.096906091546818, 51.42266710306248],
        [-0.097235607904886, 51.422629288426066],
        [-0.097512818004132, 51.422604112818547],
        [-0.097809890029975, 51.422585553800332],
        [-0.098108100752186, 51.422574206652818],
        [-0.098388726976023, 51.422570666845026],
        [-0.098812756251498, 51.422577546114809],
        [-0.100144411619994, 51.42258385278442],
        [-0.100773221398204, 51.422577857527472],
        [-0.104228190204812, 51.422646384124576],
        [-0.10461680727875, 51.422640079815309],
        [-0.105115818583755, 51.422607681831309],
        [-0.105797526827663, 51.422574637567699],
        [-0.105987299924615, 51.42257680528099],
        [-0.106054894578991, 51.422576998357229],
        [-0.106185511659299, 51.422583605380758],
        [-0.106515072299086, 51.422614109698621],
        [-0.107020753938042, 51.422698716083694],
        [-0.10788701937705, 51.422863781331181],
        [-0.108688199641494, 51.423037681780045],
        [-0.109211983105171, 51.423136959029435],
        [-0.109373669112951, 51.42315755271207],
        [-0.109603321722574, 51.423169350526976],
        [-0.109850009648901, 51.423151746830072],
        [-0.109940678020075, 51.42315051124303],
        [-0.110067318836635, 51.423148956401121],
        [-0.110491030908635, 51.423128810239177],
        [-0.110904709941607, 51.423142672956644],
        [-0.111524710383691, 51.423176045671951],
        [-0.112052865175339, 51.423204338564716],
        [-0.112685545060417, 51.423244204236539],
        [-0.112712048015856, 51.423229343489552],
        [-0.112753419334925, 51.423132888926936],
        [-0.113026825075403, 51.422920567993671],
        [-0.113295021770195, 51.4227648163494],
        [-0.113822711316365, 51.422454969696005],
        [-0.113959951966248, 51.422300705985421],
        [-0.113986311461477, 51.422254368326143],
        [-0.114082310708075, 51.42208864960503],
        [-0.114130526656192, 51.422035469482644],
        [-0.114220875766436, 51.421937104701996],
        [-0.114456351217341, 51.421667516383451],
        [-0.114462137692488, 51.421666710211497],
        [-0.114492433464978, 51.421664499814312],
        [-0.114512667630865, 51.421662127540557],
        [-0.114536262400315, 51.421613047481117],
        [-0.114580429112059, 51.42151843578398],
        [-0.114872068195883, 51.421247052345045],
        [-0.11485423303096, 51.42122608234402],
        [-0.115327016160358, 51.420921640687432],
        [-0.115382050865401, 51.420842490985578],
        [-0.115448505863775, 51.420800394813917],
        [-0.115593953435412, 51.420656153106222],
        [-0.115715067981167, 51.420578964975604],
        [-0.115907831193604, 51.420473252782998],
        [-0.116166415210779, 51.420375792419016],
        [-0.116559297893576, 51.420265202287879],
        [-0.116925571291797, 51.420137097251221],
        [-0.117107785438121, 51.420077975449374],
        [-0.11774627352658, 51.419800466396531],
        [-0.117782794609217, 51.419821736056811],
        [-0.117847476355095, 51.419787703455604],
        [-0.118108230293207, 51.419637216986743],
        [-0.11823453351795, 51.419573598587675],
        [-0.118369940033303, 51.419498435749134],
        [-0.118452348336623, 51.41945299695896],
        [-0.118866965137712, 51.419268108990742],
        [-0.119095500479959, 51.419166562840516],
        [-0.119507053116577, 51.418986119781991],
        [-0.11984662755818, 51.418807218392317],
        [-0.120021908376055, 51.418566329124658],
        [-0.120052723441623, 51.418306036265086],
        [-0.120132918468108, 51.418174231257048],
        [-0.120228481115626, 51.418018392498205],
        [-0.120334510510858, 51.417782686847389],
        [-0.120473189988035, 51.417557396654338],
        [-0.120684099246998, 51.417254129148887],
        [-0.120786291172209, 51.417146956613749],
        [-0.120849198096516, 51.417085915931509],
        [-0.120846397340154, 51.417084072490979],
        [-0.120852367406889, 51.417078772619639],
        [-0.120795615199669, 51.417059877302506],
        [-0.120771661382049, 51.417047802746147],
        [-0.120856532051402, 51.416977222317271],
        [-0.120921797006839, 51.41699895189511],
        [-0.120968156965248, 51.416955631163546],
        [-0.121050484367069, 51.416876916423227],
        [-0.121135022547337, 51.416779352478741],
        [-0.121211968773935, 51.416656487312125],
        [-0.121334057823017, 51.416519957493676],
        [-0.121484742639856, 51.416352411595682],
        [-0.121574143132984, 51.416241436281886],
        [-0.121603697292132, 51.41618705473909],
        [-0.121703635377423, 51.415994414996113],
        [-0.121936089136853, 51.415796704698252],
        [-0.12220572269754, 51.415569014626605],
        [-0.122274411095802, 51.415507166557276],
        [-0.122481358877677, 51.415300053860378],
        [-0.122504168464653, 51.415269844228696],
        [-0.122531584112799, 51.41523251425258],
        [-0.122494289986038, 51.41519504687254],
        [-0.122480944573793, 51.415029368078663],
        [-0.122582836411453, 51.415034597469365],
        [-0.122993315171954, 51.415054661507938],
        [-0.123015866625848, 51.415030742507355],
        [-0.123122690829497, 51.414915548752354],
        [-0.123405617607183, 51.414714147564702],
        [-0.123675726225546, 51.414650128206944],
        [-0.12391521455234, 51.414631480626248],
        [-0.124074295382095, 51.414609746964423],
        [-0.124192274653473, 51.414397610061293],
        [-0.124310620647289, 51.414176486246312],
        [-0.124393814725548, 51.414006057903912],
        [-0.124458669931467, 51.414002599524359],
        [-0.124495838040367, 51.413832333773044],
        [-0.124527958892611, 51.413679972559073],
        [-0.124547849725423, 51.413580472324234],
        [-0.124508928732997, 51.413477333106179],
        [-0.124467501465618, 51.413365161099655],
        [-0.124497901659769, 51.413360252018649],
        [-0.124936474546882, 51.413290832314779],
        [-0.124937948435202, 51.413289956630557],
        [-0.125589033991403, 51.412911889101238],
        [-0.125676903427696, 51.412767613355143],
        [-0.125785997992639, 51.412631770388288],
        [-0.126018603080385, 51.412781171264157],
        [-0.126230387956384, 51.412912253453307],
        [-0.126259832331378, 51.412930709554608],
        [-0.126271512912433, 51.412926399979632],
        [-0.126615000969057, 51.412790706560585],
        [-0.127339151906528, 51.412524407096633],
        [-0.127428210141951, 51.412491658053781],
        [-0.127751713899581, 51.412316973565417],
        [-0.12775801296447, 51.412303585207994],
        [-0.127780188158038, 51.412253580575424],
        [-0.12788811579846, 51.412005308781296],
        [-0.127923969383019, 51.412007680062771],
        [-0.132099854480747, 51.412292834878464],
        [-0.132101291573376, 51.41229285778401],
        [-0.132714499949919, 51.412348492528466],
        [-0.133203882144431, 51.412478589205286],
        [-0.133572357745326, 51.412576183275831],
        [-0.133567753635998, 51.412583304072598],
        [-0.133480787710777, 51.412706017619058],
        [-0.133374004143924, 51.412856292675812],
        [-0.133354186950798, 51.412883854254133],
        [-0.133577910368128, 51.41293417931027],
        [-0.133739274139071, 51.412679559219228],
        [-0.133753013220186, 51.412659994172991],
        [-0.13376881153112, 51.412625174406834],
        [-0.133803282283577, 51.412555580636372],
        [-0.133832094509222, 51.412413056256348],
        [-0.133858295330149, 51.412158082111738],
        [-0.133865607286459, 51.412084458784008],
        [-0.133922279094813, 51.411822775700912],
        [-0.134096115799308, 51.411014406185267],
        [-0.134099941186945, 51.410991086189362],
        [-0.134424223943538, 51.411078981363374],
        [-0.134792654491232, 51.411177470213794],
        [-0.135016883256406, 51.411215210901048],
        [-0.135215014893994, 51.411222860136213],
        [-0.135479617071044, 51.411222573953786],
        [-0.135907665295769, 51.411304921741447],
        [-0.136652186502352, 51.411455248882959],
        [-0.137542759349578, 51.411656452777834],
        [-0.138101981272041, 51.411802027104805],
        [-0.138273020686955, 51.411874887054061],
        [-0.138524318511076, 51.411954417190763],
        [-0.138673424221614, 51.412000849468775],
        [-0.139375830311723, 51.412197252021073],
        [-0.13940851865908, 51.412206763646893],
        [-0.139550097997395, 51.412226097363259],
        [-0.140016140688638, 51.412364787598875],
        [-0.141209543872605, 51.412758715555874],
        [-0.14204632533436, 51.413117302234191],
        [-0.142582218222889, 51.413342519614069],
        [-0.142675449830266, 51.413348493541115],
        [-0.143029810697679, 51.413156270922833],
        [-0.144235549840885, 51.41257196387113],
        [-0.144402764595203, 51.412490980056084],
        [-0.144485407524179, 51.412474303289578],
        [-0.1445752723184, 51.412456841539559],
        [-0.144623042552313, 51.412413533898025],
        [-0.144806428219964, 51.412394854750765],
        [-0.144832405268967, 51.412392568179769],
        [-0.144869951920975, 51.412388666219265],
        [-0.145169981349167, 51.412543592323821],
        [-0.145506301776833, 51.41254801557605],
        [-0.14582393983877, 51.412552142279068],
        [-0.146804341353684, 51.412560455564176],
        [-0.147530585170243, 51.412737402089107],
        [-0.148090361577819, 51.412870347515252],
        [-0.147891778586304, 51.413051558358219],
        [-0.147611956169671, 51.413321411175815],
        [-0.147568571830679, 51.413362990818364],
        [-0.147329583126538, 51.413583129637779],
        [-0.147083333676628, 51.413804951705572],
        [-0.146865038638247, 51.413939986718859],
        [-0.146684197810175, 51.414037844563886],
        [-0.14640775964838, 51.414188145988113],
        [-0.146141016295183, 51.414347592762908],
        [-0.146139579126679, 51.414347570028823],
        [-0.145676526012656, 51.414631605682985],
        [-0.145184978076106, 51.4149088937043],
        [-0.144347477601438, 51.415347965495272],
        [-0.14435164362738, 51.415351628514365],
        [-0.14466749953839, 51.415577848158087],
        [-0.145009410300408, 51.415799983008405],
        [-0.144916319147146, 51.415861457967168],
        [-0.143733600973326, 51.416656564504798],
        [-0.143048747849096, 51.417125022723567],
        [-0.143260310674626, 51.417263264224957],
        [-0.141598486856144, 51.418415859110823],
        [-0.140405452554709, 51.419249437194601],
        [-0.13950985662858, 51.419876398383458],
        [-0.139046720055436, 51.420195478101228],
        [-0.138519068729201, 51.420580076856233],
        [-0.138171661387461, 51.420847035396953],
        [-0.137851888833411, 51.421106338626764],
        [-0.138302019109402, 51.422028040746923],
        [-0.138516564243792, 51.422624063129021],
        [-0.138530550085806, 51.422669248431305],
        [-0.138825075644002, 51.423633439826787],
        [-0.138866464372442, 51.423818446029323],
        [-0.138922116545187, 51.424572912264608],
        [-0.138932881014705, 51.424768223281234],
        [-0.138926371544725, 51.425282498371985],
        [-0.138871874287119, 51.426092768182507],
        [-0.13876445049066, 51.426824860814321],
        [-0.138541335295583, 51.427996653931537],
        [-0.138489371762971, 51.428319563198968],
        [-0.138437191086983, 51.428753977542549],
        [-0.138411066533108, 51.429078196395324],
        [-0.138394180574048, 51.42956442920957],
        [-0.138364584876253, 51.429974022814008],
        [-0.138385695618036, 51.430339458642656],
        [-0.138382421044807, 51.430455411476309],
        [-0.13838234798662, 51.430457208840629],
        [-0.138387002786461, 51.430484260642153],
        [-0.138398493692724, 51.43055548487348],
        [-0.137711822961932, 51.430496016513338],
        [-0.137223186494734, 51.430448684215925],
        [-0.136707674207731, 51.4303901314778],
        [-0.135930911225672, 51.4303175299898],
        [-0.135495508671563, 51.430270137808961],
        [-0.135379387563568, 51.430260197189021],
        [-0.135332054586857, 51.430256746394399],
        [-0.135264140022571, 51.430334801047174],
        [-0.13536494597287, 51.430650247448973],
        [-0.135594002585134, 51.431207836946989],
        [-0.135869649826856, 51.431964004644648],
        [-0.136150212824829, 51.432847045702303],
        [-0.136455555334039, 51.433828499443521],
        [-0.136522532002402, 51.433914994174515],
        [-0.136686145778211, 51.433924789333325],
        [-0.136931859080991, 51.433932292197504],
        [-0.13759893761905, 51.43380260849618],
        [-0.137857541307514, 51.433776142283847],
        [-0.138228735286585, 51.434059011473629],
        [-0.139110196227099, 51.434814000653041],
        [-0.139489586085677, 51.435178828629709],
        [-0.139648057136466, 51.435315333867067],
        [-0.139697582984854, 51.435442016513221],
        [-0.139759018779161, 51.435665109128514],
        [-0.139805040504971, 51.435878065204591],
        [-0.13987734275051, 51.436258700927944],
        [-0.139972896844513, 51.436881606838],
        [-0.139912562597919, 51.437020934170867],
        [-0.139737107356059, 51.437302316311388],
        [-0.139381205892295, 51.437562848809542],
        [-0.139325251304613, 51.437594334011848],
        [-0.139119161752626, 51.43770886561731],
        [-0.138981917529901, 51.437757944592718],
        [-0.138508950916007, 51.437924891143922],
        [-0.138306806160945, 51.438048476594183],
        [-0.138003154717178, 51.438262173955088],
        [-0.137815435259579, 51.438420159642995],
        [-0.137683683793296, 51.438581732037051],
        [-0.137504138619644, 51.438821679880384],
        [-0.137401253018301, 51.439087125658716],
        [-0.137383436452721, 51.43938359876006],
        [-0.137381450099779, 51.439397056114764],
        [-0.137303312180106, 51.439690772135108],
        [-0.137259856408429, 51.439733246114372],
        [-0.137259758709688, 51.439771013531562],
        [-0.137301837169006, 51.439797760776408],
        [-0.137286263006958, 51.439862260092767],
        [-0.137475939809274, 51.440010055133619],
        [-0.137487821294638, 51.440036322494606],
        [-0.137518298888917, 51.440100654295513],
        [-0.137497594536012, 51.440149784683527],
        [-0.137477182614045, 51.440191725625532],
        [-0.137433202552898, 51.440211709809532],
        [-0.137371856723198, 51.440340228625644],
        [-0.137048544292444, 51.440258653485046],
        [-0.137046996613985, 51.440261326671241],
        [-0.137011376378092, 51.440252667203836],
        [-0.13680748327699, 51.440595642035227],
        [-0.136688323011264, 51.440730435615095],
        [-0.136424198289647, 51.441138997647677],
        [-0.13610416917476, 51.441542173866146],
        [-0.13594182343031, 51.441783292065836],
        [-0.13590398804685, 51.442005707131607],
        [-0.135980020580781, 51.442011412520515],
        [-0.136023234612075, 51.4420103011742],
        [-0.136395467237308, 51.441915502408776],
        [-0.136416843405934, 51.441885267378787],
        [-0.136751100437758, 51.441804251919145],
        [-0.137351499763034, 51.441724767083343],
        [-0.137370303719866, 51.441722368097608],
        [-0.137885102703355, 51.441695475965183],
        [-0.139041709725031, 51.441703052566538],
        [-0.140804287098626, 51.441741812687788],
        [-0.141615478736955, 51.441751078910784],
        [-0.142358646053342, 51.441770052647477],
        [-0.142768629354553, 51.441772952071915],
        [-0.143271173291691, 51.441799797730688],
        [-0.143620703765543, 51.441838606272064],
        [-0.143823577253656, 51.442300441594],
        [-0.144003503792157, 51.442654001983968],
        [-0.144337791877761, 51.443246511123441],
        [-0.144467104639226, 51.443464380486589],
        [-0.14459414275847, 51.443702896664973],
        [-0.144749671494076, 51.443913087294007],
        [-0.144854886766486, 51.44408651107166],
        [-0.145146017523951, 51.444466109374304],
        [-0.145406915870432, 51.444917169364224],
        [-0.145603448824181, 51.445394188300341],
        [-0.145687936764537, 51.445830766365994],
        [-0.145696438416253, 51.445869569002568],
        [-0.145678561625104, 51.445884573628305],
        [-0.145589177492679, 51.445959596713834],
        [-0.145586428646476, 51.445991926566634],
        [-0.145566167203883, 51.446314440152079],
        [-0.145440371508603, 51.446861897503922],
        [-0.14528333312506, 51.447327927052356],
        [-0.145174900704768, 51.447659836581131],
        [-0.144937041246084, 51.448237893466953],
        [-0.144795179005385, 51.448542295834741],
        [-0.144647564783158, 51.448704524053205],
        [-0.144068705322594, 51.449031683935985],
        [-0.143617226643806, 51.449305104158178],
        [-0.143360131537587, 51.449505164418483],
        [-0.143073571918647, 51.449792884794093],
        [-0.142953258731776, 51.449920472251748],
        [-0.142820891563815, 51.450061357510478],
        [-0.142583701209146, 51.450338168450955],
        [-0.142443697499609, 51.45056076487019],
        [-0.142372569636549, 51.450752978492297],
        [-0.142327893642894, 51.450967193459455],
        [-0.142322593777829, 51.450991389469522],
        [-0.143147381163118, 51.451095281760381],
        [-0.143612246914673, 51.451166491461336],
        [-0.143768603389588, 51.451214829545926],
        [-0.144621432966386, 51.451479223490892],
        [-0.146569730204874, 51.45202351931394],
        [-0.14735990258133, 51.452236544011328],
        [-0.147729947537102, 51.452339511284833],
        [-0.147377972478052, 51.452963430251039],
        [-0.147631018549592, 51.452970126675922],
        [-0.14765108314586, 51.452972242230921],
        [-0.147780632132119, 51.453860957628059],
        [-0.147957981528807, 51.454742334569289],
        [-0.148001614485682, 51.454873416266516],
        [-0.147969899448491, 51.454945755129415],
        [-0.147976900225588, 51.455128415071265],
        [-0.148080091569236, 51.455957362370278],
        [-0.148153859617815, 51.456410854255736],
        [-0.148333386826421, 51.457203238091736],
        [-0.1483407489411, 51.457305869728025],
        [-0.148365680503126, 51.4573656144983],
        [-0.14866458047716, 51.457911687953427],
        [-0.148964323670383, 51.458437090955314],
        [-0.149217177190282, 51.458876323453623],
        [-0.14929904623245, 51.459094336841588],
        [-0.149390425407792, 51.459361959420413],
        [-0.149671268335892, 51.461244939969305],
        [-0.149693435408094, 51.461301942997515],
        [-0.14970259725066, 51.461324569012014],
        [-0.149785251134786, 51.461487739664015],
        [-0.149930428224155, 51.46170675155787],
        [-0.150054804830779, 51.46187058038749],
        [-0.150384751034772, 51.462255272483922],
        [-0.150462395569886, 51.462364408188819],
        [-0.150535688088426, 51.462474374441996],
        [-0.150660512162377, 51.462698459828893],
        [-0.150731734931645, 51.462859650918595],
        [-0.150793090837385, 51.463051261050104],
        [-0.150967222678186, 51.463836360478368],
        [-0.150982533588039, 51.463956203034087],
        [-0.15099177822887, 51.464226125709466],
        [-0.151231398464975, 51.465884535707069],
        [-0.150470343120773, 51.465977745422535],
        [-0.150565665609958, 51.466326361929319],
        [-0.150641433333967, 51.467265481014387],
        [-0.150643177046084, 51.467400396896764],
        [-0.150618665268571, 51.467614932403542],
        [-0.150345255043648, 51.467682559888019],
        [-0.149429063182049, 51.468015215314232],
        [-0.147298378502524, 51.468863736051006],
        [-0.146114507430001, 51.469334218123898],
        [-0.143240689183696, 51.470467667605099],
        [-0.143100362719462, 51.470519400657309],
        [-0.142676823234557, 51.470063963207025],
        [-0.141583936269723, 51.470632061556913],
        [-0.141495664741038, 51.470678322981129],
        [-0.141784358850975, 51.470908612090987],
        [-0.140981294181852, 51.47128885695529],
        [-0.140342596099961, 51.47159256890582],
        [-0.139866864266202, 51.471323338804808],
        [-0.13974124998426, 51.471367207962267],
        [-0.139316188808102, 51.47151603456966],
        [-0.139455929677538, 51.471655838365017],
        [-0.139578523738515, 51.471721630880609],
        [-0.139599669505944, 51.471732757483231],
        [-0.139502065392219, 51.471795955213594],
        [-0.139448933286802, 51.47179241433404],
        [-0.139270380912116, 51.471863319890367],
        [-0.139209432265005, 51.471874942215329],
        [-0.139159689984328, 51.471858865411633],
        [-0.139066242884926, 51.471890654779422],
        [-0.138746573059931, 51.471997088465095],
        [-0.138726877961404, 51.471914943468349],
        [-0.138678635487293, 51.471862020748681],
        [-0.138515971190213, 51.47189630786437],
        [-0.138349148274193, 51.471962002707308],
        [-0.138042816918038, 51.472129795719276],
        [-0.137848980058288, 51.472293079834692],
        [-0.137492509235017, 51.472595862849005],
        [-0.136917994560667, 51.473090318994764],
        [-0.136660918276174, 51.472932460921307],
        [-0.13649255955418, 51.472823672943022],
        [-0.136388307804132, 51.472767161310244],
        [-0.136374320712638, 51.472757047168869],
        [-0.136358858008454, 51.472747808828146],
        [-0.136343358686098, 51.472739469160011],
        [-0.136327859369411, 51.472731129489887],
        [-0.136310921064456, 51.472722766944841],
        [-0.136293946140359, 51.472715303071979],
        [-0.1362755322284, 51.47270781632335],
        [-0.136258557315699, 51.472700352445457],
        [-0.136080048916128, 51.472699313337856],
        [-0.135909881425594, 51.472705600620834],
        [-0.135787127398132, 51.47271444003286],
        [-0.135704372047336, 51.47273110936694],
        [-0.135596530872241, 51.472762667117408],
        [-0.135348723664405, 51.472872032791713],
        [-0.13523886636794, 51.472953017278435],
        [-0.135071651141444, 51.473098735112892],
        [-0.134798746271387, 51.473329100112991],
        [-0.134747528353565, 51.47331389722261],
        [-0.13472195606462, 51.47330539709548],
        [-0.134557725903976, 51.473448463923219],
        [-0.134486306953396, 51.473646063389268],
        [-0.134494198793997, 51.473770286391861],
        [-0.134501989721358, 51.473791093255073],
        [-0.134537213955726, 51.473880680102475],
        [-0.13447917618759, 51.473891447041474],
        [-0.134449112393275, 51.473922442693251],
        [-0.134461742872983, 51.473965807979162],
        [-0.134533886989235, 51.473997530550427],
        [-0.134706443001701, 51.474074014855979],
        [-0.135230530363994, 51.474287381696648],
        [-0.134872789694789, 51.474655782378377],
        [-0.134857776004942, 51.474670830915883],
        [-0.134952873075291, 51.474704716846475],
        [-0.134710774020643, 51.474956254551145],
        [-0.13452781132051, 51.474887698021355],
        [-0.134520286050021, 51.474895671603704],
        [-0.134243984958673, 51.475173641894273],
        [-0.134111617229322, 51.475276748557896],
        [-0.134057186524254, 51.475551954144144],
        [-0.133980272632271, 51.475637058749335],
        [-0.13388338592933, 51.475682278140312],
        [-0.133883392728794, 51.475858532540698],
        [-0.133833637367545, 51.475948565568608],
        [-0.133645963024223, 51.476242333099698],
        [-0.13331924728615, 51.476696652291558],
        [-0.133094744364861, 51.477010515523915],
        [-0.132632189568792, 51.477652413032587],
        [-0.132275018172365, 51.478146710838004],
        [-0.132107164589983, 51.478377843684939],
        [-0.13206138270364, 51.478440961567131],
        [-0.131992596266594, 51.478432671685482],
        [-0.131989571056696, 51.478436220516002],
        [-0.131988131886521, 51.478436197588238],
        [-0.131969503284158, 51.478469173298436],
        [-0.131877057539436, 51.478616977041625],
        [-0.131829512485281, 51.478723231051383],
        [-0.131736191389547, 51.478927673890325],
        [-0.131611654813629, 51.479155899181329],
        [-0.131544363811049, 51.479251946612919],
        [-0.131412285319389, 51.479418002822214],
        [-0.131344839900512, 51.479482573706342],
        [-0.131168505379426, 51.47960386078325],
        [-0.130985017003572, 51.479759205310678],
        [-0.13085363936411, 51.479943257196346],
        [-0.130661715350124, 51.480199183465267],
        [-0.1306448917327, 51.480223195177871],
        [-0.13058329902545, 51.48021501917097],
        [-0.130567841091314, 51.480240851158506],
        [-0.130441335263595, 51.480446562410073],
        [-0.130370536593845, 51.480557840604753],
        [-0.130352787985289, 51.480569247938334],
        [-0.130348249762365, 51.480574571114659],
        [-0.130311350028685, 51.48059646415264],
        [-0.130219948802146, 51.480648062824102],
        [-0.130188952926883, 51.480666452941662],
        [-0.129947501750722, 51.481182372598859],
        [-0.129458995294863, 51.481365223077916],
        [-0.129168095770197, 51.481470291433553],
        [-0.128635444083084, 51.481640743833928],
        [-0.127989830008966, 51.481861547323213],
        [-0.127496434935096, 51.482022729488513],
        [-0.127405689476393, 51.482409759113466],
        [-0.127279817037196, 51.4828807577505],
        [-0.127161028029149, 51.48335456713771],
        [-0.127049008311458, 51.483627950358617],
        [-0.12687346905968, 51.483869744100033],
        [-0.1263636592726, 51.484465899424876],
        [-0.126531845747361, 51.484509053195424],
        [-0.127052310449992, 51.484601897592782],
        [-0.127727197931799, 51.484722384572876],
        [-0.12803588848075, 51.484746197339341],
        [-0.128171704061491, 51.484735775856855],
        [-0.128368297285601, 51.484964627156742],
        [-0.128455592582456, 51.485048752015736],
        [-0.128585816436217, 51.48517492770047],
        [-0.129079655113622, 51.485601861238464],
        [-0.129236306334808, 51.485715868238579],
        [-0.129411192433982, 51.485841856236163],
        [-0.129491215607516, 51.485892591823628],
        [-0.129308499974687, 51.485993091485049],
        [-0.12913623208645, 51.486119835970165],
        [-0.128846791362542, 51.486329240570278],
        [-0.128417884071189, 51.486638034466203],
        [-0.128198486363671, 51.486825174747004],
        [-0.127904280714238, 51.487080363029371],
        [-0.1277435571625, 51.487206390541303],
        [-0.127527471048139, 51.487347720413737],
        [-0.127393244741831, 51.48745978246864],
        [-0.12723997346849, 51.487579633515708],
        [-0.127166752047314, 51.487644109772759],
        [-0.127144313236142, 51.487664434277718],
        [-0.126764768666104, 51.487998290483382],
        [-0.126615520521382, 51.488160470010435],
        [-0.12626841542937, 51.488546100446698],
        [-0.125487857878908, 51.489385220699724],
        [-0.12502609472925, 51.489896708905562],
        [-0.124846126085978, 51.490105156299684],
        [-0.124699300675958, 51.490278163222797],
        [-0.12455996688775, 51.490444095733075],
        [-0.124189355072507, 51.490980419076784],
        [-0.124030307692428, 51.491205386489078],
        [-0.123972874985046, 51.49130608357742],
        [-0.123948847313978, 51.491400121017016],
        [-0.123946745951653, 51.491521486900645],
        [-0.123953727797203, 51.491772490893091],
        [-0.123940110451798, 51.491928743500488],
        [-0.123875443128066, 51.49210036597951],
        [-0.123806123801818, 51.492244936328404],
        [-0.123726874400152, 51.49238575073371],
        [-0.123594838757787, 51.492514030141308],
        [-0.123524668304525, 51.492609127654568],
        [-0.123461695616977, 51.492704340306084],
        [-0.123372588733924, 51.49287467216115],
        [-0.123253323295323, 51.493112864709865],
        [-0.123184738729147, 51.493274532301008],
        [-0.123084297242947, 51.493510328173599],
        [-0.123009214597131, 51.493689876762986],
        [-0.122924385591666, 51.494071601748544],
        [-0.122882819624582, 51.494241794923433],
        [-0.122826043980215, 51.494536741099267]
      ]
    ]
  }
}
