{
  "type": "Feature",
  "properties": {
    "name": "Lewisham",
    "level": 2,
    "londonBorough": true
  },
  "geometry": {
    "type": "Polygon",
    "coordinates": [
      [
        [-0.073935607101081, 51.4261533220275],
        [-0.074166141212445, 51.42706807111803],
        [-0.074327048790604, 51.427449307721204],
        [-0.075028557767379, 51.428556142397746],
        [-0.075093302076052, 51.42879551226289],
        [-0.074893542555618, 51.42974905442688],
        [-0.073586072204508, 51.431351653071054],
        [-0.072460825764834, 51.4323826008702],
        [-0.072383342988352, 51.432411901770315],
        [-0.069984161559899, 51.43257025924683],
        [-0.069622278316876, 51.432656924497635],
        [-0.067151552028121, 51.43369173343454],
        [-0.066708747471566, 51.43392273704487],
        [-0.065909028792469, 51.43453093912119],
        [-0.065834290535525, 51.434631323356065],
        [-0.064467172554957, 51.43698732501563],
        [-0.064420283090096, 51.43704140618252],
        [-0.063550734952551, 51.437495563328824],
        [-0.063456737638834, 51.43754077241149],
        [-0.063543570348421, 51.437767024504424],
        [-0.06370071877382, 51.43792969069032],
        [-0.063800959061264, 51.43954014028877],
        [-0.064053529763116, 51.440849152286496],
        [-0.064671286158645, 51.4410086323495],
        [-0.065026169285226, 51.441157475069595],
        [-0.064082746312253, 51.44209782077728],
        [-0.063870376978119, 51.4425259624219],
        [-0.063733590475637, 51.44286812310766],
        [-0.063665496201249, 51.44335530146139],
        [-0.063639978983734, 51.4448089980882],
        [-0.063484088532983, 51.44526235218592],
        [-0.063244682659547, 51.44585281363033],
        [-0.063083889534998, 51.446183785596816],
        [-0.062079712476824, 51.44753587582542],
        [-0.061826917004529, 51.447796081342815],
        [-0.06138354230974, 51.448138565215714],
        [-0.060972646834832, 51.44842762856096],
        [-0.059677639505082, 51.448998818321805],
        [-0.05906151129527, 51.44930785875462],
        [-0.058100632608095, 51.44994031786319],
        [-0.057561283652479, 51.45033875074207],
        [-0.053908341333649, 51.44871793066891],
        [-0.053787802523109, 51.44870963456524],
        [-0.049366399356905, 51.45003181070894],
        [-0.049086624269061, 51.45011258547217],
        [-0.046511446192216, 51.44991952103026],
        [-0.046150745829621, 51.44987304233007],
        [-0.04519642895312, 51.451054960265495],
        [-0.045124222873198, 51.45122911386509],
        [-0.045000608135516, 51.451292699085265],
        [-0.044874022044813, 51.45132476015662],
        [-0.043189653735421, 51.45311857714365],
        [-0.042989340037955, 51.45319167117971],
        [-0.04244565064435, 51.45388941985045],
        [-0.041648633568749, 51.45499030372911],
        [-0.04499577905454, 51.45666126027722],
        [-0.046160351499277, 51.45696304639518],
        [-0.045717367207094, 51.457898096779886],
        [-0.045615574223146, 51.45815808718108],
        [-0.045177004858292, 51.45983150910639],
        [-0.045123242645962, 51.460281146452544],
        [-0.04518852521217, 51.46181908572444],
        [-0.045236826076497, 51.46220477816935],
        [-0.045457247809141, 51.4629422565584],
        [-0.04572036085612, 51.46352307406335],
        [-0.046363603966671, 51.46440608532563],
        [-0.046586746560217, 51.46460854187414],
        [-0.04854015564566, 51.46562667124983],
        [-0.048206076819797, 51.465898084470716],
        [-0.050519987217702, 51.46660114262241],
        [-0.050888438759537, 51.46663784384684],
        [-0.050633984806865, 51.46676400704213],
        [-0.050575133169531, 51.46679360358258],
        [-0.051319603837926, 51.4673653244365],
        [-0.051326567884993, 51.46737083579234],
        [-0.051128238872973, 51.46746376075676],
        [-0.050881395976396, 51.46758015907372],
        [-0.052040909211932, 51.46895462592498],
        [-0.052281831165922, 51.46921402042376],
        [-0.051686574328161, 51.46970142467322],
        [-0.051687078404275, 51.46975718760521],
        [-0.052173765686473, 51.471210396142475],
        [-0.052756998416967, 51.47293318705852],
        [-0.052699249892257, 51.47800858516332],
        [-0.054328519794647, 51.47860576727542],
        [-0.0536213259254, 51.479791851519934],
        [-0.053521759545068, 51.47996555543167],
        [-0.053573474549309, 51.480273063425344],
        [-0.053573406780093, 51.48034230573234],
        [-0.053413176971481, 51.480317164120095],
        [-0.053358833143638, 51.48030816851885],
        [-0.053506922573202, 51.480381668994156],
        [-0.053514303572871, 51.48047891218195],
        [-0.05318773097059, 51.48097797820876],
        [-0.053156651080598, 51.48103141808671],
        [-0.053168202837366, 51.48103071062389],
        [-0.053260387271008, 51.48103044265977],
        [-0.052942666604388, 51.48264024747033],
        [-0.052811428155031, 51.482644362984644],
        [-0.052857514259608, 51.482745845998025],
        [-0.052959661996491, 51.48274844149622],
        [-0.052922264996847, 51.48345734062526],
        [-0.052800907629633, 51.48346611654621],
        [-0.052982362001676, 51.48356804887688],
        [-0.052984704654421, 51.483580677486124],
        [-0.053040884858366, 51.48483158852542],
        [-0.053097325025186, 51.48516345509378],
        [-0.053551847128755, 51.485516318612895],
        [-0.053560134491866, 51.48579522821387],
        [-0.053140162531557, 51.48584850677945],
        [-0.053079687684293, 51.48598329164361],
        [-0.052949151636204, 51.4860045050591],
        [-0.052856756823575, 51.48644900607138],
        [-0.05284432316507, 51.48647038195235],
        [-0.052933899782495, 51.486734454656556],
        [-0.052994192317543, 51.48684066974477],
        [-0.05332191026489, 51.487025963741026],
        [-0.05340612943488, 51.48707772069093],
        [-0.053728778579482, 51.487517421190766],
        [-0.053977464865564, 51.48793521020363],
        [-0.052889820578237, 51.487633886473105],
        [-0.052631143898203, 51.48755225406954],
        [-0.05217492103637, 51.48781355659286],
        [-0.052119802596143, 51.48782253290256],
        [-0.050644194079773, 51.48787085163441],
        [-0.050464349746754, 51.48793350802863],
        [-0.05016954403258, 51.4883611525773],
        [-0.051958688674356, 51.48913548026725],
        [-0.051466098439699, 51.48943844133938],
        [-0.051151635190098, 51.48955011982268],
        [-0.047595726963947, 51.49044598666004],
        [-0.046567412988937, 51.490744502666594],
        [-0.046566096741977, 51.49047200351072],
        [-0.046567348136641, 51.4903416309601],
        [-0.045927228990134, 51.490219456756606],
        [-0.045831727565585, 51.49016211083124],
        [-0.045135415036233, 51.490377119432736],
        [-0.044758114671743, 51.490441870787286],
        [-0.044552657389687, 51.49012639979008],
        [-0.04449876523758, 51.49010661650458],
        [-0.042357253094195, 51.49002771932121],
        [-0.04222583878811, 51.490035417236065],
        [-0.042508026044796, 51.49024066443082],
        [-0.040343734268678, 51.49106241425657],
        [-0.041055669756839, 51.49182789416772],
        [-0.04007036679901, 51.492163042680644],
        [-0.040563331996507, 51.492794471875726],
        [-0.040370215355165, 51.49282991320049],
        [-0.039966218878241, 51.49294546125662],
        [-0.039093222431616, 51.49291198149222],
        [-0.039051938309938, 51.49290049993789],
        [-0.03802367930343, 51.49235633067345],
        [-0.037989709355798, 51.49234227331892],
        [-0.037376821718605, 51.49222320590193],
        [-0.037315037950433, 51.49221947401522],
        [-0.030435132679915, 51.49345122062747],
        [-0.029947689447916, 51.493563534184055],
        [-0.029333116023781, 51.49218092685692],
        [-0.029006996001558, 51.49162599378054],
        [-0.027516907798649, 51.48970348463326],
        [-0.027285086224098, 51.489434300983206],
        [-0.024843687844246, 51.48759646583206],
        [-0.024692974410653, 51.48748421635279],
        [-0.023517413467646, 51.486822329703124],
        [-0.023444083277545, 51.48678602216965],
        [-0.024201723815789, 51.486186389464535],
        [-0.024611869073635, 51.485861469890516],
        [-0.025029769047693, 51.485290280060326],
        [-0.025201256155024, 51.485021589380416],
        [-0.025739120793487, 51.48257294675802],
        [-0.025819095326909, 51.48218850716762],
        [-0.026368334072788, 51.48157635894847],
        [-0.026408662495083, 51.48150959263225],
        [-0.024719825790622, 51.48119698494042],
        [-0.023161230821345, 51.480737270037956],
        [-0.023120720289547, 51.48024198908412],
        [-0.023070909902968, 51.47962874701855],
        [-0.022523464826471, 51.47969955032359],
        [-0.020367391366762, 51.47993564589151],
        [-0.02041798852137, 51.48023056124002],
        [-0.018583721030282, 51.48081647713701],
        [-0.018400869074519, 51.48084845849733],
        [-0.018161346860065, 51.48085879851574],
        [-0.01787526521732, 51.48088004147168],
        [-0.017067363462018, 51.48038077546538],
        [-0.016859709006421, 51.48028733645934],
        [-0.017105551920383, 51.48003160536558],
        [-0.017231421168596, 51.47998517339184],
        [-0.018376698633796, 51.479877738123825],
        [-0.018443949805274, 51.479854594426676],
        [-0.018897834776287, 51.47951694480298],
        [-0.018964037119627, 51.47945151741682],
        [-0.019166620740999, 51.47816628659967],
        [-0.019201712223603, 51.47795465177075],
        [-0.019097622985474, 51.47733239702679],
        [-0.019118395520482, 51.47725181368623],
        [-0.02045344170703, 51.47681753248197],
        [-0.020578326984889, 51.476727016132486],
        [-0.020775125027832, 51.47650552095933],
        [-0.020791576878514, 51.476458137379076],
        [-0.020700691055914, 51.47592963098474],
        [-0.020652427220535, 51.47584698264377],
        [-0.020746080079129, 51.47567950090756],
        [-0.020846498840541, 51.4755885712522],
        [-0.022763221552612, 51.47535472670568],
        [-0.022767577355211, 51.47535390089225],
        [-0.022918469635034, 51.47519457689158],
        [-0.022930560377411, 51.47508147278667],
        [-0.022803169367561, 51.47446422402197],
        [-0.022811018554413, 51.47428270387756],
        [-0.022645928227265, 51.47427092701686],
        [-0.022617843317108, 51.47408790156504],
        [-0.02267267510644, 51.47398541027393],
        [-0.022449409500498, 51.47408685927227],
        [-0.022341450075006, 51.47408593755329],
        [-0.021870797718858, 51.473947603581564],
        [-0.021772367884819, 51.47402597788072],
        [-0.020934479876294, 51.473589180495885],
        [-0.020836633435972, 51.47352098282277],
        [-0.020665599058797, 51.47321414216627],
        [-0.020647593371857, 51.47319765132365],
        [-0.020117997732546, 51.473123961821244],
        [-0.020050642154261, 51.47308325647749],
        [-0.019978428435954, 51.47292196681687],
        [-0.019983058024164, 51.47284830482882],
        [-0.020299664462218, 51.47228711092829],
        [-0.020245066524926, 51.47218457144096],
        [-0.020051948404366, 51.472055412425995],
        [-0.019999254765459, 51.47204193275619],
        [-0.019398582654556, 51.47204707461522],
        [-0.019345423405109, 51.47201110501948],
        [-0.019152986852303, 51.47146739223506],
        [-0.019110025631022, 51.471229258911045],
        [-0.018884244862776, 51.47118947311919],
        [-0.018827550691174, 51.47110218510836],
        [-0.01895856485197, 51.47106932738044],
        [-0.018981858834167, 51.4710634260835],
        [-0.018792491271962, 51.47074817923134],
        [-0.018671673393807, 51.47064541918411],
        [-0.019199922472566, 51.470550029781556],
        [-0.019272643511135, 51.47049999995286],
        [-0.019018145995207, 51.47005955369399],
        [-0.01911797301483, 51.469948831539234],
        [-0.018700574798492, 51.46971246438053],
        [-0.01847340566203, 51.4696052089496],
        [-0.017508957700496, 51.46943333050305],
        [-0.017273814279597, 51.4694104693665],
        [-0.016949378656955, 51.46905606490271],
        [-0.016558947219782, 51.46922751601011],
        [-0.015301193628345, 51.46815048598726],
        [-0.01509017849574, 51.46803630316658],
        [-0.013476095913672, 51.4687670508766],
        [-0.013128934513736, 51.468936525979316],
        [-0.014046704017304, 51.47005008657875],
        [-0.014097013175962, 51.470118384126074],
        [-0.014860694529681, 51.47139928998596],
        [-0.015184466870548, 51.471768976485755],
        [-0.014534390039088, 51.471917140387546],
        [-0.014528595559616, 51.471917941530506],
        [-0.014540931658567, 51.472131277709266],
        [-0.0145429120215, 51.472151994482836],
        [-0.014257570470133, 51.47252215805522],
        [-0.014069480428079, 51.472675445398465],
        [-0.012873974097348, 51.47235213463394],
        [-0.012518805642321, 51.47234071876269],
        [-0.008614385959284, 51.472754677481035],
        [-0.008143439474023, 51.47275656941322],
        [-0.000983537567782, 51.471811874886576],
        [-0.000359061555583, 51.471834498717335],
        [0.018041189903194, 51.4738447476248],
        [0.018123643340121, 51.47385322038205],
        [0.016029149469871, 51.47331371899102],
        [0.014984943542434, 51.473079873076024],
        [0.015212840282215, 51.47191229453805],
        [0.015357581282961, 51.47156988062995],
        [0.016199277799649, 51.47005272012168],
        [0.016205612652234, 51.47000045321577],
        [0.016605608997099, 51.46963476276508],
        [0.016694306568169, 51.46949115154639],
        [0.016612041464204, 51.46932350285158],
        [0.0165330234158, 51.46913151781279],
        [0.016330578461588, 51.4689812236811],
        [0.014987312679446, 51.469571761001006],
        [0.014545239832688, 51.469701659536845],
        [0.012992508643599, 51.46985243026806],
        [0.012601745173441, 51.469806981107666],
        [0.013051694387393, 51.46828577632526],
        [0.013068954000485, 51.46812181189857],
        [0.012666848542213, 51.46749112970647],
        [0.012691208631512, 51.4673576187791],
        [0.013141500584101, 51.46695690410168],
        [0.013245421612522, 51.46683191883848],
        [0.01159662138318, 51.466269397721405],
        [0.011459489928507, 51.46622858542292],
        [0.00994327333775, 51.46599559885583],
        [0.009097136377403, 51.46587431193371],
        [0.009116347847877, 51.465820026203694],
        [0.009174232181816, 51.465564539387195],
        [0.008987519777175, 51.46485371478913],
        [0.008988103884458, 51.46473589974944],
        [0.009795667717191, 51.462505344473],
        [0.009825072402105, 51.462289913525176],
        [0.009764902565534, 51.461149764390896],
        [0.009747147163135, 51.46087668898701],
        [0.009903525690191, 51.459553871158356],
        [0.009947431283243, 51.459340889275545],
        [0.011484682995078, 51.45668503839891],
        [0.011516161713139, 51.456615253963925],
        [0.013528632696962, 51.455865779061675],
        [0.014030629863568, 51.455726760241895],
        [0.017479692410629, 51.45504605082012],
        [0.017513934426629, 51.45503916655325],
        [0.017502302203398, 51.45418775099141],
        [0.017507603736378, 51.454112120435475],
        [0.018010143075243, 51.45303962476783],
        [0.018041597861636, 51.45300221287408],
        [0.018330500320767, 51.451589869026485],
        [0.018331621451972, 51.451582655498804],
        [0.019289100484793, 51.451688467344894],
        [0.019535944776843, 51.45170489825398],
        [0.019744869339459, 51.45112306275207],
        [0.01987167218154, 51.45073508745695],
        [0.019838435633883, 51.45073206305343],
        [0.015122754905901, 51.45022689574114],
        [0.015009173002988, 51.45062183263676],
        [0.01487599091385, 51.450604337846265],
        [0.015063793732753, 51.450031866772214],
        [0.017293980425982, 51.44952768144041],
        [0.017985480297815, 51.44941236195303],
        [0.021927612001847, 51.44895863907094],
        [0.022131448476939, 51.448718612534456],
        [0.022820146927409, 51.44743335066905],
        [0.022942439832943, 51.447204621844726],
        [0.021531914471661, 51.44677751839071],
        [0.021210059080632, 51.44669134227144],
        [0.021262253150672, 51.445233610110826],
        [0.021263122395416, 51.44499258829173],
        [0.021483411739514, 51.44444112829114],
        [0.020596858101249, 51.44421091129895],
        [0.021098223472168, 51.44340910299907],
        [0.021482904566047, 51.44273520392324],
        [0.024673019519558, 51.441852805034415],
        [0.025004383067023, 51.44179672100242],
        [0.027281145259906, 51.44154333554167],
        [0.027767509812619, 51.44151064178603],
        [0.028895103602876, 51.44162781943752],
        [0.029359008045479, 51.441705220093446],
        [0.029344756380636, 51.44164341647542],
        [0.029082604974153, 51.44147529308746],
        [0.028698999342678, 51.44067707700741],
        [0.028576852829597, 51.44045347162209],
        [0.028725402593262, 51.43974676366335],
        [0.028875901554685, 51.4393763527485],
        [0.028817555523387, 51.43903383737868],
        [0.02881375385598, 51.438785701631225],
        [0.025968167299746, 51.43844013849954],
        [0.024790834995986, 51.43823746147356],
        [0.024871577609349, 51.43755800899941],
        [0.024889345210356, 51.437211478972266],
        [0.02526931865294, 51.43601066887542],
        [0.025375974616692, 51.435689581106445],
        [0.026271559026902, 51.43619208737075],
        [0.027240309517575, 51.43655932850521],
        [0.028642499192764, 51.43641456362191],
        [0.028674009413287, 51.436411320383336],
        [0.029023866105668, 51.43505274502886],
        [0.029065727584769, 51.434666228531675],
        [0.029033459688884, 51.4343601321279],
        [0.028603568203996, 51.43404203367846],
        [0.028584361389816, 51.434030675454416],
        [0.031357669320901, 51.43259055299484],
        [0.031381629994935, 51.4325793463179],
        [0.031046904320313, 51.43220115392847],
        [0.031147622615949, 51.432104084576395],
        [0.031531624960512, 51.43249041537493],
        [0.031587725895681, 51.43255509053101],
        [0.032158978665787, 51.43236263270608],
        [0.032218493474211, 51.43211519741295],
        [0.032451751948382, 51.43189262697725],
        [0.033223711232306, 51.432235353328835],
        [0.033700562277274, 51.43169920106386],
        [0.03766927728627, 51.43333530822656],
        [0.037698549269346, 51.43334648998033],
        [0.037539040237007, 51.43238073545175],
        [0.037487518488512, 51.432225155907574],
        [0.037603159808688, 51.431461452758214],
        [0.037521813925217, 51.43137923364987],
        [0.03827594506758, 51.42879956603803],
        [0.038332231202404, 51.42802790108139],
        [0.037835978926385, 51.42777034305404],
        [0.037857250845518, 51.42760180713649],
        [0.037875937399778, 51.42760148220756],
        [0.038463844966837, 51.427591257923446],
        [0.038570666372903, 51.42669461251257],
        [0.038613256115707, 51.42652030989123],
        [0.038662087468279, 51.42651856118017],
        [0.038772686691683, 51.42651483865043],
        [0.039032689860407, 51.42550491576909],
        [0.039045295151312, 51.42536800527432],
        [0.039029195363431, 51.42478015357467],
        [0.03902866722637, 51.42467134937926],
        [0.038824565737747, 51.42467490030556],
        [0.038666176514711, 51.42463898647392],
        [0.037468782823122, 51.42355818679187],
        [0.036185926298307, 51.42236555017452],
        [0.03400112176834, 51.42389000629261],
        [0.033764158195975, 51.424092860444425],
        [0.030292878666448, 51.42586978031814],
        [0.030084567298866, 51.425973209307536],
        [0.028442903834765, 51.42716710518348],
        [0.027214154128141, 51.42807146111102],
        [0.02606118963367, 51.428738881731825],
        [0.025410522440443, 51.42898933725488],
        [0.024003303996367, 51.428364366623356],
        [0.023718114723887, 51.42825867979717],
        [0.021473303798327, 51.427005152763385],
        [0.021135320882028, 51.42684371556818],
        [0.019494932180498, 51.42702846851274],
        [0.0187752173731, 51.42705076019715],
        [0.017646700485693, 51.426903826886026],
        [0.017435740910838, 51.42684990453245],
        [0.016127506583561, 51.42624741679051],
        [0.016048106891463, 51.42620831501753],
        [0.014493694909207, 51.426189180714594],
        [0.014107561810633, 51.42617513384058],
        [0.014260573004984, 51.42563113700703],
        [0.014395507962919, 51.425232234859706],
        [0.013513036697229, 51.42508552909355],
        [0.013344852268406, 51.42469543271533],
        [0.012224817702059, 51.42418319380583],
        [0.011813409095656, 51.424051767649715],
        [0.011618232913254, 51.42370170055457],
        [0.011261786830069, 51.423609796698344],
        [0.010986125528046, 51.423490426431634],
        [0.01014786069246, 51.42267836843928],
        [0.009966710766789, 51.42248363364718],
        [0.008664673543926, 51.42293581356366],
        [0.008076757278611, 51.4230430110518],
        [0.007502007524303, 51.42177677856244],
        [0.007349381842211, 51.4213792130074],
        [0.006970613946624, 51.42146663541872],
        [0.006848150989933, 51.42149481171479],
        [0.006786232449, 51.42136187919353],
        [0.006722680209, 51.42122447821005],
        [0.006870855634656, 51.42119226460591],
        [0.00673591531954, 51.42093558247936],
        [0.006297829099073, 51.42101502564653],
        [0.006124165728091, 51.42076080431361],
        [0.006053388800539, 51.420688274853525],
        [0.005957106777084, 51.420296037997986],
        [0.005901452901708, 51.42017468842861],
        [0.005506965557314, 51.41970572047928],
        [0.005228127257635, 51.41931570769769],
        [0.005514963870921, 51.4191327417547],
        [0.005373435463909, 51.41902095501796],
        [0.005328785899275, 51.41898664710374],
        [0.005467360401396, 51.41866952748585],
        [0.005672016363697, 51.41851494585913],
        [0.005138900245696, 51.41823000390882],
        [0.003493423464789, 51.41740472928614],
        [0.003213617831285, 51.41758397303366],
        [0.001728789275568, 51.41855808589077],
        [0.000135386997299, 51.4177714432679],
        [-0.000077211276926, 51.417645575226096],
        [-0.000215144174164, 51.41745098667308],
        [-0.000218528335691, 51.41743935377779],
        [-0.000303032962586, 51.41645878158641],
        [-0.000347129312726, 51.41633813117198],
        [-0.000857646382815, 51.41607525860698],
        [-0.000754008063325, 51.415912519366834],
        [-0.000852240200826, 51.4159025045336],
        [-0.003404002111493, 51.415660936182114],
        [-0.003426968060398, 51.41562895337623],
        [-0.003598278745557, 51.41555903023634],
        [-0.003283929315198, 51.4150500776467],
        [-0.00499377148073, 51.414589990178946],
        [-0.00551150301722, 51.415481895933496],
        [-0.005534131268464, 51.41578803623334],
        [-0.005999446847155, 51.41603426382602],
        [-0.00628933084323, 51.415982541309106],
        [-0.006565058958578, 51.4159917283048],
        [-0.006693024161504, 51.414934553356844],
        [-0.006627306392414, 51.414660054413204],
        [-0.008179133485018, 51.41439327572808],
        [-0.008485975978656, 51.41434813103962],
        [-0.009164269184978, 51.41399544792432],
        [-0.00924294577773, 51.413872683899065],
        [-0.010545436113422, 51.41355127844049],
        [-0.011845525128427, 51.41354996134708],
        [-0.013513061781806, 51.41359802458472],
        [-0.014262605601735, 51.41365749057641],
        [-0.014377772623024, 51.4139202329778],
        [-0.014558840211568, 51.413923300855686],
        [-0.014152021462267, 51.41508097399353],
        [-0.014152601758016, 51.41510076796449],
        [-0.01736472238139, 51.41501666697356],
        [-0.017987171987809, 51.415055973073734],
        [-0.017981850128049, 51.415079264305994],
        [-0.017846701416145, 51.41574334379912],
        [-0.020357097233598, 51.4160240868405],
        [-0.020468144039206, 51.41605024317533],
        [-0.020695322319424, 51.415951562692115],
        [-0.021040425867565, 51.41601944110053],
        [-0.021040388164567, 51.41605361302835],
        [-0.021041595737611, 51.416158848946914],
        [-0.021961259708069, 51.41660962602046],
        [-0.022185499311236, 51.41674560456046],
        [-0.021736244991213, 51.417291077489175],
        [-0.022555284547429, 51.417541410636034],
        [-0.021479035793908, 51.41828493359753],
        [-0.021384341915918, 51.41841283084411],
        [-0.021235723667446, 51.419356361577755],
        [-0.021218673421855, 51.41941812383766],
        [-0.020808883980718, 51.41991479930588],
        [-0.020777576161846, 51.41994034961376],
        [-0.021606571379875, 51.42039409385795],
        [-0.021674707329551, 51.420448301433005],
        [-0.020959628722592, 51.42092003936208],
        [-0.0209477811904, 51.4209279327899],
        [-0.022239428067452, 51.421759986382575],
        [-0.02226324139509, 51.42177477668324],
        [-0.022552086860508, 51.421580910544094],
        [-0.022606081197969, 51.421562936769654],
        [-0.02315711849237, 51.422226007325264],
        [-0.023461113996533, 51.422514406916534],
        [-0.024188254107418, 51.42303026305244],
        [-0.024427408587465, 51.42315479778755],
        [-0.025115377068476, 51.42337862208298],
        [-0.025488283149145, 51.42347033661261],
        [-0.025818987360034, 51.42374029506515],
        [-0.025999766974468, 51.42361744146371],
        [-0.02742371586687, 51.424287097322356],
        [-0.027792107363007, 51.42448394374365],
        [-0.027824726458851, 51.424628376820685],
        [-0.02784369513544, 51.4246889475126],
        [-0.030106906581483, 51.425646069726916],
        [-0.030241954911785, 51.425683411304654],
        [-0.03102161185098, 51.42564975003924],
        [-0.03199743497136, 51.42553664443458],
        [-0.03194258769058, 51.42527313500176],
        [-0.031820026767481, 51.42471082819812],
        [-0.033128966180091, 51.42464467370629],
        [-0.033373593734276, 51.42464248396969],
        [-0.034238244476016, 51.42477299642405],
        [-0.034227043193788, 51.42510104400051],
        [-0.036497171479735, 51.424994315579845],
        [-0.037485443106658, 51.42499288304289],
        [-0.038310474893797, 51.424134398905],
        [-0.038476244858287, 51.423958217795295],
        [-0.040711010438334, 51.424306748422225],
        [-0.04106889030153, 51.424246184501214],
        [-0.041712442078698, 51.42382888485668],
        [-0.041607702891888, 51.42365447399285],
        [-0.042836669597937, 51.42323705713976],
        [-0.042871703762786, 51.42322505235333],
        [-0.042942641118312, 51.42338271069097],
        [-0.043015102183781, 51.423403704717465],
        [-0.043779104263845, 51.423162864308715],
        [-0.04382544513495, 51.42315554433769],
        [-0.043690825429281, 51.422905996837294],
        [-0.044429496102765, 51.42275285827451],
        [-0.046288522329491, 51.42236660037603],
        [-0.046265832681981, 51.42262881017222],
        [-0.046018686055549, 51.42262289130158],
        [-0.046017018548967, 51.42276315026293],
        [-0.04601540866457, 51.422800892934546],
        [-0.047231197671776, 51.4228598258018],
        [-0.048553657094496, 51.422845882514814],
        [-0.051253584247505, 51.42253919178362],
        [-0.051773765786785, 51.42251726487201],
        [-0.051764603754707, 51.42296944710401],
        [-0.051809046581805, 51.423581691773244],
        [-0.052531055415916, 51.42361707263627],
        [-0.054780343263509, 51.42372726826968],
        [-0.054891415553358, 51.42348271096878],
        [-0.055154730703449, 51.42293852433332],
        [-0.055792044872394, 51.42307139966306],
        [-0.055807741491419, 51.423074357873496],
        [-0.056735563445173, 51.42297104179055],
        [-0.056788745934581, 51.42297192360017],
        [-0.057747769618116, 51.4231164168529],
        [-0.058125102116895, 51.42317302881298],
        [-0.058121846435749, 51.42318196759527],
        [-0.058080627206641, 51.423272111153686],
        [-0.059985440339539, 51.42394214086994],
        [-0.061423141229244, 51.42446862364607],
        [-0.061574100077403, 51.42467435600958],
        [-0.061445309624315, 51.42479452680309],
        [-0.062327331447884, 51.42512835415747],
        [-0.062603457647357, 51.425197666600326],
        [-0.063489433881493, 51.425302236174936],
        [-0.064429104595692, 51.42532765062902],
        [-0.064531998712185, 51.425071258937066],
        [-0.064604288228059, 51.42506256072992],
        [-0.065841625177573, 51.42532848814762],
        [-0.066062533129428, 51.4250704455962],
        [-0.067967383206149, 51.42581228646641],
        [-0.068006987819042, 51.4258282269406],
        [-0.067934653932911, 51.42590617039343],
        [-0.06791509505044, 51.42592653119842],
        [-0.068663065850103, 51.42599551331823],
        [-0.068690339881783, 51.425996862028995],
        [-0.068842419799639, 51.42583570066792],
        [-0.068881850796808, 51.425616928250875],
        [-0.070805384993858, 51.42622413974354],
        [-0.070876956142051, 51.42623251198143],
        [-0.071926997223457, 51.42630194848337],
        [-0.072218957381981, 51.42630315403652],
        [-0.073935607101081, 51.4261533220275]
      ]
    ]
  }
}
