{
  "type": "Feature",
  "properties": { "name": "Lewisham", "level": 2, "londonBorough": true },
  "geometry": {
    "type": "Polygon",
    "coordinates": [
      [
        [-0.073935607101081, 51.426153322027503],
        [-0.073930389305755, 51.426208991041406],
        [-0.073984763315701, 51.426523729941302],
        [-0.074166141212445, 51.427068071118029],
        [-0.074327048790604, 51.427449307721204],
        [-0.074490709094665, 51.427628253522172],
        [-0.074795683671071, 51.428107178792885],
        [-0.074944221745004, 51.428372205431124],
        [-0.075028557767379, 51.428556142397746],
        [-0.075093302076052, 51.428795512262887],
        [-0.075048385505822, 51.429179662057443],
        [-0.074970250255587, 51.42953269105071],
        [-0.074927698160986, 51.429655192106345],
        [-0.074893542555618, 51.429749054426878],
        [-0.073586072204508, 51.431351653071054],
        [-0.072861704111255, 51.432087038229191],
        [-0.072764020254111, 51.432186150262034],
        [-0.072708708656005, 51.432235599865052],
        [-0.072630091641271, 51.432291860365964],
        [-0.072540086525383, 51.432345235730914],
        [-0.072460825764834, 51.432382600870199],
        [-0.072383342988352, 51.432411901770315],
        [-0.072215929846777, 51.43245860818007],
        [-0.072076853707389, 51.432481500182398],
        [-0.071607755182179, 51.432483675115527],
        [-0.071334937468046, 51.432471092760458],
        [-0.071109903840923, 51.432451202734605],
        [-0.070943171500368, 51.432447559426443],
        [-0.070695285854402, 51.432457867666692],
        [-0.070392956601781, 51.432496954989084],
        [-0.070187216238412, 51.43253133701085],
        [-0.069984161559899, 51.43257025924683],
        [-0.069622278316876, 51.432656924497635],
        [-0.069529130353922, 51.43268236844014],
        [-0.069021580253993, 51.432845768310742],
        [-0.068602180457255, 51.432999827365904],
        [-0.067753295756837, 51.433444463806616],
        [-0.067151552028121, 51.433691733434543],
        [-0.066708747471566, 51.433922737044867],
        [-0.066144279105653, 51.434309103985157],
        [-0.066042945957467, 51.434391963421561],
        [-0.06597400167563, 51.43445737180933],
        [-0.065909028792469, 51.434530939121188],
        [-0.065834290535525, 51.434631323356065],
        [-0.065788045760274, 51.434704300377248],
        [-0.06560676131257, 51.435079002106342],
        [-0.065415756176615, 51.435411277415213],
        [-0.065086392020926, 51.435919323932971],
        [-0.064800290068421, 51.43628869695781],
        [-0.064611156208523, 51.436678555135131],
        [-0.064560284383036, 51.436792821691348],
        [-0.064530567255176, 51.436883157256709],
        [-0.064467172554957, 51.436987325015629],
        [-0.064420283090096, 51.437041406182523],
        [-0.064364918588176, 51.437091750294364],
        [-0.064244884348989, 51.437174299365104],
        [-0.064158191447204, 51.437216931827116],
        [-0.063982765474924, 51.437282378922745],
        [-0.063550734952551, 51.437495563328824],
        [-0.063456737638834, 51.437540772411488],
        [-0.063457402295786, 51.437627113314853],
        [-0.063543570348421, 51.437767024504424],
        [-0.06370071877382, 51.437929690690318],
        [-0.063706837534383, 51.437989143585568],
        [-0.063733510645865, 51.438209006069506],
        [-0.063752247805898, 51.438990781089935],
        [-0.063800959061264, 51.43954014028877],
        [-0.064053529763116, 51.440849152286496],
        [-0.064280033127438, 51.440903252125786],
        [-0.064671286158645, 51.441008632349501],
        [-0.065026169285226, 51.441157475069595],
        [-0.064611675183281, 51.441533720693045],
        [-0.064277522239342, 51.441847443536851],
        [-0.064218781702439, 51.441909422327782],
        [-0.064165754873139, 51.441972394721319],
        [-0.064082746312253, 51.442097820777278],
        [-0.063870376978119, 51.442525962421897],
        [-0.063733590475637, 51.442868123107658],
        [-0.063665496201249, 51.443355301461388],
        [-0.063749735342829, 51.444153445450269],
        [-0.063713333436952, 51.444537731306539],
        [-0.063639978983734, 51.444808998088199],
        [-0.063484088532983, 51.445262352185921],
        [-0.063365086421425, 51.445558044184374],
        [-0.063244682659547, 51.445852813630331],
        [-0.063083889534998, 51.446183785596816],
        [-0.062901422487634, 51.446448752547482],
        [-0.062569033593589, 51.446957641062383],
        [-0.06234319572677, 51.447193113705417],
        [-0.06221989699109, 51.447352044644461],
        [-0.062079712476824, 51.447535875825423],
        [-0.061826917004529, 51.447796081342815],
        [-0.06138354230974, 51.448138565215714],
        [-0.060972646834832, 51.448427628560957],
        [-0.059677639505082, 51.448998818321805],
        [-0.05906151129527, 51.449307858754622],
        [-0.05868748117713, 51.449507597686861],
        [-0.058618922462942, 51.449563116222066],
        [-0.058100632608095, 51.449940317863188],
        [-0.057561283652479, 51.45033875074207],
        [-0.056543419471608, 51.449939690592593],
        [-0.055435475846556, 51.449493264475109],
        [-0.054748735419859, 51.449194104178616],
        [-0.054331246184918, 51.448993832460211],
        [-0.054081300897701, 51.448813426740017],
        [-0.054007561312968, 51.448753750096621],
        [-0.053953904263151, 51.448729478319478],
        [-0.053908341333649, 51.448717930668913],
        [-0.053787802523109, 51.44870963456524],
        [-0.053644965103902, 51.448718054217025],
        [-0.053579674183335, 51.448730459154028],
        [-0.053464568141815, 51.448763619331352],
        [-0.05306998331253, 51.448837101383425],
        [-0.050954592381096, 51.449507874879799],
        [-0.049935494809689, 51.449848835505186],
        [-0.049366399356905, 51.450031810708943],
        [-0.049086624269061, 51.450112585472169],
        [-0.048721722678403, 51.450130792238717],
        [-0.048239787145371, 51.450092193842792],
        [-0.047757929145886, 51.450051796209948],
        [-0.046941449538416, 51.449960858404715],
        [-0.046511446192216, 51.44991952103026],
        [-0.046150745829621, 51.449873042330069],
        [-0.045875218419685, 51.450191287639036],
        [-0.045483148990292, 51.450643379036684],
        [-0.045178885912522, 51.45096024433245],
        [-0.04519642895312, 51.451054960265495],
        [-0.045124222873198, 51.451229113865089],
        [-0.045000608135516, 51.451292699085265],
        [-0.044874022044813, 51.451324760156623],
        [-0.044507940125881, 51.451707138674514],
        [-0.043886164007686, 51.452414382553307],
        [-0.043662772504935, 51.452657054716951],
        [-0.043189653735421, 51.453118577143648],
        [-0.042989340037955, 51.453191671179709],
        [-0.04244565064435, 51.453889419850448],
        [-0.041648633568749, 51.454990303729112],
        [-0.041825105453405, 51.455037315900192],
        [-0.041962049800525, 51.455099854448953],
        [-0.042100355983126, 51.455164214120039],
        [-0.042745557293845, 51.455492430625277],
        [-0.043452245583965, 51.45593138066932],
        [-0.044632325130369, 51.456576962016598],
        [-0.04499577905454, 51.456661260277222],
        [-0.046160351499277, 51.456963046395181],
        [-0.046103175810992, 51.45712216340327],
        [-0.046001621619458, 51.457174426895214],
        [-0.045781355518485, 51.457680641021966],
        [-0.045779917073409, 51.457680617043181],
        [-0.045742705625271, 51.457810390783152],
        [-0.045717367207094, 51.457898096779886],
        [-0.045615574223146, 51.458158087181083],
        [-0.045335714805835, 51.458980748993483],
        [-0.045303469116912, 51.459095317802088],
        [-0.045242637289923, 51.459407249177055],
        [-0.045177004858292, 51.459831509106387],
        [-0.045123242645962, 51.460281146452544],
        [-0.04511411829304, 51.460595738478098],
        [-0.045105587485211, 51.460930124304411],
        [-0.045129047405989, 51.461324395314968],
        [-0.04518852521217, 51.461819085724443],
        [-0.045236826076497, 51.462204778169351],
        [-0.045346334654734, 51.462606778666085],
        [-0.045457247809141, 51.462942256558399],
        [-0.04572036085612, 51.463523074063353],
        [-0.045999078740258, 51.463974656314676],
        [-0.046213776204986, 51.464239921642594],
        [-0.046363603966671, 51.464406085325628],
        [-0.046586746560217, 51.464608541874142],
        [-0.04677298520765, 51.464731247538289],
        [-0.047037526740474, 51.464908314137475],
        [-0.047330498487756, 51.46502650195071],
        [-0.047561666247427, 51.465176033423418],
        [-0.047720804198155, 51.465225445494156],
        [-0.04854015564566, 51.465626671249829],
        [-0.048206076819797, 51.465898084470716],
        [-0.048629118903593, 51.466072390386074],
        [-0.049055769949384, 51.466229668717453],
        [-0.049406725810084, 51.46633892417406],
        [-0.049623073844268, 51.466397378860577],
        [-0.049670053542969, 51.46640985088311],
        [-0.049904990741248, 51.466471312086554],
        [-0.050278527449764, 51.466557559542622],
        [-0.050519987217702, 51.466601142622409],
        [-0.050888438759537, 51.46663784384684],
        [-0.050822240602828, 51.466670915443267],
        [-0.050633984806865, 51.46676400704213],
        [-0.050575133169531, 51.46679360358258],
        [-0.051000238704407, 51.467122609123031],
        [-0.051319603837926, 51.4673653244365],
        [-0.051326567884993, 51.467370835792337],
        [-0.051128238872973, 51.467463760756758],
        [-0.050881395976396, 51.467580159073719],
        [-0.050994494565029, 51.467730418406681],
        [-0.051446360238958, 51.468344035522001],
        [-0.051684337437731, 51.468571008752917],
        [-0.052040909211932, 51.468954625924979],
        [-0.052281831165922, 51.469214020423763],
        [-0.052151296089085, 51.469337749173356],
        [-0.051782449213003, 51.469613990436464],
        [-0.051686574328161, 51.469701424673218],
        [-0.051687078404275, 51.469757187605211],
        [-0.051801467790709, 51.470080126769574],
        [-0.051980512542105, 51.470609172929841],
        [-0.052173765686473, 51.471210396142475],
        [-0.052756998416967, 51.472933187058523],
        [-0.052763032069984, 51.473839747791345],
        [-0.05274746695852, 51.476301680042056],
        [-0.052699249892257, 51.478008585163323],
        [-0.054328519794647, 51.478605767275418],
        [-0.053947278072195, 51.479205545228233],
        [-0.05395295808439, 51.479207438031857],
        [-0.054018469512646, 51.479224712101008],
        [-0.053999784664112, 51.479257674814427],
        [-0.05370798082383, 51.479786095835948],
        [-0.053695396426166, 51.479811066374928],
        [-0.053654081983898, 51.479800488654618],
        [-0.0536213259254, 51.479791851519934],
        [-0.053521759545068, 51.479965555431669],
        [-0.053478119622552, 51.480077239139881],
        [-0.053470205458271, 51.480161638701638],
        [-0.053520278599083, 51.480237108993002],
        [-0.053573221476035, 51.480245181998178],
        [-0.053573474549309, 51.480273063425344],
        [-0.053573406780093, 51.480342305732343],
        [-0.053413176971481, 51.480317164120095],
        [-0.053358833143638, 51.480308168518853],
        [-0.053356766819624, 51.480356694543502],
        [-0.05338823712179, 51.480361713341807],
        [-0.053506922573202, 51.480381668994156],
        [-0.053514303572871, 51.480478912181951],
        [-0.053489378549694, 51.480489289587489],
        [-0.053427785527492, 51.480515245023788],
        [-0.053306025210763, 51.480770413436261],
        [-0.053268576605275, 51.48083813585184],
        [-0.053218887324035, 51.480922741061512],
        [-0.05318773097059, 51.480977978208763],
        [-0.053156651080598, 51.481031418086708],
        [-0.053168202837366, 51.481030710623891],
        [-0.053260387271008, 51.481030442659772],
        [-0.053250680642482, 51.481055460929127],
        [-0.053118782995023, 51.481447149149965],
        [-0.053052711229109, 51.481747305925566],
        [-0.053017504912503, 51.481965242778699],
        [-0.05297443653574, 51.482401570496911],
        [-0.052942666604388, 51.482640247470329],
        [-0.052811428155031, 51.482644362984644],
        [-0.052818693071554, 51.482744302057142],
        [-0.052857514259608, 51.482745845998025],
        [-0.052959661996491, 51.48274844149622],
        [-0.052955926168043, 51.482802335367019],
        [-0.052949510956234, 51.482919133300385],
        [-0.052978656403913, 51.48338453728794],
        [-0.052921491768257, 51.483407868210364],
        [-0.052922264996847, 51.483457340625257],
        [-0.052800907629633, 51.483466116546211],
        [-0.052832640116082, 51.483566461922692],
        [-0.052890210732208, 51.483567417938957],
        [-0.052982362001676, 51.483568048876883],
        [-0.052984704654421, 51.483580677486124],
        [-0.053117977840067, 51.48437424351593],
        [-0.05301365989457, 51.484388698175493],
        [-0.052964379481142, 51.484395973269052],
        [-0.052999963934174, 51.484608790646533],
        [-0.053001173563753, 51.484614206320984],
        [-0.053040884858366, 51.484831588525417],
        [-0.053097325025186, 51.485163455093783],
        [-0.05316909944294, 51.485169143119705],
        [-0.053195818911277, 51.485218147038843],
        [-0.053249341584963, 51.485212740805089],
        [-0.053314823011143, 51.485230913967868],
        [-0.05342308637953, 51.485292962027671],
        [-0.053551847128755, 51.485516318612895],
        [-0.053560134491866, 51.485795228213867],
        [-0.053140162531557, 51.485848506779448],
        [-0.053181245411003, 51.485966093285271],
        [-0.053079687684293, 51.485983291643613],
        [-0.052949151636204, 51.4860045050591],
        [-0.052946418334692, 51.486102479518649],
        [-0.052940507650175, 51.486275040179613],
        [-0.052920326008838, 51.486343049173264],
        [-0.052893981162572, 51.48638667567716],
        [-0.052856756823575, 51.486449006071382],
        [-0.05284432316507, 51.486470381952351],
        [-0.052880513466615, 51.486601376277505],
        [-0.052901690279948, 51.486679064677709],
        [-0.052933899782495, 51.486734454656556],
        [-0.052994192317543, 51.486840669744772],
        [-0.053030505763645, 51.48686735137322],
        [-0.053156068089789, 51.486962959661305],
        [-0.053186065247897, 51.486968853287237],
        [-0.053254542721579, 51.48698437841287],
        [-0.05332191026489, 51.487025963741026],
        [-0.05340612943488, 51.487077720690927],
        [-0.053515385752104, 51.48721802110893],
        [-0.053564524521347, 51.487281785305456],
        [-0.053728778579482, 51.487517421190766],
        [-0.053977464865564, 51.487935210203631],
        [-0.052889820578237, 51.487633886473105],
        [-0.052631143898203, 51.487552254069541],
        [-0.052622086368524, 51.487561995556355],
        [-0.052500502033492, 51.487711052716193],
        [-0.052412820534327, 51.487774343467613],
        [-0.05217492103637, 51.487813556592862],
        [-0.052119802596143, 51.487822532902563],
        [-0.051750260254571, 51.48780740093634],
        [-0.051308441807441, 51.487798260810266],
        [-0.051115699120624, 51.487825632523638],
        [-0.050770001011333, 51.487926898900362],
        [-0.050738027575248, 51.487933561511134],
        [-0.050644194079773, 51.487870851634412],
        [-0.050464349746754, 51.487933508028632],
        [-0.050384458097313, 51.488016710615391],
        [-0.050308922707917, 51.488099086316012],
        [-0.050344179488598, 51.488116758559237],
        [-0.050108722753863, 51.488334961796099],
        [-0.05016954403258, 51.488361152577298],
        [-0.051958688674356, 51.489135480267251],
        [-0.051466098439699, 51.489438441339381],
        [-0.051151635190098, 51.489550119822681],
        [-0.050817456655347, 51.489617405796153],
        [-0.05034520802022, 51.48974714230387],
        [-0.049657421050731, 51.489864299540322],
        [-0.049713025802271, 51.489945258912158],
        [-0.049358306267952, 51.490021191757002],
        [-0.049260903099406, 51.490042053027828],
        [-0.049220097426985, 51.489985619782601],
        [-0.047550009764388, 51.490369687226085],
        [-0.047595726963947, 51.490445986660042],
        [-0.046567412988937, 51.490744502666594],
        [-0.046566096741977, 51.490472003510718],
        [-0.046567348136641, 51.490341630960103],
        [-0.046164390445758, 51.490366391752325],
        [-0.045927228990134, 51.490219456756606],
        [-0.045831727565585, 51.490162110831243],
        [-0.045521777481372, 51.490235181127865],
        [-0.04511574498982, 51.490331828262192],
        [-0.045135415036233, 51.490377119432736],
        [-0.044758114671743, 51.490441870787286],
        [-0.04473702707113, 51.49036238384366],
        [-0.044576474619587, 51.490142084470442],
        [-0.044552657389687, 51.490126399790078],
        [-0.04449876523758, 51.490106616504583],
        [-0.042740688297338, 51.490021530338751],
        [-0.042357253094195, 51.490027719321212],
        [-0.04222583878811, 51.490035417236065],
        [-0.042508026044796, 51.490240664430821],
        [-0.040343734268678, 51.491062414256568],
        [-0.041055669756839, 51.49182789416772],
        [-0.04007036679901, 51.492163042680644],
        [-0.040563331996507, 51.492794471875726],
        [-0.04055302397427, 51.492799695222573],
        [-0.040370215355165, 51.492829913200488],
        [-0.039966218878241, 51.492945461256618],
        [-0.039934240414882, 51.492952120861553],
        [-0.039902261942409, 51.492958780457634],
        [-0.039870322008555, 51.492964541423994],
        [-0.039836942516542, 51.492970278318211],
        [-0.039803640114497, 51.492974217961077],
        [-0.039771777257464, 51.492978181658593],
        [-0.039737035293915, 51.492982097218238],
        [-0.039703809977447, 51.492984239590896],
        [-0.039687936369143, 51.492984873495864],
        [-0.039654749600724, 51.492986117233755],
        [-0.039620123280084, 51.492987336896213],
        [-0.039587013615215, 51.492986783373361],
        [-0.03955394250538, 51.492985331220403],
        [-0.039519431847426, 51.492983854990904],
        [-0.039486399297679, 51.492981504198227],
        [-0.039453405307525, 51.492978254775593],
        [-0.039420411322311, 51.492975005343709],
        [-0.039386016349322, 51.492970833213072],
        [-0.039353099490566, 51.492965786521047],
        [-0.039320182639318, 51.492960739819871],
        [-0.039287304354761, 51.492954794488902],
        [-0.039255865628132, 51.492948873219291],
        [-0.039223025921358, 51.492942029249882],
        [-0.039191625773302, 51.492935209342647],
        [-0.039174466873646, 51.492932224624738],
        [-0.039133105588289, 51.492922540339698],
        [-0.039093222431616, 51.49291198149222],
        [-0.039051938309938, 51.492900499937889],
        [-0.039013571867896, 51.49288816789565],
        [-0.03897380446545, 51.4928749131467],
        [-0.038935476632463, 51.492861682458852],
        [-0.03889862693426, 51.492847577213105],
        [-0.038860376281243, 51.492832549260299],
        [-0.038823603766338, 51.492816646750633],
        [-0.038788270821269, 51.492800768305798],
        [-0.038751536926832, 51.49278396715362],
        [-0.038717682145476, 51.492767214144209],
        [-0.038707798196365, 51.492762552503095],
        [-0.03866690002018, 51.492742084612196],
        [-0.038627479994055, 51.49272074216519],
        [-0.038589576690647, 51.492697626543269],
        [-0.038551634852358, 51.492675409529681],
        [-0.03851377019895, 51.492651395263643],
        [-0.038478823236658, 51.492626530525321],
        [-0.038443876312321, 51.492601665776888],
        [-0.038410368962637, 51.492576825099057],
        [-0.038386745518895, 51.492556646080274],
        [-0.038234979249952, 51.492467777698671],
        [-0.038123995416685, 51.49240207307524],
        [-0.038091542098054, 51.492386242593668],
        [-0.038057610689568, 51.492371286638367],
        [-0.03802367930343, 51.492356330673452],
        [-0.037989709355798, 51.492342273318918],
        [-0.037954299900745, 51.492328191868509],
        [-0.037917373769237, 51.492315883560856],
        [-0.037883288127244, 51.492304522035937],
        [-0.037846362034434, 51.492292213706286],
        [-0.037809358787137, 51.492281702605005],
        [-0.037770916030595, 51.492271167403771],
        [-0.037732434703271, 51.492261530809969],
        [-0.037693876213394, 51.492253691443409],
        [-0.037653839621123, 51.492246726594239],
        [-0.037650999160197, 51.492245779794558],
        [-0.0376209234865, 51.492241679422861],
        [-0.037590809226858, 51.492238477663278],
        [-0.037560656379509, 51.49223617451581],
        [-0.037530503535408, 51.492233871360618],
        [-0.037500350694554, 51.492231568197695],
        [-0.037475917362943, 51.492230260015226],
        [-0.037376821718605, 51.492223205901929],
        [-0.037315037950433, 51.492219474015222],
        [-0.03523867920263, 51.492633436233859],
        [-0.033327273139678, 51.492996172512619],
        [-0.033304047027216, 51.493000279305349],
        [-0.033247754869295, 51.492868941600605],
        [-0.032910879974983, 51.492930735964798],
        [-0.032550313718927, 51.493007419397138],
        [-0.032581171200721, 51.493026821710785],
        [-0.032412829590982, 51.493055471503496],
        [-0.032064513267357, 51.493115272937018],
        [-0.03193800285751, 51.493176098379863],
        [-0.031060964386445, 51.493336732450324],
        [-0.030435132679915, 51.49345122062747],
        [-0.029947689447916, 51.493563534184055],
        [-0.029815077132205, 51.493030738999245],
        [-0.029769226435632, 51.492924754455508],
        [-0.029629743987434, 51.492685004452063],
        [-0.029333116023781, 51.492180926856918],
        [-0.029006996001558, 51.491625993780538],
        [-0.028386957373132, 51.49080533075206],
        [-0.028169592586306, 51.490501320623906],
        [-0.027846003061327, 51.490055237888782],
        [-0.027516907798649, 51.48970348463326],
        [-0.027285086224098, 51.489434300983206],
        [-0.027103857240779, 51.489294563308292],
        [-0.026797500953488, 51.489016930432328],
        [-0.02659857165018, 51.488853513137009],
        [-0.025981682805934, 51.488395294387487],
        [-0.025122200764823, 51.487784607561068],
        [-0.024843687844246, 51.487596465832063],
        [-0.024692974410653, 51.48748421635279],
        [-0.024399022710372, 51.487320093688169],
        [-0.024143275243713, 51.48717190159595],
        [-0.023824546049486, 51.486981281165882],
        [-0.023554098036574, 51.486840034146518],
        [-0.023517413467646, 51.486822329703124],
        [-0.023444083277545, 51.486786022169653],
        [-0.024201723815789, 51.486186389464535],
        [-0.024611869073635, 51.485861469890516],
        [-0.024733849178547, 51.485705253621724],
        [-0.024759948481488, 51.485667924022692],
        [-0.024847309114591, 51.485546195902522],
        [-0.025029769047693, 51.485290280060326],
        [-0.025201256155024, 51.485021589380416],
        [-0.02520716584126, 51.484984818917603],
        [-0.025222190941018, 51.484637055194845],
        [-0.025289617267234, 51.484343230790593],
        [-0.02529594529577, 51.484196756643982],
        [-0.025578047913183, 51.483434431443442],
        [-0.025739120793487, 51.482572946758019],
        [-0.025819095326909, 51.482188507167621],
        [-0.025882950130986, 51.482043900787978],
        [-0.025952098972977, 51.481943447656981],
        [-0.026065082811164, 51.481828444890255],
        [-0.026368334072788, 51.481576358948473],
        [-0.026408662495083, 51.48150959263225],
        [-0.024719825790622, 51.481196984940418],
        [-0.023161230821345, 51.480737270037956],
        [-0.023120720289547, 51.480241989084121],
        [-0.023070909902968, 51.479628747018552],
        [-0.022523464826471, 51.479699550323588],
        [-0.020367391366762, 51.479935645891508],
        [-0.02041798852137, 51.48023056124002],
        [-0.020014638624418, 51.480365835198612],
        [-0.018934683957553, 51.480727084957323],
        [-0.018727715730669, 51.480783838899583],
        [-0.018583721030282, 51.480816477137012],
        [-0.018400869074519, 51.480848458497327],
        [-0.018161346860065, 51.48085879851574],
        [-0.01787526521732, 51.480880041471679],
        [-0.017644585785615, 51.480719668696437],
        [-0.017116524857619, 51.480409484232489],
        [-0.017067363462018, 51.480380775465377],
        [-0.016859709006421, 51.480287336459341],
        [-0.016860020866009, 51.480280147575847],
        [-0.016910322031051, 51.480182977940622],
        [-0.016961786098919, 51.480125395822448],
        [-0.017027329448394, 51.480075245954829],
        [-0.017105551920383, 51.480031605365582],
        [-0.017231421168596, 51.479985173391839],
        [-0.017463668181602, 51.479943237845305],
        [-0.017644454529836, 51.479925611353742],
        [-0.017768608534023, 51.479918717675133],
        [-0.017951610592271, 51.47991641575458],
        [-0.018292411675061, 51.479895198234431],
        [-0.018376698633796, 51.479877738123825],
        [-0.018443949805274, 51.479854594426676],
        [-0.018517580570031, 51.479817170190188],
        [-0.018572580594544, 51.47977763252559],
        [-0.018632988381219, 51.479713006669932],
        [-0.018897834776287, 51.479516944802981],
        [-0.018964037119627, 51.47945151741682],
        [-0.018997722308055, 51.479405324532706],
        [-0.019029230113235, 51.47934290799784],
        [-0.019061597652525, 51.479194176093245],
        [-0.019131347096662, 51.478947156069005],
        [-0.019128359805523, 51.478783438515826],
        [-0.019139375499081, 51.478595677250276],
        [-0.019118650506743, 51.478475724234208],
        [-0.019133903947328, 51.478323106077191],
        [-0.019166620740999, 51.478166286599667],
        [-0.019201712223603, 51.477954651770752],
        [-0.019165821060742, 51.47778588195996],
        [-0.019095628116037, 51.477577864003152],
        [-0.019082368299605, 51.477518288165342],
        [-0.019067477906458, 51.477396635153369],
        [-0.019097622985474, 51.477332397026792],
        [-0.019118395520482, 51.47725181368623],
        [-0.019165146995811, 51.477203143692634],
        [-0.019261758480378, 51.477167006518911],
        [-0.019411847638892, 51.477126377025272],
        [-0.019561274811367, 51.477101023747053],
        [-0.019709962305356, 51.477092743913587],
        [-0.01989505462181, 51.477041913759656],
        [-0.020045648724436, 51.476989601479133],
        [-0.020212499831667, 51.476927671548935],
        [-0.020336723807749, 51.476885704857445],
        [-0.02045344170703, 51.476817532481967],
        [-0.020578326984889, 51.476727016132486],
        [-0.02067034773221, 51.476630549227565],
        [-0.020760462264165, 51.476544841310357],
        [-0.020775125027832, 51.476505520959329],
        [-0.020791576878514, 51.476458137379076],
        [-0.020768475743543, 51.476359727001849],
        [-0.02075661476502, 51.476234528268478],
        [-0.020753114650425, 51.476215584515863],
        [-0.020727252402138, 51.476114429705405],
        [-0.020700691055914, 51.475929630984737],
        [-0.020652427220535, 51.475846982643773],
        [-0.020707537585115, 51.475771475060093],
        [-0.020746080079129, 51.47567950090756],
        [-0.020846498840541, 51.475588571252203],
        [-0.020943805707517, 51.475536257591614],
        [-0.021075453439556, 51.475522292812258],
        [-0.021390085465009, 51.475506020403145],
        [-0.021599204844908, 51.475498758021104],
        [-0.021799729140296, 51.475490450978405],
        [-0.022026349462492, 51.475478087494771],
        [-0.022158696418216, 51.475447946441143],
        [-0.02231814981095, 51.475390385105548],
        [-0.022527968115763, 51.475366946003632],
        [-0.022763221552612, 51.475354726705682],
        [-0.022767577355211, 51.475353900892252],
        [-0.022887166947442, 51.475319047530988],
        [-0.02292453898194, 51.47525403103927],
        [-0.022918469635034, 51.475194576891582],
        [-0.022930560377411, 51.47508147278667],
        [-0.022830519399177, 51.474730869112896],
        [-0.022801655142087, 51.474532542994382],
        [-0.022803169367561, 51.474464224021972],
        [-0.022811018554413, 51.474282703877563],
        [-0.022645928227265, 51.47427092701686],
        [-0.022611582362433, 51.474099486480043],
        [-0.022617843317108, 51.474087901565042],
        [-0.02267267510644, 51.473985410273933],
        [-0.022506457856095, 51.473966420044185],
        [-0.022449409500498, 51.474086859272269],
        [-0.022341450075006, 51.474085937553291],
        [-0.022188455154514, 51.474060875015269],
        [-0.02210153498623, 51.47403962477685],
        [-0.022031998776706, 51.474015969940027],
        [-0.021884992704361, 51.473952339426411],
        [-0.021870797718858, 51.473947603581564],
        [-0.021772367884819, 51.474025977880721],
        [-0.0215776436292, 51.473933664464049],
        [-0.021644961770796, 51.473875448570283],
        [-0.021463150163341, 51.473817525104138],
        [-0.02123451543383, 51.473743523521648],
        [-0.021141101691722, 51.473705976106345],
        [-0.021052277119716, 51.473662211184347],
        [-0.020934479876294, 51.473589180495885],
        [-0.020836633435972, 51.47352098282277],
        [-0.02079653832655, 51.47348253663187],
        [-0.020767915741385, 51.473445183368845],
        [-0.020750687857305, 51.473410720269015],
        [-0.020736143608534, 51.473347525822547],
        [-0.020665599058797, 51.47321414216627],
        [-0.020647593371857, 51.473197651323652],
        [-0.020620837537124, 51.473183710563937],
        [-0.020553753328275, 51.473169988203416],
        [-0.02032749428446, 51.473174261442388],
        [-0.020225876346868, 51.473159955782016],
        [-0.020117997732546, 51.473123961821244],
        [-0.020050642154261, 51.473083256477487],
        [-0.020004520874233, 51.473017730127985],
        [-0.019989976975065, 51.47298780858835],
        [-0.019978428435954, 51.47292196681687],
        [-0.019983058024164, 51.472848304828823],
        [-0.020006081979804, 51.472782147647315],
        [-0.020041666833213, 51.472725195289662],
        [-0.020082656996368, 51.472676427636159],
        [-0.020155964135509, 51.472612918101781],
        [-0.020337228899545, 51.472417240158357],
        [-0.020327701877916, 51.472371216500967],
        [-0.020299664462218, 51.472287110928292],
        [-0.020245066524926, 51.472184571440962],
        [-0.020145163360435, 51.472097453740922],
        [-0.020109969597651, 51.472078874014628],
        [-0.020051948404366, 51.472055412425995],
        [-0.019999254765459, 51.472041932756191],
        [-0.019893322823862, 51.472027553933437],
        [-0.019398582654556, 51.472047074615219],
        [-0.019345423405109, 51.472011105019483],
        [-0.019319174653592, 51.471985482001884],
        [-0.019285226860619, 51.47193814641453],
        [-0.019152986852303, 51.471467392235063],
        [-0.019110025631022, 51.471229258911045],
        [-0.019023270936592, 51.471137866014999],
        [-0.018884244862776, 51.471189473119189],
        [-0.018827550691174, 51.471102185108357],
        [-0.01895856485197, 51.471069327380441],
        [-0.018981858834167, 51.471063426083496],
        [-0.018945196140185, 51.470879355350633],
        [-0.018792491271962, 51.470748179231343],
        [-0.018671673393807, 51.470645419184109],
        [-0.018937512550252, 51.470524912812948],
        [-0.019031693643594, 51.470611035644914],
        [-0.019090336691437, 51.470586846911786],
        [-0.019199922472566, 51.470550029781556],
        [-0.019272643511135, 51.470499999952857],
        [-0.019166802611719, 51.470250912294027],
        [-0.019020906840369, 51.470062298155931],
        [-0.019018145995207, 51.470059553693993],
        [-0.01911797301483, 51.469948831539234],
        [-0.018700574798492, 51.469712464380528],
        [-0.01847340566203, 51.469605208949602],
        [-0.018200388903958, 51.469525954754786],
        [-0.017887123652375, 51.469478393224328],
        [-0.017743867669247, 51.469461582845874],
        [-0.017508957700496, 51.469433330503051],
        [-0.017273814279597, 51.469410469366501],
        [-0.017161594284415, 51.46934202540988],
        [-0.017161672206951, 51.469340228185303],
        [-0.017140443852775, 51.469298502678278],
        [-0.0171138500201, 51.469247693707693],
        [-0.016949378656955, 51.469056064902709],
        [-0.016558947219782, 51.469227516010108],
        [-0.016467349220844, 51.469048809879908],
        [-0.01641637504443, 51.468995789715692],
        [-0.016269633639267, 51.468860214726597],
        [-0.015904452897634, 51.468549182139427],
        [-0.015806663640773, 51.468480081797068],
        [-0.01555975875772, 51.468330220836911],
        [-0.015456176489449, 51.468261921409592],
        [-0.015301193628345, 51.468150485987259],
        [-0.01509017849574, 51.468036303166578],
        [-0.015026678748423, 51.468039724422383],
        [-0.01465253882818, 51.468233926817753],
        [-0.014493837809852, 51.46830767732115],
        [-0.014108032290615, 51.468472004466548],
        [-0.013476095913672, 51.4687670508766],
        [-0.013128934513736, 51.468936525979316],
        [-0.013473973407835, 51.469379418948485],
        [-0.013716812571924, 51.469656012703403],
        [-0.013840918307403, 51.469782214720837],
        [-0.014046704017304, 51.470050086578752],
        [-0.014097013175962, 51.470118384126074],
        [-0.014422882832862, 51.470671559786041],
        [-0.014860694529681, 51.47139928998596],
        [-0.015184466870548, 51.471768976485755],
        [-0.014754580114192, 51.471886696741066],
        [-0.014534390039088, 51.471917140387546],
        [-0.014528595559616, 51.471917941530506],
        [-0.014540931658567, 51.472131277709266],
        [-0.0145429120215, 51.472151994482836],
        [-0.014257570470133, 51.47252215805522],
        [-0.014069480428079, 51.472675445398465],
        [-0.013671364508821, 51.472492444029982],
        [-0.013363187116055, 51.472393698257619],
        [-0.013143897523917, 51.472370198289745],
        [-0.012873974097348, 51.472352134633937],
        [-0.012518805642321, 51.472340718762688],
        [-0.011678683351778, 51.472388523808384],
        [-0.010322322714784, 51.472552561837553],
        [-0.010078009635802, 51.472607767365254],
        [-0.009071726084467, 51.472734567168573],
        [-0.008895829769851, 51.472739673537951],
        [-0.008614385959284, 51.472754677481035],
        [-0.008143439474023, 51.472756569413221],
        [-0.007362780845553, 51.472629096504733],
        [-0.006954579582491, 51.472578992994727],
        [-0.006689248603635, 51.47255469824772],
        [-0.005630396775761, 51.472400901135117],
        [-0.003598026925482, 51.472118112247301],
        [-0.002349620575289, 51.47195296398278],
        [-0.001496500444909, 51.471836806926106],
        [-0.001324348829836, 51.471822181743292],
        [-0.001192170921273, 51.471815431995232],
        [-0.000983537567782, 51.471811874886576],
        [-0.000359061555583, 51.471834498717335],
        [-0.000005678548651, 51.471848254964115],
        [0.000365717726334, 51.47187878899328],
        [0.000878019966108, 51.47193749246847],
        [0.001636305359073, 51.472023468908681],
        [0.002842843087439, 51.472152143086475],
        [0.003759073651994, 51.472260587190249],
        [0.004544825883534, 51.472348773254019],
        [0.005411630332054, 51.472446358980797],
        [0.007489712658134, 51.472681476420405],
        [0.009218835046531, 51.472872178573141],
        [0.010148376515556, 51.472955165094994],
        [0.012088940318473, 51.473172774920762],
        [0.013563667489455, 51.47334080055704],
        [0.014356847787473, 51.47343328983569],
        [0.01525110989896, 51.473532129801107],
        [0.017040200117959, 51.473742369433467],
        [0.018041189903194, 51.473844747624803],
        [0.018123643340121, 51.473853220382047],
        [0.017780596520525, 51.473715240863648],
        [0.016552734869802, 51.47343151225764],
        [0.016194846228595, 51.473348639176123],
        [0.016029149469871, 51.473313718991022],
        [0.014984943542434, 51.473079873076024],
        [0.014953197249434, 51.472816931204989],
        [0.014995242540924, 51.472529339958101],
        [0.015079040304627, 51.472274304232485],
        [0.015212840282215, 51.471912294538051],
        [0.015357581282961, 51.47156988062995],
        [0.015515850622679, 51.471273096964779],
        [0.015893115675049, 51.470620031877061],
        [0.016143840720103, 51.470166982157728],
        [0.016196149986137, 51.470079752168296],
        [0.016199277799649, 51.470052720121679],
        [0.016205612652234, 51.470000453215768],
        [0.016291278308887, 51.4699513183646],
        [0.016347442667165, 51.469918877791265],
        [0.016463928975002, 51.469850327951505],
        [0.016605608997099, 51.469634762765082],
        [0.016694306568169, 51.469491151546393],
        [0.01662318548327, 51.469445612611104],
        [0.016612041464204, 51.46932350285158],
        [0.0165330234158, 51.469131517812791],
        [0.016330578461588, 51.468981223681098],
        [0.016111917723076, 51.469116278351791],
        [0.016041842005425, 51.469159749348236],
        [0.016030371601225, 51.469160845870206],
        [0.015960189634689, 51.46916924690688],
        [0.015849868188743, 51.46921430909979],
        [0.015831468437409, 51.469254193585932],
        [0.015528247949533, 51.469365521358029],
        [0.015263001401899, 51.469456411533685],
        [0.014987312679446, 51.469571761001006],
        [0.014545239832688, 51.469701659536845],
        [0.014358502440556, 51.469744436260072],
        [0.014025168078749, 51.469793328246631],
        [0.013756063481833, 51.469829425475922],
        [0.013587608067941, 51.469829621017347],
        [0.013496925650423, 51.469830279190397],
        [0.013486113127735, 51.469879025733086],
        [0.013481149299145, 51.469897096481127],
        [0.012992508643599, 51.469852430268062],
        [0.012601745173441, 51.469806981107666],
        [0.012889883165864, 51.468796645019516],
        [0.013013461804121, 51.468431216085534],
        [0.013051694387393, 51.46828577632526],
        [0.013068954000485, 51.46812181189857],
        [0.013053147754268, 51.467991688416632],
        [0.012976782095818, 51.467892280842058],
        [0.012779950912797, 51.467738287164401],
        [0.012692882605955, 51.467624674754028],
        [0.012666848542213, 51.467491129706467],
        [0.012691208631512, 51.467357618779097],
        [0.012764864620358, 51.467264628175798],
        [0.013012686214627, 51.467072424675898],
        [0.013141500584101, 51.466956904101679],
        [0.013245421612522, 51.46683191883848],
        [0.01315359808302, 51.466806517396165],
        [0.012974346462168, 51.466757437376742],
        [0.012837528722035, 51.46672381549282],
        [0.012746377894695, 51.466713689863077],
        [0.012483130247945, 51.466653461290434],
        [0.012089579409241, 51.466478562796205],
        [0.01180854799854, 51.466341300273093],
        [0.01159662138318, 51.466269397721405],
        [0.011459489928507, 51.466228585422918],
        [0.011302770658577, 51.466200698869969],
        [0.010913534553459, 51.466123743427687],
        [0.010753978141317, 51.466096804084579],
        [0.010484886263266, 51.466067246643775],
        [0.00994327333775, 51.465995598855827],
        [0.009097136377403, 51.46587431193371],
        [0.009116347847877, 51.465820026203694],
        [0.009174232181816, 51.465564539387195],
        [0.009138880800146, 51.465316945343986],
        [0.009067862169052, 51.465109530626307],
        [0.008987519777175, 51.464853714789129],
        [0.008988103884458, 51.464735899749442],
        [0.009017758322879, 51.464657154640186],
        [0.009048969685273, 51.464581080665923],
        [0.009120931589895, 51.464449452535469],
        [0.009269143746353, 51.464087202360382],
        [0.009279880631696, 51.464036658929913],
        [0.009310196423469, 51.463841895896529],
        [0.009380437079535, 51.463638355062223],
        [0.009532763055139, 51.463271537592014],
        [0.009617856521488, 51.463012886189759],
        [0.009719641744376, 51.462773732621237],
        [0.009795667717191, 51.462505344473001],
        [0.009825072402105, 51.462289913525176],
        [0.009843972797877, 51.462064770619286],
        [0.009823294845711, 51.461725198973504],
        [0.009804726940064, 51.46140087881917],
        [0.009764902565534, 51.461149764390896],
        [0.009747147163135, 51.460876688987007],
        [0.009823816344029, 51.460295341741997],
        [0.009867132878539, 51.459839565552301],
        [0.009903525690191, 51.459553871158356],
        [0.009947431283243, 51.459340889275545],
        [0.010113892161685, 51.459034079831888],
        [0.010311065573283, 51.458672786885579],
        [0.010442988611934, 51.458464590282041],
        [0.010645239358901, 51.458087921940098],
        [0.010796191043712, 51.457854218791972],
        [0.010998854309436, 51.457519808678811],
        [0.01123371205513, 51.457197435698539],
        [0.01125682143986, 51.457166463817252],
        [0.011375442171777, 51.457016047978669],
        [0.01141494273958, 51.456965010741669],
        [0.011481630389282, 51.456877535934908],
        [0.011485361820211, 51.456765961630488],
        [0.011483876728676, 51.456699440656742],
        [0.011484682995078, 51.456685038398909],
        [0.011516161713139, 51.456615253963925],
        [0.011518998929939, 51.456614306002784],
        [0.011700422516978, 51.45655004195595],
        [0.011915259765102, 51.456460024417026],
        [0.012288543804477, 51.456307035167548],
        [0.012606718008188, 51.456177472801386],
        [0.012979112535601, 51.456037086461819],
        [0.013160334051576, 51.455968327207501],
        [0.013528632696962, 51.455865779061675],
        [0.014030629863568, 51.455726760241895],
        [0.014197292768648, 51.455687026353033],
        [0.014395282117504, 51.455639559699577],
        [0.014813309274713, 51.45555503774623],
        [0.015316235452485, 51.455469954022576],
        [0.016024377175, 51.455338173712974],
        [0.017479692410629, 51.455046050820123],
        [0.017513934426629, 51.455039166553249],
        [0.017472873748299, 51.454793471216774],
        [0.017452313690388, 51.454751559022455],
        [0.017428639357759, 51.45470430475666],
        [0.017438188661713, 51.45459442856302],
        [0.017438715693605, 51.454573736111087],
        [0.017462620180369, 51.454430339590097],
        [0.017478425619377, 51.454364420314569],
        [0.017495154229475, 51.454286794539939],
        [0.017502302203398, 51.454187750991409],
        [0.017507603736378, 51.454112120435475],
        [0.017604035518727, 51.453818195518203],
        [0.017703636013378, 51.453596158169844],
        [0.017858966316866, 51.453267046641976],
        [0.017928128222045, 51.453138158639135],
        [0.018010143075243, 51.453039624767833],
        [0.018041597861636, 51.453002212874082],
        [0.018330500320767, 51.451589869026485],
        [0.018331621451972, 51.451582655498804],
        [0.019289100484793, 51.451688467344894],
        [0.019535944776843, 51.451704898253979],
        [0.019639689725906, 51.45134879525223],
        [0.019710689050246, 51.451196493219243],
        [0.019744869339459, 51.451123062752067],
        [0.01987167218154, 51.450735087456948],
        [0.019838435633883, 51.450732063053429],
        [0.015122754905901, 51.450226895741139],
        [0.015009173002988, 51.450621832636763],
        [0.01487599091385, 51.450604337846265],
        [0.015063793732753, 51.450031866772214],
        [0.017293980425982, 51.449527681440408],
        [0.017985480297815, 51.44941236195303],
        [0.019165582297388, 51.449280529391942],
        [0.020467203216381, 51.449130403351873],
        [0.02156735115509, 51.449013413803428],
        [0.021927612001847, 51.448958639070938],
        [0.022131448476939, 51.448718612534456],
        [0.0221406107741, 51.448665397023397],
        [0.022179315660723, 51.448531636043292],
        [0.02219679753702, 51.448438708729746],
        [0.02229383717738, 51.448257178815766],
        [0.022401728230588, 51.448125821209224],
        [0.022459515538936, 51.448033097711466],
        [0.022678721066777, 51.447652517437803],
        [0.022820146927409, 51.447433350669051],
        [0.022942439832943, 51.447204621844726],
        [0.022751115661571, 51.447141376940131],
        [0.021531914471661, 51.446777518390711],
        [0.021210059080632, 51.446691342271443],
        [0.021233995636859, 51.445701722548193],
        [0.021262253150672, 51.445233610110826],
        [0.021263122395416, 51.444992588291733],
        [0.021421116717091, 51.444659828214313],
        [0.021496512214676, 51.44444449947558],
        [0.021483411739514, 51.444441128291139],
        [0.020596858101249, 51.444210911298953],
        [0.021098223472168, 51.44340910299907],
        [0.021482904566047, 51.442735203923242],
        [0.021554006726702, 51.442715992058204],
        [0.022074409184487, 51.442573922158857],
        [0.022776160242131, 51.442367569430274],
        [0.023259137820251, 51.442192866708766],
        [0.023638528033517, 51.442083799308385],
        [0.02417381206849, 51.441953153693106],
        [0.024417585043776, 51.441901281777568],
        [0.024673019519558, 51.441852805034415],
        [0.025004383067023, 51.441796721002419],
        [0.025416227420534, 51.441738346061122],
        [0.026217901165981, 51.441644454393519],
        [0.026662250981115, 51.441605297294856],
        [0.026852454130007, 51.441578627099624],
        [0.027281145259906, 51.441543335541667],
        [0.027767509812619, 51.441510641786031],
        [0.028216001994103, 51.441532558190168],
        [0.028563321397251, 51.441576907371264],
        [0.028648793117625, 51.441589816573554],
        [0.028880565542761, 51.441624473964907],
        [0.028895103602876, 51.441627819437521],
        [0.029359008045479, 51.441705220093446],
        [0.029344756380636, 51.441643416475422],
        [0.029082604974153, 51.441475293087457],
        [0.029085771495889, 51.441384410921785],
        [0.028970156881079, 51.441275800798415],
        [0.028883065225809, 51.441128927051544],
        [0.028821023416709, 51.440930360648302],
        [0.028698999342678, 51.440677077007408],
        [0.028576852829597, 51.440453471622092],
        [0.028571017028955, 51.440191881920747],
        [0.028725402593262, 51.439746763663351],
        [0.028875901554685, 51.439376352748504],
        [0.028865857861439, 51.439214656034466],
        [0.028817555523387, 51.43903383737868],
        [0.02881375385598, 51.438785701631225],
        [0.028689188399029, 51.438767174267468],
        [0.025989309036365, 51.43836513275896],
        [0.025968167299746, 51.438440138499537],
        [0.024790834995986, 51.438237461473562],
        [0.0247628162075, 51.438157010248396],
        [0.024784233755042, 51.43792552514266],
        [0.024871577609349, 51.43755800899941],
        [0.024889345210356, 51.437211478972266],
        [0.02493026587575, 51.437095664076132],
        [0.025028968873281, 51.436822375989031],
        [0.025126184820063, 51.436775732264351],
        [0.025289108157754, 51.436100255012484],
        [0.02528559678232, 51.43608592719329],
        [0.02526931865294, 51.436010668875419],
        [0.025375974616692, 51.435689581106445],
        [0.025500245522435, 51.435734196180917],
        [0.025744720946862, 51.435991661769812],
        [0.026271559026902, 51.436192087370749],
        [0.027240309517575, 51.436559328505211],
        [0.027653093635137, 51.436555785235129],
        [0.027690474286082, 51.436555138547781],
        [0.027701344357489, 51.436508187871823],
        [0.027992802614227, 51.4364941523773],
        [0.028526601875445, 51.436429159495688],
        [0.028642499192764, 51.436414563621909],
        [0.028674009413287, 51.436411320383336],
        [0.02867788458605, 51.436401361214934],
        [0.028867805874234, 51.43591426040129],
        [0.02896826011439, 51.435486262056671],
        [0.029023866105668, 51.435052745028862],
        [0.029065727584769, 51.434666228531675],
        [0.029033459688884, 51.4343601321279],
        [0.028916509648782, 51.434220969492706],
        [0.028603568203996, 51.434042033678459],
        [0.028584361389816, 51.434030675454416],
        [0.029107893315939, 51.433767116165534],
        [0.029607537258972, 51.433516558104543],
        [0.029897353285178, 51.433368553182085],
        [0.029861894507539, 51.433347584540527],
        [0.030053708675904, 51.433228254948546],
        [0.030167688483357, 51.43313815103533],
        [0.030273477152904, 51.433090455152573],
        [0.03050186360435, 51.433017253933009],
        [0.031118420648857, 51.432710706822959],
        [0.031357669320901, 51.432590552994839],
        [0.031381629994935, 51.432579346317901],
        [0.031046904320313, 51.432201153928467],
        [0.031147622615949, 51.432104084576395],
        [0.031350265309326, 51.432293918203996],
        [0.03143008459335, 51.432374369423613],
        [0.031531624960512, 51.432490415374929],
        [0.031587725895681, 51.432555090531011],
        [0.032158978665787, 51.432362632706081],
        [0.032218493474211, 51.432115197412948],
        [0.032451751948382, 51.431892626977252],
        [0.033223711232306, 51.432235353328835],
        [0.033700562277274, 51.431699201063857],
        [0.034646033611318, 51.432093763388977],
        [0.037209433164276, 51.433153553453685],
        [0.03766927728627, 51.43333530822656],
        [0.037698549269346, 51.43334648998033],
        [0.037627242282167, 51.432907980393516],
        [0.037590375373476, 51.432758441097306],
        [0.037551823954367, 51.432474038633494],
        [0.037550662622636, 51.432415605432013],
        [0.037539040237007, 51.432380735451751],
        [0.037487518488512, 51.432225155907574],
        [0.037485634056982, 51.432085799806615],
        [0.037517922416941, 51.431776784413685],
        [0.037504175918256, 51.431597166785494],
        [0.037603159808688, 51.431461452758214],
        [0.037521813925217, 51.431379233649871],
        [0.037612608197069, 51.431188805712424],
        [0.037651975957145, 51.431103588655198],
        [0.037719172716472, 51.430964830026795],
        [0.037804045534418, 51.43060903676227],
        [0.037814224211476, 51.430546809238187],
        [0.037832506175752, 51.430440375936357],
        [0.037919422693654, 51.430227533057362],
        [0.038015603268938, 51.430028917539971],
        [0.03817037847888, 51.429498346658328],
        [0.038112916852382, 51.429467871023256],
        [0.038119544418355, 51.429455165800405],
        [0.038221470281856, 51.429224075958217],
        [0.03829788061445, 51.429001523329845],
        [0.03827594506758, 51.42879956603803],
        [0.038332231202404, 51.428027901081393],
        [0.038266066725753, 51.427995778320707],
        [0.038166161448454, 51.427948954488812],
        [0.037831108801487, 51.427790211975491],
        [0.037835978926385, 51.427770343054043],
        [0.037857250845518, 51.42760180713649],
        [0.037875937399778, 51.427601482207557],
        [0.038463844966837, 51.427591257923446],
        [0.038436663394889, 51.427174463049248],
        [0.038570666372903, 51.42669461251257],
        [0.038613256115707, 51.426520309891231],
        [0.038662087468279, 51.426518561180167],
        [0.038772686691683, 51.426514838650426],
        [0.038819299909407, 51.42623704829785],
        [0.038826833855835, 51.426083139676443],
        [0.038940866787627, 51.426091947220954],
        [0.038943101522036, 51.426077519797971],
        [0.039004916235408, 51.425688852934591],
        [0.039021596435599, 51.425578850071666],
        [0.039032689860407, 51.425504915769089],
        [0.039045295151312, 51.425368005274322],
        [0.039039446645749, 51.425139688870132],
        [0.039029195363431, 51.424780153574673],
        [0.03902866722637, 51.42467134937926],
        [0.038824565737747, 51.424674900305561],
        [0.038666176514711, 51.424638986473923],
        [0.037468782823122, 51.423558186791873],
        [0.036185926298307, 51.422365550174518],
        [0.034960652882142, 51.423115252577738],
        [0.034565993156218, 51.423394587854446],
        [0.034336899572148, 51.423612594406528],
        [0.03400112176834, 51.423890006292609],
        [0.033764158195975, 51.424092860444425],
        [0.033517452780584, 51.424238328988288],
        [0.033240920842232, 51.42439240802468],
        [0.032894356390163, 51.424556694055966],
        [0.032506461584803, 51.424794537793595],
        [0.032335533203422, 51.424864948327979],
        [0.032161570127814, 51.424931814097398],
        [0.031468534429138, 51.425360197414285],
        [0.031211912695566, 51.425509430006542],
        [0.030780607125345, 51.42567697690879],
        [0.030292878666448, 51.425869780318138],
        [0.030084567298866, 51.425973209307536],
        [0.029948124310379, 51.426075393111404],
        [0.029580388684032, 51.426444173033886],
        [0.02912082067952, 51.426753390525796],
        [0.028442903834765, 51.427167105183479],
        [0.027214154128141, 51.428071461111017],
        [0.026909464941425, 51.428240400386372],
        [0.02606118963367, 51.428738881731825],
        [0.025410522440443, 51.428989337254883],
        [0.025339894017642, 51.428953687261959],
        [0.025080897582424, 51.428822371181326],
        [0.024459458604964, 51.428530049403847],
        [0.024205891503411, 51.42842381751705],
        [0.024003303996367, 51.428364366623356],
        [0.023718114723887, 51.428258679797167],
        [0.023707266441396, 51.428208507337992],
        [0.023478941828318, 51.42808744951131],
        [0.023193423488712, 51.427876551134865],
        [0.022948249442791, 51.427764775975305],
        [0.022528440675474, 51.427607452960906],
        [0.022264582981373, 51.427495998814415],
        [0.021893462724957, 51.427300962859739],
        [0.021670936778297, 51.427180700793024],
        [0.021513879706966, 51.427109668842505],
        [0.021537938562859, 51.427035512755403],
        [0.021473303798327, 51.427005152763385],
        [0.021135320882028, 51.426843715568182],
        [0.021042453771086, 51.426825532882589],
        [0.020912650016763, 51.426817879151756],
        [0.020905502576734, 51.426818901681415],
        [0.020201820290326, 51.426911069659631],
        [0.019962592414861, 51.426966452176998],
        [0.019689935623366, 51.427046690893832],
        [0.019494932180498, 51.427028468512738],
        [0.0187752173731, 51.427050760197147],
        [0.018587809100742, 51.427009024163006],
        [0.018340912369096, 51.426955722400137],
        [0.018140437255271, 51.426943886969703],
        [0.017893845898315, 51.426930147386422],
        [0.017646700485693, 51.426903826886026],
        [0.017435740910838, 51.426849904532453],
        [0.017215207470598, 51.426774563839622],
        [0.016886221561941, 51.426621053153632],
        [0.016127506583561, 51.42624741679051],
        [0.016048106891463, 51.426208315017533],
        [0.015673684021797, 51.426166194146639],
        [0.014981621416317, 51.426162807131853],
        [0.014566883924703, 51.426185224806325],
        [0.014493694909207, 51.426189180714594],
        [0.014107561810633, 51.42617513384058],
        [0.014260573004984, 51.425631137007031],
        [0.014395507962919, 51.425232234859706],
        [0.013513036697229, 51.42508552909355],
        [0.013344852268406, 51.424695432715332],
        [0.012226294519602, 51.424184067730039],
        [0.012224817702059, 51.424183193805831],
        [0.011813409095656, 51.424051767649715],
        [0.011618232913254, 51.423701700554567],
        [0.011261786830069, 51.423609796698344],
        [0.010986125528046, 51.423490426431634],
        [0.010690198035856, 51.423269784490543],
        [0.01014786069246, 51.422678368439279],
        [0.009966710766789, 51.422483633647182],
        [0.008928189964355, 51.422844066467],
        [0.008664673543926, 51.422935813563662],
        [0.008076757278611, 51.423043011051803],
        [0.00784038307079, 51.422474219246105],
        [0.007502007524303, 51.421776778562439],
        [0.007349381842211, 51.421379213007398],
        [0.006970613946624, 51.421466635418717],
        [0.006848150989933, 51.421494811714787],
        [0.006786232449, 51.421361879193533],
        [0.006722680209, 51.42122447821005],
        [0.006870855634656, 51.421192264605907],
        [0.00673591531954, 51.420935582479359],
        [0.006297829099073, 51.421015025646533],
        [0.006124165728091, 51.420760804313609],
        [0.006053388800539, 51.420688274853525],
        [0.006023780427632, 51.420603350011916],
        [0.006006144297275, 51.420463364109658],
        [0.005957106777084, 51.420296037997986],
        [0.005901452901708, 51.420174688428609],
        [0.005843869142909, 51.420074954601425],
        [0.005725038624826, 51.419923211432881],
        [0.005619555519857, 51.419813505911904],
        [0.005506965557314, 51.419705720479278],
        [0.005228127257635, 51.419315707697692],
        [0.005514963870921, 51.419132741754701],
        [0.005373435463909, 51.419020955017963],
        [0.005328785899275, 51.418986647103743],
        [0.005467360401396, 51.418669527485847],
        [0.005672016363697, 51.41851494585913],
        [0.005557163518899, 51.418453961808282],
        [0.005138900245696, 51.418230003908818],
        [0.003493423464789, 51.41740472928614],
        [0.003213617831285, 51.417583973033658],
        [0.001728789275568, 51.418558085890773],
        [0.001076490296516, 51.418276959863199],
        [0.000848392245014, 51.41815855238864],
        [0.000599743504968, 51.418030603222142],
        [0.000518017028719, 51.417937573942844],
        [0.000135386997299, 51.417771443267902],
        [-0.000077211276926, 51.417645575226096],
        [-0.000132596383465, 51.417562887327335],
        [-0.000149032554063, 51.417548779327774],
        [-0.000164031569339, 51.417534646800974],
        [-0.000176156285877, 51.417520465222808],
        [-0.000188320216751, 51.41750538503225],
        [-0.000199086217435, 51.417489381704925],
        [-0.000200641026193, 51.417486710396197],
        [-0.000206938702429, 51.417474227938996],
        [-0.000211760010837, 51.417462619568241],
        [-0.000215144174164, 51.417450986673082],
        [-0.000218528335691, 51.417439353777787],
        [-0.000220514574775, 51.417426797747211],
        [-0.000221063671261, 51.417414217192494],
        [-0.000221573546214, 51.417402535248783],
        [-0.000223559782589, 51.417389979218079],
        [-0.000224069656463, 51.417378297274318],
        [-0.000226055890918, 51.417365741243493],
        [-0.000226604984684, 51.417353160688585],
        [-0.000280061977417, 51.417051015408219],
        [-0.00031747987288, 51.416556150395266],
        [-0.000316631029531, 51.416542646704073],
        [-0.000303032962586, 51.416458781586407],
        [-0.000347129312726, 51.416338131171983],
        [-0.000511340154624, 51.416266292800024],
        [-0.000875074075722, 51.416104332882874],
        [-0.000857646382815, 51.41607525860698],
        [-0.000754008063325, 51.415912519366834],
        [-0.000852240200826, 51.415902504533598],
        [-0.003404002111493, 51.415660936182114],
        [-0.003426968060398, 51.415628953376228],
        [-0.003598278745557, 51.415559030236338],
        [-0.003492642216019, 51.415309928517203],
        [-0.003283929315198, 51.415050077646697],
        [-0.00499377148073, 51.414589990178946],
        [-0.005020389473783, 51.414672277815995],
        [-0.005026753186776, 51.414691271033554],
        [-0.005049159310523, 51.414705141670943],
        [-0.005147367195478, 51.414761669570019],
        [-0.005153485842365, 51.414819327652559],
        [-0.005162350871638, 51.414913003688213],
        [-0.00522548288348, 51.414982423628977],
        [-0.005416012645726, 51.415296817572823],
        [-0.00551150301722, 51.415481895933496],
        [-0.005534131268464, 51.415788036233337],
        [-0.005999446847155, 51.41603426382602],
        [-0.006064282680847, 51.415998496537874],
        [-0.006111443060747, 51.415972320556847],
        [-0.00628933084323, 51.415982541309106],
        [-0.006565058958578, 51.415991728304803],
        [-0.006681799441733, 51.415490117380472],
        [-0.00670347845287, 51.415190126663546],
        [-0.006693024161504, 51.414934553356844],
        [-0.006627306392414, 51.414660054413204],
        [-0.007584901294492, 51.414499181198615],
        [-0.007692024889799, 51.414483016867166],
        [-0.007847000991653, 51.414457773850842],
        [-0.008179133485018, 51.414393275728081],
        [-0.008485975978656, 51.414348131039617],
        [-0.008704892222161, 51.414274513109042],
        [-0.008923464010998, 51.414175709087964],
        [-0.009052196278981, 51.414092464682646],
        [-0.009164269184978, 51.413995447924322],
        [-0.00924294577773, 51.413872683899065],
        [-0.010545436113422, 51.413551278440487],
        [-0.011845525128427, 51.41354996134708],
        [-0.012790584974919, 51.413577681791175],
        [-0.013513061781806, 51.413598024584722],
        [-0.014262605601735, 51.413657490576412],
        [-0.014265581431335, 51.413787936477831],
        [-0.01426608389371, 51.413809527691257],
        [-0.01438881275388, 51.413831391410113],
        [-0.014377772623024, 51.413920232977802],
        [-0.014558840211568, 51.413923300855686],
        [-0.014309690762047, 51.414927171182867],
        [-0.01430794215435, 51.414934335785382],
        [-0.014274811523481, 51.414935572956473],
        [-0.014152387461368, 51.414939793395497],
        [-0.014152021462267, 51.415080973993533],
        [-0.014152601758016, 51.415100767964489],
        [-0.014426153405185, 51.415093712572926],
        [-0.015223856669843, 51.415037981248666],
        [-0.015846309703573, 51.415010752165912],
        [-0.016462546978702, 51.414994205915278],
        [-0.016569085369208, 51.414991512752231],
        [-0.016885476302749, 51.414991471627822],
        [-0.01736472238139, 51.415016666973557],
        [-0.017987171987809, 51.415055973073734],
        [-0.017981850128049, 51.415079264305994],
        [-0.017846701416145, 51.415743343799122],
        [-0.020261314705902, 51.415977504871123],
        [-0.020306370541447, 51.415999848688465],
        [-0.020357097233598, 51.416024086840501],
        [-0.020468144039206, 51.416050243175327],
        [-0.020540698632198, 51.41603528172071],
        [-0.020582878877796, 51.415991030281155],
        [-0.020596356384262, 51.41597866803275],
        [-0.020695322319424, 51.415951562692115],
        [-0.021040425867565, 51.416019441100531],
        [-0.021040388164567, 51.416053613028353],
        [-0.021041595737611, 51.416158848946914],
        [-0.021460427103248, 51.416351172183887],
        [-0.021494916710041, 51.416318481191524],
        [-0.021718649124878, 51.416466142698127],
        [-0.021961259708069, 51.41660962602046],
        [-0.022185499311236, 51.416745604560461],
        [-0.021736244991213, 51.417291077489175],
        [-0.022555284547429, 51.417541410636034],
        [-0.021972278831821, 51.417853513123511],
        [-0.021634826582866, 51.418107708148987],
        [-0.021479035793908, 51.418284933597533],
        [-0.021384341915918, 51.418412830844112],
        [-0.021308644016717, 51.41860040107273],
        [-0.021265730686337, 51.418828093023031],
        [-0.021235723667446, 51.419356361577755],
        [-0.021218673421855, 51.419418123837659],
        [-0.021192844529855, 51.419483334977073],
        [-0.021088241950212, 51.419607467561526],
        [-0.021041476396143, 51.419691209958053],
        [-0.021011995274012, 51.419741071666827],
        [-0.020904322100226, 51.419836375356574],
        [-0.020808883980718, 51.419914799305879],
        [-0.020777576161846, 51.419940349613761],
        [-0.021039818634513, 51.420095856834287],
        [-0.021098901957848, 51.420126530674274],
        [-0.021339470169241, 51.420251095785915],
        [-0.021606571379875, 51.420394093857951],
        [-0.021674707329551, 51.420448301433005],
        [-0.021633261211016, 51.420475479378148],
        [-0.020959628722592, 51.42092003936208],
        [-0.0209477811904, 51.420927932789901],
        [-0.021324199165605, 51.421170798675348],
        [-0.022102297600644, 51.421671341508684],
        [-0.022239428067452, 51.421759986382575],
        [-0.02226324139509, 51.421774776683243],
        [-0.022355922809524, 51.421693607212191],
        [-0.022394805378513, 51.421659191536875],
        [-0.022552086860508, 51.421580910544094],
        [-0.022606081197969, 51.421562936769654],
        [-0.022718237551734, 51.421697022825867],
        [-0.022933227938795, 51.42194795106721],
        [-0.023113451236485, 51.422171314125357],
        [-0.02315711849237, 51.422226007325264],
        [-0.023461113996533, 51.422514406916534],
        [-0.023706525826148, 51.422727177819006],
        [-0.023926604446425, 51.422860384686857],
        [-0.024188254107418, 51.423030263052439],
        [-0.024427408587465, 51.423154797787546],
        [-0.024770169581124, 51.423278380425437],
        [-0.025115377068476, 51.423378622082978],
        [-0.025488283149145, 51.42347033661261],
        [-0.025598154532438, 51.423557618920384],
        [-0.025665680180154, 51.423626202231034],
        [-0.025748896431247, 51.423664474421571],
        [-0.025771429440387, 51.423675645318333],
        [-0.025777725479827, 51.423696434734765],
        [-0.025796768544817, 51.423755208485964],
        [-0.025818987360034, 51.423740295065151],
        [-0.025999766974468, 51.423617441463712],
        [-0.026015268125354, 51.423624896766817],
        [-0.026190015762499, 51.423708774840556],
        [-0.026836250590827, 51.42400023102212],
        [-0.027040876395448, 51.42409180504584],
        [-0.027179339563782, 51.424149891046056],
        [-0.02742371586687, 51.424287097322356],
        [-0.027792107363007, 51.424483943743653],
        [-0.027794479163488, 51.424495674245037],
        [-0.027810772277773, 51.424584976752911],
        [-0.027824726458851, 51.424628376820685],
        [-0.02784369513544, 51.4246889475126],
        [-0.027895209175973, 51.424695210013439],
        [-0.028413604734605, 51.424916161094842],
        [-0.029469606975956, 51.425379961887423],
        [-0.02964471558793, 51.42545574729278],
        [-0.029793248167933, 51.425513999432695],
        [-0.030106906581483, 51.425646069726916],
        [-0.030241954911785, 51.425683411304654],
        [-0.030299181489837, 51.425690668024167],
        [-0.030425056843738, 51.425707171885072],
        [-0.030599603814811, 51.425695716675293],
        [-0.03102161185098, 51.425649750039241],
        [-0.03199743497136, 51.42553664443458],
        [-0.03194258769058, 51.42527313500176],
        [-0.031820026767481, 51.424710828198123],
        [-0.032367164481294, 51.424698432723858],
        [-0.032994950609816, 51.42468379119034],
        [-0.033128966180091, 51.42464467370629],
        [-0.033373593734276, 51.424642483969691],
        [-0.033587187248658, 51.424659557078414],
        [-0.033586801479323, 51.424668543359118],
        [-0.033587863159328, 51.424710827113074],
        [-0.033662453622547, 51.424715675707347],
        [-0.034239015761835, 51.42475502385593],
        [-0.034238244476016, 51.424772996424053],
        [-0.034227043193788, 51.425101044000513],
        [-0.034261733905644, 51.425097129486609],
        [-0.03449303087988, 51.425070433377485],
        [-0.034884061970536, 51.425008645691442],
        [-0.035610647823298, 51.425004639440282],
        [-0.035873963658731, 51.425002757706778],
        [-0.036157249129002, 51.425004807104749],
        [-0.036497171479735, 51.424994315579845],
        [-0.037485443106658, 51.42499288304289],
        [-0.037757625220189, 51.424716866725355],
        [-0.038085450884264, 51.424384227688137],
        [-0.038310474893797, 51.424134398904997],
        [-0.038476244858287, 51.423958217795295],
        [-0.038617314202088, 51.42398935556291],
        [-0.038963404779823, 51.424069786909698],
        [-0.039537324747403, 51.424204387908247],
        [-0.039810443182498, 51.424242229413181],
        [-0.039920814596445, 51.424251269567478],
        [-0.040315650622647, 51.424301936785461],
        [-0.040711010438334, 51.424306748422225],
        [-0.04106889030153, 51.424246184501214],
        [-0.041192474775685, 51.424181703798901],
        [-0.041353722659239, 51.42407738506278],
        [-0.041666461901648, 51.423861389709636],
        [-0.041712442078698, 51.423828884856682],
        [-0.041607702891888, 51.423654473992848],
        [-0.042836669597937, 51.423237057139758],
        [-0.042871703762786, 51.423225052353331],
        [-0.042942641118312, 51.423382710690973],
        [-0.043015102183781, 51.423403704717465],
        [-0.043319409851718, 51.423283786568845],
        [-0.043554586495321, 51.423199583860196],
        [-0.043779104263845, 51.423162864308715],
        [-0.04382544513495, 51.423155544337689],
        [-0.043690825429281, 51.422905996837294],
        [-0.044429496102765, 51.422752858274507],
        [-0.046288522329491, 51.42236660037603],
        [-0.046265832681981, 51.42262881017222],
        [-0.046018686055549, 51.422622891301579],
        [-0.046017018548967, 51.422763150262931],
        [-0.04601540866457, 51.422800892934546],
        [-0.046890870150817, 51.422812788084599],
        [-0.047241890347826, 51.422811443171526],
        [-0.047241698814885, 51.422815936349977],
        [-0.047231197671776, 51.422859825801801],
        [-0.048553657094496, 51.422845882514814],
        [-0.048747028041003, 51.422831116688847],
        [-0.049104006149034, 51.422791196618391],
        [-0.04933233234851, 51.422766220412633],
        [-0.049769035999915, 51.422745610744016],
        [-0.050007843874885, 51.422710915635356],
        [-0.050380898608979, 51.422664964259951],
        [-0.050487699022237, 51.422622676468819],
        [-0.050737714312202, 51.422561188099884],
        [-0.051253584247505, 51.422539191783621],
        [-0.051773765786785, 51.422517264872013],
        [-0.051762077755865, 51.422690630352058],
        [-0.051764603754707, 51.422969447104009],
        [-0.051809046581805, 51.423581691773244],
        [-0.051865027949686, 51.423584420887295],
        [-0.052531055415916, 51.423617072636269],
        [-0.054780343263509, 51.42372726826968],
        [-0.054788331552927, 51.423708516124442],
        [-0.054891415553358, 51.423482710968777],
        [-0.055154730703449, 51.422938524333318],
        [-0.055792044872394, 51.423071399663058],
        [-0.055807741491419, 51.423074357873496],
        [-0.055830725015658, 51.42300729367566],
        [-0.055840035693127, 51.422991261215529],
        [-0.05631062589645, 51.422985577655837],
        [-0.056414993074438, 51.422966625230025],
        [-0.056430804079991, 51.422966887435372],
        [-0.056580404333435, 51.422966670440545],
        [-0.056735563445173, 51.422971041790547],
        [-0.056788745934581, 51.422971923600173],
        [-0.057014286846702, 51.423012533170279],
        [-0.057747769618116, 51.423116416852899],
        [-0.058125102116895, 51.423173028812982],
        [-0.058121846435749, 51.423181967595269],
        [-0.058080627206641, 51.423272111153686],
        [-0.058130173463913, 51.423290917553345],
        [-0.058430326628643, 51.423403803144012],
        [-0.05927512689208, 51.423698368497362],
        [-0.059603957336934, 51.423813524455845],
        [-0.059874845733495, 51.423904339233957],
        [-0.059985440339539, 51.42394214086994],
        [-0.061423141229244, 51.424468623646071],
        [-0.061493224627593, 51.42451204864814],
        [-0.061484622740849, 51.424579351773723],
        [-0.061574100077403, 51.424674356009582],
        [-0.061445309624315, 51.42479452680309],
        [-0.061638061603552, 51.42486246245808],
        [-0.061977607472191, 51.424996673577489],
        [-0.062166048802832, 51.425064537070654],
        [-0.062327331447884, 51.425128354157472],
        [-0.062603457647357, 51.425197666600326],
        [-0.062618858264034, 51.425173640842331],
        [-0.062813209805296, 51.425203831565796],
        [-0.062921505174142, 51.425228103308136],
        [-0.06346231866275, 51.425263119462002],
        [-0.063460685013508, 51.425301761152042],
        [-0.063489433881493, 51.425302236174936],
        [-0.064429104595692, 51.425327650629022],
        [-0.064531998712185, 51.425071258937066],
        [-0.064604288228059, 51.42506256072992],
        [-0.06466257768452, 51.425078810899734],
        [-0.064870203693232, 51.425135296281425],
        [-0.064874581558078, 51.425201914660612],
        [-0.064876621233346, 51.425221732312245],
        [-0.065058303301785, 51.425245415210142],
        [-0.0650768761802, 51.42524841965534],
        [-0.065287800774022, 51.425260894442573],
        [-0.065535643629383, 51.425284769470331],
        [-0.065841625177573, 51.42532848814762],
        [-0.066062533129428, 51.425070445596198],
        [-0.066742904354937, 51.425343358462442],
        [-0.066931923224784, 51.425397734690819],
        [-0.067469434019089, 51.425613431348872],
        [-0.067967383206149, 51.42581228646641],
        [-0.068006987819042, 51.425828226940602],
        [-0.067934653932911, 51.425906170393432],
        [-0.06791509505044, 51.425926531198421],
        [-0.068244082802927, 51.425970622815022],
        [-0.068663065850103, 51.425995513318227],
        [-0.068690339881783, 51.425996862028995],
        [-0.068787412690952, 51.425912131593506],
        [-0.068842419799639, 51.425835700667918],
        [-0.068881850796808, 51.425616928250875],
        [-0.069229027976309, 51.425741351932167],
        [-0.06960665728357, 51.425894153541932],
        [-0.070274430237079, 51.426091299410736],
        [-0.070317062295518, 51.426103691860632],
        [-0.070344033586853, 51.426112229367391],
        [-0.070359656519684, 51.426116982942716],
        [-0.070400813293629, 51.426130250343078],
        [-0.070443407567413, 51.42614354139517],
        [-0.070484564390073, 51.426156808766564],
        [-0.070527158713476, 51.426170099788685],
        [-0.070571266246206, 51.426181617164808],
        [-0.07061397417687, 51.426192212213053],
        [-0.070659594935053, 51.426201955925009],
        [-0.07066530699417, 51.426202949225861],
        [-0.070735289201625, 51.426214892476978],
        [-0.070805384993858, 51.426224139743539],
        [-0.070876956142051, 51.426232511981432],
        [-0.070948603010124, 51.426239086880322],
        [-0.070982988973039, 51.426242350654022],
        [-0.071054673717649, 51.426248026840561],
        [-0.071126396324007, 51.426252804335562],
        [-0.071198194629326, 51.426255784491012],
        [-0.071346028035015, 51.426263612931074],
        [-0.071550793204292, 51.42628586701769],
        [-0.071926997223457, 51.426301948483371],
        [-0.072218957381981, 51.426303154036518],
        [-0.072380484858644, 51.426293221003],
        [-0.072788729145126, 51.426265762407418],
        [-0.073071949943964, 51.426235347663876],
        [-0.073395268634842, 51.426209188469173],
        [-0.073651669257891, 51.426200813205199],
        [-0.073812665596042, 51.42616928698174],
        [-0.073858929460442, 51.426163752416805],
        [-0.073906668581381, 51.426157342807649],
        [-0.073935607101081, 51.426153322027503]
      ]
    ]
  }
}
