{
  "type": "Feature",
  "properties": {
    "name": "Merton",
    "level": 2,
    "londonBorough": true,
    "center": [-0.1958, 51.4014]
  },
  "geometry": {
    "type": "Polygon",
    "coordinates": [
      [
        [-0.134319514379137, 51.39093463575997],
        [-0.134378981967648, 51.390886122869105],
        [-0.134628309301179, 51.39094045143864],
        [-0.134721274933, 51.39095182336135],
        [-0.134868605544691, 51.39096945620836],
        [-0.134974622925142, 51.390907295693424],
        [-0.135178426412307, 51.39084399361255],
        [-0.135527807744918, 51.390735346536076],
        [-0.135822019165503, 51.39064020898554],
        [-0.136143143946543, 51.390519420041954],
        [-0.136466701698555, 51.390409460137164],
        [-0.136703392325928, 51.390350275537635],
        [-0.136878439028574, 51.39032248393993],
        [-0.137360913259266, 51.39029868030106],
        [-0.137380134006062, 51.39028549682585],
        [-0.137408301645691, 51.39026436215824],
        [-0.137411283946297, 51.39026171176174],
        [-0.137659039253514, 51.39024856379465],
        [-0.137836191602384, 51.39023968886511],
        [-0.138032929256981, 51.39020864320049],
        [-0.139084650484498, 51.38989981638787],
        [-0.139378317091447, 51.38985322177408],
        [-0.139605836079377, 51.389807374716526],
        [-0.139706784634244, 51.38979908554668],
        [-0.13997866404432, 51.3897935098406],
        [-0.140230470325981, 51.389786715631764],
        [-0.14053828044259, 51.38974573821397],
        [-0.140666920922954, 51.38972799573062],
        [-0.141028172883977, 51.38960962877229],
        [-0.14182101760647, 51.389374906341814],
        [-0.141903728763742, 51.389355534850424],
        [-0.142064776266326, 51.389566718716154],
        [-0.142196011105679, 51.389662323409254],
        [-0.143183689476725, 51.39040188960857],
        [-0.143233527449268, 51.39041347058592],
        [-0.144378371470515, 51.390679804529206],
        [-0.146738295749975, 51.39043568363429],
        [-0.146998989005478, 51.3903157077867],
        [-0.147120535110405, 51.39026007681659],
        [-0.147165281790169, 51.39025538880114],
        [-0.148080504758293, 51.39015744925591],
        [-0.150321584192084, 51.38993655743357],
        [-0.151639712389912, 51.38982696440058],
        [-0.15247644740641, 51.38975023409588],
        [-0.15248114322402, 51.38977638686309],
        [-0.15267254690135, 51.38977041202255],
        [-0.152830949445294, 51.389763017357105],
        [-0.152834267878618, 51.38971630782064],
        [-0.15421792658573, 51.38958523722246],
        [-0.155682133464633, 51.389416749757295],
        [-0.155960730736717, 51.38938696252589],
        [-0.15763514379737, 51.38920916901346],
        [-0.157732370258898, 51.3892934301896],
        [-0.157896335618334, 51.38929061247792],
        [-0.158055710271099, 51.389258945863965],
        [-0.158136985403373, 51.38920356973876],
        [-0.158245847468102, 51.38910546242499],
        [-0.158296957997189, 51.38904961204508],
        [-0.158300559475297, 51.38899571270266],
        [-0.158303258825799, 51.38896428082638],
        [-0.158282419760364, 51.38883895532172],
        [-0.158318401406897, 51.38883772235051],
        [-0.158538672548375, 51.3888285946156],
        [-0.158610592972812, 51.38886299773026],
        [-0.158647253377077, 51.3888806599072],
        [-0.158700861770369, 51.38890578253103],
        [-0.158844326142199, 51.38887656262522],
        [-0.159057536520586, 51.38879268390514],
        [-0.15970365388884, 51.38859420398842],
        [-0.160032389519912, 51.38846087975204],
        [-0.160364722228487, 51.38827365513398],
        [-0.160634429107407, 51.388071058236115],
        [-0.160986550936118, 51.38782029465902],
        [-0.161237645879169, 51.38793844211864],
        [-0.161552085919655, 51.3880539858919],
        [-0.161770295644148, 51.38813204851947],
        [-0.161850731794526, 51.38813331041264],
        [-0.161918240710958, 51.38813436945897],
        [-0.162814205735575, 51.38815651461442],
        [-0.162879568678423, 51.38806761291237],
        [-0.162928620831433, 51.38806298639861],
        [-0.162970455190747, 51.388059145967745],
        [-0.163095850259908, 51.38805032068879],
        [-0.163222501706437, 51.388046011298044],
        [-0.163349045178574, 51.38804439787421],
        [-0.1633547906118, 51.38804448793376],
        [-0.163478281451188, 51.38804732284742],
        [-0.163601664369899, 51.38805285373547],
        [-0.163724867434903, 51.38806287800159],
        [-0.163762104844413, 51.38806615936872],
        [-0.163883691753414, 51.38808065446651],
        [-0.164003698494207, 51.38809872173865],
        [-0.16408125950879, 51.38813590766097],
        [-0.164166976012967, 51.38811297053557],
        [-0.164292227166852, 51.38810773878238],
        [-0.164413888490805, 51.38808446535168],
        [-0.164625143400124, 51.38804910625346],
        [-0.165111892911645, 51.387989284844444],
        [-0.165290504569672, 51.38797949204553],
        [-0.1653943508238, 51.38804226810189],
        [-0.165548247841935, 51.388291076301144],
        [-0.165688934010685, 51.388474930377946],
        [-0.165852603365728, 51.38865914404468],
        [-0.166057030884682, 51.38886647703971],
        [-0.166149599546128, 51.38913950388832],
        [-0.166256820740852, 51.389405565839766],
        [-0.166313987247983, 51.38952156638742],
        [-0.166358011476474, 51.38960678623397],
        [-0.166455183122926, 51.389692837738906],
        [-0.166466494793537, 51.389697511070594],
        [-0.166565427105559, 51.3897395260555],
        [-0.166710827787401, 51.38976967830493],
        [-0.166919179554902, 51.389807110067935],
        [-0.167146061450981, 51.38984842837321],
        [-0.167381275113086, 51.3899330412543],
        [-0.167609020575183, 51.39006070157075],
        [-0.167769470944454, 51.39021788415938],
        [-0.168047712509173, 51.39052079052284],
        [-0.168152502880448, 51.390632139100155],
        [-0.168343480564843, 51.39074483489115],
        [-0.168763037739786, 51.390964518327934],
        [-0.168884059942757, 51.39099338757986],
        [-0.169226873575476, 51.39108327519746],
        [-0.16987983297494, 51.39139742680209],
        [-0.169926413715668, 51.39145480797386],
        [-0.169936327636857, 51.39149453043824],
        [-0.169925234445434, 51.391556406410984],
        [-0.169971678239286, 51.391725294181484],
        [-0.170134078730353, 51.39183394360483],
        [-0.170171176282159, 51.39184081778454],
        [-0.170219693998637, 51.39184966881673],
        [-0.170686715620453, 51.39214112826157],
        [-0.170977009008796, 51.39232281491434],
        [-0.171143938529197, 51.39242613801304],
        [-0.171317367343849, 51.392510677756356],
        [-0.171379133860907, 51.39247567113556],
        [-0.17140484759396, 51.39247966947327],
        [-0.171554999724033, 51.392499098610806],
        [-0.171580785144804, 51.39250129950057],
        [-0.17180552822406, 51.392524590010744],
        [-0.172200606912982, 51.3925658247337],
        [-0.172488342132889, 51.39259549209892],
        [-0.172871392965102, 51.39265002591589],
        [-0.173071470704692, 51.3927151947704],
        [-0.173450187536774, 51.392842499465125],
        [-0.174040913842067, 51.393060335433134],
        [-0.174325612489902, 51.39316638833567],
        [-0.17486754668316, 51.39341853112908],
        [-0.175603664586853, 51.39283648073327],
        [-0.176508913164457, 51.392085298601856],
        [-0.177685826338281, 51.39111621677455],
        [-0.178872842549034, 51.39010861195001],
        [-0.179113796128581, 51.389940597329236],
        [-0.179264593068042, 51.389835029025235],
        [-0.179451371253696, 51.38972822105774],
        [-0.179852930217528, 51.38949705396204],
        [-0.180015738972246, 51.38959580407643],
        [-0.180054013044176, 51.38957301771304],
        [-0.180488416492949, 51.389310884381274],
        [-0.181349100061432, 51.38880986769817],
        [-0.18223565533103, 51.388308346859866],
        [-0.182470165037881, 51.38815731144251],
        [-0.182712152063615, 51.38803516795631],
        [-0.182728201407847, 51.388029122031384],
        [-0.182749960635903, 51.38802406392397],
        [-0.18289106893733, 51.38798128916562],
        [-0.18316801455217, 51.38791993751965],
        [-0.184054282804356, 51.38771515545649],
        [-0.184289308373417, 51.387623475796815],
        [-0.184530789829222, 51.38751391043498],
        [-0.185466050087357, 51.38701491853567],
        [-0.186075900983007, 51.38671231694484],
        [-0.187027760198604, 51.38622885713702],
        [-0.188411493598031, 51.385435527190815],
        [-0.188443712155824, 51.385456708375045],
        [-0.188993950010661, 51.38582581872992],
        [-0.189460803606599, 51.385868104847646],
        [-0.189568385065828, 51.38587336422405],
        [-0.189541644383657, 51.38596827290171],
        [-0.18965716992969, 51.386063581223134],
        [-0.189736557447965, 51.38612775617071],
        [-0.190124789240376, 51.3861229624979],
        [-0.190469436186416, 51.38620292439554],
        [-0.190327171130809, 51.386348206308185],
        [-0.190351056881593, 51.38636206415608],
        [-0.190534997204204, 51.38647191714669],
        [-0.190788344845198, 51.38664399142387],
        [-0.190942939385545, 51.38673270759214],
        [-0.191104609917341, 51.38682423057932],
        [-0.191662541249872, 51.387072046450406],
        [-0.191860644792066, 51.386932120946014],
        [-0.193072715881267, 51.38779522611993],
        [-0.193200700170889, 51.387866442901235],
        [-0.193234267817938, 51.38785347157884],
        [-0.193603702334228, 51.387669423279995],
        [-0.193950736677617, 51.387871711262655],
        [-0.195246312081463, 51.38712550241815],
        [-0.19534876619549, 51.387078520290466],
        [-0.195444944371399, 51.387044930348914],
        [-0.196314118988121, 51.386834397039244],
        [-0.196437869209334, 51.38679403662149],
        [-0.196525498607225, 51.38675851568715],
        [-0.197861572637296, 51.386113618862794],
        [-0.199528059900883, 51.385361376907554],
        [-0.200316868474695, 51.38496343196809],
        [-0.200505322832595, 51.384885392845256],
        [-0.202196270012275, 51.38618380525989],
        [-0.203517930206886, 51.38722563730216],
        [-0.20502681146654, 51.386092312058786],
        [-0.205028247796885, 51.38609233406228],
        [-0.206018245483422, 51.38653914115964],
        [-0.206648284218464, 51.38678259364214],
        [-0.207314477286619, 51.38709404039621],
        [-0.207590593134701, 51.387273620364255],
        [-0.207734711728981, 51.38737384429919],
        [-0.207866992038972, 51.38744600990866],
        [-0.208717687055263, 51.387817822993],
        [-0.208831475051123, 51.38784833880854],
        [-0.20888864984585, 51.387856406883145],
        [-0.209055900275354, 51.38787964635262],
        [-0.209328459373806, 51.38796654395444],
        [-0.209396353733365, 51.387994559326984],
        [-0.209494901670935, 51.38804732310626],
        [-0.209792997066772, 51.38825331218833],
        [-0.20990588292311, 51.38812284557229],
        [-0.210019396411054, 51.388049941095865],
        [-0.210139740824422, 51.38798613345857],
        [-0.210066382451078, 51.38791397129603],
        [-0.210075351491226, 51.387905115703475],
        [-0.210138345081903, 51.38783773418715],
        [-0.210153340188583, 51.387821776556436],
        [-0.210165322239419, 51.38780936994026],
        [-0.210175832828866, 51.387797840106515],
        [-0.210289732059163, 51.38767817972669],
        [-0.210352618609615, 51.387650363915526],
        [-0.210418447973428, 51.387620794495966],
        [-0.210537775036764, 51.387546179792835],
        [-0.210878309463459, 51.387216855108804],
        [-0.211047209210535, 51.38701350332681],
        [-0.211295177649483, 51.386772690168314],
        [-0.211550220096349, 51.386534682245355],
        [-0.211779335610208, 51.3863349462855],
        [-0.211949629451873, 51.38616938342518],
        [-0.21208625589977, 51.38601949328139],
        [-0.212253674787878, 51.38585388611445],
        [-0.212427117914908, 51.38568117653411],
        [-0.212635801711614, 51.38548922054948],
        [-0.212765348098497, 51.38537339351358],
        [-0.212930801587588, 51.385258113991],
        [-0.213041500535571, 51.385183365170555],
        [-0.213133600358613, 51.385217143113536],
        [-0.213371740161359, 51.38500675056846],
        [-0.213156116450907, 51.38489734978879],
        [-0.212985580028949, 51.38481111777004],
        [-0.213398555582071, 51.38446580468923],
        [-0.21349300185163, 51.38451310704458],
        [-0.213500043297907, 51.384516811447945],
        [-0.213957045323657, 51.38414788765479],
        [-0.213907930298756, 51.38411746337934],
        [-0.213801432717403, 51.38404749612605],
        [-0.214744307735365, 51.38319497900715],
        [-0.215460175577308, 51.38259888342386],
        [-0.215915353479055, 51.38220204721258],
        [-0.216295037189709, 51.38182474297822],
        [-0.216558573135314, 51.38158865208044],
        [-0.216746170964442, 51.38142064792146],
        [-0.217131206223607, 51.38109018399888],
        [-0.217464892099825, 51.38082368437942],
        [-0.217653565710486, 51.38062781807286],
        [-0.217888434284599, 51.380389489598905],
        [-0.218008951933163, 51.38028341135975],
        [-0.218136260692769, 51.38015045846147],
        [-0.21836317851776, 51.38019077889021],
        [-0.218494263518172, 51.38025661959798],
        [-0.218767261050508, 51.38040555112019],
        [-0.21915092705362, 51.38062810495621],
        [-0.219369266018779, 51.38066739376138],
        [-0.219703196659537, 51.380690453372665],
        [-0.219874700565177, 51.38071464141944],
        [-0.220004485865181, 51.3807399939537],
        [-0.220202161876751, 51.380793355448894],
        [-0.220327855149793, 51.38085011957007],
        [-0.220576467700814, 51.38092403782537],
        [-0.221000066451755, 51.38108064672007],
        [-0.222003250871173, 51.38152212342218],
        [-0.224589907350073, 51.38263686130289],
        [-0.227742264820386, 51.38395433899446],
        [-0.228888734633484, 51.384633528778394],
        [-0.230462224433733, 51.38560691946701],
        [-0.231097031701543, 51.38599059611912],
        [-0.232085707505517, 51.38659003539628],
        [-0.233689046807926, 51.38757552241183],
        [-0.233928217459141, 51.38770951986881],
        [-0.233670980801917, 51.387820747461085],
        [-0.233950530986591, 51.388212541259804],
        [-0.234038968227122, 51.388379337562974],
        [-0.234127422818458, 51.38850836523189],
        [-0.234213750813361, 51.38872998431597],
        [-0.234293885507302, 51.38903783872406],
        [-0.234389423619165, 51.38931894743229],
        [-0.234439658184709, 51.38980620264971],
        [-0.234463318753994, 51.389900981184525],
        [-0.234489750273467, 51.39007313759906],
        [-0.234657241859156, 51.39053877862602],
        [-0.236417544679862, 51.39017590712974],
        [-0.23665753575324, 51.39010218278944],
        [-0.236756252911912, 51.390076690588934],
        [-0.237593272443396, 51.389913927741006],
        [-0.238243579480889, 51.38974745258927],
        [-0.238539000990876, 51.389689845175354],
        [-0.238634946848328, 51.38966161196921],
        [-0.238757784287637, 51.389606805177976],
        [-0.238928404348181, 51.3895428245801],
        [-0.239238213409243, 51.389409894060314],
        [-0.239618532831254, 51.389312193819855],
        [-0.239691011063066, 51.38929619678573],
        [-0.239706881078218, 51.389294636682735],
        [-0.239743652916217, 51.389385114781156],
        [-0.239785562024418, 51.38945408787207],
        [-0.239886009445534, 51.38957070162939],
        [-0.239892419561827, 51.389740757465404],
        [-0.239954563104725, 51.3900690203954],
        [-0.240027349181252, 51.390382155755034],
        [-0.24003515117999, 51.39047849341146],
        [-0.240063592189952, 51.39063629051149],
        [-0.240115902216667, 51.390808834197536],
        [-0.240137345371656, 51.39092426110481],
        [-0.24010490163124, 51.39109553185716],
        [-0.240108256385946, 51.39119539972965],
        [-0.240236208377051, 51.3914194377526],
        [-0.240402510958711, 51.39173038014395],
        [-0.240471786273668, 51.39179796537321],
        [-0.240560863042832, 51.39198634825029],
        [-0.240619807350101, 51.39206097231674],
        [-0.240693163181847, 51.392097144698496],
        [-0.240789883087163, 51.39212377598141],
        [-0.240847850784117, 51.392148926163514],
        [-0.240967934833857, 51.39216601623103],
        [-0.240961706068088, 51.392178512317194],
        [-0.240885213814664, 51.39233653240517],
        [-0.240824063124783, 51.392431834815156],
        [-0.240860115630997, 51.39254118607782],
        [-0.240935208887334, 51.392719466885374],
        [-0.241168593147488, 51.393155512430084],
        [-0.241301576448682, 51.39328610203538],
        [-0.241344559699888, 51.39332721367347],
        [-0.241345169165047, 51.39334880496934],
        [-0.241345296143188, 51.39338297861065],
        [-0.241691686009654, 51.39387107731691],
        [-0.241745783961715, 51.39392224739324],
        [-0.24182303999966, 51.39396926862988],
        [-0.242048693979026, 51.39408236336556],
        [-0.242285438745885, 51.3941686463417],
        [-0.242510012591625, 51.39423496266198],
        [-0.242791476053695, 51.394279650263535],
        [-0.243188489214631, 51.394309882994406],
        [-0.243543840992782, 51.394339489909704],
        [-0.243548116427036, 51.39434045325113],
        [-0.243753303068928, 51.39438759219832],
        [-0.243925000454265, 51.39444591924281],
        [-0.244076895244264, 51.39449585599648],
        [-0.244101214617836, 51.394498918179934],
        [-0.244232971132695, 51.394511683480225],
        [-0.244595174070795, 51.39466278936277],
        [-0.244707817826829, 51.3947993650894],
        [-0.244792986064259, 51.3949777941749],
        [-0.244992157926126, 51.39518221055648],
        [-0.24511551411139, 51.39530186044892],
        [-0.245488268533562, 51.39559070760199],
        [-0.245536007190937, 51.39565796726289],
        [-0.245585045117155, 51.3957288433768],
        [-0.245692333253353, 51.395817677385246],
        [-0.245775301563562, 51.395903449459695],
        [-0.245889862594314, 51.396065231838655],
        [-0.246002864432749, 51.39615505033425],
        [-0.246174791061867, 51.396320388822815],
        [-0.246298036525414, 51.39651827096384],
        [-0.24639998674399, 51.3966340020672],
        [-0.246493695327571, 51.396739717944094],
        [-0.246769673931447, 51.39696596332552],
        [-0.246940066539141, 51.3971339754525],
        [-0.247424784370394, 51.39757826372597],
        [-0.247423004152771, 51.39758722965112],
        [-0.247415642827256, 51.39762938453986],
        [-0.247212821771788, 51.397858358790124],
        [-0.247070079348059, 51.398019888031314],
        [-0.246959088007745, 51.398140526362425],
        [-0.246893075424903, 51.398287915882094],
        [-0.246769407594666, 51.39851447647054],
        [-0.246763915943652, 51.398620506386294],
        [-0.246759798815644, 51.398690586669744],
        [-0.246754272747314, 51.39879751532234],
        [-0.246730983457275, 51.398955435736084],
        [-0.246721056996893, 51.398989458904936],
        [-0.246685392981365, 51.39909503738015],
        [-0.246621983332129, 51.39921189101816],
        [-0.246609245257685, 51.399281842300994],
        [-0.246591640245214, 51.39940387753815],
        [-0.246619401319002, 51.39969295369633],
        [-0.246660128245251, 51.399981324573936],
        [-0.246710424165075, 51.4001322526238],
        [-0.246823989141449, 51.400395634779336],
        [-0.246846449675995, 51.40048499700674],
        [-0.246834370969507, 51.400500103633135],
        [-0.246792793391484, 51.40057232123103],
        [-0.246719021433315, 51.40065934447368],
        [-0.246688092146968, 51.400678665325515],
        [-0.246673036592117, 51.400696425160554],
        [-0.246477574310777, 51.4008077058684],
        [-0.246461425530366, 51.40081645677201],
        [-0.24612382549764, 51.40107308767663],
        [-0.246085230200606, 51.40110488320236],
        [-0.245697906206841, 51.40142101873403],
        [-0.245495693713066, 51.40155827515297],
        [-0.245376076095406, 51.401641014141966],
        [-0.245294125743496, 51.40171622373327],
        [-0.245238604516441, 51.40170190355684],
        [-0.245234259567527, 51.40170273775046],
        [-0.245070690890141, 51.402220057525035],
        [-0.245055591791568, 51.402276484448066],
        [-0.245044570461205, 51.402301498526164],
        [-0.244892276025129, 51.40271197557639],
        [-0.244855228456136, 51.402853502930455],
        [-0.244845024440495, 51.402894715810746],
        [-0.244739592000661, 51.403170107068746],
        [-0.244682986935826, 51.40340936016381],
        [-0.244700094405874, 51.403713564398615],
        [-0.244703416693265, 51.4038520993359],
        [-0.244684722173356, 51.40422770764202],
        [-0.24471828884049, 51.4043648970656],
        [-0.244811561563436, 51.40448229787378],
        [-0.244848518790692, 51.40460604921882],
        [-0.244886474040353, 51.404703737122915],
        [-0.244884668441667, 51.404826008656194],
        [-0.244946641051534, 51.40508502273041],
        [-0.245013131657659, 51.405338708891726],
        [-0.245050468526876, 51.4054525740399],
        [-0.245184394851603, 51.40570996767908],
        [-0.24519211682999, 51.405921408008155],
        [-0.245195895808498, 51.4060104907424],
        [-0.245221634517726, 51.40612687991214],
        [-0.245229740408374, 51.40614049009565],
        [-0.245358239110414, 51.40635194027034],
        [-0.245477367929108, 51.406545264933456],
        [-0.245532845277028, 51.40663602087847],
        [-0.245503944416378, 51.406752491211435],
        [-0.245399855920262, 51.406955063482386],
        [-0.245338289353437, 51.40702338424494],
        [-0.245353675873344, 51.40707217432581],
        [-0.245386994691793, 51.407103247810944],
        [-0.245473131579639, 51.40718187325043],
        [-0.245487356462717, 51.40722345188977],
        [-0.24550486820828, 51.40725428868879],
        [-0.245703827693187, 51.407428125355715],
        [-0.245758427320417, 51.407466711316715],
        [-0.245801420104534, 51.40754558993452],
        [-0.245810757083533, 51.4075646140224],
        [-0.245847948022615, 51.4075696669713],
        [-0.246042490671128, 51.40759595932228],
        [-0.246192313480608, 51.407626078390635],
        [-0.246297072556885, 51.407669011738804],
        [-0.246598630697038, 51.407754456742204],
        [-0.246733609453988, 51.40775917392024],
        [-0.246841827784069, 51.407786871216594],
        [-0.246956413101672, 51.40779847708854],
        [-0.247032363675284, 51.40784277734318],
        [-0.247103900153432, 51.40788970928553],
        [-0.247203181097576, 51.40796313449594],
        [-0.24725747334106, 51.408009808428986],
        [-0.247283224578542, 51.408088428615194],
        [-0.247292281085233, 51.40815241105976],
        [-0.247295423839488, 51.408183032680334],
        [-0.247338729202757, 51.408253822100605],
        [-0.247363249830061, 51.40832702833991],
        [-0.247394446590529, 51.40837605456939],
        [-0.247460848386424, 51.40844449157811],
        [-0.247507612516378, 51.408500045344866],
        [-0.247509971229403, 51.40851356941775],
        [-0.247538550773369, 51.408668668370716],
        [-0.247555868346178, 51.408855072777165],
        [-0.247557068887808, 51.409049329454305],
        [-0.247508848724896, 51.40910705986429],
        [-0.247428943818292, 51.40916611494186],
        [-0.247257224263102, 51.40929483785654],
        [-0.247246614756032, 51.409309067236194],
        [-0.247240694557004, 51.40931347496112],
        [-0.24722833863998, 51.40933577150003],
        [-0.247211430858262, 51.40936429473268],
        [-0.247193360909841, 51.409385606554515],
        [-0.247179739699882, 51.40940338789751],
        [-0.24715104731472, 51.40951446617158],
        [-0.247136938439675, 51.409582598401435],
        [-0.247170894058041, 51.40970990097794],
        [-0.247425005946186, 51.410434902392495],
        [-0.247475046284769, 51.410555251363746],
        [-0.24823556973131, 51.412139414982114],
        [-0.248909558270107, 51.413543328831054],
        [-0.249059981018109, 51.4138594153562],
        [-0.249385364238778, 51.41452702511137],
        [-0.249533953257637, 51.41477833738639],
        [-0.24959967625345, 51.414902516551756],
        [-0.249603022363539, 51.414965514187266],
        [-0.249546582115551, 51.41505010020382],
        [-0.249543183508195, 51.41513907542005],
        [-0.249601118969272, 51.41542949992864],
        [-0.249714023252321, 51.41593746508113],
        [-0.249755000810501, 51.41610713643331],
        [-0.249820421115182, 51.41650288504274],
        [-0.249833210972653, 51.41658221021368],
        [-0.24985845152192, 51.41701332883974],
        [-0.2498512518105, 51.417126527077876],
        [-0.24977366891746, 51.417425718685315],
        [-0.249684148821875, 51.417660885077616],
        [-0.249617634675128, 51.41782085782541],
        [-0.24959718894273, 51.41794195148016],
        [-0.249574722076517, 51.41807830222591],
        [-0.249594071586552, 51.41824944905915],
        [-0.249613734784163, 51.418374738726094],
        [-0.249642361131948, 51.41852893830279],
        [-0.249780927736521, 51.41885473824651],
        [-0.249845219588419, 51.41897889578859],
        [-0.249886826694407, 51.41905685272549],
        [-0.250147194574738, 51.41943213121189],
        [-0.250277056070205, 51.41960942401439],
        [-0.250386897613579, 51.41978372005628],
        [-0.250475411013027, 51.42002693998806],
        [-0.250533438002107, 51.42020226092872],
        [-0.250579794321126, 51.420381903894025],
        [-0.25056577826051, 51.42056064572189],
        [-0.250551826862813, 51.42077535856424],
        [-0.250583019924506, 51.42097545795859],
        [-0.250674834478569, 51.42109463026764],
        [-0.250743817912942, 51.42124673405578],
        [-0.250825896075897, 51.42154561117616],
        [-0.250925221542119, 51.42188251415096],
        [-0.251122974227666, 51.422316206327494],
        [-0.251174000481729, 51.42237362050782],
        [-0.25123334314529, 51.422439252007486],
        [-0.251247066403141, 51.422456542531265],
        [-0.251442897644867, 51.42260154585629],
        [-0.251708136549948, 51.42281233022944],
        [-0.251804035828171, 51.422862320188415],
        [-0.252022156191083, 51.422951002155784],
        [-0.252422468316686, 51.42301452355632],
        [-0.252783214303566, 51.42309723729766],
        [-0.252954411397788, 51.4232094977906],
        [-0.252958272717971, 51.42333455120322],
        [-0.25295056519644, 51.423461230676466],
        [-0.252922897554403, 51.42369642196789],
        [-0.252909256494776, 51.424054120415796],
        [-0.252871394158926, 51.424179451137476],
        [-0.252801905177604, 51.42430431040365],
        [-0.252704997022913, 51.42446922716085],
        [-0.25259932334803, 51.42467537868727],
        [-0.252494094387482, 51.42486984648941],
        [-0.252430113640829, 51.42500108240999],
        [-0.252333190291303, 51.4253548412489],
        [-0.252279775851166, 51.42562381996267],
        [-0.252261045083549, 51.425737745483495],
        [-0.252299372990804, 51.42586421205587],
        [-0.252334928730485, 51.42598793952658],
        [-0.252360560915254, 51.42607015350117],
        [-0.252429346532219, 51.42630318569571],
        [-0.252528016918675, 51.426506988121915],
        [-0.252801152637722, 51.42677543949287],
        [-0.252987213757012, 51.42698863739487],
        [-0.253084385603262, 51.42711867845601],
        [-0.253208251230337, 51.42737860927225],
        [-0.253291282582607, 51.42761545017946],
        [-0.253381539071737, 51.42781373092414],
        [-0.253527795846166, 51.42805241300707],
        [-0.253696750196498, 51.42826175780229],
        [-0.253875047952902, 51.4285656627714],
        [-0.25399152887881, 51.428793109649874],
        [-0.25399419873895, 51.42879854491922],
        [-0.254103355224858, 51.42902947956714],
        [-0.254125877997196, 51.42908017303133],
        [-0.254204948371451, 51.42923242470664],
        [-0.2542477355139, 51.429317591453355],
        [-0.254237498221211, 51.42939747221321],
        [-0.254227500675523, 51.42947106179373],
        [-0.254220583092678, 51.42957707023674],
        [-0.254153449785797, 51.42975322254446],
        [-0.254085324678695, 51.42987990130382],
        [-0.253933362103204, 51.430092558410905],
        [-0.253738435396807, 51.4303378474933],
        [-0.253619950898036, 51.430502443459474],
        [-0.253445768029344, 51.43069408613445],
        [-0.253327829924841, 51.43084430195337],
        [-0.253208628363334, 51.43091446560482],
        [-0.25310305199173, 51.430966847202804],
        [-0.252919355527542, 51.43103065386372],
        [-0.252655929296227, 51.43111035747527],
        [-0.252541793747859, 51.43116081248002],
        [-0.252394380681587, 51.43125393522263],
        [-0.252236111027765, 51.4314053471356],
        [-0.252106701837803, 51.4315167229614],
        [-0.251841272750895, 51.43176185683984],
        [-0.251722269266761, 51.431864394937655],
        [-0.251586625956592, 51.43198826670909],
        [-0.251247173032002, 51.43228804856906],
        [-0.251084056775743, 51.432566180840155],
        [-0.250914595840544, 51.43259602530072],
        [-0.250792617227957, 51.432625678844815],
        [-0.250648727786026, 51.432663997764664],
        [-0.250276627086317, 51.43276365616545],
        [-0.249689870955969, 51.43290866780835],
        [-0.248774173592565, 51.43315307560801],
        [-0.248235956786543, 51.43327002918053],
        [-0.247456709489157, 51.43348229434973],
        [-0.246407234080366, 51.43372558279598],
        [-0.245968217004416, 51.4338440100011],
        [-0.245016638329908, 51.43408515392834],
        [-0.244100066195249, 51.434351094319034],
        [-0.243729686031262, 51.434442664572096],
        [-0.243235843545568, 51.4345647563979],
        [-0.242766959778345, 51.434673731559755],
        [-0.242260919298208, 51.434813621443936],
        [-0.241717628639979, 51.43494935340922],
        [-0.241195558051046, 51.435094393769916],
        [-0.24071162917444, 51.43522022076672],
        [-0.240507837169469, 51.43528190800331],
        [-0.239814380659821, 51.43550620136704],
        [-0.239201384958015, 51.43569572929308],
        [-0.238478777256078, 51.43592946866836],
        [-0.237613150430778, 51.43617813919446],
        [-0.236899154782427, 51.436411998375256],
        [-0.236076891014475, 51.43665501508456],
        [-0.235158986738207, 51.43691547042919],
        [-0.233167930516504, 51.437543728400435],
        [-0.232210557864878, 51.43785662170418],
        [-0.231656095118794, 51.438019116351],
        [-0.231323410514449, 51.438139093058204],
        [-0.231074237354006, 51.438182993493506],
        [-0.23090725762154, 51.438184969831774],
        [-0.230463455663467, 51.43820165171912],
        [-0.230098860441408, 51.43825369942042],
        [-0.22929109958215, 51.43834311583312],
        [-0.228809538186828, 51.438405982144374],
        [-0.227638424524587, 51.438515075496426],
        [-0.226982096424866, 51.43859507529239],
        [-0.225893218372344, 51.43869820104471],
        [-0.225505885020525, 51.438742696351206],
        [-0.225130672350556, 51.438734318058415],
        [-0.224798127973564, 51.438664536374965],
        [-0.224507809133131, 51.438581904540754],
        [-0.224276852285428, 51.43886077116547],
        [-0.223239681710099, 51.43874343965389],
        [-0.221130950243197, 51.438505529355744],
        [-0.220438184490988, 51.4384491525236],
        [-0.219704369236845, 51.43852343897738],
        [-0.219598802206905, 51.43853712292128],
        [-0.219158228992793, 51.43861855722469],
        [-0.218815887529437, 51.43865292293164],
        [-0.218597912025832, 51.43867119263748],
        [-0.218532887799151, 51.43867829772361],
        [-0.218466495499823, 51.438683583477115],
        [-0.218401576145473, 51.43868799232744],
        [-0.218333850741343, 51.43869055998762],
        [-0.218267563320485, 51.438693149465635],
        [-0.218201345839969, 51.438693941464614],
        [-0.218135163332847, 51.43869383470544],
        [-0.218069050779063, 51.438691930467556],
        [-0.218044604954269, 51.43869155885394],
        [-0.217978527386627, 51.43868875584439],
        [-0.217912519786226, 51.438684155356455],
        [-0.217846512200001, 51.43867955483149],
        [-0.217780574591334, 51.43867315682836],
        [-0.217714706967941, 51.43866496134729],
        [-0.217650277357291, 51.43865678769405],
        [-0.217585917741444, 51.43864681656469],
        [-0.217521558154458, 51.43863684540024],
        [-0.21745726857228, 51.43862507675992],
        [-0.21739445199986, 51.438612431232016],
        [-0.217331705443703, 51.43859798823007],
        [-0.217134313195701, 51.438568008603404],
        [-0.216885255767033, 51.43849767563636],
        [-0.216531466120821, 51.43834571524675],
        [-0.216238106191727, 51.438156904742485],
        [-0.216176340986578, 51.438117296974454],
        [-0.21616932619873, 51.43811269396246],
        [-0.216123133674719, 51.438079617913544],
        [-0.216076941217316, 51.43804654184689],
        [-0.216033659775292, 51.43801261081122],
        [-0.215990413413153, 51.437977781040225],
        [-0.215950078062322, 51.43794209630446],
        [-0.215920931325898, 51.43791467511818],
        [-0.215734688052046, 51.43774637787205],
        [-0.215707226761825, 51.43774955687895],
        [-0.215551156744733, 51.43776696468591],
        [-0.215108302190487, 51.43779619237579],
        [-0.214249421145317, 51.43783077161926],
        [-0.213781032571261, 51.43785061277884],
        [-0.2132459362521, 51.43784695395618],
        [-0.213151662222256, 51.43782933037365],
        [-0.212969041472403, 51.437826546451475],
        [-0.212779020487607, 51.43782904493408],
        [-0.21254582565506, 51.43783178402563],
        [-0.212229509230928, 51.43786293031698],
        [-0.212119522508571, 51.437879237879514],
        [-0.211683853643067, 51.43794543161986],
        [-0.210997028231019, 51.43806894011488],
        [-0.210387957059467, 51.4381540645614],
        [-0.209938290025014, 51.43821014633781],
        [-0.209128845153574, 51.43830479375093],
        [-0.208685384176854, 51.43834927525377],
        [-0.20831708379668, 51.438385012126254],
        [-0.208042602860279, 51.438413189568934],
        [-0.207876497275679, 51.43842953451048],
        [-0.207476243592845, 51.4384728735069],
        [-0.207289091089155, 51.43851227636165],
        [-0.20668252634851, 51.43864328187516],
        [-0.205889765801532, 51.43871568088581],
        [-0.205439313225384, 51.438791517009015],
        [-0.204557830703422, 51.43896146665059],
        [-0.204285339010967, 51.43901214713401],
        [-0.204255712363368, 51.43896043580988],
        [-0.203681721155169, 51.43906764500316],
        [-0.203000363481339, 51.439197485374365],
        [-0.202733867668096, 51.43924195940367],
        [-0.201605930189563, 51.43945846618489],
        [-0.198517367729872, 51.44002613109249],
        [-0.197170587344838, 51.44028149690642],
        [-0.196705619247588, 51.44035977411567],
        [-0.196452946637613, 51.44045480482186],
        [-0.194610492411914, 51.44083650291752],
        [-0.194548134753934, 51.44073932225733],
        [-0.194458303158597, 51.440755024477504],
        [-0.193416128505981, 51.440947594600175],
        [-0.192864261925476, 51.44103980468345],
        [-0.192522471021165, 51.441095684357414],
        [-0.190393752319354, 51.44140096171323],
        [-0.190091972698092, 51.44146374677195],
        [-0.190078888090259, 51.44146714176597],
        [-0.190039740844254, 51.44147463061977],
        [-0.190026018503672, 51.441421362693156],
        [-0.190030317602307, 51.441312619211324],
        [-0.190036658719701, 51.44118861992091],
        [-0.190063240706728, 51.440989395724785],
        [-0.1900708437792, 51.44079707252228],
        [-0.189945957563393, 51.440425550312746],
        [-0.189759132264061, 51.440055769197606],
        [-0.189802592364439, 51.440048347044154],
        [-0.189886636504766, 51.44003345827736],
        [-0.189941073353975, 51.43982117537249],
        [-0.189963320296092, 51.43973159336618],
        [-0.190210413471069, 51.439450344606115],
        [-0.190292026386014, 51.439314917806925],
        [-0.190313543549197, 51.439280179040175],
        [-0.190420326946278, 51.43930880520571],
        [-0.190461637874003, 51.43931933473977],
        [-0.190465046627784, 51.43930589853134],
        [-0.190530237839288, 51.43911266572541],
        [-0.190646023610783, 51.43894988927039],
        [-0.190667362757996, 51.43891964396803],
        [-0.190535211106758, 51.43891400706723],
        [-0.190271281551927, 51.438856876563854],
        [-0.189935010943298, 51.43877344927031],
        [-0.189728267409008, 51.43861648395172],
        [-0.189547849077588, 51.4385579437013],
        [-0.189215892918534, 51.438547420655496],
        [-0.189267428148274, 51.43811747333361],
        [-0.18935006655145, 51.4376286555397],
        [-0.189442104642379, 51.43733871835751],
        [-0.18964349094369, 51.436575662927744],
        [-0.189760096448199, 51.43617369792203],
        [-0.189886923910882, 51.43580426384927],
        [-0.190068852917762, 51.43527831067812],
        [-0.190184543437441, 51.43500852170285],
        [-0.190265971761373, 51.43480474857124],
        [-0.190373386992312, 51.43459867881148],
        [-0.190639533207757, 51.43408931221901],
        [-0.190779375704027, 51.433899929240546],
        [-0.190780884532774, 51.43389815401729],
        [-0.190866727724717, 51.43383743031017],
        [-0.190951168376469, 51.43377578563866],
        [-0.191032768676314, 51.43371319781622],
        [-0.191046134985902, 51.433702613023755],
        [-0.191059536789041, 51.43369112952155],
        [-0.191074305397612, 51.433681465623074],
        [-0.191103913593731, 51.433660340403975],
        [-0.191118717681524, 51.43364977779148],
        [-0.191132083952605, 51.43363919298873],
        [-0.191145450217484, 51.43362860818438],
        [-0.191183311961915, 51.43350779289528],
        [-0.191185122311325, 51.43346195877447],
        [-0.191176797041442, 51.43341776675632],
        [-0.191168791261434, 51.433365486363044],
        [-0.191159525185129, 51.43330869023978],
        [-0.191144010973576, 51.43326438727915],
        [-0.19106212697748, 51.433042805877896],
        [-0.190844861367148, 51.43278856021788],
        [-0.190667944386532, 51.43256910870098],
        [-0.190542664170789, 51.43239002131448],
        [-0.1904731026425, 51.43222078653525],
        [-0.190449105664453, 51.43209991572837],
        [-0.190408902862327, 51.43198868654216],
        [-0.190342430051307, 51.43188694357953],
        [-0.190224376065075, 51.43177990789175],
        [-0.189957811489572, 51.43153569036604],
        [-0.189796770974843, 51.43135155361138],
        [-0.189119569294145, 51.431596482001254],
        [-0.189088914702506, 51.43160769873499],
        [-0.189244573981113, 51.43181873102941],
        [-0.189254176313293, 51.4318305697035],
        [-0.188358369979638, 51.43210988524048],
        [-0.188332616801005, 51.43206991991157],
        [-0.188243455871768, 51.43210541131362],
        [-0.187453948380959, 51.432097701611994],
        [-0.187419442176093, 51.43209716801598],
        [-0.187301091020807, 51.43290646722944],
        [-0.187289298342904, 51.432986318688386],
        [-0.186573708026163, 51.43296445887727],
        [-0.186424427517779, 51.43295585446248],
        [-0.185761584197635, 51.43316411624607],
        [-0.185430718005681, 51.43269138114739],
        [-0.185288382912287, 51.43250752772274],
        [-0.184912642153073, 51.43225980977957],
        [-0.184736791874084, 51.432123097272225],
        [-0.184580226282845, 51.43193542553115],
        [-0.184419633745879, 51.43174049713641],
        [-0.184379909102671, 51.43161758285594],
        [-0.184393332685606, 51.431460420802416],
        [-0.184407030835334, 51.43136890876336],
        [-0.184338149569137, 51.43132827447942],
        [-0.184256756412, 51.43127665524753],
        [-0.184248308182173, 51.431272028089985],
        [-0.184154046934877, 51.4312184109293],
        [-0.184197862816206, 51.43091154377297],
        [-0.184296095157833, 51.43050210497733],
        [-0.184523821685061, 51.42947508361326],
        [-0.184540518449883, 51.429126430379334],
        [-0.184564695279561, 51.428589048923286],
        [-0.184552634285519, 51.42762305955161],
        [-0.184347432723069, 51.42695712813147],
        [-0.184092707457732, 51.426379455509554],
        [-0.183945763375209, 51.426203622046735],
        [-0.183232373058242, 51.42554869767789],
        [-0.181939849837949, 51.42473551006287],
        [-0.180823961449979, 51.42454643714618],
        [-0.179073783789316, 51.424356493433464],
        [-0.178798782498541, 51.424327041407146],
        [-0.178000299313039, 51.42422290705968],
        [-0.177470632423334, 51.424122947613114],
        [-0.17651498412599, 51.42392013838615],
        [-0.175828267808793, 51.4237547798447],
        [-0.175586400306151, 51.42368806704678],
        [-0.17514309589888, 51.423550773146594],
        [-0.174823529798139, 51.423448677129855],
        [-0.174692893263832, 51.423406176046235],
        [-0.174606138297851, 51.42338144417957],
        [-0.174630355397519, 51.42335124652942],
        [-0.173771033208111, 51.42304200376905],
        [-0.173722840150063, 51.42302416690569],
        [-0.173597153219031, 51.423182276559174],
        [-0.1733470215135, 51.42307046734183],
        [-0.17283993293626, 51.42283774828166],
        [-0.172416045698207, 51.422646791077476],
        [-0.172230500601194, 51.42257465469428],
        [-0.172100586167418, 51.422514176753914],
        [-0.171584521349777, 51.422218363992016],
        [-0.17137417906071, 51.42208289119633],
        [-0.171068821975965, 51.42191356200927],
        [-0.171017251723153, 51.42187229055984],
        [-0.170633774349261, 51.42171433074197],
        [-0.169630624584612, 51.42137043880447],
        [-0.169189516517215, 51.4212151711927],
        [-0.168448030785933, 51.42098236811081],
        [-0.1684249959575, 51.42091096657349],
        [-0.16759673655395, 51.42072626127296],
        [-0.167563209784085, 51.420701457059],
        [-0.167138572207941, 51.42060219329485],
        [-0.167032672586687, 51.42062481716496],
        [-0.16673686058934, 51.42057702595248],
        [-0.166529339539396, 51.420551298216566],
        [-0.166181027583196, 51.420521568758524],
        [-0.165072816433924, 51.42039631235163],
        [-0.164833425549196, 51.4203404070299],
        [-0.164880655212514, 51.42016668996351],
        [-0.165052563281491, 51.420183769724424],
        [-0.165093605985435, 51.42009268769977],
        [-0.164552082643545, 51.420039245281],
        [-0.164139850994162, 51.41998962419795],
        [-0.163543314253404, 51.4199452072165],
        [-0.16271913591098, 51.419910707734346],
        [-0.161671128301833, 51.41986279995321],
        [-0.161599152422698, 51.419864368750005],
        [-0.161555913461909, 51.419938329177974],
        [-0.161181918314269, 51.42062039679137],
        [-0.160995153724097, 51.42093760338331],
        [-0.160361223229772, 51.42182421803507],
        [-0.160361782447981, 51.42191774996276],
        [-0.160083116513899, 51.421836938431056],
        [-0.159973030107851, 51.42192783406681],
        [-0.15996526550594, 51.421942100343216],
        [-0.160037166181957, 51.421978300316894],
        [-0.159913834534226, 51.422184093377105],
        [-0.160043701825684, 51.42220951301296],
        [-0.160019902604563, 51.422264893573306],
        [-0.160022193624737, 51.42231528815843],
        [-0.159918524629301, 51.42228218646693],
        [-0.159882813244175, 51.422634136117395],
        [-0.159698971996277, 51.42259168213606],
        [-0.15970065239459, 51.42244243118828],
        [-0.15967833937922, 51.42242499487114],
        [-0.159592102822229, 51.42256662326008],
        [-0.159289221552829, 51.4224440636024],
        [-0.158791082896797, 51.42224109943561],
        [-0.15818795257272, 51.42200231131538],
        [-0.157545050940568, 51.421751204436205],
        [-0.156841315529465, 51.42151082770006],
        [-0.156170385122312, 51.42131322807698],
        [-0.155759200993004, 51.42123751541378],
        [-0.155364671738851, 51.421105409942584],
        [-0.153295140676427, 51.42045862332112],
        [-0.151909732537628, 51.42003931165928],
        [-0.151327598296954, 51.41985207679521],
        [-0.151161904684805, 51.41985935497096],
        [-0.151000908641479, 51.41989278563272],
        [-0.150773563214924, 51.41996653527824],
        [-0.150547545584446, 51.42004300322612],
        [-0.150428231663051, 51.42007709085428],
        [-0.150284242531064, 51.42008111326687],
        [-0.150135665093294, 51.42005628668328],
        [-0.149923568331101, 51.420001680836194],
        [-0.149793749464402, 51.41997535140523],
        [-0.149548594538792, 51.41992022298869],
        [-0.149341210465944, 51.41985579859783],
        [-0.149227820276971, 51.419814440488516],
        [-0.148655029352166, 51.41957428330331],
        [-0.14818860663601, 51.41933580399523],
        [-0.1478962702225, 51.41913154821612],
        [-0.147669948233967, 51.41900207461925],
        [-0.147599099785795, 51.41897577547771],
        [-0.147440849820414, 51.41897687118649],
        [-0.147039948116271, 51.41896783567685],
        [-0.146918248929686, 51.41895422108492],
        [-0.146813596118778, 51.41891030096845],
        [-0.146474802200629, 51.41871699738587],
        [-0.146272064885528, 51.418573505830594],
        [-0.146053353984035, 51.41839828702095],
        [-0.145996061253481, 51.41835691385846],
        [-0.145882549732381, 51.41828317706875],
        [-0.145851583916315, 51.41826650043733],
        [-0.145778444976314, 51.41822577573082],
        [-0.145598782539574, 51.41815189131481],
        [-0.145294276604767, 51.41803556413997],
        [-0.145285798414022, 51.418031832915744],
        [-0.145005382041766, 51.417888908305365],
        [-0.14469647650834, 51.41781027897845],
        [-0.144505846747164, 51.41775870082781],
        [-0.14448023056349, 51.417752000421295],
        [-0.144002962869213, 51.41785325403756],
        [-0.143746943973042, 51.417924737457774],
        [-0.143512884035536, 51.417986676269415],
        [-0.143111460080722, 51.41809722103388],
        [-0.142792068845697, 51.41820636662198],
        [-0.142665167016961, 51.418250218012574],
        [-0.142024285573823, 51.41848465937903],
        [-0.141822330740504, 51.41857048465669],
        [-0.141576855196321, 51.41866551138617],
        [-0.141390854887946, 51.41874799186315],
        [-0.141175196333774, 51.41885248324815],
        [-0.140996308166101, 51.418936874433655],
        [-0.140884556660743, 51.41899715097047],
        [-0.140671405720548, 51.41911067385186],
        [-0.140405452554709, 51.4192494371946],
        [-0.141598486856144, 51.41841585911082],
        [-0.143260310674626, 51.41726326422496],
        [-0.143048747849096, 51.41712502272357],
        [-0.143733600973326, 51.4166565645048],
        [-0.144916319147146, 51.41586145796717],
        [-0.145009410300408, 51.415799983008405],
        [-0.14466749953839, 51.41557784815809],
        [-0.14435164362738, 51.415351628514365],
        [-0.144347477601438, 51.41534796549527],
        [-0.145184978076106, 51.4149088937043],
        [-0.145676526012656, 51.414631605682985],
        [-0.146139579126679, 51.41434757002882],
        [-0.146141016295183, 51.41434759276291],
        [-0.14640775964838, 51.41418814598811],
        [-0.146684197810175, 51.414037844563886],
        [-0.146865038638247, 51.41393998671886],
        [-0.147083333676628, 51.41380495170557],
        [-0.147329583126538, 51.41358312963778],
        [-0.147568571830679, 51.413362990818364],
        [-0.147611956169671, 51.413321411175815],
        [-0.147891778586304, 51.41305155835822],
        [-0.148090361577819, 51.41287034751525],
        [-0.147530585170243, 51.41273740208911],
        [-0.146804341353684, 51.412560455564176],
        [-0.14582393983877, 51.41255214227907],
        [-0.145506301776833, 51.41254801557605],
        [-0.145169981349167, 51.41254359232382],
        [-0.144869951920975, 51.412388666219265],
        [-0.144832405268967, 51.41239256817977],
        [-0.144806428219964, 51.412394854750765],
        [-0.144623042552313, 51.412413533898025],
        [-0.1445752723184, 51.41245684153956],
        [-0.144485407524179, 51.41247430328958],
        [-0.144402764595203, 51.412490980056084],
        [-0.144235549840885, 51.41257196387113],
        [-0.143029810697679, 51.41315627092283],
        [-0.142675449830266, 51.413348493541115],
        [-0.142582218222889, 51.41334251961407],
        [-0.14204632533436, 51.41311730223419],
        [-0.141209543872605, 51.412758715555874],
        [-0.140016140688638, 51.412364787598875],
        [-0.139550097997395, 51.41222609736326],
        [-0.13940851865908, 51.41220676364689],
        [-0.139375830311723, 51.41219725202107],
        [-0.138673424221614, 51.412000849468775],
        [-0.138524318511076, 51.41195441719076],
        [-0.138273020686955, 51.41187488705406],
        [-0.138101981272041, 51.411802027104805],
        [-0.137542759349578, 51.411656452777834],
        [-0.136652186502352, 51.41145524888296],
        [-0.135907665295769, 51.41130492174145],
        [-0.135479617071044, 51.411222573953786],
        [-0.135215014893994, 51.41122286013621],
        [-0.135016883256406, 51.41121521090105],
        [-0.134792654491232, 51.411177470213794],
        [-0.134424223943538, 51.411078981363374],
        [-0.134099941186945, 51.41099108618936],
        [-0.134096115799308, 51.41101440618527],
        [-0.133922279094813, 51.41182277570091],
        [-0.133865607286459, 51.41208445878401],
        [-0.133858295330149, 51.41215808211174],
        [-0.133832094509222, 51.41241305625635],
        [-0.133803282283577, 51.41255558063637],
        [-0.13376881153112, 51.412625174406834],
        [-0.133753013220186, 51.41265999417299],
        [-0.133739274139071, 51.41267955921923],
        [-0.133577910368128, 51.41293417931027],
        [-0.133354186950798, 51.41288385425413],
        [-0.133374004143924, 51.41285629267581],
        [-0.133480787710777, 51.41270601761906],
        [-0.133567753635998, 51.4125833040726],
        [-0.133572357745326, 51.41257618327583],
        [-0.133203882144431, 51.412478589205286],
        [-0.132714499949919, 51.412348492528466],
        [-0.132101291573376, 51.41229285778401],
        [-0.132099854480747, 51.412292834878464],
        [-0.127923969383019, 51.41200768006277],
        [-0.12788811579846, 51.412005308781296],
        [-0.127780188158038, 51.412253580575424],
        [-0.12775801296447, 51.412303585207994],
        [-0.127751713899581, 51.41231697356542],
        [-0.127534750076276, 51.412312607894734],
        [-0.127615358516142, 51.412205084617604],
        [-0.127726758979146, 51.41201262294992],
        [-0.12780960586652, 51.41185028006914],
        [-0.128041023062554, 51.41121909496301],
        [-0.128193599695092, 51.41093376688917],
        [-0.128227538278935, 51.410947797956226],
        [-0.128322242314413, 51.410987978982384],
        [-0.128480873976299, 51.411012094808505],
        [-0.128522169709889, 51.4109516041914],
        [-0.128543536058517, 51.41092137035112],
        [-0.128640576860204, 51.410833892642266],
        [-0.128608032642955, 51.410785711847005],
        [-0.128761839309526, 51.41061101242531],
        [-0.128942495740812, 51.41037738992276],
        [-0.129171922954718, 51.41007620150474],
        [-0.129357442887813, 51.40986423839781],
        [-0.129478738919455, 51.40985178627022],
        [-0.129478539223682, 51.40957480908786],
        [-0.130500792889863, 51.40954256101351],
        [-0.130512545523221, 51.40953645363783],
        [-0.130956425786173, 51.409512059585865],
        [-0.131285939561205, 51.40950652332593],
        [-0.131314761927765, 51.40922281485348],
        [-0.131316492042629, 51.40921564831313],
        [-0.132089065898266, 51.40917041213004],
        [-0.132073407593971, 51.409025380719044],
        [-0.132051387417282, 51.40893060679426],
        [-0.132042463890378, 51.40890258730875],
        [-0.13200809699306, 51.40879322831202],
        [-0.131955657547793, 51.40845696616231],
        [-0.132257632712218, 51.4084213124478],
        [-0.132259069683613, 51.4084213353502],
        [-0.132481095621446, 51.40840688845847],
        [-0.132318493189298, 51.406927702038224],
        [-0.131668077351345, 51.40535261049035],
        [-0.131500569234329, 51.40526450939509],
        [-0.131481039132456, 51.40524980972339],
        [-0.131442784873911, 51.40520063935544],
        [-0.131407371667848, 51.405011228681005],
        [-0.131551049756779, 51.4049784482374],
        [-0.131533058220514, 51.404926003905686],
        [-0.131328962866684, 51.40418355226349],
        [-0.131314549716974, 51.40414915028663],
        [-0.131279426634087, 51.40409373491465],
        [-0.131215786781454, 51.404032469164605],
        [-0.131169946639763, 51.40399306965017],
        [-0.130911607552443, 51.40380549897874],
        [-0.130678136247692, 51.40360753321217],
        [-0.130634796536489, 51.40354209462645],
        [-0.130621226957884, 51.40348702287395],
        [-0.130526579278717, 51.403304760299896],
        [-0.130506163223016, 51.40327655731576],
        [-0.130481106932626, 51.403256373701446],
        [-0.129429109744563, 51.40268203997913],
        [-0.129253508325956, 51.40258121661868],
        [-0.128881232942699, 51.40236754213917],
        [-0.128648853755979, 51.40221365372903],
        [-0.128490417708879, 51.402079830426615],
        [-0.128336580484201, 51.401903814786735],
        [-0.128270520181019, 51.401866788935976],
        [-0.128034202241792, 51.40170384367967],
        [-0.128011324207743, 51.401700780400574],
        [-0.127989846238822, 51.40169863875092],
        [-0.127737311285521, 51.40147518288192],
        [-0.127769580372866, 51.40145951163993],
        [-0.127787151657616, 51.40145169897051],
        [-0.12771755290814, 51.401395731646105],
        [-0.127640917405858, 51.401336054773324],
        [-0.127510147141167, 51.40115860802848],
        [-0.127219256050518, 51.40085360398353],
        [-0.127034297069217, 51.400665398675166],
        [-0.126760106755687, 51.40040922082978],
        [-0.126647845400097, 51.40030670817422],
        [-0.126524751865509, 51.40018783540069],
        [-0.126312464303662, 51.40000009123598],
        [-0.126222237212423, 51.3999213114432],
        [-0.126142214228482, 51.39983909768373],
        [-0.125917285274416, 51.3995738135715],
        [-0.125645422138033, 51.399261016328886],
        [-0.12543788958907, 51.39902748389028],
        [-0.125378978663038, 51.3989563985357],
        [-0.125386562471734, 51.398911556452255],
        [-0.125396097323645, 51.39885415582601],
        [-0.125417423130398, 51.3988248211402],
        [-0.125434181726392, 51.39880170826401],
        [-0.125496354851711, 51.39872266799299],
        [-0.125693542166085, 51.398365215681544],
        [-0.125724552769359, 51.398309957072875],
        [-0.125277494117107, 51.39827402890109],
        [-0.12501377227021, 51.3982194503218],
        [-0.124777861848168, 51.398152726461994],
        [-0.124636439640987, 51.398095607802034],
        [-0.124490297442967, 51.39797816243957],
        [-0.124420046248421, 51.39793836946047],
        [-0.124545244926399, 51.39782976334134],
        [-0.124151406965054, 51.39761752674121],
        [-0.124351787663499, 51.397498433869956],
        [-0.124522258699652, 51.39740763853706],
        [-0.125189568324706, 51.39687336055354],
        [-0.12644141622287, 51.3958592245387],
        [-0.127103191461799, 51.39531855241256],
        [-0.127910402754811, 51.39473613613777],
        [-0.128601779981781, 51.39431463202374],
        [-0.129370482592679, 51.39382961103381],
        [-0.129689682631214, 51.393651255714616],
        [-0.129529703292515, 51.39359114886763],
        [-0.129119209694676, 51.393470388269215],
        [-0.128903001324483, 51.39348492130718],
        [-0.128756514934341, 51.39348168277338],
        [-0.129582484948347, 51.39303714277213],
        [-0.130251380595556, 51.39274296629762],
        [-0.132081258748638, 51.39200057935713],
        [-0.13331317842858, 51.39146896017496],
        [-0.133540810859195, 51.391385357371185],
        [-0.13379852420215, 51.391268960305105],
        [-0.13393813015474, 51.39119384665591],
        [-0.134072136176638, 51.39111504659194],
        [-0.134285270191505, 51.39096376635126],
        [-0.134319514379137, 51.39093463575997]
      ]
    ]
  }
}
