{
  "type": "Feature",
  "properties": {
    "name": "Merton",
    "level": 2,
    "londonBorough": true,
    "center": [-0.1958, 51.4014]
  },
  "geometry": {
    "type": "Polygon",
    "coordinates": [
      [
        [-0.134319514379137, 51.39093463575997],
        [-0.134721274933, 51.39095182336135],
        [-0.134868605544691, 51.39096945620836],
        [-0.136466701698555, 51.390409460137164],
        [-0.136703392325928, 51.390350275537635],
        [-0.14053828044259, 51.38974573821397],
        [-0.140666920922954, 51.38972799573062],
        [-0.14182101760647, 51.389374906341814],
        [-0.141903728763742, 51.389355534850424],
        [-0.143233527449268, 51.39041347058592],
        [-0.144378371470515, 51.390679804529206],
        [-0.146738295749975, 51.39043568363429],
        [-0.147165281790169, 51.39025538880114],
        [-0.148080504758293, 51.39015744925591],
        [-0.157732370258898, 51.3892934301896],
        [-0.157896335618334, 51.38929061247792],
        [-0.158303258825799, 51.38896428082638],
        [-0.158282419760364, 51.38883895532172],
        [-0.158700861770369, 51.38890578253103],
        [-0.158844326142199, 51.38887656262522],
        [-0.15970365388884, 51.38859420398842],
        [-0.160032389519912, 51.38846087975204],
        [-0.160634429107407, 51.388071058236115],
        [-0.160986550936118, 51.38782029465902],
        [-0.161552085919655, 51.3880539858919],
        [-0.161770295644148, 51.38813204851947],
        [-0.164003698494207, 51.38809872173865],
        [-0.16408125950879, 51.38813590766097],
        [-0.165111892911645, 51.387989284844444],
        [-0.165290504569672, 51.38797949204553],
        [-0.165852603365728, 51.38865914404468],
        [-0.166057030884682, 51.38886647703971],
        [-0.166358011476474, 51.38960678623397],
        [-0.166455183122926, 51.389692837738906],
        [-0.167381275113086, 51.3899330412543],
        [-0.167609020575183, 51.39006070157075],
        [-0.168047712509173, 51.39052079052284],
        [-0.168152502880448, 51.390632139100155],
        [-0.169226873575476, 51.39108327519746],
        [-0.16987983297494, 51.39139742680209],
        [-0.169925234445434, 51.391556406410984],
        [-0.169971678239286, 51.391725294181484],
        [-0.170977009008796, 51.39232281491434],
        [-0.171143938529197, 51.39242613801304],
        [-0.172488342132889, 51.39259549209892],
        [-0.172871392965102, 51.39265002591589],
        [-0.174325612489902, 51.39316638833567],
        [-0.17486754668316, 51.39341853112908],
        [-0.179113796128581, 51.389940597329236],
        [-0.179264593068042, 51.389835029025235],
        [-0.179852930217528, 51.38949705396204],
        [-0.180015738972246, 51.38959580407643],
        [-0.182470165037881, 51.38815731144251],
        [-0.182712152063615, 51.38803516795631],
        [-0.184054282804356, 51.38771515545649],
        [-0.184289308373417, 51.387623475796815],
        [-0.187027760198604, 51.38622885713702],
        [-0.188411493598031, 51.385435527190815],
        [-0.188443712155824, 51.385456708375045],
        [-0.188993950010661, 51.38582581872992],
        [-0.189460803606599, 51.385868104847646],
        [-0.189568385065828, 51.38587336422405],
        [-0.18965716992969, 51.386063581223134],
        [-0.189736557447965, 51.38612775617071],
        [-0.190124789240376, 51.3861229624979],
        [-0.190469436186416, 51.38620292439554],
        [-0.190327171130809, 51.386348206308185],
        [-0.190534997204204, 51.38647191714669],
        [-0.190788344845198, 51.38664399142387],
        [-0.191662541249872, 51.387072046450406],
        [-0.191860644792066, 51.386932120946014],
        [-0.193072715881267, 51.38779522611993],
        [-0.193200700170889, 51.387866442901235],
        [-0.193603702334228, 51.387669423279995],
        [-0.193950736677617, 51.387871711262655],
        [-0.195246312081463, 51.38712550241815],
        [-0.19534876619549, 51.387078520290466],
        [-0.196437869209334, 51.38679403662149],
        [-0.196525498607225, 51.38675851568715],
        [-0.200316868474695, 51.38496343196809],
        [-0.200505322832595, 51.384885392845256],
        [-0.202196270012275, 51.38618380525989],
        [-0.203517930206886, 51.38722563730216],
        [-0.20502681146654, 51.386092312058786],
        [-0.205028247796885, 51.38609233406228],
        [-0.207734711728981, 51.38737384429919],
        [-0.207866992038972, 51.38744600990866],
        [-0.209494901670935, 51.38804732310626],
        [-0.209792997066772, 51.38825331218833],
        [-0.212427117914908, 51.38568117653411],
        [-0.212635801711614, 51.38548922054948],
        [-0.213133600358613, 51.385217143113536],
        [-0.213371740161359, 51.38500675056846],
        [-0.213156116450907, 51.38489734978879],
        [-0.212985580028949, 51.38481111777004],
        [-0.213500043297907, 51.384516811447945],
        [-0.213957045323657, 51.38414788765479],
        [-0.213907930298756, 51.38411746337934],
        [-0.213801432717403, 51.38404749612605],
        [-0.218136260692769, 51.38015045846147],
        [-0.21836317851776, 51.38019077889021],
        [-0.218767261050508, 51.38040555112019],
        [-0.21915092705362, 51.38062810495621],
        [-0.220576467700814, 51.38092403782537],
        [-0.221000066451755, 51.38108064672007],
        [-0.224589907350073, 51.38263686130289],
        [-0.227742264820386, 51.38395433899446],
        [-0.233689046807926, 51.38757552241183],
        [-0.233928217459141, 51.38770951986881],
        [-0.233670980801917, 51.387820747461085],
        [-0.234127422818458, 51.38850836523189],
        [-0.234213750813361, 51.38872998431597],
        [-0.234489750273467, 51.39007313759906],
        [-0.234657241859156, 51.39053877862602],
        [-0.238243579480889, 51.38974745258927],
        [-0.238539000990876, 51.389689845175354],
        [-0.239691011063066, 51.38929619678573],
        [-0.239706881078218, 51.389294636682735],
        [-0.239785562024418, 51.38945408787207],
        [-0.239886009445534, 51.38957070162939],
        [-0.24010490163124, 51.39109553185716],
        [-0.240108256385946, 51.39119539972965],
        [-0.240471786273668, 51.39179796537321],
        [-0.240560863042832, 51.39198634825029],
        [-0.240847850784117, 51.392148926163514],
        [-0.240967934833857, 51.39216601623103],
        [-0.240885213814664, 51.39233653240517],
        [-0.240824063124783, 51.392431834815156],
        [-0.241345296143188, 51.39338297861065],
        [-0.241691686009654, 51.39387107731691],
        [-0.242285438745885, 51.3941686463417],
        [-0.242510012591625, 51.39423496266198],
        [-0.244232971132695, 51.394511683480225],
        [-0.244595174070795, 51.39466278936277],
        [-0.246940066539141, 51.3971339754525],
        [-0.247424784370394, 51.39757826372597],
        [-0.246893075424903, 51.398287915882094],
        [-0.246769407594666, 51.39851447647054],
        [-0.246609245257685, 51.399281842300994],
        [-0.246591640245214, 51.39940387753815],
        [-0.246823989141449, 51.400395634779336],
        [-0.246846449675995, 51.40048499700674],
        [-0.245238604516441, 51.40170190355684],
        [-0.245234259567527, 51.40170273775046],
        [-0.244845024440495, 51.402894715810746],
        [-0.244739592000661, 51.403170107068746],
        [-0.244703416693265, 51.4038520993359],
        [-0.244684722173356, 51.40422770764202],
        [-0.245195895808498, 51.4060104907424],
        [-0.245221634517726, 51.40612687991214],
        [-0.245477367929108, 51.406545264933456],
        [-0.245532845277028, 51.40663602087847],
        [-0.245338289353437, 51.40702338424494],
        [-0.245353675873344, 51.40707217432581],
        [-0.245801420104534, 51.40754558993452],
        [-0.245810757083533, 51.4075646140224],
        [-0.246956413101672, 51.40779847708854],
        [-0.247032363675284, 51.40784277734318],
        [-0.247460848386424, 51.40844449157811],
        [-0.247507612516378, 51.408500045344866],
        [-0.247555868346178, 51.408855072777165],
        [-0.247557068887808, 51.409049329454305],
        [-0.247136938439675, 51.409582598401435],
        [-0.247170894058041, 51.40970990097794],
        [-0.249533953257637, 51.41477833738639],
        [-0.24959967625345, 51.414902516551756],
        [-0.249833210972653, 51.41658221021368],
        [-0.24985845152192, 51.41701332883974],
        [-0.249613734784163, 51.418374738726094],
        [-0.249642361131948, 51.41852893830279],
        [-0.250277056070205, 51.41960942401439],
        [-0.250386897613579, 51.41978372005628],
        [-0.250551826862813, 51.42077535856424],
        [-0.250583019924506, 51.42097545795859],
        [-0.250925221542119, 51.42188251415096],
        [-0.251122974227666, 51.422316206327494],
        [-0.251708136549948, 51.42281233022944],
        [-0.251804035828171, 51.422862320188415],
        [-0.252783214303566, 51.42309723729766],
        [-0.252954411397788, 51.4232094977906],
        [-0.252922897554403, 51.42369642196789],
        [-0.252909256494776, 51.424054120415796],
        [-0.252279775851166, 51.42562381996267],
        [-0.252261045083549, 51.425737745483495],
        [-0.252429346532219, 51.42630318569571],
        [-0.252528016918675, 51.426506988121915],
        [-0.252987213757012, 51.42698863739487],
        [-0.253084385603262, 51.42711867845601],
        [-0.254204948371451, 51.42923242470664],
        [-0.2542477355139, 51.429317591453355],
        [-0.254153449785797, 51.42975322254446],
        [-0.254085324678695, 51.42987990130382],
        [-0.253445768029344, 51.43069408613445],
        [-0.253327829924841, 51.43084430195337],
        [-0.252541793747859, 51.43116081248002],
        [-0.252394380681587, 51.43125393522263],
        [-0.251247173032002, 51.43228804856906],
        [-0.251084056775743, 51.432566180840155],
        [-0.241195558051046, 51.435094393769916],
        [-0.24071162917444, 51.43522022076672],
        [-0.231656095118794, 51.438019116351],
        [-0.231323410514449, 51.438139093058204],
        [-0.225893218372344, 51.43869820104471],
        [-0.225505885020525, 51.438742696351206],
        [-0.224507809133131, 51.438581904540754],
        [-0.224276852285428, 51.43886077116547],
        [-0.221130950243197, 51.438505529355744],
        [-0.220438184490988, 51.4384491525236],
        [-0.217912519786226, 51.438684155356455],
        [-0.217846512200001, 51.43867955483149],
        [-0.217134313195701, 51.438568008603404],
        [-0.216885255767033, 51.43849767563636],
        [-0.215920931325898, 51.43791467511818],
        [-0.215734688052046, 51.43774637787205],
        [-0.212779020487607, 51.43782904493408],
        [-0.21254582565506, 51.43783178402563],
        [-0.204285339010967, 51.43901214713401],
        [-0.204255712363368, 51.43896043580988],
        [-0.196452946637613, 51.44045480482186],
        [-0.194610492411914, 51.44083650291752],
        [-0.194548134753934, 51.44073932225733],
        [-0.190078888090259, 51.44146714176597],
        [-0.190039740844254, 51.44147463061977],
        [-0.189945957563393, 51.440425550312746],
        [-0.189759132264061, 51.440055769197606],
        [-0.190646023610783, 51.43894988927039],
        [-0.190667362757996, 51.43891964396803],
        [-0.189215892918534, 51.438547420655496],
        [-0.189267428148274, 51.43811747333361],
        [-0.189886923910882, 51.43580426384927],
        [-0.190068852917762, 51.43527831067812],
        [-0.190373386992312, 51.43459867881148],
        [-0.190639533207757, 51.43408931221901],
        [-0.191132083952605, 51.43363919298873],
        [-0.191145450217484, 51.43362860818438],
        [-0.191144010973576, 51.43326438727915],
        [-0.19106212697748, 51.433042805877896],
        [-0.190408902862327, 51.43198868654216],
        [-0.190342430051307, 51.43188694357953],
        [-0.189957811489572, 51.43153569036604],
        [-0.189796770974843, 51.43135155361138],
        [-0.189119569294145, 51.431596482001254],
        [-0.189088914702506, 51.43160769873499],
        [-0.189244573981113, 51.43181873102941],
        [-0.189254176313293, 51.4318305697035],
        [-0.188358369979638, 51.43210988524048],
        [-0.187453948380959, 51.432097701611994],
        [-0.187419442176093, 51.43209716801598],
        [-0.187301091020807, 51.43290646722944],
        [-0.187289298342904, 51.432986318688386],
        [-0.186424427517779, 51.43295585446248],
        [-0.185761584197635, 51.43316411624607],
        [-0.185430718005681, 51.43269138114739],
        [-0.185288382912287, 51.43250752772274],
        [-0.184580226282845, 51.43193542553115],
        [-0.184419633745879, 51.43174049713641],
        [-0.184393332685606, 51.431460420802416],
        [-0.184407030835334, 51.43136890876336],
        [-0.184248308182173, 51.431272028089985],
        [-0.184154046934877, 51.4312184109293],
        [-0.184564695279561, 51.428589048923286],
        [-0.184552634285519, 51.42762305955161],
        [-0.184347432723069, 51.42695712813147],
        [-0.184092707457732, 51.426379455509554],
        [-0.183232373058242, 51.42554869767789],
        [-0.181939849837949, 51.42473551006287],
        [-0.178000299313039, 51.42422290705968],
        [-0.177470632423334, 51.424122947613114],
        [-0.175828267808793, 51.4237547798447],
        [-0.175586400306151, 51.42368806704678],
        [-0.173722840150063, 51.42302416690569],
        [-0.173597153219031, 51.423182276559174],
        [-0.171068821975965, 51.42191356200927],
        [-0.171017251723153, 51.42187229055984],
        [-0.168448030785933, 51.42098236811081],
        [-0.1684249959575, 51.42091096657349],
        [-0.166181027583196, 51.420521568758524],
        [-0.165072816433924, 51.42039631235163],
        [-0.164833425549196, 51.4203404070299],
        [-0.164880655212514, 51.42016668996351],
        [-0.165052563281491, 51.420183769724424],
        [-0.165093605985435, 51.42009268769977],
        [-0.161671128301833, 51.41986279995321],
        [-0.161599152422698, 51.419864368750005],
        [-0.160361223229772, 51.42182421803507],
        [-0.160361782447981, 51.42191774996276],
        [-0.160083116513899, 51.421836938431056],
        [-0.159973030107851, 51.42192783406681],
        [-0.159913834534226, 51.422184093377105],
        [-0.160043701825684, 51.42220951301296],
        [-0.159918524629301, 51.42228218646693],
        [-0.159882813244175, 51.422634136117395],
        [-0.159698971996277, 51.42259168213606],
        [-0.15970065239459, 51.42244243118828],
        [-0.15967833937922, 51.42242499487114],
        [-0.159592102822229, 51.42256662326008],
        [-0.157545050940568, 51.421751204436205],
        [-0.156841315529465, 51.42151082770006],
        [-0.151909732537628, 51.42003931165928],
        [-0.151327598296954, 51.41985207679521],
        [-0.150547545584446, 51.42004300322612],
        [-0.150428231663051, 51.42007709085428],
        [-0.149548594538792, 51.41992022298869],
        [-0.149341210465944, 51.41985579859783],
        [-0.1478962702225, 51.41913154821612],
        [-0.147669948233967, 51.41900207461925],
        [-0.146918248929686, 51.41895422108492],
        [-0.146813596118778, 51.41891030096845],
        [-0.145851583916315, 51.41826650043733],
        [-0.145778444976314, 51.41822577573082],
        [-0.144505846747164, 51.41775870082781],
        [-0.14448023056349, 51.417752000421295],
        [-0.142792068845697, 51.41820636662198],
        [-0.142665167016961, 51.418250218012574],
        [-0.140671405720548, 51.41911067385186],
        [-0.140405452554709, 51.4192494371946],
        [-0.141598486856144, 51.41841585911082],
        [-0.143260310674626, 51.41726326422496],
        [-0.143048747849096, 51.41712502272357],
        [-0.144916319147146, 51.41586145796717],
        [-0.145009410300408, 51.415799983008405],
        [-0.14435164362738, 51.415351628514365],
        [-0.144347477601438, 51.41534796549527],
        [-0.146865038638247, 51.41393998671886],
        [-0.147083333676628, 51.41380495170557],
        [-0.147891778586304, 51.41305155835822],
        [-0.148090361577819, 51.41287034751525],
        [-0.147530585170243, 51.41273740208911],
        [-0.146804341353684, 51.412560455564176],
        [-0.145506301776833, 51.41254801557605],
        [-0.145169981349167, 51.41254359232382],
        [-0.144806428219964, 51.412394854750765],
        [-0.144623042552313, 51.412413533898025],
        [-0.142675449830266, 51.413348493541115],
        [-0.142582218222889, 51.41334251961407],
        [-0.14204632533436, 51.41311730223419],
        [-0.141209543872605, 51.412758715555874],
        [-0.138273020686955, 51.41187488705406],
        [-0.138101981272041, 51.411802027104805],
        [-0.134424223943538, 51.411078981363374],
        [-0.134099941186945, 51.41099108618936],
        [-0.133739274139071, 51.41267955921923],
        [-0.133577910368128, 51.41293417931027],
        [-0.133354186950798, 51.41288385425413],
        [-0.133567753635998, 51.4125833040726],
        [-0.133572357745326, 51.41257618327583],
        [-0.133203882144431, 51.412478589205286],
        [-0.132714499949919, 51.412348492528466],
        [-0.127923969383019, 51.41200768006277],
        [-0.12788811579846, 51.412005308781296],
        [-0.127751713899581, 51.41231697356542],
        [-0.127534750076276, 51.412312607894734],
        [-0.128041023062554, 51.41121909496301],
        [-0.128193599695092, 51.41093376688917],
        [-0.128322242314413, 51.410987978982384],
        [-0.128480873976299, 51.411012094808505],
        [-0.129478738919455, 51.40985178627022],
        [-0.129478539223682, 51.40957480908786],
        [-0.130956425786173, 51.409512059585865],
        [-0.131285939561205, 51.40950652332593],
        [-0.131316492042629, 51.40921564831313],
        [-0.132089065898266, 51.40917041213004],
        [-0.13200809699306, 51.40879322831202],
        [-0.131955657547793, 51.40845696616231],
        [-0.132481095621446, 51.40840688845847],
        [-0.132318493189298, 51.406927702038224],
        [-0.131668077351345, 51.40535261049035],
        [-0.131481039132456, 51.40524980972339],
        [-0.131442784873911, 51.40520063935544],
        [-0.131407371667848, 51.405011228681005],
        [-0.131551049756779, 51.4049784482374],
        [-0.131314549716974, 51.40414915028663],
        [-0.131279426634087, 51.40409373491465],
        [-0.130911607552443, 51.40380549897874],
        [-0.130678136247692, 51.40360753321217],
        [-0.130506163223016, 51.40327655731576],
        [-0.130481106932626, 51.403256373701446],
        [-0.127989846238822, 51.40169863875092],
        [-0.127737311285521, 51.40147518288192],
        [-0.12543788958907, 51.39902748389028],
        [-0.125378978663038, 51.3989563985357],
        [-0.125693542166085, 51.398365215681544],
        [-0.125724552769359, 51.398309957072875],
        [-0.124777861848168, 51.398152726461994],
        [-0.124636439640987, 51.398095607802034],
        [-0.124490297442967, 51.39797816243957],
        [-0.124420046248421, 51.39793836946047],
        [-0.124545244926399, 51.39782976334134],
        [-0.124151406965054, 51.39761752674121],
        [-0.12644141622287, 51.3958592245387],
        [-0.127103191461799, 51.39531855241256],
        [-0.129370482592679, 51.39382961103381],
        [-0.129689682631214, 51.393651255714616],
        [-0.128903001324483, 51.39348492130718],
        [-0.128756514934341, 51.39348168277338],
        [-0.134319514379137, 51.39093463575997]
      ]
    ]
  }
}
