{
  "type": "Feature",
  "properties": {
    "name": "Newham",
    "level": 2,
    "londonBorough": true,
    "center": [0.037, 51.524]
  },
  "geometry": {
    "type": "Polygon",
    "coordinates": [
      [
        [-0.00778967576634, 51.525376640720225],
        [-0.007693558364655, 51.52546493461092],
        [-0.007548978349246, 51.525639633883564],
        [-0.007505521816573, 51.525776483188594],
        [-0.007468421991778, 51.525998870609826],
        [-0.007524538277048, 51.526199460637564],
        [-0.00763693770738, 51.52633266255996],
        [-0.00776016712968, 51.52644896228824],
        [-0.008044368194283, 51.526642634663666],
        [-0.008229170917886, 51.526834618491726],
        [-0.008368660384536, 51.527007847324974],
        [-0.008458571951315, 51.527226995960675],
        [-0.008586165282213, 51.5274746614712],
        [-0.008726452281608, 51.52759664531437],
        [-0.008932969296517, 51.52772065250935],
        [-0.009434198525088, 51.52796296841806],
        [-0.010051705280437, 51.528316065827674],
        [-0.01021245107035, 51.52839882730369],
        [-0.01035363740029, 51.52853341408983],
        [-0.010431288118335, 51.52863724731776],
        [-0.01048719418303, 51.5288099549973],
        [-0.010568701569245, 51.52905683650372],
        [-0.010636221061164, 51.52919466977408],
        [-0.010786564297994, 51.529317720870836],
        [-0.010928586167542, 51.529400163785525],
        [-0.011178471836719, 51.529455659009365],
        [-0.011875077936759, 51.52954930119192],
        [-0.012675807518561, 51.529635710751506],
        [-0.01317462220097, 51.529702613050354],
        [-0.013647297328497, 51.52984011237556],
        [-0.013966140208356, 51.529934538401456],
        [-0.014048168978803, 51.53000427126493],
        [-0.014067361047173, 51.53002707778565],
        [-0.014083476207475, 51.53005432852601],
        [-0.014175271246741, 51.5301646934944],
        [-0.014280502300107, 51.530264494683735],
        [-0.014578821810963, 51.53039993768114],
        [-0.014958878470658, 51.530512483067845],
        [-0.015512364901824, 51.53064864452285],
        [-0.016472072203412, 51.53099220890663],
        [-0.016858947482448, 51.53114712872049],
        [-0.017184416270145, 51.53132169228726],
        [-0.017443925592511, 51.53148794602086],
        [-0.017452218684762, 51.53149617955246],
        [-0.0175465586359, 51.53158140544504],
        [-0.017778983606987, 51.531972915588725],
        [-0.018033349989169, 51.532224511],
        [-0.018197389383102, 51.532364869754105],
        [-0.018232504545631, 51.5324526914887],
        [-0.018237278881748, 51.532608344563265],
        [-0.018178346398454, 51.532770115408844],
        [-0.018041607321907, 51.53296384431058],
        [-0.018010917872015, 51.533006490364485],
        [-0.017972942849723, 51.533084084542736],
        [-0.017986787026431, 51.533263271693144],
        [-0.017987915554859, 51.53327048486114],
        [-0.018125978195603, 51.53347784942372],
        [-0.0181904957103, 51.533552678982105],
        [-0.018375996386516, 51.53369699706128],
        [-0.018668037946024, 51.533878185686184],
        [-0.01887628253387, 51.534030081209394],
        [-0.018963231057872, 51.53411967735632],
        [-0.019003331979295, 51.53422556826387],
        [-0.019031474497675, 51.53437442178859],
        [-0.019037062731707, 51.534611022103576],
        [-0.019082963941834, 51.534749384360914],
        [-0.019164064857582, 51.53494049820186],
        [-0.019346255818177, 51.53519446873716],
        [-0.019555552305293, 51.53545519142946],
        [-0.019704962736078, 51.53563396918289],
        [-0.019917773224277, 51.5358138169423],
        [-0.020142424466445, 51.53598667005494],
        [-0.020439476553847, 51.536086105818164],
        [-0.020598673346693, 51.536139150889944],
        [-0.020867806054039, 51.53621743141664],
        [-0.020975247027585, 51.53630017764088],
        [-0.021170383781574, 51.53652199018082],
        [-0.021175012286231, 51.53668123756132],
        [-0.021220569959091, 51.53686095912136],
        [-0.021242376286209, 51.536923376010435],
        [-0.021264142547615, 51.537019964156606],
        [-0.021245912570161, 51.53714105695081],
        [-0.02108993395588, 51.537346155137804],
        [-0.020825259684692, 51.537563807441934],
        [-0.020600037582183, 51.53770298986234],
        [-0.020558560436764, 51.53772836855804],
        [-0.02020271534663, 51.537886928264335],
        [-0.020004950057438, 51.53795822907091],
        [-0.019903496221528, 51.53800327819545],
        [-0.019767847073935, 51.538072030051175],
        [-0.019671727493948, 51.53812706090171],
        [-0.019508501901063, 51.53823311590488],
        [-0.019500867975499, 51.538242878897364],
        [-0.019496389048326, 51.538246400324965],
        [-0.019426986351926, 51.53828389681035],
        [-0.019234266410505, 51.53853783161543],
        [-0.019147789164139, 51.53876928012199],
        [-0.019028586335157, 51.5391233747538],
        [-0.018916325043504, 51.53935079061669],
        [-0.018810420980343, 51.53946500679116],
        [-0.018646525033378, 51.53958633673876],
        [-0.018310985667811, 51.53977490938701],
        [-0.018106696402408, 51.53992972815089],
        [-0.017945948619988, 51.540078088165686],
        [-0.017879533658652, 51.540179481798475],
        [-0.017811907925498, 51.54030873204162],
        [-0.017769431803553, 51.5405229377971],
        [-0.017801842670953, 51.54080585355579],
        [-0.017751664467216, 51.54093180152858],
        [-0.0176226227594, 51.54101415151785],
        [-0.017461178516834, 51.54107886779475],
        [-0.017233797054496, 51.541134376037085],
        [-0.017004622415892, 51.541197946882654],
        [-0.016787170920826, 51.541257219167356],
        [-0.016634947841973, 51.54137514663725],
        [-0.016515282244442, 51.541507113328244],
        [-0.016436532858059, 51.54175937352937],
        [-0.016342028591833, 51.54214176017389],
        [-0.016207900264298, 51.542340926600666],
        [-0.016195824417772, 51.54235331204862],
        [-0.016114253654761, 51.54243826168791],
        [-0.016092544041842, 51.54253951108322],
        [-0.016312288882095, 51.5428255951984],
        [-0.01645477784365, 51.5429979649544],
        [-0.016502051382131, 51.54307160443504],
        [-0.016540243834124, 51.54318825489498],
        [-0.016568153268176, 51.5433092277856],
        [-0.016571534095841, 51.54336413988249],
        [-0.016572154615581, 51.54338303485981],
        [-0.016533440989017, 51.54364316605754],
        [-0.01652721344312, 51.54388586128371],
        [-0.016620826475024, 51.544319988637994],
        [-0.016748436087655, 51.544536170188955],
        [-0.016842652090288, 51.5448570006108],
        [-0.016838197761799, 51.544959441063604],
        [-0.016875572000522, 51.5450949620142],
        [-0.016885129743745, 51.54527317725196],
        [-0.016907761941551, 51.5455487336767],
        [-0.016985298373416, 51.545954711737394],
        [-0.017051636569812, 51.54622021574904],
        [-0.017225637638141, 51.546795985840426],
        [-0.017342374136323, 51.5471297859751],
        [-0.017458791493296, 51.547537319938996],
        [-0.01750855894007, 51.54765326631456],
        [-0.017621179101687, 51.547915954962306],
        [-0.017930919622989, 51.548388803930806],
        [-0.018192237329078, 51.54894716300325],
        [-0.018341305465552, 51.54940021047178],
        [-0.018724515506097, 51.550041560487415],
        [-0.018875442942651, 51.550286010227424],
        [-0.018941921131546, 51.55048227223409],
        [-0.018948721922101, 51.5506577427667],
        [-0.018922020156309, 51.550840740901045],
        [-0.018902996618049, 51.55097980494876],
        [-0.018855532850147, 51.55114266874424],
        [-0.018844298254045, 51.55130164802622],
        [-0.018887995248019, 51.55142468526985],
        [-0.018972402481016, 51.55154031658929],
        [-0.018995692610724, 51.55160185952865],
        [-0.018082364549398, 51.55157474345226],
        [-0.017167826416588, 51.55157547686374],
        [-0.017146184423042, 51.5514429198566],
        [-0.017137154305059, 51.5513852145896],
        [-0.016970458446708, 51.55140397929715],
        [-0.016967453886787, 51.55143989891481],
        [-0.016951306853945, 51.551579011293356],
        [-0.01569915143057, 51.551714310578596],
        [-0.014385237659314, 51.551876428364245],
        [-0.013636236830766, 51.551984250069125],
        [-0.013367700548748, 51.552022867588974],
        [-0.013148327760953, 51.55205872007187],
        [-0.012937563832644, 51.552095617217574],
        [-0.011820732049969, 51.55233568287447],
        [-0.011119336094232, 51.55254231472819],
        [-0.010889389856909, 51.552622047532296],
        [-0.010831459154115, 51.55262736014688],
        [-0.010715989755642, 51.55262899933043],
        [-0.010595225205855, 51.55261975748103],
        [-0.010473646650169, 51.552596113531166],
        [-0.010409449959262, 51.55257973741944],
        [-0.010230499438918, 51.55251555277001],
        [-0.009964339612322, 51.552400429235924],
        [-0.009778536451423, 51.55232803430009],
        [-0.009471862956872, 51.55221581938524],
        [-0.009228861136064, 51.551801633165404],
        [-0.009190837780736, 51.551681386229085],
        [-0.009164355865451, 51.55152806247213],
        [-0.009178537768388, 51.551269315948254],
        [-0.009168813391091, 51.55109559354127],
        [-0.009137243668202, 51.55089362332327],
        [-0.0090381478672, 51.55061946550873],
        [-0.008890372218647, 51.550304014649726],
        [-0.008752855311532, 51.54995186798814],
        [-0.008684652926853, 51.549928228817954],
        [-0.008676122728681, 51.54992538624336],
        [-0.008551894507234, 51.549929572365855],
        [-0.00838472983072, 51.549959108036795],
        [-0.008017316861574, 51.55004909107586],
        [-0.006990776675825, 51.55026996070259],
        [-0.006302741953013, 51.55040215201849],
        [-0.005991769316499, 51.55048769232141],
        [-0.005708141651748, 51.550574595912046],
        [-0.005065408971654, 51.550792080694684],
        [-0.003822303832495, 51.551148625523126],
        [-0.003662138040154, 51.55091928619575],
        [-0.002634519667298, 51.55119675305737],
        [-0.001602525517251, 51.551475035703426],
        [-0.001117627805119, 51.55157918267598],
        [-0.000951657521176, 51.551614123731774],
        [-0.000351289723747, 51.55171989698059],
        [0.000325653411945, 51.55179558516113],
        [0.001274523342653, 51.55188821337837],
        [0.002099656861957, 51.55195506850418],
        [0.002492597707579, 51.55200141856364],
        [0.003081012871337, 51.55209748644281],
        [0.003177587020586, 51.551964545177654],
        [0.003227956988684, 51.55189624042202],
        [0.003560479154153, 51.55194631634063],
        [0.003798641357409, 51.55198271556946],
        [0.003810922648753, 51.55193394562381],
        [0.003842790705554, 51.551805706017745],
        [0.004977485453083, 51.55189243240142],
        [0.004983250933985, 51.55189233386838],
        [0.004945800818241, 51.552123185148396],
        [0.005175572576357, 51.55213274710104],
        [0.00523128308547, 51.55182514629395],
        [0.005254424007358, 51.55182654928521],
        [0.005734855358682, 51.5518615011356],
        [0.005804309138327, 51.551669669964554],
        [0.005805473800055, 51.55166335521194],
        [0.005791468112385, 51.551508921454015],
        [0.005760674580675, 51.5512351727447],
        [0.005713755462439, 51.55108669726131],
        [0.00559450898415, 51.550835143753154],
        [0.005503125742457, 51.550659551161964],
        [0.005779545005428, 51.55064763139894],
        [0.006819529729314, 51.550877143353745],
        [0.007562382373937, 51.55100831586897],
        [0.007691294665016, 51.5510204980203],
        [0.008151896488026, 51.5510638726469],
        [0.009508222228089, 51.55123758678595],
        [0.009451416212388, 51.551388736779906],
        [0.009508840808969, 51.55144800382071],
        [0.00964025824173, 51.55158244074739],
        [0.010097496864879, 51.55181111364587],
        [0.010330327832657, 51.551955502588086],
        [0.010821210897484, 51.552260033559165],
        [0.009622310222744, 51.55343343193055],
        [0.011110246010777, 51.55439802361915],
        [0.011621324039462, 51.55391714833417],
        [0.013926276657922, 51.55472920625263],
        [0.014573840864044, 51.55495459462475],
        [0.015622846176736, 51.553949185276736],
        [0.015699791970987, 51.55386243320908],
        [0.015970521517051, 51.553558326530876],
        [0.016254270735786, 51.553222521194485],
        [0.01672042677129, 51.55339076457658],
        [0.016944911340575, 51.55318277250629],
        [0.017930901686333, 51.553591169088754],
        [0.017932382869125, 51.55359204287591],
        [0.018582774580894, 51.553881208288615],
        [0.01937869656099, 51.55410131970221],
        [0.019338995833958, 51.55418203756849],
        [0.020076146241972, 51.55441034998861],
        [0.021532208190483, 51.554878066488996],
        [0.021232248412918, 51.555140424304994],
        [0.02131728721489, 51.55517133271031],
        [0.02034163497295, 51.55626725521523],
        [0.020497650621267, 51.55620701552481],
        [0.020877512445655, 51.55624993247476],
        [0.021326287817616, 51.556285366057075],
        [0.021782690496441, 51.556232538589526],
        [0.022157564826631, 51.55619550282749],
        [0.022476459603235, 51.55616482648482],
        [0.022507644607295, 51.55660762619722],
        [0.022575137115636, 51.55669818762936],
        [0.022796147548207, 51.55680228900497],
        [0.023057607068478, 51.55687511749714],
        [0.023155151324752, 51.55686264426084],
        [0.023230793708431, 51.55684425379635],
        [0.023291941169426, 51.556824314729944],
        [0.023352689759162, 51.55679538986655],
        [0.02342421255679, 51.55674919312719],
        [0.023486448027014, 51.55668876829498],
        [0.023527459630371, 51.556637702137984],
        [0.023545965501657, 51.55659961384645],
        [0.023570487898455, 51.55650207032538],
        [0.023561945890251, 51.555887120755514],
        [0.023698691501206, 51.55562037828889],
        [0.023762411963071, 51.55552845341196],
        [0.024708768257465, 51.555561584595814],
        [0.025276547099746, 51.55554818744981],
        [0.025293156914198, 51.55472057706449],
        [0.025341814883602, 51.55406237439286],
        [0.026716505894325, 51.554256256398524],
        [0.027546758220804, 51.5543390312549],
        [0.028179100231273, 51.554382956370375],
        [0.028740213565746, 51.55441462084783],
        [0.028973405103275, 51.5544033940206],
        [0.029231822318177, 51.55437554363198],
        [0.029436386460194, 51.55433693380927],
        [0.030904515548878, 51.55445810850703],
        [0.03174943289819, 51.55454599539807],
        [0.032177778386737, 51.55457634561057],
        [0.032296696700418, 51.55459047245079],
        [0.0330127334631, 51.554764214500956],
        [0.033420944369367, 51.55486055550889],
        [0.033817745690974, 51.55495979069745],
        [0.03407584750394, 51.5550218616995],
        [0.034837542636164, 51.555184009856404],
        [0.035009197709606, 51.55521610384492],
        [0.035345579401688, 51.55525433255596],
        [0.035413327526381, 51.555253157189824],
        [0.036103781556348, 51.555241176228975],
        [0.037165682794575, 51.55518047634925],
        [0.038079634532233, 51.55513402758554],
        [0.039227654833116, 51.55506371949322],
        [0.040109689000842, 51.55501331332545],
        [0.041129019434304, 51.55496860528919],
        [0.041504912081565, 51.55495487071262],
        [0.041748602230994, 51.554984802061895],
        [0.041981090596497, 51.555054495624944],
        [0.043637766752797, 51.55497169275127],
        [0.045289708832242, 51.5548799562859],
        [0.046137379187127, 51.554835499389206],
        [0.046300854852496, 51.55481376349329],
        [0.0462824913639, 51.554983146087345],
        [0.04621758805012, 51.555111974104875],
        [0.046091801679318, 51.555298517775036],
        [0.045864770463571, 51.55554348074422],
        [0.045437675561887, 51.55599156882605],
        [0.045048323304942, 51.55641291861987],
        [0.044834415630177, 51.55666124778772],
        [0.044653932749135, 51.55688291527586],
        [0.04454824492326, 51.557099681968324],
        [0.044456676497364, 51.557406129201006],
        [0.044395896985229, 51.55756276152037],
        [0.044185592931478, 51.557698618249944],
        [0.044060561322937, 51.55777363732956],
        [0.04349416060996, 51.55807576592318],
        [0.042851068789673, 51.558372932250286],
        [0.043029119733794, 51.55845076582526],
        [0.042835309705473, 51.55908362724048],
        [0.042544650322557, 51.55980900029004],
        [0.042248488031155, 51.56066935820555],
        [0.042093423760494, 51.56113697790451],
        [0.041928589607953, 51.561450992881944],
        [0.042295352985764, 51.561554319608476],
        [0.042626600356242, 51.561669953994745],
        [0.043712529037524, 51.561981073695435],
        [0.043892955179106, 51.56204717418122],
        [0.044603314280674, 51.56225152024696],
        [0.0456146659594, 51.562572015484285],
        [0.046282667296681, 51.56276450024391],
        [0.046940149616446, 51.56297964641275],
        [0.047436780269277, 51.56311486350346],
        [0.048086378055096, 51.56331485335935],
        [0.04864586912897, 51.56350022624022],
        [0.050318454142948, 51.56398898689644],
        [0.050412420846191, 51.563832670871015],
        [0.050638993542486, 51.56332062524625],
        [0.050719444233211, 51.563216702660895],
        [0.050981058487336, 51.56290637888092],
        [0.051366012894637, 51.562323218604334],
        [0.051506362625996, 51.562203859848935],
        [0.051713229801519, 51.56208783405425],
        [0.052032423017021, 51.56196714553566],
        [0.052302451736113, 51.561876092710186],
        [0.052497999614206, 51.56179713346762],
        [0.052554866276307, 51.56171430528568],
        [0.052599299165019, 51.56167575870739],
        [0.052648461546111, 51.56164612204115],
        [0.052698028532548, 51.56162547094911],
        [0.052750762018673, 51.5616110593057],
        [0.0528066215538, 51.561601988547096],
        [0.05293456277099, 51.56159165650393],
        [0.05301015991179, 51.56157234833683],
        [0.053068295498403, 51.56154974861286],
        [0.053104927973561, 51.56153022295538],
        [0.05316761570283, 51.561480565496296],
        [0.053348868329508, 51.56124448315239],
        [0.05341113492947, 51.56115346661831],
        [0.053462167424935, 51.56110131518069],
        [0.053520610298103, 51.56105353035412],
        [0.053568208344112, 51.56102122286892],
        [0.05368391070335, 51.56096344303162],
        [0.053780442386746, 51.560928480358236],
        [0.053910130975784, 51.56089293715251],
        [0.054097564737703, 51.56085818135162],
        [0.054120258039254, 51.560753468980295],
        [0.054103841644921, 51.56067731864278],
        [0.054105817845792, 51.56062512651435],
        [0.054119691290933, 51.56058081949669],
        [0.054146498612705, 51.560535386758126],
        [0.054193407265729, 51.56048780352832],
        [0.054246446669201, 51.560448206343885],
        [0.054343729963769, 51.56039794248132],
        [0.05440635794153, 51.560315012469495],
        [0.054370122803485, 51.56008723293504],
        [0.054333078639918, 51.560001551873164],
        [0.054322023553022, 51.55991631500126],
        [0.054331450366034, 51.55986938800797],
        [0.05435068472052, 51.559815994406044],
        [0.054410307274169, 51.5597304192017],
        [0.05443274861267, 51.55968416357063],
        [0.054464365817597, 51.55964943773705],
        [0.054517566026699, 51.55961343467303],
        [0.054585627353572, 51.559587063280084],
        [0.054645606223985, 51.559573423145245],
        [0.054729055188541, 51.559568364617306],
        [0.054955121624306, 51.55952663592226],
        [0.055227746449908, 51.559461609496196],
        [0.055360046256834, 51.55945209767559],
        [0.055483048322988, 51.55942836031263],
        [0.055605320879415, 51.55938844877564],
        [0.055705443011953, 51.55933723474334],
        [0.055785058903574, 51.55927918580256],
        [0.056057466370006, 51.55911344319879],
        [0.056332129228378, 51.558901797733114],
        [0.056333958419526, 51.55887838469748],
        [0.056324805041233, 51.55883538025456],
        [0.056299916315311, 51.55879534941073],
        [0.05623669637522, 51.55873710574666],
        [0.056237003006233, 51.558711920860844],
        [0.056251788456477, 51.55865590708909],
        [0.056274430083173, 51.558614143913665],
        [0.056303729550311, 51.558592047943435],
        [0.05633771840365, 51.55857796318773],
        [0.056370589979672, 51.55857109215181],
        [0.056421165326558, 51.558572903477426],
        [0.056489566086464, 51.55858609281464],
        [0.05654667782597, 51.55860487560992],
        [0.056590977937097, 51.558627480033756],
        [0.05662967410164, 51.558653779751026],
        [0.056684083016524, 51.55870858059362],
        [0.056734230541877, 51.55873288099349],
        [0.056802347823037, 51.55873978024124],
        [0.056838061977257, 51.558731959972114],
        [0.056877816922669, 51.55871777397052],
        [0.056911562412053, 51.55869829770466],
        [0.05695446607021, 51.55865797768975],
        [0.056991319677286, 51.55861146885521],
        [0.057007158401581, 51.558578817492304],
        [0.057014226256741, 51.55854362210325],
        [0.056992277630157, 51.55824904689073],
        [0.057122937340021, 51.558107369346146],
        [0.057264881196333, 51.55802394622891],
        [0.057563865047401, 51.55799981841042],
        [0.057750475983815, 51.55788323765004],
        [0.057768931715359, 51.55787661906326],
        [0.057875035724829, 51.55786216822136],
        [0.057961688682163, 51.557864245317425],
        [0.058072420016891, 51.557888381677365],
        [0.058131135291617, 51.55791073264612],
        [0.058261279634882, 51.557853594090986],
        [0.058278131481534, 51.55784340648727],
        [0.058330013916926, 51.557618578347544],
        [0.058375454613342, 51.55753864545728],
        [0.058412630473627, 51.55749932464876],
        [0.058461459981276, 51.55746249716339],
        [0.058590912827954, 51.55739008279154],
        [0.058620088653149, 51.55736529058928],
        [0.058637732490877, 51.5573407007341],
        [0.0586609200725, 51.557279143578135],
        [0.058770394122611, 51.5572115759193],
        [0.058877064398617, 51.557209703983354],
        [0.058942804772403, 51.55719596050645],
        [0.058992526386659, 51.557178901051365],
        [0.059020666220968, 51.55716311961662],
        [0.059047039863229, 51.55714017502215],
        [0.059070327575123, 51.55711278823823],
        [0.059072682930692, 51.55710105640445],
        [0.059049396625616, 51.557064595075836],
        [0.059042453708929, 51.557038638132234],
        [0.059045560601536, 51.557011605538264],
        [0.059075162775699, 51.55696432401368],
        [0.059118549948572, 51.5569347859138],
        [0.059181244538513, 51.556917498681635],
        [0.059230254878586, 51.55691663844688],
        [0.059288319998945, 51.55692461194417],
        [0.059405627476088, 51.5569666169864],
        [0.059443390158541, 51.55697224898397],
        [0.059526914928401, 51.5569689842119],
        [0.059588046134741, 51.556949026399685],
        [0.05961334325407, 51.556934193993705],
        [0.059640833169634, 51.55690403551362],
        [0.059640590168788, 51.55683479607003],
        [0.059652893898752, 51.556787818080956],
        [0.059680850837896, 51.556736068935585],
        [0.059727546860972, 51.55668399078974],
        [0.059978099463346, 51.55651412616897],
        [0.060050863114346, 51.556464287977946],
        [0.060110186498619, 51.556436268208664],
        [0.060155704268277, 51.55642197987638],
        [0.060494713153717, 51.556517643704105],
        [0.060853740424155, 51.55654550972757],
        [0.061096902948172, 51.556595194179316],
        [0.061451527421956, 51.55668518530364],
        [0.062412942137595, 51.556954255693974],
        [0.063588770523839, 51.55730677617098],
        [0.06374500526402, 51.55712507336636],
        [0.06403328509433, 51.5569284575337],
        [0.06421798585101, 51.55680200796572],
        [0.06461770651649, 51.55645415105441],
        [0.064731772351103, 51.55632894368319],
        [0.064961906961128, 51.55640942459176],
        [0.065356072926568, 51.55603468475946],
        [0.065679919252997, 51.55576369848192],
        [0.065797840528434, 51.555660004623306],
        [0.065672949329181, 51.55554619789086],
        [0.06597061668619, 51.55523880163038],
        [0.066259094739066, 51.55501519853707],
        [0.066450092649903, 51.55486885047448],
        [0.066587920294151, 51.554727035798294],
        [0.066689593834011, 51.554328666586194],
        [0.066820008790661, 51.55376882152165],
        [0.066946394042866, 51.553024696811356],
        [0.067796230657504, 51.55306097911732],
        [0.067930014347922, 51.55187608012287],
        [0.06807651438496, 51.551130699988384],
        [0.068174214420573, 51.55029535352668],
        [0.068243053761992, 51.54996860380827],
        [0.068375113082583, 51.54935027483316],
        [0.068394519251746, 51.54923752378587],
        [0.068476766651538, 51.54876125843693],
        [0.068535038882987, 51.54839242901866],
        [0.068559816108761, 51.54823911600842],
        [0.068682017492967, 51.547817001447555],
        [0.068716858703692, 51.547535814380154],
        [0.068679719887595, 51.54735301794165],
        [0.068604674358375, 51.54722484621492],
        [0.06866729940529, 51.546697668091745],
        [0.068711278840552, 51.54633178830326],
        [0.068663404043432, 51.546039470029086],
        [0.068626266831824, 51.5458566735138],
        [0.068623894374228, 51.54564538652375],
        [0.068565342950061, 51.545117647285025],
        [0.068454881136989, 51.54474909514542],
        [0.068365392800223, 51.54452495583933],
        [0.068327194945008, 51.54441411964485],
        [0.06828562614882, 51.544292551610745],
        [0.068282458760374, 51.54428631255397],
        [0.068269463227508, 51.544254167899346],
        [0.068159083454283, 51.54398273536891],
        [0.067950310440056, 51.543608721783684],
        [0.067699928983571, 51.5432075638229],
        [0.067362795611059, 51.54273779105486],
        [0.06722399642692, 51.54250732572963],
        [0.067048528408562, 51.54216779522542],
        [0.06685498856263, 51.541747648405774],
        [0.066824230212565, 51.541673550781965],
        [0.066796394660718, 51.541600300924806],
        [0.066771359746373, 51.54152520317288],
        [0.066749247602423, 51.54145095319181],
        [0.066731417768053, 51.54137572848616],
        [0.066715028976332, 51.5413004783884],
        [0.066707595805016, 51.541263739198904],
        [0.066696930292327, 51.541187488990786],
        [0.066670340085984, 51.54101439797093],
        [0.06664905007641, 51.54086279609157],
        [0.06666721033001, 51.54053154403714],
        [0.066726890180215, 51.54032096218052],
        [0.06675272841673, 51.54019101175957],
        [0.066779462203262, 51.54008082953741],
        [0.066834818198059, 51.53987032378728],
        [0.066965744452871, 51.539609026443856],
        [0.067174494559833, 51.539314882968085],
        [0.0673047596015, 51.53913453136303],
        [0.06740012567331, 51.539011448846566],
        [0.067626812751443, 51.53873137672729],
        [0.067937114315462, 51.53835540649359],
        [0.068241866042946, 51.5379525550608],
        [0.068468868771469, 51.53767966981687],
        [0.068587949217549, 51.53753908190529],
        [0.06882150013782, 51.53725169209294],
        [0.068887849183326, 51.53718847205377],
        [0.06825595123469, 51.536990984230904],
        [0.068290417794736, 51.5367970328632],
        [0.068283818261788, 51.536651467040876],
        [0.068238631691433, 51.53644992740748],
        [0.068113584785495, 51.53633162963215],
        [0.068057163498525, 51.536295754203174],
        [0.068003420282398, 51.53625533516866],
        [0.067931572735791, 51.536197249826785],
        [0.067993924938907, 51.536141294926786],
        [0.06804235763074, 51.53609637667517],
        [0.068049531334922, 51.536159199296165],
        [0.068062865279547, 51.53616705766561],
        [0.068120727226935, 51.53620290769098],
        [0.068195431006597, 51.53622856873634],
        [0.068300147655765, 51.53624830489339],
        [0.068457196955348, 51.53624553558457],
        [0.068622198499567, 51.53622733818509],
        [0.068705236274836, 51.53621418319924],
        [0.068781599622252, 51.5362128364178],
        [0.068860585485308, 51.536237522246445],
        [0.069172696373793, 51.536347123915604],
        [0.069372970570239, 51.536343590880705],
        [0.06945705575237, 51.53628994960036],
        [0.069478682242641, 51.53625809349711],
        [0.069569388063684, 51.536127897121325],
        [0.069642748801397, 51.53602858199413],
        [0.069789157194813, 51.53579128837314],
        [0.070173255910357, 51.53526293169885],
        [0.070202996089265, 51.53521924170142],
        [0.070421424310075, 51.53491682771419],
        [0.071200659676957, 51.53375469862629],
        [0.071361962729943, 51.53349645655884],
        [0.071458841611074, 51.533343667744155],
        [0.071670510776354, 51.533019788028916],
        [0.071711215336339, 51.53293183955059],
        [0.071724439252106, 51.53290552704727],
        [0.071916816453367, 51.53295068982662],
        [0.071973952087081, 51.53284356626308],
        [0.072206835229822, 51.53225672281264],
        [0.072365858766272, 51.53169456491177],
        [0.072508558030508, 51.531185752332455],
        [0.072566873026695, 51.53078724278272],
        [0.072603010606592, 51.53047185828015],
        [0.07267938247916, 51.52999479269046],
        [0.072716179398573, 51.529566987169034],
        [0.072712917299062, 51.52927298211293],
        [0.072810171859816, 51.52928745038928],
        [0.072926276681846, 51.52930428326567],
        [0.073022662259892, 51.5293313565654],
        [0.073159874556334, 51.52936849946681],
        [0.073165718593801, 51.529370194721075],
        [0.073384992790362, 51.52943646219931],
        [0.074103528782902, 51.529638684975176],
        [0.074254506428638, 51.52962972019055],
        [0.074443203870107, 51.52968933223852],
        [0.074496914816526, 51.52969737503529],
        [0.074552894230977, 51.52969188856741],
        [0.074608179146717, 51.52967112668971],
        [0.074692061121329, 51.529676837194465],
        [0.074784004111701, 51.52970128981385],
        [0.075096635705544, 51.52975960775628],
        [0.075298034433681, 51.52987654730416],
        [0.075386402165352, 51.52988577504511],
        [0.075459137735415, 51.529868301089145],
        [0.075489564228191, 51.52983988518378],
        [0.075487387965555, 51.52982373674959],
        [0.075471040520786, 51.52971791161038],
        [0.075507474550016, 51.52969478504424],
        [0.075571729621132, 51.52968105817775],
        [0.075661670305137, 51.529661481085654],
        [0.076066398394854, 51.52965251957394],
        [0.076143464860909, 51.52960349391637],
        [0.076202375715176, 51.52956737942903],
        [0.076256382645165, 51.529550236488454],
        [0.076498054501103, 51.52947491555872],
        [0.076830932909749, 51.52940787123481],
        [0.077236199126758, 51.52937911209106],
        [0.07770439219531, 51.529370819474934],
        [0.077795894645193, 51.52935391089416],
        [0.077918885475919, 51.52933194802908],
        [0.07824357554259, 51.52924346213293],
        [0.078428895804293, 51.52916553854345],
        [0.078854758264288, 51.52889270524258],
        [0.079291098404022, 51.52850187954516],
        [0.079554151911626, 51.52829487898614],
        [0.079888500613683, 51.52803895197699],
        [0.080135327159951, 51.52785561897546],
        [0.080363090185545, 51.52769690400474],
        [0.080476947234458, 51.52763283446649],
        [0.080553923596646, 51.52758200888819],
        [0.080696918490098, 51.52752461646969],
        [0.080923013098218, 51.52745585754097],
        [0.081026778653746, 51.52742344114508],
        [0.081345236071863, 51.527325165054194],
        [0.081640596771175, 51.527257873382965],
        [0.081950361790969, 51.52719032527789],
        [0.082578168407716, 51.52701551149429],
        [0.082875216921052, 51.526922107712366],
        [0.083163128956085, 51.52681807412884],
        [0.083601809622073, 51.52663762093029],
        [0.084097709198622, 51.5263527325955],
        [0.084565322477808, 51.52611151010729],
        [0.084829521015652, 51.52599350539549],
        [0.08513339106643, 51.52589188106024],
        [0.085592170603792, 51.52580458771291],
        [0.085960767588366, 51.52579443571116],
        [0.086148809495891, 51.525808177499904],
        [0.086325820641696, 51.525832906522545],
        [0.086460685800207, 51.525881766220515],
        [0.086680742274847, 51.5259650812145],
        [0.086814290977682, 51.526016661760536],
        [0.086979612742511, 51.526069475356415],
        [0.087563406902355, 51.52625692696947],
        [0.088086996030478, 51.526388793114194],
        [0.088480041587658, 51.52644024805271],
        [0.088815057017939, 51.52648374239523],
        [0.08881649751037, 51.52648371674119],
        [0.08915986938759, 51.5264892916535],
        [0.089229095285429, 51.526489857125085],
        [0.089401460677243, 51.526475995377076],
        [0.089531311176727, 51.526446703815076],
        [0.08964329962631, 51.5264051404681],
        [0.089849908114227, 51.526289049674226],
        [0.089932386676378, 51.526232724142794],
        [0.090127058436829, 51.526076378079814],
        [0.090188711039916, 51.52603750975128],
        [0.090273205375792, 51.525993737927564],
        [0.090372227761193, 51.52595240494648],
        [0.090458903087747, 51.52592478110248],
        [0.0905630697785, 51.52590134181066],
        [0.09067608500319, 51.525882241084666],
        [0.090776547537747, 51.525872356785534],
        [0.090878656330738, 51.525866939437954],
        [0.091007105263363, 51.52587004518364],
        [0.091159095812434, 51.52588352238655],
        [0.091279643117206, 51.52590295570337],
        [0.091665485397921, 51.52595452839579],
        [0.091877234922971, 51.52595075194674],
        [0.092106186478349, 51.52591339501783],
        [0.092232617109493, 51.52587247083522],
        [0.092353860995981, 51.52581275421969],
        [0.092512062295309, 51.52574158680161],
        [0.092591861620071, 51.5256898035528],
        [0.092736394237468, 51.52554064256069],
        [0.092848607590687, 51.52518972065446],
        [0.092858558542686, 51.52502947169837],
        [0.092827227813874, 51.52481780126547],
        [0.09273519011887, 51.52453976820976],
        [0.092567003943059, 51.52398431765891],
        [0.092515680364756, 51.52390249980274],
        [0.092423981662301, 51.52375755352918],
        [0.092409073686431, 51.52352670514274],
        [0.092392435802171, 51.52325811794718],
        [0.092362753695569, 51.52301943961358],
        [0.092351309075893, 51.52292701818098],
        [0.092427929174197, 51.52274309788042],
        [0.092485038443308, 51.52247948989398],
        [0.092568533902398, 51.52238267676492],
        [0.093051731469568, 51.52198017091414],
        [0.093858731871481, 51.52134616379318],
        [0.09436421276037, 51.520958542224975],
        [0.09461057453388, 51.52079856744986],
        [0.094722624062722, 51.52072732181817],
        [0.094785128588016, 51.52067584585543],
        [0.094819610426144, 51.52064195667163],
        [0.094893101040809, 51.52057859380403],
        [0.09501456561963, 51.520429841771644],
        [0.095049078957948, 51.520302426999685],
        [0.095029603501836, 51.52019216364873],
        [0.095013427312551, 51.52015378363318],
        [0.094941273996915, 51.51999500092721],
        [0.094893399725262, 51.51983128811304],
        [0.094661813853124, 51.51858542735448],
        [0.094609580278526, 51.518420892986],
        [0.094576111284035, 51.51825692274537],
        [0.09456182169205, 51.51813397677786],
        [0.094576408019493, 51.51788641464155],
        [0.094623382467658, 51.517685036536676],
        [0.094729893912681, 51.517430436861304],
        [0.094878240491553, 51.51705098933001],
        [0.095022364860626, 51.51686226412064],
        [0.095127774439837, 51.51674077698723],
        [0.095251575831053, 51.51661176694271],
        [0.09547975992439, 51.516401755193165],
        [0.095571511419722, 51.51632817346127],
        [0.095821628602431, 51.51615643810739],
        [0.096365808422169, 51.51585984201874],
        [0.097067212945471, 51.51562877730497],
        [0.097615965611452, 51.51546338831789],
        [0.098083886375229, 51.515201421374],
        [0.09858973502531, 51.51491809039821],
        [0.099079494106488, 51.51466112427781],
        [0.099797705393905, 51.51448279965995],
        [0.099731817124605, 51.51358290093295],
        [0.099706264112953, 51.511899006946145],
        [0.098389370230551, 51.511844340240906],
        [0.096566936915675, 51.5117024747026],
        [0.096212729647871, 51.511678231006556],
        [0.095451079956767, 51.51166306569478],
        [0.094812653915569, 51.511632205217836],
        [0.093998954025358, 51.51155051425627],
        [0.093580070002645, 51.51149864050474],
        [0.093161104509434, 51.5114449681572],
        [0.092426610121065, 51.51133037781609],
        [0.091547129602064, 51.5111338365315],
        [0.09122707728281, 51.511068501098165],
        [0.090945535601857, 51.51099438465921],
        [0.090737846228192, 51.51092794373297],
        [0.090075491541393, 51.51065737662278],
        [0.089857849023649, 51.51056233460975],
        [0.088279416448075, 51.50979818760878],
        [0.088048000301328, 51.509685401962166],
        [0.087717976067678, 51.50946465932957],
        [0.087051969468418, 51.50905025571884],
        [0.085906727142502, 51.50823969804224],
        [0.085420411245493, 51.507846369522156],
        [0.084947345896559, 51.50749057314609],
        [0.084766764560679, 51.50732292057987],
        [0.084591862076685, 51.5071533682352],
        [0.084255439175433, 51.50676006820455],
        [0.083978840326946, 51.506351315651834],
        [0.083621599151597, 51.50578572224132],
        [0.08311903182835, 51.50519303316559],
        [0.082769683741913, 51.504768483768366],
        [0.082748379036762, 51.50474368234474],
        [0.081987143429277, 51.50384982747649],
        [0.081425595315672, 51.50322670362873],
        [0.080270499632419, 51.502162670003976],
        [0.079631987918568, 51.501557090013705],
        [0.079118910149293, 51.50111115291396],
        [0.078703601486693, 51.50072373221398],
        [0.078542481243124, 51.500571012970184],
        [0.078453655752443, 51.50048715589575],
        [0.077988869283849, 51.500120393800245],
        [0.077709228961745, 51.49989603274832],
        [0.077386360812014, 51.49967153757321],
        [0.077095689633092, 51.499489636604885],
        [0.07661094354921, 51.4992221433483],
        [0.0761023010289, 51.49896766109785],
        [0.075781897140487, 51.498797074665],
        [0.075400500641745, 51.49861587625175],
        [0.074862333366512, 51.49837719897098],
        [0.074302105473652, 51.49819196693294],
        [0.073915765356555, 51.498060311519076],
        [0.073428124836735, 51.49791875545987],
        [0.073187572288109, 51.49785646204935],
        [0.073158453988575, 51.49784978262751],
        [0.071529689558258, 51.49748468345346],
        [0.068157952212645, 51.49696686308257],
        [0.066190953401304, 51.49676682732293],
        [0.063906315608532, 51.49664698986192],
        [0.062978578329327, 51.49658507807175],
        [0.062474666188531, 51.49656066905167],
        [0.061876817312769, 51.49652981615601],
        [0.061531624094928, 51.49651070562466],
        [0.060767860808698, 51.49647467035259],
        [0.060024414653078, 51.49644187029278],
        [0.059261422959962, 51.49642289792511],
        [0.058627889777318, 51.496431324044984],
        [0.058206945058631, 51.49645759816162],
        [0.056629811067862, 51.49656350692823],
        [0.054741815267514, 51.496709014468266],
        [0.053941824545047, 51.496764396424076],
        [0.053440700900606, 51.496801949792584],
        [0.053176381879981, 51.49681916799836],
        [0.052806057829692, 51.496849931982794],
        [0.052363794001947, 51.49688285320694],
        [0.051780852843808, 51.496927227085585],
        [0.051433358640071, 51.49695309087552],
        [0.050819067103014, 51.497005202616265],
        [0.050139641210929, 51.49708273035807],
        [0.049514082905922, 51.49717280179595],
        [0.048865345153394, 51.497195829209645],
        [0.047953964203454, 51.49724142580574],
        [0.047113756442431, 51.49726778731108],
        [0.0458440695673, 51.4973232191446],
        [0.044625642345412, 51.49736515358608],
        [0.044189439060017, 51.4973727585131],
        [0.04375750671199, 51.497347014204735],
        [0.042820423932066, 51.497301292737376],
        [0.042150595107042, 51.49727159315411],
        [0.041334127216943, 51.49724893892694],
        [0.040484348189971, 51.497222362291645],
        [0.040146354970201, 51.497203063502155],
        [0.039813598895842, 51.497171982070256],
        [0.039194676995369, 51.49712069675675],
        [0.038513404501406, 51.49699585233737],
        [0.037993819155737, 51.49694283378469],
        [0.037295363168256, 51.496884827252806],
        [0.036418397837621, 51.49682991674148],
        [0.035518444142103, 51.4968410457294],
        [0.034941120629668, 51.49681779267639],
        [0.034878857367579, 51.49681077968854],
        [0.033788273420476, 51.49668221872724],
        [0.032370947847692, 51.49646308882698],
        [0.031434853438512, 51.49637409423283],
        [0.030939237919689, 51.49627656484071],
        [0.029542964913961, 51.49614156796022],
        [0.029047831700534, 51.49608718737708],
        [0.027771127104947, 51.496016646658305],
        [0.026855713246841, 51.49600369617932],
        [0.025687524506944, 51.49604096836803],
        [0.024692084549183, 51.49607524630194],
        [0.024012464631958, 51.49614902863326],
        [0.023137241853366, 51.49629542588472],
        [0.021918369043269, 51.496522382063695],
        [0.020685489441877, 51.49688895402863],
        [0.019802568214866, 51.49715506203576],
        [0.019190507047182, 51.49735624844451],
        [0.018406167926361, 51.49766920894069],
        [0.017547041671776, 51.49808326998773],
        [0.016215975047351, 51.4988057965274],
        [0.01560468587842, 51.49918860342933],
        [0.015339864515607, 51.49939099459774],
        [0.014988342221674, 51.49968570133172],
        [0.014125485819944, 51.50044152375871],
        [0.013361313233557, 51.50108323649224],
        [0.012816606180908, 51.50153952467925],
        [0.01241908231757, 51.501870084517215],
        [0.011221374297685, 51.50290950503413],
        [0.010560313857691, 51.50353863906719],
        [0.010239456658936, 51.50381122275699],
        [0.009924117824301, 51.50407831533455],
        [0.009647724269985, 51.50428089149015],
        [0.009139503823208, 51.504651106013576],
        [0.00882322137671, 51.50486425550934],
        [0.008580483911668, 51.50501319564273],
        [0.008196679347078, 51.505231096943476],
        [0.007597973806146, 51.50551022928845],
        [0.008278698973525, 51.50614604792543],
        [0.008768880480148, 51.506577395395645],
        [0.009050498503663, 51.50682076960624],
        [0.009178411378796, 51.50697684963802],
        [0.009346006955026, 51.507281528336556],
        [0.009525701110836, 51.50763186221924],
        [0.009648032671355, 51.50775926076291],
        [0.009815064407844, 51.50808373237862],
        [0.009863919118393, 51.508211490622834],
        [0.009863260747501, 51.50832750764],
        [0.009814489363512, 51.508430860164594],
        [0.009734591449553, 51.50854733584895],
        [0.009664947745965, 51.50863485914254],
        [0.009589504222159, 51.508721582506105],
        [0.009411177071832, 51.50889370070298],
        [0.009205307373247, 51.50902942045254],
        [0.009050107978928, 51.509104920056494],
        [0.00884190407687, 51.509187622266495],
        [0.008454566145723, 51.509293175968644],
        [0.00805491592105, 51.50938095381643],
        [0.007823607163293, 51.509429877586165],
        [0.00768848161097, 51.50943758652408],
        [0.007649640364809, 51.50943915071912],
        [0.007249768381374, 51.50948916030979],
        [0.006775882573198, 51.50956021894796],
        [0.006482433923647, 51.50963808066908],
        [0.006239701405189, 51.509722268215555],
        [0.006141030441049, 51.509772516626114],
        [0.005995924141595, 51.509881112413524],
        [0.005931459773269, 51.5099883287298],
        [0.005935367536126, 51.51007728947529],
        [0.005999482684504, 51.51022457212648],
        [0.006108576451449, 51.510411552445824],
        [0.0061686264526, 51.510466279885236],
        [0.006176992231838, 51.51052548849975],
        [0.006211437124228, 51.51058784806847],
        [0.006634375476265, 51.51093132704386],
        [0.006913679665887, 51.51112168907473],
        [0.007192643706989, 51.51156654925508],
        [0.007274225762416, 51.511750402279546],
        [0.007405871082161, 51.51182728467152],
        [0.007572855503119, 51.51201956762428],
        [0.007640092168889, 51.51210654496472],
        [0.007690579103586, 51.512173125830294],
        [0.007855076671408, 51.51230879704568],
        [0.00798958752689, 51.51271296344675],
        [0.008029002831124, 51.51298656546139],
        [0.007990668181221, 51.51322912499874],
        [0.007896790686768, 51.513355730562964],
        [0.007887192476728, 51.51349797928183],
        [0.007847504634964, 51.51357869362361],
        [0.007633701438924, 51.51376400592912],
        [0.007543154656198, 51.51386807246586],
        [0.007432585197209, 51.51400845237392],
        [0.007362357964126, 51.51411576803449],
        [0.007292227415869, 51.51419250687789],
        [0.007103883317838, 51.51426857098867],
        [0.00690975662488, 51.51431146082475],
        [0.006647388028885, 51.51434292820035],
        [0.006404115470847, 51.51434978806452],
        [0.006275070429509, 51.51433221174748],
        [0.006106450515199, 51.514332398317464],
        [0.005558960995659, 51.514172699507824],
        [0.005477856626108, 51.51413092153715],
        [0.005252811979332, 51.51389646352526],
        [0.005076459595249, 51.51378617087886],
        [0.004917883144768, 51.51358834510433],
        [0.004877420523933, 51.51348741953083],
        [0.004821214983247, 51.51342183450639],
        [0.004754613075793, 51.513283586464574],
        [0.00468156072662, 51.51309688817282],
        [0.004615098808978, 51.512797668688854],
        [0.004624944624566, 51.51252951853064],
        [0.004664145417005, 51.51220780978163],
        [0.004619878433204, 51.511921699908875],
        [0.004524065759366, 51.51147909911067],
        [0.004430481833281, 51.51125138522285],
        [0.004380573804599, 51.51109936260801],
        [0.004319440860176, 51.510987099608975],
        [0.004258130245965, 51.510903616197034],
        [0.004079998229424, 51.51071961250983],
        [0.004002787829487, 51.510667875052064],
        [0.003937965697233, 51.51063570976614],
        [0.003868981182355, 51.510607212638114],
        [0.00371152177912, 51.51056583881807],
        [0.003539207582303, 51.51054720026759],
        [0.003285401068242, 51.510543442526654],
        [0.003069233396534, 51.510543537724246],
        [0.002589411807327, 51.51061108362266],
        [0.002502631530298, 51.51063684564881],
        [0.002453174786693, 51.51065927253542],
        [0.002382983794197, 51.51070183731081],
        [0.002306398143278, 51.510795769495076],
        [0.002258337939781, 51.510882919747544],
        [0.002222446359572, 51.511017523432315],
        [0.002233285526249, 51.5111989905031],
        [0.00225427033801, 51.511283163423215],
        [0.00230397451476, 51.511430694037095],
        [0.002353818789987, 51.51154854639658],
        [0.002481500667902, 51.51179816136841],
        [0.00276202081757, 51.5123122488581],
        [0.00328530939503, 51.51310365997826],
        [0.003495085785997, 51.51348316464665],
        [0.003610095904699, 51.51367364318696],
        [0.003806562727886, 51.51397963472191],
        [0.003980384943162, 51.514229358992424],
        [0.004024101945587, 51.514305949019246],
        [0.00405781667262, 51.514384508480155],
        [0.004089676641129, 51.51448648058519],
        [0.004112145131266, 51.51463717361781],
        [0.004047510999675, 51.51480644112022],
        [0.003999371247879, 51.5148917948523],
        [0.003897745166107, 51.51503921264518],
        [0.003808035982523, 51.515129772882034],
        [0.00361423497764, 51.51527876521697],
        [0.003177385543081, 51.51557129517003],
        [0.002983089152653, 51.51567623078535],
        [0.002665423055903, 51.51582733683343],
        [0.002545210361329, 51.515879748430876],
        [0.002310229818951, 51.515977284154594],
        [0.001953002948916, 51.51611377608591],
        [0.001711904348646, 51.516203321617645],
        [0.00057129360888, 51.51658608706417],
        [-0.000662702189824, 51.517173667521185],
        [-0.001454059446657, 51.51756754480562],
        [-0.002081068492783, 51.517896567749325],
        [-0.002217253479522, 51.517946548659786],
        [-0.002294361475642, 51.517963149583714],
        [-0.002360261644012, 51.5179723654307],
        [-0.002429317685309, 51.51797534012539],
        [-0.002531775996039, 51.51797258878732],
        [-0.003252442537164, 51.517874250355675],
        [-0.003473190142175, 51.51780336920226],
        [-0.003649169906427, 51.517734423436366],
        [-0.003703875554355, 51.517702980999054],
        [-0.003802550082131, 51.517621927983285],
        [-0.00399928356083, 51.51734200734381],
        [-0.004131057719687, 51.51713022447068],
        [-0.004220316086299, 51.517033723343054],
        [-0.004478818854497, 51.51675845005679],
        [-0.004556462142685, 51.51669682243997],
        [-0.004606845114439, 51.516665306043045],
        [-0.004680350811591, 51.51663238447373],
        [-0.004855499584028, 51.51658230737918],
        [-0.004997744939374, 51.516559547598476],
        [-0.005068474914813, 51.51655715362696],
        [-0.005180697686157, 51.51656176021067],
        [-0.005312691576352, 51.51657569560412],
        [-0.005375552840004, 51.516588455147804],
        [-0.005621095136875, 51.516708636106664],
        [-0.005686903620745, 51.51675291991441],
        [-0.005726983604517, 51.51679226987592],
        [-0.005758265012623, 51.51683506728197],
        [-0.005783510621252, 51.51688405691423],
        [-0.00579711632091, 51.51693554642487],
        [-0.005820373111623, 51.51742604189146],
        [-0.005900066903202, 51.51761444422429],
        [-0.006029543993025, 51.51781808112566],
        [-0.006377464061263, 51.51830060653541],
        [-0.006734656037949, 51.51866998091673],
        [-0.006813459309373, 51.518746858466265],
        [-0.00697228280021, 51.51887275684019],
        [-0.007192610391502, 51.51900959193997],
        [-0.007553611918181, 51.519192880455556],
        [-0.007738689734679, 51.51927875680821],
        [-0.007928128527689, 51.51936380766701],
        [-0.008598979317247, 51.519647677294],
        [-0.008849484896981, 51.51978682012207],
        [-0.008922835910129, 51.51988968234065],
        [-0.009038419308557, 51.52028012704822],
        [-0.009061897258003, 51.52053501765654],
        [-0.00904377031941, 51.52075233214476],
        [-0.008897799622907, 51.5210915750078],
        [-0.008673299170893, 51.52144657047751],
        [-0.00852412137179, 51.52156184139336],
        [-0.008503210544561, 51.521578572381316],
        [-0.00847329413746, 51.521636516653146],
        [-0.008237037015042, 51.52209562642972],
        [-0.008175702289613, 51.5222789342089],
        [-0.008042022987626, 51.52236928829283],
        [-0.007928360091769, 51.522562498414345],
        [-0.007812802992544, 51.522832113786805],
        [-0.007832338557113, 51.52297902580756],
        [-0.007856972755913, 51.52300911996151],
        [-0.008112733213795, 51.52332550865146],
        [-0.008143265674553, 51.52341865145698],
        [-0.00815321843845, 51.523586983025034],
        [-0.008111253338917, 51.52382187777914],
        [-0.008081995998431, 51.52412892951582],
        [-0.00798101371041, 51.5249563367202],
        [-0.007896839222623, 51.52520040641201],
        [-0.00782721907321, 51.52534220705875],
        [-0.00778967576634, 51.525376640720225]
      ]
    ]
  }
}
