{
  "type": "Feature",
  "properties": {
    "name": "Newham",
    "level": 2,
    "londonBorough": true,
    "center": [0.037, 51.524]
  },
  "geometry": {
    "type": "Polygon",
    "coordinates": [
      [
        [-0.00778967576634, 51.525376640720225],
        [-0.007468421991778, 51.525998870609826],
        [-0.007524538277048, 51.526199460637564],
        [-0.008044368194283, 51.526642634663666],
        [-0.008229170917886, 51.526834618491726],
        [-0.008586165282213, 51.5274746614712],
        [-0.008726452281608, 51.52759664531437],
        [-0.01021245107035, 51.52839882730369],
        [-0.01035363740029, 51.52853341408983],
        [-0.010636221061164, 51.52919466977408],
        [-0.010786564297994, 51.529317720870836],
        [-0.013647297328497, 51.52984011237556],
        [-0.013966140208356, 51.529934538401456],
        [-0.014280502300107, 51.530264494683735],
        [-0.014578821810963, 51.53039993768114],
        [-0.017184416270145, 51.53132169228726],
        [-0.017443925592511, 51.53148794602086],
        [-0.018197389383102, 51.532364869754105],
        [-0.018232504545631, 51.5324526914887],
        [-0.017986787026431, 51.533263271693144],
        [-0.017987915554859, 51.53327048486114],
        [-0.01887628253387, 51.534030081209394],
        [-0.018963231057872, 51.53411967735632],
        [-0.019164064857582, 51.53494049820186],
        [-0.019346255818177, 51.53519446873716],
        [-0.019917773224277, 51.5358138169423],
        [-0.020142424466445, 51.53598667005494],
        [-0.020975247027585, 51.53630017764088],
        [-0.021170383781574, 51.53652199018082],
        [-0.021245912570161, 51.53714105695081],
        [-0.02108993395588, 51.537346155137804],
        [-0.019496389048326, 51.538246400324965],
        [-0.019426986351926, 51.53828389681035],
        [-0.019028586335157, 51.5391233747538],
        [-0.018916325043504, 51.53935079061669],
        [-0.017945948619988, 51.540078088165686],
        [-0.017879533658652, 51.540179481798475],
        [-0.017801842670953, 51.54080585355579],
        [-0.017751664467216, 51.54093180152858],
        [-0.016787170920826, 51.541257219167356],
        [-0.016634947841973, 51.54137514663725],
        [-0.016114253654761, 51.54243826168791],
        [-0.016092544041842, 51.54253951108322],
        [-0.016502051382131, 51.54307160443504],
        [-0.016540243834124, 51.54318825489498],
        [-0.016533440989017, 51.54364316605754],
        [-0.01652721344312, 51.54388586128371],
        [-0.017342374136323, 51.5471297859751],
        [-0.017458791493296, 51.547537319938996],
        [-0.018875442942651, 51.550286010227424],
        [-0.018941921131546, 51.55048227223409],
        [-0.018855532850147, 51.55114266874424],
        [-0.018844298254045, 51.55130164802622],
        [-0.018972402481016, 51.55154031658929],
        [-0.018995692610724, 51.55160185952865],
        [-0.018082364549398, 51.55157474345226],
        [-0.017167826416588, 51.55157547686374],
        [-0.017137154305059, 51.5513852145896],
        [-0.016970458446708, 51.55140397929715],
        [-0.016967453886787, 51.55143989891481],
        [-0.016951306853945, 51.551579011293356],
        [-0.013367700548748, 51.552022867588974],
        [-0.013148327760953, 51.55205872007187],
        [-0.010715989755642, 51.55262899933043],
        [-0.010595225205855, 51.55261975748103],
        [-0.009778536451423, 51.55232803430009],
        [-0.009471862956872, 51.55221581938524],
        [-0.009228861136064, 51.551801633165404],
        [-0.009190837780736, 51.551681386229085],
        [-0.009168813391091, 51.55109559354127],
        [-0.009137243668202, 51.55089362332327],
        [-0.008684652926853, 51.549928228817954],
        [-0.008676122728681, 51.54992538624336],
        [-0.005065408971654, 51.550792080694684],
        [-0.003822303832495, 51.551148625523126],
        [-0.003662138040154, 51.55091928619575],
        [-0.000951657521176, 51.551614123731774],
        [-0.000351289723747, 51.55171989698059],
        [0.002492597707579, 51.55200141856364],
        [0.003081012871337, 51.55209748644281],
        [0.003177587020586, 51.551964545177654],
        [0.003227956988684, 51.55189624042202],
        [0.003810922648753, 51.55193394562381],
        [0.003842790705554, 51.551805706017745],
        [0.004977485453083, 51.55189243240142],
        [0.004983250933985, 51.55189233386838],
        [0.004945800818241, 51.552123185148396],
        [0.005175572576357, 51.55213274710104],
        [0.00523128308547, 51.55182514629395],
        [0.005734855358682, 51.5518615011356],
        [0.005804309138327, 51.551669669964554],
        [0.005503125742457, 51.550659551161964],
        [0.005779545005428, 51.55064763139894],
        [0.008151896488026, 51.5510638726469],
        [0.009508222228089, 51.55123758678595],
        [0.009508840808969, 51.55144800382071],
        [0.00964025824173, 51.55158244074739],
        [0.010330327832657, 51.551955502588086],
        [0.010821210897484, 51.552260033559165],
        [0.009622310222744, 51.55343343193055],
        [0.011110246010777, 51.55439802361915],
        [0.011621324039462, 51.55391714833417],
        [0.013926276657922, 51.55472920625263],
        [0.014573840864044, 51.55495459462475],
        [0.015970521517051, 51.553558326530876],
        [0.016254270735786, 51.553222521194485],
        [0.01672042677129, 51.55339076457658],
        [0.016944911340575, 51.55318277250629],
        [0.020076146241972, 51.55441034998861],
        [0.021532208190483, 51.554878066488996],
        [0.02131728721489, 51.55517133271031],
        [0.02034163497295, 51.55626725521523],
        [0.022157564826631, 51.55619550282749],
        [0.022476459603235, 51.55616482648482],
        [0.022507644607295, 51.55660762619722],
        [0.022796147548207, 51.55680228900497],
        [0.023057607068478, 51.55687511749714],
        [0.023486448027014, 51.55668876829498],
        [0.023527459630371, 51.556637702137984],
        [0.023698691501206, 51.55562037828889],
        [0.023762411963071, 51.55552845341196],
        [0.024708768257465, 51.555561584595814],
        [0.025276547099746, 51.55554818744981],
        [0.025293156914198, 51.55472057706449],
        [0.025341814883602, 51.55406237439286],
        [0.026716505894325, 51.554256256398524],
        [0.027546758220804, 51.5543390312549],
        [0.032177778386737, 51.55457634561057],
        [0.032296696700418, 51.55459047245079],
        [0.035009197709606, 51.55521610384492],
        [0.035345579401688, 51.55525433255596],
        [0.046137379187127, 51.554835499389206],
        [0.046300854852496, 51.55481376349329],
        [0.04621758805012, 51.555111974104875],
        [0.046091801679318, 51.555298517775036],
        [0.044834415630177, 51.55666124778772],
        [0.044653932749135, 51.55688291527586],
        [0.044456676497364, 51.557406129201006],
        [0.044395896985229, 51.55756276152037],
        [0.04349416060996, 51.55807576592318],
        [0.042851068789673, 51.558372932250286],
        [0.043029119733794, 51.55845076582526],
        [0.042093423760494, 51.56113697790451],
        [0.041928589607953, 51.561450992881944],
        [0.04864586912897, 51.56350022624022],
        [0.050318454142948, 51.56398898689644],
        [0.050981058487336, 51.56290637888092],
        [0.051366012894637, 51.562323218604334],
        [0.053068295498403, 51.56154974861286],
        [0.053104927973561, 51.56153022295538],
        [0.053462167424935, 51.56110131518069],
        [0.053520610298103, 51.56105353035412],
        [0.053910130975784, 51.56089293715251],
        [0.054097564737703, 51.56085818135162],
        [0.054105817845792, 51.56062512651435],
        [0.054119691290933, 51.56058081949669],
        [0.054343729963769, 51.56039794248132],
        [0.05440635794153, 51.560315012469495],
        [0.054333078639918, 51.560001551873164],
        [0.054322023553022, 51.55991631500126],
        [0.05443274861267, 51.55968416357063],
        [0.054464365817597, 51.55964943773705],
        [0.055605320879415, 51.55938844877564],
        [0.055705443011953, 51.55933723474334],
        [0.056057466370006, 51.55911344319879],
        [0.056332129228378, 51.558901797733114],
        [0.056303729550311, 51.558592047943435],
        [0.05633771840365, 51.55857796318773],
        [0.056877816922669, 51.55871777397052],
        [0.056911562412053, 51.55869829770466],
        [0.056992277630157, 51.55824904689073],
        [0.057122937340021, 51.558107369346146],
        [0.057750475983815, 51.55788323765004],
        [0.057768931715359, 51.55787661906326],
        [0.058131135291617, 51.55791073264612],
        [0.058261279634882, 51.557853594090986],
        [0.058330013916926, 51.557618578347544],
        [0.058375454613342, 51.55753864545728],
        [0.058992526386659, 51.557178901051365],
        [0.059020666220968, 51.55716311961662],
        [0.059075162775699, 51.55696432401368],
        [0.059118549948572, 51.5569347859138],
        [0.059526914928401, 51.5569689842119],
        [0.059588046134741, 51.556949026399685],
        [0.060110186498619, 51.556436268208664],
        [0.060155704268277, 51.55642197987638],
        [0.062412942137595, 51.556954255693974],
        [0.063588770523839, 51.55730677617098],
        [0.064731772351103, 51.55632894368319],
        [0.064961906961128, 51.55640942459176],
        [0.066450092649903, 51.55486885047448],
        [0.066587920294151, 51.554727035798294],
        [0.066946394042866, 51.553024696811356],
        [0.067796230657504, 51.55306097911732],
        [0.068559816108761, 51.54823911600842],
        [0.068682017492967, 51.547817001447555],
        [0.06866729940529, 51.546697668091745],
        [0.068711278840552, 51.54633178830326],
        [0.068327194945008, 51.54441411964485],
        [0.06828562614882, 51.544292551610745],
        [0.06722399642692, 51.54250732572963],
        [0.067048528408562, 51.54216779522542],
        [0.06664905007641, 51.54086279609157],
        [0.06666721033001, 51.54053154403714],
        [0.066834818198059, 51.53987032378728],
        [0.066965744452871, 51.539609026443856],
        [0.06882150013782, 51.53725169209294],
        [0.068887849183326, 51.53718847205377],
        [0.06825595123469, 51.536990984230904],
        [0.068283818261788, 51.536651467040876],
        [0.068238631691433, 51.53644992740748],
        [0.068003420282398, 51.53625533516866],
        [0.067931572735791, 51.536197249826785],
        [0.067993924938907, 51.536141294926786],
        [0.06804235763074, 51.53609637667517],
        [0.068195431006597, 51.53622856873634],
        [0.068300147655765, 51.53624830489339],
        [0.069372970570239, 51.536343590880705],
        [0.06945705575237, 51.53628994960036],
        [0.071724439252106, 51.53290552704727],
        [0.071916816453367, 51.53295068982662],
        [0.072365858766272, 51.53169456491177],
        [0.072508558030508, 51.531185752332455],
        [0.072716179398573, 51.529566987169034],
        [0.072712917299062, 51.52927298211293],
        [0.075298034433681, 51.52987654730416],
        [0.075386402165352, 51.52988577504511],
        [0.075471040520786, 51.52971791161038],
        [0.075507474550016, 51.52969478504424],
        [0.076256382645165, 51.529550236488454],
        [0.076498054501103, 51.52947491555872],
        [0.077795894645193, 51.52935391089416],
        [0.077918885475919, 51.52933194802908],
        [0.078428895804293, 51.52916553854345],
        [0.078854758264288, 51.52889270524258],
        [0.080476947234458, 51.52763283446649],
        [0.080553923596646, 51.52758200888819],
        [0.082875216921052, 51.526922107712366],
        [0.083163128956085, 51.52681807412884],
        [0.08513339106643, 51.52589188106024],
        [0.085592170603792, 51.52580458771291],
        [0.086148809495891, 51.525808177499904],
        [0.086325820641696, 51.525832906522545],
        [0.087563406902355, 51.52625692696947],
        [0.088086996030478, 51.526388793114194],
        [0.08915986938759, 51.5264892916535],
        [0.089229095285429, 51.526489857125085],
        [0.090458903087747, 51.52592478110248],
        [0.0905630697785, 51.52590134181066],
        [0.091665485397921, 51.52595452839579],
        [0.091877234922971, 51.52595075194674],
        [0.092353860995981, 51.52581275421969],
        [0.092512062295309, 51.52574158680161],
        [0.092848607590687, 51.52518972065446],
        [0.092858558542686, 51.52502947169837],
        [0.092515680364756, 51.52390249980274],
        [0.092423981662301, 51.52375755352918],
        [0.092427929174197, 51.52274309788042],
        [0.092485038443308, 51.52247948989398],
        [0.09501456561963, 51.520429841771644],
        [0.095049078957948, 51.520302426999685],
        [0.094576111284035, 51.51825692274537],
        [0.09456182169205, 51.51813397677786],
        [0.094729893912681, 51.517430436861304],
        [0.094878240491553, 51.51705098933001],
        [0.095571511419722, 51.51632817346127],
        [0.095821628602431, 51.51615643810739],
        [0.097067212945471, 51.51562877730497],
        [0.097615965611452, 51.51546338831789],
        [0.099079494106488, 51.51466112427781],
        [0.099797705393905, 51.51448279965995],
        [0.099731817124605, 51.51358290093295],
        [0.099706264112953, 51.511899006946145],
        [0.093161104509434, 51.5114449681572],
        [0.092426610121065, 51.51133037781609],
        [0.090945535601857, 51.51099438465921],
        [0.090737846228192, 51.51092794373297],
        [0.088279416448075, 51.50979818760878],
        [0.088048000301328, 51.509685401962166],
        [0.084947345896559, 51.50749057314609],
        [0.084766764560679, 51.50732292057987],
        [0.081987143429277, 51.50384982747649],
        [0.081425595315672, 51.50322670362873],
        [0.078542481243124, 51.500571012970184],
        [0.078453655752443, 51.50048715589575],
        [0.077709228961745, 51.49989603274832],
        [0.077386360812014, 51.49967153757321],
        [0.0761023010289, 51.49896766109785],
        [0.075781897140487, 51.498797074665],
        [0.073428124836735, 51.49791875545987],
        [0.073187572288109, 51.49785646204935],
        [0.071529689558258, 51.49748468345346],
        [0.068157952212645, 51.49696686308257],
        [0.060767860808698, 51.49647467035259],
        [0.060024414653078, 51.49644187029278],
        [0.058627889777318, 51.496431324044984],
        [0.058206945058631, 51.49645759816162],
        [0.050139641210929, 51.49708273035807],
        [0.049514082905922, 51.49717280179595],
        [0.044625642345412, 51.49736515358608],
        [0.044189439060017, 51.4973727585131],
        [0.035518444142103, 51.4968410457294],
        [0.034941120629668, 51.49681779267639],
        [0.029542964913961, 51.49614156796022],
        [0.029047831700534, 51.49608718737708],
        [0.025687524506944, 51.49604096836803],
        [0.024692084549183, 51.49607524630194],
        [0.023137241853366, 51.49629542588472],
        [0.021918369043269, 51.496522382063695],
        [0.019802568214866, 51.49715506203576],
        [0.019190507047182, 51.49735624844451],
        [0.017547041671776, 51.49808326998773],
        [0.016215975047351, 51.4988057965274],
        [0.01560468587842, 51.49918860342933],
        [0.015339864515607, 51.49939099459774],
        [0.010239456658936, 51.50381122275699],
        [0.009924117824301, 51.50407831533455],
        [0.008196679347078, 51.505231096943476],
        [0.007597973806146, 51.50551022928845],
        [0.008768880480148, 51.506577395395645],
        [0.009050498503663, 51.50682076960624],
        [0.009863919118393, 51.508211490622834],
        [0.009863260747501, 51.50832750764],
        [0.009205307373247, 51.50902942045254],
        [0.009050107978928, 51.509104920056494],
        [0.007249768381374, 51.50948916030979],
        [0.006775882573198, 51.50956021894796],
        [0.005995924141595, 51.509881112413524],
        [0.005931459773269, 51.5099883287298],
        [0.006176992231838, 51.51052548849975],
        [0.006211437124228, 51.51058784806847],
        [0.006634375476265, 51.51093132704386],
        [0.006913679665887, 51.51112168907473],
        [0.007690579103586, 51.512173125830294],
        [0.007855076671408, 51.51230879704568],
        [0.008029002831124, 51.51298656546139],
        [0.007990668181221, 51.51322912499874],
        [0.007362357964126, 51.51411576803449],
        [0.007292227415869, 51.51419250687789],
        [0.006275070429509, 51.51433221174748],
        [0.006106450515199, 51.514332398317464],
        [0.005558960995659, 51.514172699507824],
        [0.005252811979332, 51.51389646352526],
        [0.005076459595249, 51.51378617087886],
        [0.004754613075793, 51.513283586464574],
        [0.00468156072662, 51.51309688817282],
        [0.004624944624566, 51.51252951853064],
        [0.004664145417005, 51.51220780978163],
        [0.004380573804599, 51.51109936260801],
        [0.004319440860176, 51.510987099608975],
        [0.003937965697233, 51.51063570976614],
        [0.003868981182355, 51.510607212638114],
        [0.003069233396534, 51.510543537724246],
        [0.002589411807327, 51.51061108362266],
        [0.002382983794197, 51.51070183731081],
        [0.002306398143278, 51.510795769495076],
        [0.002233285526249, 51.5111989905031],
        [0.00225427033801, 51.511283163423215],
        [0.004024101945587, 51.514305949019246],
        [0.00405781667262, 51.514384508480155],
        [0.004089676641129, 51.51448648058519],
        [0.004112145131266, 51.51463717361781],
        [0.003808035982523, 51.515129772882034],
        [0.00361423497764, 51.51527876521697],
        [0.002983089152653, 51.51567623078535],
        [0.002665423055903, 51.51582733683343],
        [0.001711904348646, 51.516203321617645],
        [0.00057129360888, 51.51658608706417],
        [-0.002217253479522, 51.517946548659786],
        [-0.002294361475642, 51.517963149583714],
        [-0.003473190142175, 51.51780336920226],
        [-0.003649169906427, 51.517734423436366],
        [-0.004606845114439, 51.516665306043045],
        [-0.004680350811591, 51.51663238447373],
        [-0.005068474914813, 51.51655715362696],
        [-0.005180697686157, 51.51656176021067],
        [-0.005621095136875, 51.516708636106664],
        [-0.005686903620745, 51.51675291991441],
        [-0.005820373111623, 51.51742604189146],
        [-0.005900066903202, 51.51761444422429],
        [-0.006734656037949, 51.51866998091673],
        [-0.006813459309373, 51.518746858466265],
        [-0.008922835910129, 51.51988968234065],
        [-0.009038419308557, 51.52028012704822],
        [-0.00904377031941, 51.52075233214476],
        [-0.008897799622907, 51.5210915750078],
        [-0.007928360091769, 51.522562498414345],
        [-0.007812802992544, 51.522832113786805],
        [-0.008143265674553, 51.52341865145698],
        [-0.00815321843845, 51.523586983025034],
        [-0.008081995998431, 51.52412892951582],
        [-0.00798101371041, 51.5249563367202],
        [-0.00778967576634, 51.525376640720225]
      ]
    ]
  }
}
