{
  "type": "Feature",
  "properties": {
    "name": "Redbridge",
    "level": 2,
    "londonBorough": true,
    "center": [0.0741, 51.579]
  },
  "geometry": {
    "type": "Polygon",
    "coordinates": [
      [
        [0.019242061296818, 51.6082229705309],
        [0.019408054783002, 51.60825338719556],
        [0.019476281218677, 51.60826120589261],
        [0.019572182207015, 51.608729867160214],
        [0.019532132749386, 51.608738649579145],
        [0.019851549255744, 51.60910184851257],
        [0.020186337290736, 51.609778622654055],
        [0.020368113002434, 51.60970894884504],
        [0.020423219785981, 51.6097790415576],
        [0.020687443509234, 51.610167468239425],
        [0.020612456875933, 51.61026767742485],
        [0.020835283868637, 51.61060196175461],
        [0.021049451092236, 51.61054611733007],
        [0.021191447226849, 51.6107514005506],
        [0.021374982150738, 51.611143912911736],
        [0.021178816169353, 51.61118236205345],
        [0.021352769078175, 51.611586729772284],
        [0.021374746599727, 51.61175631080491],
        [0.021264448152513, 51.61223211851241],
        [0.021233009472906, 51.61227222718892],
        [0.020561524149193, 51.61289348429024],
        [0.016252100965428, 51.61685147430698],
        [0.009002318932633, 51.618982915952664],
        [0.008678455773025, 51.61907478680933],
        [0.009458137257876, 51.619163957130105],
        [0.009648465970718, 51.619188575650334],
        [0.01048760300435, 51.61902133300411],
        [0.010680859285385, 51.61894878023572],
        [0.011827242710841, 51.61909819774152],
        [0.012237353413651, 51.619094765136005],
        [0.014334043426864, 51.61887985207504],
        [0.014499714756467, 51.61890218809886],
        [0.014676654068785, 51.61940723034602],
        [0.014720234766059, 51.619543169080416],
        [0.014444109301977, 51.62019087520264],
        [0.014314716359854, 51.62030280473786],
        [0.015244043644141, 51.62086687301734],
        [0.015247607559072, 51.62088209916194],
        [0.015663458140864, 51.62091003005381],
        [0.015815189785715, 51.62091102151468],
        [0.016243409893864, 51.621283152515495],
        [0.016288867676569, 51.62133093146303],
        [0.016133163755979, 51.62146849405966],
        [0.016114029307414, 51.62149310257768],
        [0.016235041771731, 51.62164839367043],
        [0.01619017312943, 51.62177685850404],
        [0.016945634500543, 51.62193743653609],
        [0.016985368230453, 51.62195383965349],
        [0.017088920384851, 51.62204108653216],
        [0.017107669091565, 51.62210551070507],
        [0.017021150645707, 51.622337206585904],
        [0.017014371046028, 51.62234721488054],
        [0.017570281473469, 51.62230798604921],
        [0.017690967843377, 51.62235806846119],
        [0.018387160687365, 51.62274536898323],
        [0.01846177343086, 51.62279894057849],
        [0.018749404174583, 51.6231599911107],
        [0.018808784129201, 51.623195839357194],
        [0.018464613636839, 51.62348142612427],
        [0.018461152199209, 51.62353364241845],
        [0.019055729266668, 51.6236816860141],
        [0.019046813106659, 51.623741190187694],
        [0.018895119568806, 51.62370872827436],
        [0.018811700322006, 51.62374973015268],
        [0.018749680690983, 51.62384971476686],
        [0.018800982689148, 51.6239639370998],
        [0.018581438220654, 51.624095406744615],
        [0.018584070546074, 51.624154712287464],
        [0.018833135622285, 51.624167514954],
        [0.01900024937282, 51.62428693944255],
        [0.019009444272754, 51.624754393722874],
        [0.019022135489897, 51.6248450001578],
        [0.019244565362759, 51.624908618346026],
        [0.019263086350805, 51.62493527739587],
        [0.01926817543318, 51.62495227569357],
        [0.019121504517033, 51.62503303373684],
        [0.019419177237342, 51.62522934630915],
        [0.019448417859899, 51.62556246674088],
        [0.019408019995383, 51.625628807286716],
        [0.019928724282904, 51.626129725942064],
        [0.020065856338724, 51.6262244857083],
        [0.020138527261934, 51.62659192951279],
        [0.020138966359785, 51.62660181375627],
        [0.019921608569823, 51.62678270716668],
        [0.019922166337844, 51.626990425350634],
        [0.019922039773513, 51.62702010292524],
        [0.020521252447856, 51.627303847001535],
        [0.020563434108572, 51.62734268816035],
        [0.02046395099684, 51.62767262833154],
        [0.020466226779276, 51.62772384666415],
        [0.020672630095203, 51.62820679061481],
        [0.020637567656286, 51.628263147916385],
        [0.020982737600807, 51.62832465012673],
        [0.021093149565436, 51.628305663410956],
        [0.020895079346827, 51.6286930549831],
        [0.020889126153064, 51.62878667991823],
        [0.020961451300437, 51.62891852446453],
        [0.021025537453749, 51.62893001073063],
        [0.02132197235035, 51.62883767923674],
        [0.021349763919872, 51.62884529399059],
        [0.021332569286746, 51.629011052864826],
        [0.0213475265591, 51.62902248562606],
        [0.023937875739922, 51.62784569253875],
        [0.024561854527291, 51.62751659657024],
        [0.02488555379553, 51.62732306916692],
        [0.025864256574057, 51.62671896957792],
        [0.026661475609582, 51.6259983940022],
        [0.026807615301633, 51.62590594532842],
        [0.027908920426101, 51.62568729048077],
        [0.028020365904493, 51.625659286767146],
        [0.028548319593807, 51.62538128708383],
        [0.02905641629246, 51.62511172150588],
        [0.029064517008036, 51.625098991901794],
        [0.0289371192532, 51.624672248870255],
        [0.029292378517736, 51.624636432532206],
        [0.029561178654404, 51.62421722840174],
        [0.029638052348362, 51.624159246134276],
        [0.030701077497321, 51.62363458013796],
        [0.030497921311639, 51.6232909815093],
        [0.031444319527774, 51.62309925221639],
        [0.032594501573829, 51.622359936498796],
        [0.032755372316821, 51.62224204594478],
        [0.034243953465431, 51.620800828116856],
        [0.034276990537513, 51.62076428529665],
        [0.034681105238114, 51.62046502260777],
        [0.035459299101394, 51.6199704283427],
        [0.037360446187271, 51.618390722913155],
        [0.037451372370743, 51.61832439811811],
        [0.037505068688574, 51.61813642042641],
        [0.037518981395669, 51.61789877484141],
        [0.038407946147392, 51.6175245365865],
        [0.040188153256335, 51.61640910249127],
        [0.040083991695231, 51.61624455009242],
        [0.039987773067173, 51.6160960462095],
        [0.04067725507284, 51.6158808288098],
        [0.040688681062465, 51.61587793238659],
        [0.040761374658957, 51.615727391610825],
        [0.040875988987176, 51.615674141096854],
        [0.041084453034097, 51.6159097190963],
        [0.041255044582278, 51.61604164135393],
        [0.042489416910869, 51.616637959355],
        [0.042885749151701, 51.61677854059487],
        [0.044831728246496, 51.61713673308533],
        [0.045405720727604, 51.61724453521741],
        [0.046130026040225, 51.61722561667174],
        [0.04617723166354, 51.61737586931083],
        [0.047054216103012, 51.61734708936106],
        [0.047834165716543, 51.61740902246243],
        [0.047925462716681, 51.61751174370774],
        [0.049095219600604, 51.61776110683152],
        [0.052346442459742, 51.618295118697745],
        [0.05307155682558, 51.61842182333049],
        [0.053501226716234, 51.61827582122388],
        [0.053684785568351, 51.618278005361795],
        [0.054354348387365, 51.617622418500346],
        [0.054364840538462, 51.61759885410427],
        [0.054187684238219, 51.61719458972773],
        [0.054150347408802, 51.617103518602065],
        [0.054224580533139, 51.61676409765105],
        [0.054184983258995, 51.61671892836302],
        [0.053403710568312, 51.61633962182205],
        [0.053321073591919, 51.61633297410217],
        [0.052121451751953, 51.6167981877161],
        [0.051974550918539, 51.6168079499692],
        [0.050188449577874, 51.616408415114726],
        [0.050150030977449, 51.6163893024352],
        [0.049751420982531, 51.615942137819424],
        [0.049659651448151, 51.615861008450196],
        [0.048717234841734, 51.61533430843345],
        [0.048457166451092, 51.614980042810004],
        [0.048285536000712, 51.61460085260312],
        [0.048277929077034, 51.61452814530929],
        [0.048511034168912, 51.614059159947196],
        [0.04850940249008, 51.6139908446762],
        [0.048081032521226, 51.613619731678305],
        [0.048047972880797, 51.61355915886194],
        [0.048119858462482, 51.613262947289336],
        [0.048186870291075, 51.613211419400656],
        [0.0487889573254, 51.613591190285184],
        [0.048894870091864, 51.61356955780716],
        [0.051852492237709, 51.61230838714618],
        [0.05260472113498, 51.61201376618258],
        [0.055989224613597, 51.610295392877376],
        [0.056468510381808, 51.610066677247765],
        [0.059973055922229, 51.60858168989917],
        [0.060671205218146, 51.60827537577306],
        [0.062518907837109, 51.60707567810115],
        [0.062541223068373, 51.60705819996264],
        [0.062744369344528, 51.607047435740846],
        [0.062972116877197, 51.60691034198307],
        [0.063349712380067, 51.60711593038615],
        [0.063984268690746, 51.60722347575109],
        [0.065462307179815, 51.60660036368466],
        [0.065940582856961, 51.60631946917268],
        [0.067657609869737, 51.60606261848008],
        [0.06806688586302, 51.60597986939947],
        [0.069492446938765, 51.60550690824798],
        [0.070295307751028, 51.605250846861246],
        [0.072230337307879, 51.60483540962459],
        [0.072805516731439, 51.60468586675671],
        [0.076269756089188, 51.60613629683633],
        [0.076884127308125, 51.606402400174986],
        [0.079143365695536, 51.607045840838516],
        [0.079345433641119, 51.60704316032165],
        [0.082000850505723, 51.606653465283635],
        [0.082785845061452, 51.6064183181435],
        [0.083818225376994, 51.60641348192728],
        [0.084448212197872, 51.60635733164658],
        [0.0871184155379, 51.604465483287605],
        [0.088895117777644, 51.60485203308778],
        [0.088900194874394, 51.60518287271346],
        [0.089331322347305, 51.60538832467071],
        [0.089602938315001, 51.6055165804604],
        [0.090219226716477, 51.60566567566767],
        [0.090283826683692, 51.60556290805353],
        [0.092472370534711, 51.60617317993203],
        [0.092554253334719, 51.60619510097259],
        [0.091687518658135, 51.60747851672604],
        [0.091846935409768, 51.60821307387745],
        [0.092624223676446, 51.60947527646813],
        [0.09368989725655, 51.60975302908508],
        [0.093881807573475, 51.609874603542785],
        [0.094048532547039, 51.610045187418706],
        [0.09420408810528, 51.61053790767497],
        [0.094209381855524, 51.61065291929625],
        [0.094665720716008, 51.61074549385237],
        [0.09480863894219, 51.6107753167311],
        [0.093686934518341, 51.61238793158752],
        [0.093614538123935, 51.612478250304875],
        [0.092796689595673, 51.61322483812538],
        [0.092258025501257, 51.613572565348626],
        [0.097595293910885, 51.615203894028014],
        [0.098041486279332, 51.61541983651798],
        [0.099442591912476, 51.61360344500342],
        [0.100141502763231, 51.61272314915517],
        [0.103387545787245, 51.61345188108881],
        [0.103810922525497, 51.61254952229021],
        [0.107620932554109, 51.61344698155123],
        [0.109604804454304, 51.613959894150696],
        [0.115709014909336, 51.61650645928531],
        [0.116683073071052, 51.6169196470743],
        [0.118579562565393, 51.61536476788907],
        [0.119280221258389, 51.61536650722435],
        [0.1238739457504, 51.61735179270505],
        [0.124171398851134, 51.617503782085834],
        [0.124392440633208, 51.61765895226999],
        [0.124782115683543, 51.61802239776217],
        [0.124974230222105, 51.61830039113976],
        [0.125162634512777, 51.618777189884135],
        [0.125675328842398, 51.619268799096396],
        [0.126071221814374, 51.61964112046749],
        [0.127592157335973, 51.62012974218542],
        [0.127879397265125, 51.62021716003482],
        [0.128852383330022, 51.620695913918226],
        [0.129160315251271, 51.62144121860786],
        [0.131262871106793, 51.621976794894124],
        [0.132191019140098, 51.622206338598886],
        [0.133042523293188, 51.62261892032616],
        [0.134150905011671, 51.623148227211104],
        [0.135978466680211, 51.623578109042306],
        [0.136079166916791, 51.623599657565336],
        [0.137914514629345, 51.623579732630866],
        [0.138156948531111, 51.62354294304602],
        [0.144319599271235, 51.61681817990173],
        [0.144470564941555, 51.61668053095841],
        [0.145419268515122, 51.61465152150548],
        [0.145475307551997, 51.614553375725635],
        [0.146092063743306, 51.614062787811214],
        [0.146452417859314, 51.61374055352212],
        [0.147380018445114, 51.612491582005546],
        [0.147468608258612, 51.61234877525986],
        [0.14756178475832, 51.612119554297834],
        [0.147755991849596, 51.61152158103898],
        [0.147822189203971, 51.61069034041942],
        [0.147921559998178, 51.61037827257323],
        [0.148582474894936, 51.60892823688079],
        [0.148680562810149, 51.60868093944153],
        [0.148726457738009, 51.60754251785743],
        [0.148766142367796, 51.60737362707733],
        [0.148484780054475, 51.606247491500945],
        [0.148450066676121, 51.60612402716048],
        [0.148560087481837, 51.60521194767169],
        [0.148544900445258, 51.60489028554993],
        [0.148688991865243, 51.60414934339116],
        [0.148793775431392, 51.60386055640069],
        [0.149195664442168, 51.603227302333444],
        [0.149485043224489, 51.60290276012937],
        [0.148213323275221, 51.59902858896176],
        [0.148179760710605, 51.59895995915725],
        [0.14755929413552, 51.599152968626726],
        [0.146563321720423, 51.59943647632379],
        [0.137666338301969, 51.59395143437598],
        [0.137560286930685, 51.59387602858067],
        [0.130553313030729, 51.59050977448275],
        [0.129555966378281, 51.59005216217688],
        [0.129842472013875, 51.58935632028169],
        [0.130012924355959, 51.58898812129046],
        [0.130616403742958, 51.58809407866373],
        [0.13100383936338, 51.587519601483905],
        [0.126466953866859, 51.586754788392284],
        [0.126374616531949, 51.58672498707382],
        [0.127356043197865, 51.584433834260594],
        [0.127220125603683, 51.58393450335033],
        [0.127630852454939, 51.58388928729492],
        [0.128003051801188, 51.58298865936301],
        [0.128057454292262, 51.58285547941576],
        [0.127744282066249, 51.58189893497868],
        [0.127754680485285, 51.5816271655253],
        [0.132143240594085, 51.58133077894734],
        [0.132535010163862, 51.58131286822822],
        [0.133462389548651, 51.580218678332656],
        [0.133532596990137, 51.579961108273004],
        [0.1308302515676, 51.57936723169618],
        [0.13079967271849, 51.57936149207397],
        [0.130682823402808, 51.57905426327939],
        [0.130854632254882, 51.57908621506817],
        [0.131075610922671, 51.57868831926986],
        [0.130974130155104, 51.57864789638693],
        [0.131384945345581, 51.57734098170077],
        [0.131611196520708, 51.5770868730288],
        [0.129820230768826, 51.576503391948606],
        [0.12917237981687, 51.5763218055415],
        [0.129371271322475, 51.57415453921543],
        [0.129418478299654, 51.57396033819978],
        [0.130058107598661, 51.57310250943039],
        [0.130074276479188, 51.573077935444864],
        [0.130839164603109, 51.5733868869785],
        [0.130886845589913, 51.573357244208495],
        [0.131555933447849, 51.571834306770654],
        [0.131558565000432, 51.57182886330476],
        [0.130780306517793, 51.57169641749493],
        [0.129902744570699, 51.57153879097454],
        [0.129977268802197, 51.570941217989684],
        [0.129989334309948, 51.57079801403157],
        [0.130358447357907, 51.5706986871149],
        [0.13038673822321, 51.57068648283768],
        [0.130437018026384, 51.57052729724185],
        [0.130457759888844, 51.57032278487878],
        [0.129686303239478, 51.568822409090416],
        [0.129615277559383, 51.568630353864236],
        [0.129724907877531, 51.56776505840279],
        [0.129729932968404, 51.56771820480202],
        [0.129316620067847, 51.56653146724215],
        [0.129302525283882, 51.56647686716562],
        [0.127956611069539, 51.5662989489116],
        [0.127621665009383, 51.56614045585089],
        [0.126879240801026, 51.56547496322647],
        [0.126649563547717, 51.56528398364304],
        [0.124989544718805, 51.56434104487872],
        [0.124730343152379, 51.5641973587195],
        [0.119310646199376, 51.56313621820356],
        [0.119033186978317, 51.56306479146066],
        [0.118873360029812, 51.56273044965631],
        [0.119751068992103, 51.56249247346344],
        [0.11869971103898, 51.560950321481506],
        [0.117479781051489, 51.559163002652035],
        [0.120487754542182, 51.558541229608025],
        [0.118937664434195, 51.557348019367794],
        [0.117996048073204, 51.55738840397012],
        [0.117133314520567, 51.557387789323016],
        [0.117152164451544, 51.55689284714454],
        [0.113328691636732, 51.557317898451416],
        [0.113140183852019, 51.556830289433876],
        [0.112724725161562, 51.55651942841775],
        [0.114104704637039, 51.55582190996793],
        [0.114181395936946, 51.555609198011545],
        [0.114727983806929, 51.555325966479614],
        [0.112358614555102, 51.55350625216317],
        [0.112327181109858, 51.55348163841959],
        [0.112353872231008, 51.55299914574201],
        [0.111911262512037, 51.55266179252959],
        [0.111105237914919, 51.552482056515416],
        [0.109814989246386, 51.552592497978694],
        [0.108401932363518, 51.552698837501495],
        [0.10826985104376, 51.55205732975341],
        [0.107429184835915, 51.55200139195343],
        [0.107384991204248, 51.551981502509776],
        [0.106572017016264, 51.551307258695054],
        [0.106182294416216, 51.55095814313756],
        [0.104434985573763, 51.54991576589721],
        [0.104225149478736, 51.54980712051457],
        [0.100014672871788, 51.548521066723225],
        [0.099739180175204, 51.548427077866116],
        [0.097816022380562, 51.54747587960288],
        [0.0974926826655, 51.54731349697556],
        [0.093831555708504, 51.54598322708075],
        [0.093502272545335, 51.54584791790302],
        [0.093289914167541, 51.546091813894144],
        [0.09323247608437, 51.546097335208565],
        [0.092295641074641, 51.54846924814301],
        [0.092238167421299, 51.548631243305],
        [0.09253218572175, 51.54953786314518],
        [0.092596594988723, 51.54965272059294],
        [0.09183981076804, 51.54925435018889],
        [0.091686006666141, 51.54910871244468],
        [0.091521655472129, 51.548795997558045],
        [0.091490850894964, 51.5486904324205],
        [0.091578007410514, 51.54832647099511],
        [0.091490999643822, 51.548284857113],
        [0.091379451971571, 51.54827425598732],
        [0.090845802361215, 51.54821182669055],
        [0.090488509761743, 51.547969095370085],
        [0.090390839294749, 51.54794655544905],
        [0.086259042980002, 51.54745356679036],
        [0.085989099645527, 51.54738552607593],
        [0.082322209851102, 51.545732162248356],
        [0.082154190548286, 51.54565331076046],
        [0.081682960682768, 51.54559872480361],
        [0.081652328404063, 51.545591174926386],
        [0.081616123968886, 51.54542994818427],
        [0.081708411929639, 51.54533478607166],
        [0.08149347145777, 51.54517583169398],
        [0.081399150309507, 51.54513164234998],
        [0.078069311480314, 51.54412593780829],
        [0.077909378564092, 51.54403434723163],
        [0.077479430478197, 51.544568936296805],
        [0.077473952694726, 51.54457532821753],
        [0.077382805251885, 51.544537374376],
        [0.077034273345511, 51.54438977035294],
        [0.07681282684835, 51.544594228925895],
        [0.076794829374968, 51.544610734464634],
        [0.075805618939435, 51.54413903889489],
        [0.075541821367888, 51.544015110657384],
        [0.073212373003524, 51.543818895370826],
        [0.073220458959108, 51.54377468811305],
        [0.071977687032946, 51.54381553049021],
        [0.07193873772702, 51.54381531917251],
        [0.071821229694666, 51.543609662719675],
        [0.071787649049933, 51.54356888927987],
        [0.069114787259623, 51.544258145414226],
        [0.068327194945008, 51.54441411964485],
        [0.068663404043432, 51.546039470029086],
        [0.068711278840552, 51.54633178830326],
        [0.068679719887595, 51.54735301794165],
        [0.068716858703692, 51.547535814380154],
        [0.067930014347922, 51.55187608012287],
        [0.067796230657504, 51.55306097911732],
        [0.066946394042866, 51.553024696811356],
        [0.066689593834011, 51.554328666586194],
        [0.066587920294151, 51.554727035798294],
        [0.065672949329181, 51.55554619789086],
        [0.065797840528434, 51.555660004623306],
        [0.065356072926568, 51.55603468475946],
        [0.064961906961128, 51.55640942459176],
        [0.064731772351103, 51.55632894368319],
        [0.06374500526402, 51.55712507336636],
        [0.063588770523839, 51.55730677617098],
        [0.060494713153717, 51.556517643704105],
        [0.060155704268277, 51.55642197987638],
        [0.059978099463346, 51.55651412616897],
        [0.059727546860972, 51.55668399078974],
        [0.05961334325407, 51.556934193993705],
        [0.059588046134741, 51.556949026399685],
        [0.059181244538513, 51.556917498681635],
        [0.059118549948572, 51.5569347859138],
        [0.059047039863229, 51.55714017502215],
        [0.059020666220968, 51.55716311961662],
        [0.058412630473627, 51.55749932464876],
        [0.058375454613342, 51.55753864545728],
        [0.058278131481534, 51.55784340648727],
        [0.058261279634882, 51.557853594090986],
        [0.057264881196333, 51.55802394622891],
        [0.057122937340021, 51.558107369346146],
        [0.05695446607021, 51.55865797768975],
        [0.056911562412053, 51.55869829770466],
        [0.056370589979672, 51.55857109215181],
        [0.05633771840365, 51.55857796318773],
        [0.056333958419526, 51.55887838469748],
        [0.056332129228378, 51.558901797733114],
        [0.055785058903574, 51.55927918580256],
        [0.055705443011953, 51.55933723474334],
        [0.054517566026699, 51.55961343467303],
        [0.054464365817597, 51.55964943773705],
        [0.054370122803485, 51.56008723293504],
        [0.05440635794153, 51.560315012469495],
        [0.054120258039254, 51.560753468980295],
        [0.054097564737703, 51.56085818135162],
        [0.05368391070335, 51.56096344303162],
        [0.053568208344112, 51.56102122286892],
        [0.053104927973561, 51.56153022295538],
        [0.053068295498403, 51.56154974861286],
        [0.051713229801519, 51.56208783405425],
        [0.051506362625996, 51.562203859848935],
        [0.050412420846191, 51.563832670871015],
        [0.050318454142948, 51.56398898689644],
        [0.042295352985764, 51.561554319608476],
        [0.041928589607953, 51.561450992881944],
        [0.043029119733794, 51.55845076582526],
        [0.042851068789673, 51.558372932250286],
        [0.044185592931478, 51.557698618249944],
        [0.044395896985229, 51.55756276152037],
        [0.04454824492326, 51.557099681968324],
        [0.044653932749135, 51.55688291527586],
        [0.0462824913639, 51.554983146087345],
        [0.046300854852496, 51.55481376349329],
        [0.035413327526381, 51.555253157189824],
        [0.035345579401688, 51.55525433255596],
        [0.032296696700418, 51.55459047245079],
        [0.032177778386737, 51.55457634561057],
        [0.026716505894325, 51.554256256398524],
        [0.025341814883602, 51.55406237439286],
        [0.025293156914198, 51.55472057706449],
        [0.025276547099746, 51.55554818744981],
        [0.024708768257465, 51.555561584595814],
        [0.023762411963071, 51.55552845341196],
        [0.02342421255679, 51.55674919312719],
        [0.023352689759162, 51.55679538986655],
        [0.023155151324752, 51.55686264426084],
        [0.023057607068478, 51.55687511749714],
        [0.022507644607295, 51.55660762619722],
        [0.022476459603235, 51.55616482648482],
        [0.020877512445655, 51.55624993247476],
        [0.020497650621267, 51.55620701552481],
        [0.017747550501096, 51.558411678708715],
        [0.017131244061951, 51.558796369986084],
        [0.016280334667406, 51.559226456056],
        [0.016075487572395, 51.55929202544101],
        [0.015004256398731, 51.55943812369357],
        [0.014754661007995, 51.55943791382038],
        [0.014472775733049, 51.56033931920637],
        [0.014190247609302, 51.56132436618108],
        [0.014193345919409, 51.562243359315886],
        [0.014188502847801, 51.56298263618062],
        [0.014454435174675, 51.5652127373125],
        [0.014431223414713, 51.56560161705769],
        [0.017167170376052, 51.565606769239416],
        [0.0175091837538, 51.56564045632436],
        [0.018481807910096, 51.56600141816966],
        [0.018685902562529, 51.566146285195266],
        [0.018957304738937, 51.566507615234116],
        [0.01898264299548, 51.56655843719005],
        [0.019008491892846, 51.56694647378204],
        [0.019006085951469, 51.56695730633222],
        [0.017687855987992, 51.569936756352604],
        [0.017667649880258, 51.570001850670806],
        [0.018155304236007, 51.570130151838214],
        [0.018247667686947, 51.57013036167517],
        [0.019077781289394, 51.569813028822644],
        [0.019129642237863, 51.569843610565634],
        [0.0188986523197, 51.57225131230973],
        [0.018882724572029, 51.57234780736534],
        [0.018759525872276, 51.57230316543461],
        [0.018015336137593, 51.572020109660414],
        [0.017625147684198, 51.57246386079764],
        [0.017472096965821, 51.57259238903645],
        [0.01645923242886, 51.572890369203215],
        [0.016343184035828, 51.57290944941741],
        [0.017317504287586, 51.574250587145634],
        [0.017382348950073, 51.57441133932666],
        [0.017379762771845, 51.576503964365145],
        [0.017413250716093, 51.57745570590912],
        [0.017361532971148, 51.577591484183635],
        [0.016615353852943, 51.579188807423215],
        [0.016374143195132, 51.57931525193914],
        [0.015977028019881, 51.580126013839696],
        [0.015232890268523, 51.581706206090914],
        [0.015429379650918, 51.58177567159253],
        [0.015669934191122, 51.58186236506392],
        [0.015379035060276, 51.58220368473675],
        [0.015246799022402, 51.58250990560729],
        [0.015403683932958, 51.582532390528776],
        [0.01541379761103, 51.582956667484915],
        [0.015501957922924, 51.583383200991555],
        [0.014100144874526, 51.583410866448915],
        [0.013369010897066, 51.58378581457064],
        [0.012390786172392, 51.59094990352281],
        [0.012452570391461, 51.59126987927462],
        [0.012248133021808, 51.59164208075687],
        [0.012264613838029, 51.592014990336736],
        [0.012090042592865, 51.592148375952604],
        [0.01208505557039, 51.59268891559702],
        [0.01285691875193, 51.59839136212364],
        [0.012905000124279, 51.599054189433694],
        [0.017046213761914, 51.60485344274971],
        [0.017186730444259, 51.60505875619052],
        [0.018058924352749, 51.605969098339294],
        [0.018129785678907, 51.60600385020632],
        [0.017987311456959, 51.60604766573976],
        [0.019104832581862, 51.607766710283435],
        [0.019118817492777, 51.60778895112767],
        [0.019446397560787, 51.60765292309739],
        [0.019552797288204, 51.6076097265491],
        [0.019242061296818, 51.6082229705309]
      ]
    ]
  }
}
