{
  "type": "Feature",
  "properties": { "name": "Redbridge", "level": 2, "londonBorough": true },
  "geometry": {
    "type": "Polygon",
    "coordinates": [
      [
        [0.019242061296818, 51.608222970530903],
        [0.019238250236222, 51.608234726435406],
        [0.019408054783002, 51.60825338719556],
        [0.019476281218677, 51.60826120589261],
        [0.019505400748323, 51.608364119409671],
        [0.019587256524625, 51.608548857147156],
        [0.019624397315493, 51.608637244502887],
        [0.0196566105424, 51.608712227783457],
        [0.019572182207015, 51.608729867160214],
        [0.019532132749386, 51.608738649579145],
        [0.019640619159388, 51.608872570674606],
        [0.019682017407123, 51.608926712990808],
        [0.019851549255744, 51.609101848512573],
        [0.020186337290736, 51.609778622654055],
        [0.020368113002434, 51.609708948845039],
        [0.020423219785981, 51.609779041557601],
        [0.020687443509234, 51.610167468239425],
        [0.020612456875933, 51.610267677424851],
        [0.020835283868637, 51.610601961754611],
        [0.021049451092236, 51.610546117330067],
        [0.021191447226849, 51.610751400550598],
        [0.021374982150738, 51.611143912911736],
        [0.021178816169353, 51.611182362053448],
        [0.02130825876735, 51.61143012636569],
        [0.021352769078175, 51.611586729772284],
        [0.021374746599727, 51.611756310804907],
        [0.0213798964498, 51.611872226229146],
        [0.021365553214294, 51.612037037210726],
        [0.021317342265511, 51.612154770823842],
        [0.021264448152513, 51.612232118512409],
        [0.021233009472906, 51.612272227188917],
        [0.021047914062526, 51.612462459794898],
        [0.020561524149193, 51.61289348429024],
        [0.016252100965428, 51.616851474306984],
        [0.016132685879392, 51.616894891196644],
        [0.016042019491993, 51.616935116433154],
        [0.015797444415456, 51.617055320758681],
        [0.015274395522019, 51.617215376884637],
        [0.014703300843105, 51.617399635942242],
        [0.013523897528654, 51.617743604838438],
        [0.010614675461751, 51.618529962098123],
        [0.00909639866559, 51.618954328117646],
        [0.009002318932633, 51.618982915952664],
        [0.008678455773025, 51.619074786809328],
        [0.009025485132861, 51.619180355373494],
        [0.009458137257876, 51.619163957130105],
        [0.009648465970718, 51.619188575650334],
        [0.009724336080485, 51.619172888627489],
        [0.009834452998111, 51.619147622642444],
        [0.009882751872497, 51.619096437419039],
        [0.009902126979204, 51.619077221328496],
        [0.00992522287056, 51.619076825863736],
        [0.010003171499988, 51.619075491136648],
        [0.010113407148734, 51.619052920616653],
        [0.010122226939859, 51.619056366599494],
        [0.01020255818432, 51.619108946196143],
        [0.010211920061711, 51.619157345603369],
        [0.010227520530728, 51.61915078366016],
        [0.010329784213237, 51.619111263628596],
        [0.010374903727647, 51.619086211024246],
        [0.01048760300435, 51.619021333004113],
        [0.010680859285385, 51.618948780235719],
        [0.010871518374581, 51.619046230717046],
        [0.011195933118757, 51.619064952619709],
        [0.011451577051006, 51.619096542400804],
        [0.011827242710841, 51.619098197741522],
        [0.012237353413651, 51.619094765136005],
        [0.012637729571118, 51.619067218130589],
        [0.013990494405264, 51.618885747028834],
        [0.014199162860877, 51.618867778531985],
        [0.014334043426864, 51.61887985207504],
        [0.014499714756467, 51.618902188098858],
        [0.014676654068785, 51.61940723034602],
        [0.014720234766059, 51.619543169080416],
        [0.014709259483807, 51.619751984565951],
        [0.014647044630106, 51.619945492892363],
        [0.014557384090532, 51.620073826614373],
        [0.014444109301977, 51.620190875202638],
        [0.014314716359854, 51.620302804737861],
        [0.014351958610769, 51.620328244036564],
        [0.014440270740183, 51.62039776964955],
        [0.014489549784244, 51.620401420227765],
        [0.014628685971791, 51.620411621916212],
        [0.014715446401061, 51.620446103023973],
        [0.014832778648413, 51.620551100442874],
        [0.015033069899172, 51.620669961017654],
        [0.015124430058812, 51.620743030818666],
        [0.015236278815066, 51.620822043588653],
        [0.015244043644141, 51.620866873017341],
        [0.015247607559072, 51.620882099161939],
        [0.015491417586591, 51.620841942999299],
        [0.015531996100244, 51.620844843276373],
        [0.015592057454935, 51.620863595588332],
        [0.015663458140864, 51.620910030053807],
        [0.015815189785715, 51.620911021514679],
        [0.01582440860783, 51.62092345276794],
        [0.015984653722799, 51.621149111498433],
        [0.015997397003709, 51.62117587028429],
        [0.016007541713167, 51.621176595310224],
        [0.016144022821272, 51.621224609516538],
        [0.016243409893864, 51.621283152515495],
        [0.016288867676569, 51.621330931463028],
        [0.016286798039914, 51.621414597704508],
        [0.016260246714351, 51.621434837371112],
        [0.016202016643225, 51.621457419659798],
        [0.016157385680273, 51.621460883997521],
        [0.016133163755979, 51.621468494059663],
        [0.016114029307414, 51.621493102577681],
        [0.016117434242674, 51.621504734408248],
        [0.016221541374987, 51.621604562075383],
        [0.016232443023682, 51.621622359920643],
        [0.016235041771731, 51.621648393670426],
        [0.01619017312943, 51.621776858504042],
        [0.016265548088113, 51.621815131055925],
        [0.016555737031955, 51.621843418689757],
        [0.016945634500543, 51.621937436536093],
        [0.016985368230453, 51.621953839653493],
        [0.017029831224632, 51.621979154042371],
        [0.017065871894127, 51.622010008666834],
        [0.017088920384851, 51.622041086532157],
        [0.017107669091565, 51.622105510705069],
        [0.01710317001167, 51.622134364167671],
        [0.017088866778109, 51.622235326479021],
        [0.017021150645707, 51.622337206585904],
        [0.017014371046028, 51.622347214880541],
        [0.017026079173084, 51.62235061072024],
        [0.017075798880851, 51.622364144455737],
        [0.017158601663366, 51.622374411909966],
        [0.017247696961604, 51.622396261482066],
        [0.017341490581956, 51.622393750365511],
        [0.017433539099641, 51.62231932878489],
        [0.017456437235575, 51.62231443897246],
        [0.017570281473469, 51.622307986049208],
        [0.017690967843377, 51.622358068461189],
        [0.017906914845686, 51.622471259565522],
        [0.018060716729378, 51.622551346991209],
        [0.018193910033157, 51.62262279599117],
        [0.018255490071945, 51.622675692529342],
        [0.018282511640328, 51.622698608560391],
        [0.018387160687365, 51.622745368983232],
        [0.01846177343086, 51.622798940578491],
        [0.018497249484407, 51.622849588084669],
        [0.018555655927247, 51.62292861742884],
        [0.018626194058529, 51.623085673292152],
        [0.018749404174583, 51.623159991110697],
        [0.018808784129201, 51.623195839357194],
        [0.018829306177089, 51.623235053629557],
        [0.018808960499475, 51.623297452118209],
        [0.018748998819834, 51.623346143826993],
        [0.018690281210811, 51.62339031783582],
        [0.018572701826091, 51.623410324879593],
        [0.018464613636839, 51.623481426124272],
        [0.018461152199209, 51.623533642418451],
        [0.018547642302903, 51.62356183059736],
        [0.01866357125421, 51.623569728861213],
        [0.018785194981348, 51.623575730564077],
        [0.018864993407926, 51.623583350732268],
        [0.018904450041664, 51.623593463191362],
        [0.018958542432793, 51.623607820188624],
        [0.019042584530617, 51.62364594191164],
        [0.019055729266668, 51.623681686014102],
        [0.019046813106659, 51.623741190187694],
        [0.019005705684905, 51.623758983066573],
        [0.018895119568806, 51.623708728274359],
        [0.018811700322006, 51.623749730152682],
        [0.018771948954741, 51.623798074288779],
        [0.018749680690983, 51.623849714766862],
        [0.018800982689148, 51.623963937099802],
        [0.018742456063811, 51.624044977284179],
        [0.018614051595892, 51.624048983934188],
        [0.018581438220654, 51.624095406744615],
        [0.018584070546074, 51.624154712287464],
        [0.018619834830732, 51.6241792764122],
        [0.018833135622285, 51.624167514954003],
        [0.01900024937282, 51.624286939442548],
        [0.019009444272754, 51.624754393722874],
        [0.019022135489897, 51.624845000157798],
        [0.019139224765384, 51.624878956398973],
        [0.019244565362759, 51.624908618346026],
        [0.019263086350805, 51.624935277395871],
        [0.01926817543318, 51.624952275693573],
        [0.019121504517033, 51.625033033736841],
        [0.019419177237342, 51.625229346309148],
        [0.019476217393731, 51.625342570376169],
        [0.019474320431228, 51.62539745754173],
        [0.019442704577026, 51.625466344785856],
        [0.019448417859899, 51.625562466740881],
        [0.019408019995383, 51.625628807286716],
        [0.019459412754208, 51.625712453108093],
        [0.019604885502949, 51.625799875881626],
        [0.019795226325017, 51.625921597413537],
        [0.019789125300235, 51.625946881515851],
        [0.019792132435747, 51.6259495275389],
        [0.0197879609687, 51.625953196331309],
        [0.019762472282099, 51.626062444687761],
        [0.019800121445932, 51.626096867828728],
        [0.019928724282904, 51.626129725942064],
        [0.020065856338724, 51.626224485708299],
        [0.020062556284484, 51.626280296279766],
        [0.020068942875632, 51.626424067106541],
        [0.020102181586516, 51.626456767539196],
        [0.020135892680098, 51.626532624051492],
        [0.020137609149057, 51.626571262458164],
        [0.020138527261934, 51.626591929512792],
        [0.020138966359785, 51.626601813756267],
        [0.019921608569823, 51.626782707166683],
        [0.019923404700237, 51.626823142712162],
        [0.019923151568405, 51.626882497862795],
        [0.019921933674561, 51.626952660667008],
        [0.019917675474777, 51.626986905606778],
        [0.019922166337844, 51.626990425350634],
        [0.019922039773513, 51.627020102925243],
        [0.020234765378124, 51.627229643277055],
        [0.020291384165787, 51.627268236074507],
        [0.020412139632519, 51.627254467496265],
        [0.020476582628563, 51.627274041197907],
        [0.020521252447856, 51.627303847001535],
        [0.020563434108572, 51.627342688160347],
        [0.020591937002503, 51.627398850587319],
        [0.020594452476006, 51.627455460321542],
        [0.020551686243377, 51.627533532315972],
        [0.020534947377611, 51.627612055565194],
        [0.02046395099684, 51.627672628331538],
        [0.020466226779276, 51.627723846664153],
        [0.020548615339241, 51.627854619006513],
        [0.020562315211077, 51.627935316098196],
        [0.020556128167801, 51.627991176363871],
        [0.020669635288425, 51.628139398085935],
        [0.020672630095203, 51.628206790614811],
        [0.020637567656286, 51.628263147916385],
        [0.020669364376951, 51.62829587301129],
        [0.020788958196258, 51.62828841884032],
        [0.020982737600807, 51.628324650126729],
        [0.021093149565436, 51.628305663410956],
        [0.021117042834531, 51.628355610291941],
        [0.021119439227901, 51.628409524298235],
        [0.021059147972612, 51.628483401920448],
        [0.020956461546141, 51.628578692223449],
        [0.020895079346827, 51.628693054983103],
        [0.020889126153064, 51.628786679918228],
        [0.020945062475677, 51.628842369988014],
        [0.020961451300437, 51.628918524464531],
        [0.021025537453749, 51.628930010730627],
        [0.021182563504756, 51.628854467650768],
        [0.021275131880397, 51.628824097685403],
        [0.02132197235035, 51.628837679236739],
        [0.021349763919872, 51.628845293990587],
        [0.021382240645585, 51.628893294510846],
        [0.021268169219932, 51.628960004978843],
        [0.021332569286746, 51.629011052864826],
        [0.0213475265591, 51.629022485626059],
        [0.021563348523298, 51.628936937081413],
        [0.021792728611824, 51.62883137103006],
        [0.022022067671151, 51.628724905973904],
        [0.022963397607015, 51.628286038485911],
        [0.023937875739922, 51.627845692538749],
        [0.024561854527291, 51.627516596570239],
        [0.02488555379553, 51.62732306916692],
        [0.025864256574057, 51.626718969577922],
        [0.026361766716317, 51.626308415532712],
        [0.026465402061176, 51.626169939720498],
        [0.026597227916749, 51.626048062985319],
        [0.026661475609582, 51.625998394002202],
        [0.026807615301633, 51.625905945328419],
        [0.026942082864861, 51.625843373441811],
        [0.027021928335706, 51.625819513337852],
        [0.027116290742087, 51.625797201005774],
        [0.027397331279944, 51.625749183264979],
        [0.027545270077448, 51.625729542284951],
        [0.027772691707262, 51.6257103266638],
        [0.027908920426101, 51.625687290480769],
        [0.028020365904493, 51.625659286767146],
        [0.028119901094778, 51.625623395420703],
        [0.028255889821473, 51.625562594238659],
        [0.028548319593807, 51.625381287083833],
        [0.02905641629246, 51.625111721505881],
        [0.029064517008036, 51.625098991901794],
        [0.0289371192532, 51.624672248870255],
        [0.029292378517736, 51.624636432532206],
        [0.029304048213873, 51.624606555348734],
        [0.029415891818031, 51.624393296664913],
        [0.029460644962647, 51.624327776518726],
        [0.029561178654404, 51.62421722840174],
        [0.029638052348362, 51.624159246134276],
        [0.029825163133739, 51.624046301558543],
        [0.030701077497321, 51.62363458013796],
        [0.030497921311639, 51.6232909815093],
        [0.031444319527774, 51.623099252216392],
        [0.031669393624471, 51.622930792987916],
        [0.032140792695298, 51.622649259210952],
        [0.032369793152074, 51.622504111296593],
        [0.032594501573829, 51.622359936498796],
        [0.032755372316821, 51.62224204594478],
        [0.032877426505854, 51.622128424425625],
        [0.032994105092893, 51.621991515198047],
        [0.034000785642919, 51.621081113868819],
        [0.034167978597556, 51.620910954841207],
        [0.034243953465431, 51.620800828116856],
        [0.034276990537513, 51.620764285296652],
        [0.034559297649712, 51.620551664100191],
        [0.034681105238114, 51.620465022607767],
        [0.035459299101394, 51.619970428342697],
        [0.035652746954391, 51.619806106635814],
        [0.035961096015905, 51.619530082304756],
        [0.036097051465726, 51.619436899098517],
        [0.036346946521001, 51.61924282081587],
        [0.036674324397027, 51.618908012670069],
        [0.037030531508877, 51.618604177284048],
        [0.037360446187271, 51.618390722913155],
        [0.037451372370743, 51.618324398118112],
        [0.037505068688574, 51.61813642042641],
        [0.037518981395669, 51.617898774841407],
        [0.03757951943795, 51.617863552186876],
        [0.037716374846559, 51.617919628224001],
        [0.038371814293355, 51.617491891495668],
        [0.038407946147392, 51.617524536586501],
        [0.040188153256335, 51.616409102491268],
        [0.040083991695231, 51.616244550092418],
        [0.039987773067173, 51.616096046209499],
        [0.040151584713712, 51.616044639152356],
        [0.040382387937776, 51.615973182938987],
        [0.04067725507284, 51.6158808288098],
        [0.040688681062465, 51.615877932386589],
        [0.040645485637686, 51.615816634515433],
        [0.040628560664671, 51.615793548035946],
        [0.040758528249689, 51.61572834035784],
        [0.040761374658957, 51.615727391610825],
        [0.040875988987176, 51.615674141096854],
        [0.040973685297891, 51.615791144527151],
        [0.041084453034097, 51.615909719096301],
        [0.041255044582278, 51.616041641353931],
        [0.041518416244294, 51.616180942297532],
        [0.041841702528231, 51.616367760402603],
        [0.042160128109964, 51.61651059851966],
        [0.042489416910869, 51.616637959355003],
        [0.042885749151701, 51.616778540594872],
        [0.043223804205743, 51.616843697963127],
        [0.043678825402195, 51.616940090503078],
        [0.04428953354202, 51.617029273628127],
        [0.044831728246496, 51.617136733085331],
        [0.045405720727604, 51.617244535217409],
        [0.046130026040225, 51.617225616671739],
        [0.04617723166354, 51.617375869310827],
        [0.04627603006071, 51.617388535139966],
        [0.046395497629638, 51.617346884992962],
        [0.047054216103012, 51.617347089361061],
        [0.047834165716543, 51.617409022462432],
        [0.047925462716681, 51.617511743707738],
        [0.049095219600604, 51.617761106831523],
        [0.049917943046166, 51.617874436476818],
        [0.050607592037618, 51.617983790433072],
        [0.051327166303411, 51.618115998134201],
        [0.052346442459742, 51.618295118697745],
        [0.05307155682558, 51.618421823330493],
        [0.053244119907698, 51.61840441676965],
        [0.053346472126805, 51.618303707759253],
        [0.053501226716234, 51.618275821223882],
        [0.053684785568351, 51.618278005361795],
        [0.054010259670431, 51.617935987140513],
        [0.054222233223599, 51.617767713046867],
        [0.054261025591424, 51.617731063741189],
        [0.054354348387365, 51.617622418500346],
        [0.054364840538462, 51.617598854104273],
        [0.054371471920758, 51.617553775035759],
        [0.054363872158695, 51.617513441341572],
        [0.054308077656431, 51.617397514027935],
        [0.054276247387693, 51.617332425112949],
        [0.054187684238219, 51.617194589727731],
        [0.054150347408802, 51.617103518602065],
        [0.054146753490789, 51.617055920708246],
        [0.054171928828479, 51.616973647456291],
        [0.05422855131263, 51.616916003132054],
        [0.054248660133979, 51.61688147931968],
        [0.054255778480339, 51.616847182852922],
        [0.054248219534087, 51.616807747694324],
        [0.054224580533139, 51.61676409765105],
        [0.054184983258995, 51.616718928363021],
        [0.054111782636918, 51.616665354522588],
        [0.053660495054344, 51.616460126520664],
        [0.053597480180198, 51.616408172672216],
        [0.053558979052366, 51.616387264023459],
        [0.053463456492297, 51.616351166254432],
        [0.053403710568312, 51.61633962182205],
        [0.053321073591919, 51.616332974102171],
        [0.053244696791493, 51.616337007939094],
        [0.053181634732222, 51.616348002905234],
        [0.053121864925023, 51.616367932851773],
        [0.052982175025345, 51.616441417713773],
        [0.052929111166817, 51.616481913252507],
        [0.052797302629091, 51.616602021566742],
        [0.05272010647106, 51.616651931649876],
        [0.052631038742647, 51.616694855203527],
        [0.05253150228707, 51.616729868410097],
        [0.052423021595311, 51.616758743106558],
        [0.052299742085195, 51.616779783113088],
        [0.052121451751953, 51.6167981877161],
        [0.051974550918539, 51.6168079499692],
        [0.051769104080399, 51.616800750237935],
        [0.051700900304814, 51.61679384908016],
        [0.051651217373508, 51.616781228599585],
        [0.051559944544535, 51.616743256486181],
        [0.051449770933104, 51.616670543503666],
        [0.051395150250892, 51.616644520316186],
        [0.05131751661859, 51.616620697803569],
        [0.05074091566404, 51.616519264942802],
        [0.050514736463403, 51.616500734865603],
        [0.050188449577874, 51.616408415114726],
        [0.050150030977449, 51.616389302435202],
        [0.050083014006351, 51.616344610704232],
        [0.050003032958133, 51.616268671263263],
        [0.049932912791916, 51.616187163996138],
        [0.049813797277736, 51.616012090051605],
        [0.049751420982531, 51.615942137819424],
        [0.049659651448151, 51.615861008450196],
        [0.049543264272538, 51.615778510345798],
        [0.049430452395408, 51.615711237117736],
        [0.049330078177318, 51.615663530343859],
        [0.04904063864058, 51.615555276691111],
        [0.048925346072721, 51.615497038885565],
        [0.048827212041264, 51.615434904426692],
        [0.048764204068333, 51.61538294789834],
        [0.048717234841734, 51.615334308433447],
        [0.048457166451092, 51.614980042810004],
        [0.048348190419476, 51.614773316357713],
        [0.048307697515777, 51.614676003686974],
        [0.048285536000712, 51.614600852603118],
        [0.048277929077034, 51.614528145309293],
        [0.048282070961352, 51.614459729290097],
        [0.048327827109039, 51.614288970712579],
        [0.048337161571486, 51.614271721880563],
        [0.048477986153892, 51.61412718120345],
        [0.048500903875977, 51.614090810840892],
        [0.048511034168912, 51.614059159947196],
        [0.04850940249008, 51.613990844676202],
        [0.048487416098835, 51.613951660960474],
        [0.0484416492289, 51.613897604843181],
        [0.048384619328828, 51.613850040085154],
        [0.048231793325979, 51.613760083273228],
        [0.048175087444245, 51.61371970683939],
        [0.048122347458409, 51.613671167837829],
        [0.048081032521226, 51.613619731678305],
        [0.048047972880797, 51.613559158861939],
        [0.048029548402455, 51.613502826973722],
        [0.048025637676939, 51.613448040359138],
        [0.048035795701898, 51.613384914925469],
        [0.048067602849728, 51.613321411738234],
        [0.048119858462482, 51.613262947289336],
        [0.048186870291075, 51.613211419400656],
        [0.048205187856153, 51.613201207899429],
        [0.048390248491565, 51.613397614127294],
        [0.048539755220576, 51.613510110160803],
        [0.0486814663987, 51.613577779075293],
        [0.0487889573254, 51.613591190285184],
        [0.048894870091864, 51.61356955780716],
        [0.049034207447947, 51.613520363940715],
        [0.05004252449588, 51.613106183553811],
        [0.050834202710634, 51.612756929501259],
        [0.051575679285951, 51.61241574157561],
        [0.051852492237709, 51.612308387146179],
        [0.05260472113498, 51.612013766182578],
        [0.052809448884535, 51.611909468569088],
        [0.053122506118517, 51.611741226722877],
        [0.053425296301981, 51.61156956659979],
        [0.054054488430507, 51.611237521132722],
        [0.055989224613597, 51.610295392877376],
        [0.056468510381808, 51.610066677247765],
        [0.057416882485984, 51.609671467832484],
        [0.05831556156172, 51.609263633164872],
        [0.059284124240456, 51.608836580140014],
        [0.059973055922229, 51.608581689899168],
        [0.060671205218146, 51.608275375773061],
        [0.061137028893201, 51.608005510996279],
        [0.061117613903105, 51.60792761612624],
        [0.06160857446171, 51.607670796925234],
        [0.061746337091005, 51.607651291026578],
        [0.062033129976574, 51.60744661649094],
        [0.062518907837109, 51.607075678101147],
        [0.062541223068373, 51.607058199962637],
        [0.062744369344528, 51.607047435740846],
        [0.062972116877197, 51.606910341983067],
        [0.063349712380067, 51.607115930386151],
        [0.063984268690746, 51.607223475751091],
        [0.064672431383683, 51.606920910104897],
        [0.065391949232417, 51.606641169412903],
        [0.065462307179815, 51.606600363684663],
        [0.065940582856961, 51.606319469172682],
        [0.06663897595025, 51.606210952552111],
        [0.067279221841689, 51.606125937541194],
        [0.067657609869737, 51.606062618480081],
        [0.06806688586302, 51.605979869399469],
        [0.068882995500175, 51.605728979934362],
        [0.069492446938765, 51.605506908247982],
        [0.070295307751028, 51.605250846861246],
        [0.070988824622258, 51.605099225492104],
        [0.071664109656363, 51.604959612239604],
        [0.072230337307879, 51.604835409624592],
        [0.072805516731439, 51.604685866756711],
        [0.073486890961737, 51.60493371829839],
        [0.073814440742544, 51.605086201558905],
        [0.075152688211675, 51.605582322327109],
        [0.076269756089188, 51.606136296836333],
        [0.076884127308125, 51.606402400174986],
        [0.077882504031527, 51.606728248042771],
        [0.078794406725277, 51.606994469141689],
        [0.078922667505951, 51.607020074535221],
        [0.079053527154908, 51.607039338899675],
        [0.079143365695536, 51.607045840838516],
        [0.079345433641119, 51.607043160321652],
        [0.079512416698016, 51.607031209183859],
        [0.080009945273964, 51.606983724517995],
        [0.080467483526897, 51.606914464993849],
        [0.080947569941695, 51.606864587721546],
        [0.081492719855969, 51.60678477811512],
        [0.082000850505723, 51.606653465283635],
        [0.082785845061452, 51.606418318143497],
        [0.083174217967397, 51.606478870323599],
        [0.083279558981905, 51.60647700054357],
        [0.0833862195992, 51.60647240944833],
        [0.083818225376994, 51.606413481927277],
        [0.084448212197872, 51.606357331646578],
        [0.084859816049127, 51.606168369102598],
        [0.08520475371211, 51.605911346088362],
        [0.085456508398585, 51.6057009411089],
        [0.085518566178844, 51.605542466886121],
        [0.08559426083871, 51.605555510060398],
        [0.086431304289122, 51.604881470792279],
        [0.086665154289199, 51.604690265994783],
        [0.086777705768951, 51.604688264846232],
        [0.086866016886483, 51.604630040850324],
        [0.086871623933939, 51.604626344086505],
        [0.0871184155379, 51.604465483287605],
        [0.088895117777644, 51.604852033087781],
        [0.088900194874394, 51.605182872713463],
        [0.089331322347305, 51.605388324670713],
        [0.089602938315001, 51.605516580460403],
        [0.089971358939435, 51.605614335303962],
        [0.090219226716477, 51.605665675667673],
        [0.090283826683692, 51.605562908053528],
        [0.09043819051469, 51.605653682421178],
        [0.091402007628701, 51.605917082666195],
        [0.09230176194525, 51.606137553071662],
        [0.092470886208659, 51.606172307128993],
        [0.092472370534711, 51.606173179932028],
        [0.092554253334719, 51.606195100972592],
        [0.092477700399333, 51.606289090296492],
        [0.091687518658135, 51.60747851672604],
        [0.091846935409768, 51.608213073877451],
        [0.092624223676446, 51.609475276468132],
        [0.09368989725655, 51.609753029085077],
        [0.093881807573475, 51.609874603542785],
        [0.094048532547039, 51.610045187418706],
        [0.094157616052775, 51.610218598073615],
        [0.094207940814532, 51.610370575410499],
        [0.09420408810528, 51.610537907674967],
        [0.094209381855524, 51.61065291929625],
        [0.094665720716008, 51.61074549385237],
        [0.09480863894219, 51.6107753167311],
        [0.094789138073547, 51.61079095230621],
        [0.094662784455585, 51.610964067953525],
        [0.094529425485763, 51.611173279115704],
        [0.094314226970884, 51.611455891744043],
        [0.093967481680124, 51.611987249786623],
        [0.093686934518341, 51.61238793158752],
        [0.093614538123935, 51.612478250304875],
        [0.093528040109135, 51.612576014629155],
        [0.093329478488661, 51.612780991698308],
        [0.092796689595673, 51.613224838125383],
        [0.092258025501257, 51.613572565348626],
        [0.092817856080481, 51.613716359031358],
        [0.092819299328773, 51.613716333297496],
        [0.093616748516635, 51.613970092831622],
        [0.094855750025508, 51.614402115103331],
        [0.096052417144362, 51.614792614929875],
        [0.096486619807711, 51.614905361799927],
        [0.097002304908012, 51.614999565283718],
        [0.097113361476165, 51.615027256872146],
        [0.097430413923046, 51.615136697737185],
        [0.097595293910885, 51.615203894028014],
        [0.098041486279332, 51.615419836517979],
        [0.099442591912476, 51.61360344500342],
        [0.100141502763231, 51.612723149155173],
        [0.101550967725837, 51.613061224777972],
        [0.103387545787245, 51.613451881088807],
        [0.103810922525497, 51.612549522290209],
        [0.104070638038553, 51.612606016920722],
        [0.104949755656363, 51.612813272296975],
        [0.105562681358107, 51.612948859003488],
        [0.105992226440648, 51.613054460168392],
        [0.107026451575763, 51.613273305174538],
        [0.107620932554109, 51.613446981551228],
        [0.109604804454304, 51.613959894150696],
        [0.109877929670636, 51.614087177147823],
        [0.113422690876239, 51.615550360476526],
        [0.115709014909336, 51.616506459285311],
        [0.116683073071052, 51.616919647074297],
        [0.116693259987085, 51.616921261904075],
        [0.118579562565393, 51.615364767889069],
        [0.119280221258389, 51.615366507224351],
        [0.119901027334317, 51.615576516500376],
        [0.120316450780172, 51.61574976577932],
        [0.120846575562205, 51.616059428523961],
        [0.120956060703335, 51.616115003380429],
        [0.121088890288613, 51.616175551889079],
        [0.121352143467268, 51.61627600875719],
        [0.122018096685852, 51.616555333963277],
        [0.122189185783336, 51.616599901960726],
        [0.122300554369775, 51.616633859064699],
        [0.122505241663393, 51.616717386935683],
        [0.123292546020661, 51.617120408185031],
        [0.123470208726783, 51.617181941531641],
        [0.1238739457504, 51.617351792705051],
        [0.124171398851134, 51.617503782085834],
        [0.124265098664839, 51.617561438102079],
        [0.124392440633208, 51.617658952269991],
        [0.124782115683543, 51.618022397762168],
        [0.124895639879463, 51.618164225722317],
        [0.124974230222105, 51.618300391139762],
        [0.125162634512777, 51.618777189884135],
        [0.125327042190546, 51.618956764721709],
        [0.125675328842398, 51.619268799096396],
        [0.126071221814374, 51.619641120467492],
        [0.126789512838087, 51.619833141101523],
        [0.127016434928312, 51.619897373675698],
        [0.12706359059177, 51.619917202341128],
        [0.127258182839397, 51.620031480130962],
        [0.127383478893312, 51.620084963986663],
        [0.127442056175979, 51.620101887683788],
        [0.127592157335973, 51.620129742185419],
        [0.127879397265125, 51.620217160034819],
        [0.128040009350414, 51.620284391272698],
        [0.128196768230413, 51.620423633709471],
        [0.128385087183061, 51.620527232164285],
        [0.128545995457157, 51.620600752233905],
        [0.128852383330022, 51.620695913918226],
        [0.129160315251271, 51.621441218607863],
        [0.13017647668953, 51.621607131998843],
        [0.13057558095459, 51.621738375910574],
        [0.1310120373112, 51.621895918442597],
        [0.131262871106793, 51.621976794894124],
        [0.132191019140098, 51.622206338598886],
        [0.132307160487435, 51.622249192315877],
        [0.13262342804967, 51.62243139394392],
        [0.133042523293188, 51.622618920326161],
        [0.134150905011671, 51.623148227211104],
        [0.135501118987618, 51.623473486409551],
        [0.13578330474128, 51.623544790195808],
        [0.135978466680211, 51.623578109042306],
        [0.136079166916791, 51.623599657565336],
        [0.136131302509978, 51.623602305871451],
        [0.136213287791969, 51.623594518949496],
        [0.137276436707497, 51.623590453342388],
        [0.137402994236761, 51.623608832105241],
        [0.13749253474083, 51.6236081008742],
        [0.137564415130867, 51.623600497016319],
        [0.137645851084251, 51.623581028581746],
        [0.137914514629345, 51.623579732630866],
        [0.138156948531111, 51.623542943046019],
        [0.13920278008289, 51.622310771852241],
        [0.14008459035627, 51.621339672106636],
        [0.140272949784327, 51.621167174764217],
        [0.140540702349336, 51.620962654071718],
        [0.140661242970771, 51.620884017743691],
        [0.140805904003185, 51.620765373439262],
        [0.140856942355717, 51.620714083374672],
        [0.140937494271621, 51.620614593599925],
        [0.141959140835563, 51.619485354398492],
        [0.142078292634506, 51.619285340258294],
        [0.142162144746798, 51.619225357301318],
        [0.142208210416899, 51.619191243526409],
        [0.142461428833597, 51.618954609738466],
        [0.14262595618351, 51.618767255819783],
        [0.142859051940112, 51.618502211765019],
        [0.143097194727458, 51.618252362685041],
        [0.143174338852445, 51.618172717474295],
        [0.143265373471276, 51.618019977558411],
        [0.143361757434393, 51.617858147162472],
        [0.143737716031211, 51.617375566381192],
        [0.143900023503917, 51.617202639452543],
        [0.144033971853306, 51.617041021584598],
        [0.144211680920131, 51.616919071365793],
        [0.144319599271235, 51.616818179901728],
        [0.144470564941555, 51.616680530958412],
        [0.144700431682358, 51.616224896315202],
        [0.144816927998275, 51.616060898567895],
        [0.144935293219313, 51.6158752840076],
        [0.145020340838897, 51.615626429882042],
        [0.145108403866378, 51.615349643126528],
        [0.14516571816012, 51.61524787711874],
        [0.145225788966027, 51.615173938142071],
        [0.145283992609876, 51.615091040536115],
        [0.145294780978818, 51.615013505921183],
        [0.145297929398371, 51.614927118222518],
        [0.14535401392712, 51.61479929568646],
        [0.145419268515122, 51.614651521505479],
        [0.145475307551997, 51.614553375725635],
        [0.145570440492364, 51.614457213091121],
        [0.145739772831976, 51.614341708450922],
        [0.14591097136466, 51.614235162164356],
        [0.14600898915193, 51.614138946414378],
        [0.146086630000163, 51.614070081347307],
        [0.146092063743306, 51.614062787811214],
        [0.146452417859314, 51.613740553522121],
        [0.146610287963755, 51.613565905196602],
        [0.146829582638728, 51.613284918209366],
        [0.146934647278501, 51.613093249823805],
        [0.147218884297981, 51.61271934826059],
        [0.147322415564643, 51.612587059562884],
        [0.147380018445114, 51.612491582005546],
        [0.147468608258612, 51.612348775259861],
        [0.14756178475832, 51.612119554297834],
        [0.147755991849596, 51.611521581038978],
        [0.147800782701486, 51.611154757177147],
        [0.147822189203971, 51.610690340419417],
        [0.147921559998178, 51.610378272573229],
        [0.148036038185282, 51.610110891796175],
        [0.148139309088346, 51.609881485500438],
        [0.14822262844934, 51.609749565826156],
        [0.148363207630529, 51.609392678851769],
        [0.148519699599542, 51.609097550252756],
        [0.148582474894936, 51.608928236880793],
        [0.148680562810149, 51.608680939441527],
        [0.148693213585054, 51.608459486497878],
        [0.148697459466038, 51.608335308987648],
        [0.148731626127285, 51.608263640834757],
        [0.148724287325722, 51.607985899594652],
        [0.148731463175219, 51.607740266463864],
        [0.148726457738009, 51.607542517857432],
        [0.148766142367796, 51.60737362707733],
        [0.148720820156705, 51.607025538580181],
        [0.1485971565046, 51.606517014984846],
        [0.148484780054475, 51.606247491500945],
        [0.148450066676121, 51.606124027160483],
        [0.14845138612145, 51.605937853282633],
        [0.148469936680851, 51.605718990095177],
        [0.148560087481837, 51.605211947671691],
        [0.148544900445258, 51.604890285549928],
        [0.148569134210629, 51.604822396331464],
        [0.148586837163077, 51.60449383714235],
        [0.148617819629067, 51.604354781688265],
        [0.148688991865243, 51.604149343391157],
        [0.148793775431392, 51.60386055640069],
        [0.148885952161023, 51.603702394918905],
        [0.148998201205663, 51.603541167986634],
        [0.148947658898186, 51.603480043531043],
        [0.149083077659766, 51.603350766129275],
        [0.149195664442168, 51.603227302333444],
        [0.149485043224489, 51.602902760129368],
        [0.149091918055576, 51.601794859232193],
        [0.149032806554544, 51.601643964262834],
        [0.14895464122471, 51.601548273918453],
        [0.148950440447559, 51.601520473323966],
        [0.14894051320251, 51.601310224821127],
        [0.148879409024888, 51.601117100346862],
        [0.148864303200559, 51.601041837863868],
        [0.148606016949724, 51.600250708751332],
        [0.148323853765587, 51.599320628525739],
        [0.148235599427448, 51.599072245661489],
        [0.148213323275221, 51.599028588961758],
        [0.148179760710605, 51.598959959157249],
        [0.148121668929963, 51.598983504381692],
        [0.148022458743341, 51.599023089871395],
        [0.14755929413552, 51.599152968626726],
        [0.146563321720423, 51.599436476323788],
        [0.145631614971563, 51.598847403474785],
        [0.142810619865895, 51.597140865037566],
        [0.141940694394949, 51.596604591665404],
        [0.141898989300255, 51.596577475355538],
        [0.141246141010775, 51.596143349060611],
        [0.140550786696668, 51.59572618145782],
        [0.138814328709136, 51.59466162695886],
        [0.137666338301969, 51.593951434375981],
        [0.137560286930685, 51.593876028580667],
        [0.137449807295085, 51.593860055443898],
        [0.137387455591098, 51.593792846275058],
        [0.136750303960439, 51.593506789669604],
        [0.135721449911145, 51.592995846392846],
        [0.133175126777598, 51.591774184629841],
        [0.132083987554787, 51.591257147860773],
        [0.130553313030729, 51.590509774482747],
        [0.129555966378281, 51.590052162176882],
        [0.1297322338749, 51.589592132216225],
        [0.129842472013875, 51.589356320281688],
        [0.130012924355959, 51.588988121290463],
        [0.130197085949051, 51.588697010703655],
        [0.130437133994321, 51.588366216403983],
        [0.130616403742958, 51.58809407866373],
        [0.13100383936338, 51.587519601483905],
        [0.130186242506757, 51.587385166809632],
        [0.129877852424502, 51.587335009675634],
        [0.129713056709353, 51.58729933191168],
        [0.129485650818159, 51.587252200299453],
        [0.128505733683318, 51.587073038002387],
        [0.126466953866859, 51.586754788392284],
        [0.126374616531949, 51.586724987073822],
        [0.127356043197865, 51.584433834260594],
        [0.127220125603683, 51.583934503350328],
        [0.127630852454939, 51.583889287294923],
        [0.128003051801188, 51.582988659363011],
        [0.128057454292262, 51.582855479415763],
        [0.127973874058881, 51.582364192796554],
        [0.127953784377678, 51.58224315507222],
        [0.12777398677209, 51.582133106968584],
        [0.127744282066249, 51.581898934978682],
        [0.127754680485285, 51.581627165525298],
        [0.129225848533479, 51.581510551681049],
        [0.131725637481527, 51.581351855507151],
        [0.132143240594085, 51.58133077894734],
        [0.132535010163862, 51.581312868228217],
        [0.132588815245955, 51.581259732393704],
        [0.132613680681412, 51.581235899316361],
        [0.132759020693665, 51.581072287430771],
        [0.132938424785, 51.58089636557574],
        [0.132860937817741, 51.58087529219798],
        [0.132879781769558, 51.580846172860994],
        [0.133010541155778, 51.580648653210261],
        [0.133023952901186, 51.580626826798706],
        [0.133029805708644, 51.580628518954533],
        [0.133185926607651, 51.580664349653915],
        [0.133350507593045, 51.58041855313428],
        [0.133462389548651, 51.580218678332656],
        [0.133532596990137, 51.579961108273004],
        [0.1308302515676, 51.579367231696182],
        [0.13079967271849, 51.579361492073971],
        [0.130682823402808, 51.579054263279389],
        [0.130821127328529, 51.579079629315245],
        [0.130854632254882, 51.579086215068173],
        [0.131075610922671, 51.578688319269858],
        [0.130974130155104, 51.578647896386933],
        [0.131088604880848, 51.578349056458947],
        [0.131180412441052, 51.578090196222597],
        [0.13129705397769, 51.577776029008533],
        [0.131374119026035, 51.577572292174544],
        [0.131381783664265, 51.577396794216988],
        [0.131384945345581, 51.577340981700772],
        [0.131611196520708, 51.577086873028797],
        [0.129820230768826, 51.576503391948606],
        [0.12917237981687, 51.576321805541497],
        [0.129193885625119, 51.576040841358143],
        [0.129237959452366, 51.575748676315463],
        [0.129278140202139, 51.575620250033495],
        [0.129284847837485, 51.575146210096854],
        [0.12927182936603, 51.574775045524511],
        [0.129307249877378, 51.574483037423647],
        [0.129347037124778, 51.574469725513566],
        [0.129356962934446, 51.574465948277201],
        [0.129349823474397, 51.574313200977862],
        [0.129366679386716, 51.574179802270869],
        [0.129371271322475, 51.574154539215428],
        [0.129418478299654, 51.573960338199782],
        [0.129426584060139, 51.573948500506113],
        [0.12962977274222, 51.57366423866592],
        [0.129803140940529, 51.573483035199821],
        [0.130058107598661, 51.573102509430392],
        [0.130074276479188, 51.573077935444864],
        [0.13058192285635, 51.573255767752002],
        [0.130839164603109, 51.573386886978497],
        [0.130886845589913, 51.573357244208495],
        [0.130853930491466, 51.573270612209136],
        [0.130905908172708, 51.57320941673602],
        [0.131029303466359, 51.572947284845633],
        [0.131177151612314, 51.572621759319325],
        [0.131216054036648, 51.572589578028953],
        [0.131555933447849, 51.571834306770654],
        [0.131558565000432, 51.571828863304759],
        [0.130780306517793, 51.571696417494927],
        [0.129902744570699, 51.571538790974543],
        [0.129908413592012, 51.571474839457743],
        [0.129926512666228, 51.571306346258226],
        [0.129989212590897, 51.57125844566427],
        [0.129994769162017, 51.571161222961685],
        [0.129977268802197, 51.570941217989684],
        [0.129989334309948, 51.570798014031567],
        [0.130026206147318, 51.570753280118154],
        [0.130090402732499, 51.570675676172399],
        [0.130303223413116, 51.570721272442995],
        [0.130358447357907, 51.570698687114898],
        [0.13038673822321, 51.570686482837679],
        [0.130424715330128, 51.570634534515527],
        [0.130437018026384, 51.570527297241853],
        [0.130457759888844, 51.570322784878783],
        [0.130443830482806, 51.570271779055638],
        [0.130367996525435, 51.570007869486737],
        [0.130207892966841, 51.569669950675546],
        [0.130048421894781, 51.569345509308889],
        [0.129808254449462, 51.569023431887537],
        [0.129686303239478, 51.568822409090416],
        [0.129615277559383, 51.568630353864236],
        [0.129600887911923, 51.568384213290443],
        [0.129653267833714, 51.568177328201386],
        [0.129677134013676, 51.56810135576049],
        [0.12971830107577, 51.567839818289194],
        [0.129724907877531, 51.567765058402792],
        [0.129729932968404, 51.56771820480202],
        [0.129637800690583, 51.567414123118738],
        [0.129494776020592, 51.566854671225663],
        [0.129379495076223, 51.566641836427593],
        [0.129344221952851, 51.566628088181353],
        [0.129316620067847, 51.56653146724215],
        [0.129302525283882, 51.566476867165619],
        [0.128763756844985, 51.566465061277853],
        [0.128605728148814, 51.566449043663951],
        [0.128451898809512, 51.566430251825182],
        [0.128209552367529, 51.566369900195049],
        [0.127956611069539, 51.566298948911601],
        [0.127621665009383, 51.566140455850892],
        [0.127452402351053, 51.566038309865732],
        [0.127288377626626, 51.565893802669933],
        [0.127067881518702, 51.5656522979356],
        [0.126879240801026, 51.565474963226471],
        [0.126649563547717, 51.565283983643042],
        [0.126439955436299, 51.565151992125585],
        [0.125979253196881, 51.564926529357649],
        [0.125699710909629, 51.564749041390463],
        [0.12550970459965, 51.564604103210229],
        [0.125320311063558, 51.564503218173648],
        [0.124989544718805, 51.564341044878717],
        [0.124730343152379, 51.564197358719497],
        [0.11995248270744, 51.563286491961563],
        [0.119639816770451, 51.563233688323052],
        [0.119500982043046, 51.563195729128701],
        [0.119310646199376, 51.56313621820356],
        [0.119033186978317, 51.563064791460661],
        [0.118873360029812, 51.562730449656307],
        [0.119751068992103, 51.562492473463443],
        [0.11869971103898, 51.560950321481506],
        [0.117479781051489, 51.559163002652035],
        [0.117821379240635, 51.559031837257542],
        [0.118237618761051, 51.558923603648616],
        [0.118908205671717, 51.558793688743123],
        [0.120487754542182, 51.558541229608025],
        [0.118937664434195, 51.557348019367794],
        [0.118077731218581, 51.55734556254405],
        [0.117996048073204, 51.557388403970123],
        [0.117133314520567, 51.557387789323016],
        [0.117152164451544, 51.556892847144539],
        [0.113328691636732, 51.557317898451416],
        [0.113140183852019, 51.556830289433876],
        [0.112724725161562, 51.556519428417751],
        [0.114104704637039, 51.555821909967932],
        [0.114105812684664, 51.555814695790943],
        [0.114160233466395, 51.55561947142462],
        [0.114181395936946, 51.555609198011545],
        [0.114727983806929, 51.555325966479614],
        [0.114716035974258, 51.555317189088711],
        [0.112710150031747, 51.553776898926351],
        [0.112358864338883, 51.553511643322899],
        [0.112358614555102, 51.553506252163167],
        [0.112327181109858, 51.553481638419591],
        [0.112353872231008, 51.552999145742007],
        [0.111911262512037, 51.552661792529591],
        [0.111105237914919, 51.552482056515416],
        [0.109814989246386, 51.552592497978694],
        [0.108401932363518, 51.552698837501495],
        [0.10826985104376, 51.55205732975341],
        [0.108124572361776, 51.552066235465063],
        [0.108087099017099, 51.552066908863466],
        [0.108000788232806, 51.552072056931536],
        [0.107759068077832, 51.552085392950012],
        [0.107573574548733, 51.552035668312321],
        [0.107429184835915, 51.552001391953432],
        [0.107384991204248, 51.551981502509776],
        [0.107308828050975, 51.551925317024548],
        [0.107190968338359, 51.551809628986604],
        [0.106572017016264, 51.551307258695054],
        [0.106182294416216, 51.550958143137557],
        [0.106009393562176, 51.550868621837992],
        [0.105735572951641, 51.550686487890658],
        [0.105428708779716, 51.550444694891823],
        [0.105266096612127, 51.550328009583708],
        [0.105076641241977, 51.550223496328456],
        [0.104781427747772, 51.550077715096108],
        [0.104573363083931, 51.549976232751419],
        [0.104434985573763, 51.549915765897211],
        [0.104225149478736, 51.549807120514572],
        [0.104013229616862, 51.54974707301934],
        [0.103629133256991, 51.549644249720942],
        [0.103191340934942, 51.549534294394228],
        [0.102631578020919, 51.549406739616444],
        [0.102515444253732, 51.549359360958668],
        [0.102224858003681, 51.549219785355596],
        [0.101314395603262, 51.548931243225233],
        [0.100713828971477, 51.548763043589744],
        [0.100272913908307, 51.548616263084789],
        [0.100014672871788, 51.548521066723225],
        [0.099739180175204, 51.548427077866116],
        [0.099574045127786, 51.548349098764248],
        [0.099460137618542, 51.548287288861879],
        [0.098845018839405, 51.547959269189285],
        [0.098426915838458, 51.547743728753005],
        [0.098141585223905, 51.547623833184922],
        [0.097960396462949, 51.547541642592904],
        [0.097816022380562, 51.547475879602878],
        [0.0974926826655, 51.547313496975562],
        [0.097094204580365, 51.547179434979689],
        [0.096578124684567, 51.546997114129887],
        [0.096425185508214, 51.546901826448966],
        [0.096355841474128, 51.546867993960227],
        [0.095632316548431, 51.546596750640987],
        [0.095069555351521, 51.546402667293634],
        [0.094375242036955, 51.546170462675697],
        [0.094136834095347, 51.54609828055176],
        [0.093831555708504, 51.545983227080747],
        [0.093502272545335, 51.545847917903018],
        [0.093325277025225, 51.546013845227669],
        [0.093289914167541, 51.546091813894144],
        [0.09323247608437, 51.546097335208565],
        [0.093153600376223, 51.54629568380215],
        [0.093003501743932, 51.546639187055753],
        [0.092872919191283, 51.546999428119975],
        [0.092837144614919, 51.547099885837291],
        [0.092595359350874, 51.547708511602053],
        [0.092326931195279, 51.548396748114428],
        [0.092295641074641, 51.548469248143007],
        [0.092238167421299, 51.548631243305003],
        [0.092225452834942, 51.548794238709583],
        [0.092253335562753, 51.548898956501866],
        [0.092421361741811, 51.549291640247674],
        [0.09253218572175, 51.549537863145183],
        [0.092596594988723, 51.549652720592938],
        [0.092008687569379, 51.549414107328644],
        [0.09183981076804, 51.549254350188889],
        [0.091686006666141, 51.549108712444678],
        [0.091639925288699, 51.549016009575666],
        [0.091588531356764, 51.548901818829968],
        [0.091521655472129, 51.548795997558045],
        [0.091490850894964, 51.5486904324205],
        [0.091591929863869, 51.548441329861333],
        [0.091605433665783, 51.548389830462369],
        [0.091578007410514, 51.548326470995107],
        [0.091490999643822, 51.548284857113003],
        [0.091379451971571, 51.548274255987323],
        [0.090845802361215, 51.548211826690547],
        [0.090742612964551, 51.548163306474912],
        [0.090636211881281, 51.548107649213911],
        [0.09053627487873, 51.548004215134853],
        [0.090488509761743, 51.547969095370085],
        [0.090390839294749, 51.547946555449052],
        [0.090175775658282, 51.547943193386914],
        [0.09009601716827, 51.547933823181474],
        [0.089933617945896, 51.547915133957382],
        [0.089734819069047, 51.547888999468888],
        [0.089537708613765, 51.547868230214142],
        [0.088969148788075, 51.547799220050784],
        [0.088473183756543, 51.547740605305641],
        [0.08821970449653, 51.547717240276981],
        [0.088010860387305, 51.547692180964958],
        [0.087653783882554, 51.547642781134329],
        [0.086668491686653, 51.547512830560507],
        [0.086259042980002, 51.54745356679036],
        [0.085989099645527, 51.547385526075928],
        [0.085698531683835, 51.547276484857903],
        [0.085190945670323, 51.546995043061322],
        [0.084869464227868, 51.546840686352127],
        [0.084314573508372, 51.546596951739453],
        [0.084119703877716, 51.546498796088635],
        [0.083935288486113, 51.546440022435661],
        [0.083363643348162, 51.546239746132159],
        [0.083266723287512, 51.54620189934171],
        [0.083150781528898, 51.546158095346669],
        [0.082943972212032, 51.546082631622944],
        [0.082826343718663, 51.546033461619984],
        [0.082734332093052, 51.545945167933837],
        [0.082490393855498, 51.54581460766795],
        [0.082322209851102, 51.545732162248356],
        [0.082154190548286, 51.545653310760457],
        [0.081941861444784, 51.545614813469236],
        [0.081794786920477, 51.545615625072344],
        [0.081700458987208, 51.545602910651859],
        [0.081682960682768, 51.545598724803611],
        [0.081652328404063, 51.545591174926386],
        [0.081601444327082, 51.545550711296265],
        [0.081583875345983, 51.545481779010032],
        [0.081616123968886, 51.545429948184271],
        [0.081708411929639, 51.545334786071663],
        [0.08167721122731, 51.545283181895329],
        [0.081592198084278, 51.545221741335311],
        [0.081577459081617, 51.545214808688705],
        [0.081500840945926, 51.545179298022965],
        [0.08149347145777, 51.545175831693982],
        [0.081399150309507, 51.545131642349979],
        [0.081217620133209, 51.545104287841546],
        [0.0811784237481, 51.545098688330249],
        [0.080763040309791, 51.54500353989004],
        [0.080110316615337, 51.544795693283461],
        [0.079599349486083, 51.544628495224536],
        [0.078773708181365, 51.54442370657798],
        [0.078537347617634, 51.544364046472225],
        [0.078426475262563, 51.544336334943381],
        [0.078230547267002, 51.544277756381106],
        [0.07812042841815, 51.544203269018404],
        [0.078084786554963, 51.54414904476635],
        [0.078069311480314, 51.544125937808289],
        [0.077909378564092, 51.54403434723163],
        [0.07777016850446, 51.544207674925048],
        [0.07761328777088, 51.544404696504685],
        [0.077479430478197, 51.544568936296805],
        [0.077473952694726, 51.544575328217533],
        [0.077382805251885, 51.544537374375999],
        [0.077034273345511, 51.544389770352943],
        [0.07681282684835, 51.544594228925895],
        [0.076794829374968, 51.544610734464634],
        [0.076741477676319, 51.544579305169009],
        [0.076708423830067, 51.544550214331636],
        [0.076619841003655, 51.544473545768902],
        [0.076212114914834, 51.544292814825567],
        [0.075805618939435, 51.54413903889489],
        [0.075541821367888, 51.544015110657384],
        [0.074907796812644, 51.543900428803013],
        [0.074458658334777, 51.543855315210024],
        [0.074241560304216, 51.543838470934091],
        [0.073803204958477, 51.543808451799393],
        [0.07343746334652, 51.54382121192279],
        [0.07331048721087, 51.543819859123509],
        [0.073212373003524, 51.543818895370826],
        [0.073220458959108, 51.543774688113047],
        [0.073048483584227, 51.543766936141147],
        [0.072941559815519, 51.543762530756283],
        [0.072697613571471, 51.543757848605956],
        [0.072696067191497, 51.54381902645143],
        [0.072248972771802, 51.543818831910663],
        [0.071977687032946, 51.543815530490207],
        [0.07193873772702, 51.543815319172509],
        [0.071838428218557, 51.543639034949422],
        [0.071821229694666, 51.543609662719675],
        [0.071787649049933, 51.543568889279868],
        [0.071635334402328, 51.543612945795623],
        [0.07111439813647, 51.543765128700393],
        [0.071031306615673, 51.543777386969957],
        [0.070853594990537, 51.543802106850649],
        [0.070351441897795, 51.543923379491453],
        [0.069714519242854, 51.544062315488354],
        [0.069637435690343, 51.544079862392536],
        [0.069597371276774, 51.544086864144909],
        [0.069547300935359, 51.544095840954476],
        [0.069455765820372, 51.544112743422943],
        [0.069367072000333, 51.544128696425219],
        [0.069103913060136, 51.544177402750094],
        [0.069114787259623, 51.544258145414226],
        [0.068327194945008, 51.544414119644848],
        [0.068365392800223, 51.544524955839329],
        [0.068454881136989, 51.54474909514542],
        [0.068565342950061, 51.545117647285025],
        [0.068623894374228, 51.545645386523752],
        [0.068626266831824, 51.545856673513804],
        [0.068663404043432, 51.546039470029086],
        [0.068711278840552, 51.546331788303263],
        [0.06866729940529, 51.546697668091745],
        [0.068604674358375, 51.547224846214917],
        [0.068679719887595, 51.547353017941653],
        [0.068716858703692, 51.547535814380154],
        [0.068682017492967, 51.547817001447555],
        [0.068559816108761, 51.548239116008418],
        [0.068535038882987, 51.548392429018662],
        [0.068476766651538, 51.548761258436933],
        [0.068394519251746, 51.54923752378587],
        [0.068375113082583, 51.549350274833159],
        [0.068243053761992, 51.549968603808267],
        [0.068174214420573, 51.550295353526678],
        [0.06807651438496, 51.551130699988384],
        [0.067930014347922, 51.551876080122867],
        [0.067796230657504, 51.553060979117319],
        [0.066946394042866, 51.553024696811356],
        [0.066820008790661, 51.553768821521651],
        [0.066689593834011, 51.554328666586194],
        [0.066587920294151, 51.554727035798294],
        [0.066450092649903, 51.554868850474477],
        [0.066259094739066, 51.55501519853707],
        [0.06597061668619, 51.555238801630381],
        [0.065672949329181, 51.555546197890862],
        [0.065797840528434, 51.555660004623306],
        [0.065679919252997, 51.555763698481918],
        [0.065356072926568, 51.55603468475946],
        [0.064961906961128, 51.556409424591763],
        [0.064731772351103, 51.556328943683191],
        [0.06461770651649, 51.55645415105441],
        [0.06421798585101, 51.556802007965722],
        [0.06403328509433, 51.556928457533701],
        [0.06374500526402, 51.557125073366358],
        [0.063588770523839, 51.557306776170982],
        [0.062412942137595, 51.556954255693974],
        [0.061451527421956, 51.556685185303643],
        [0.061096902948172, 51.556595194179316],
        [0.060853740424155, 51.55654550972757],
        [0.060494713153717, 51.556517643704105],
        [0.060155704268277, 51.556421979876383],
        [0.060110186498619, 51.556436268208664],
        [0.060050863114346, 51.556464287977946],
        [0.059978099463346, 51.55651412616897],
        [0.059727546860972, 51.556683990789743],
        [0.059680850837896, 51.556736068935585],
        [0.059652893898752, 51.556787818080956],
        [0.059640590168788, 51.556834796070028],
        [0.059640833169634, 51.556904035513618],
        [0.05961334325407, 51.556934193993705],
        [0.059588046134741, 51.556949026399685],
        [0.059526914928401, 51.556968984211899],
        [0.059443390158541, 51.556972248983968],
        [0.059405627476088, 51.556966616986401],
        [0.059288319998945, 51.556924611944169],
        [0.059230254878586, 51.556916638446879],
        [0.059181244538513, 51.556917498681635],
        [0.059118549948572, 51.556934785913803],
        [0.059075162775699, 51.556964324013677],
        [0.059045560601536, 51.557011605538264],
        [0.059042453708929, 51.557038638132234],
        [0.059049396625616, 51.557064595075836],
        [0.059072682930692, 51.557101056404449],
        [0.059070327575123, 51.557112788238229],
        [0.059047039863229, 51.557140175022148],
        [0.059020666220968, 51.557163119616618],
        [0.058992526386659, 51.557178901051365],
        [0.058942804772403, 51.557195960506448],
        [0.058877064398617, 51.557209703983354],
        [0.058770394122611, 51.557211575919297],
        [0.0586609200725, 51.557279143578135],
        [0.058637732490877, 51.557340700734102],
        [0.058620088653149, 51.557365290589281],
        [0.058590912827954, 51.557390082791542],
        [0.058461459981276, 51.557462497163392],
        [0.058412630473627, 51.557499324648759],
        [0.058375454613342, 51.557538645457278],
        [0.058330013916926, 51.557618578347544],
        [0.058278131481534, 51.557843406487272],
        [0.058261279634882, 51.557853594090986],
        [0.058131135291617, 51.557910732646121],
        [0.058072420016891, 51.557888381677365],
        [0.057961688682163, 51.557864245317425],
        [0.057875035724829, 51.557862168221362],
        [0.057768931715359, 51.557876619063258],
        [0.057750475983815, 51.557883237650039],
        [0.057563865047401, 51.557999818410423],
        [0.057264881196333, 51.558023946228907],
        [0.057122937340021, 51.558107369346146],
        [0.056992277630157, 51.55824904689073],
        [0.057014226256741, 51.558543622103251],
        [0.057007158401581, 51.558578817492304],
        [0.056991319677286, 51.558611468855212],
        [0.05695446607021, 51.558657977689748],
        [0.056911562412053, 51.558698297704659],
        [0.056877816922669, 51.558717773970521],
        [0.056838061977257, 51.558731959972114],
        [0.056802347823037, 51.55873978024124],
        [0.056734230541877, 51.558732880993489],
        [0.056684083016524, 51.558708580593617],
        [0.05662967410164, 51.558653779751026],
        [0.056590977937097, 51.558627480033756],
        [0.05654667782597, 51.558604875609923],
        [0.056489566086464, 51.558586092814643],
        [0.056421165326558, 51.558572903477426],
        [0.056370589979672, 51.558571092151809],
        [0.05633771840365, 51.55857796318773],
        [0.056303729550311, 51.558592047943435],
        [0.056274430083173, 51.558614143913665],
        [0.056251788456477, 51.55865590708909],
        [0.056237003006233, 51.558711920860844],
        [0.05623669637522, 51.558737105746658],
        [0.056299916315311, 51.55879534941073],
        [0.056324805041233, 51.558835380254557],
        [0.056333958419526, 51.558878384697479],
        [0.056332129228378, 51.558901797733114],
        [0.056057466370006, 51.55911344319879],
        [0.055785058903574, 51.559279185802559],
        [0.055705443011953, 51.559337234743339],
        [0.055605320879415, 51.559388448775643],
        [0.055483048322988, 51.55942836031263],
        [0.055360046256834, 51.559452097675589],
        [0.055227746449908, 51.559461609496196],
        [0.054955121624306, 51.559526635922261],
        [0.054729055188541, 51.559568364617306],
        [0.054645606223985, 51.559573423145245],
        [0.054585627353572, 51.559587063280084],
        [0.054517566026699, 51.559613434673032],
        [0.054464365817597, 51.55964943773705],
        [0.05443274861267, 51.55968416357063],
        [0.054410307274169, 51.559730419201699],
        [0.05435068472052, 51.559815994406044],
        [0.054331450366034, 51.559869388007968],
        [0.054322023553022, 51.55991631500126],
        [0.054333078639918, 51.560001551873164],
        [0.054370122803485, 51.560087232935039],
        [0.05440635794153, 51.560315012469495],
        [0.054343729963769, 51.560397942481323],
        [0.054246446669201, 51.560448206343885],
        [0.054193407265729, 51.560487803528318],
        [0.054146498612705, 51.560535386758126],
        [0.054119691290933, 51.560580819496693],
        [0.054105817845792, 51.560625126514353],
        [0.054103841644921, 51.560677318642782],
        [0.054120258039254, 51.560753468980295],
        [0.054097564737703, 51.56085818135162],
        [0.053910130975784, 51.560892937152509],
        [0.053780442386746, 51.560928480358236],
        [0.05368391070335, 51.560963443031618],
        [0.053568208344112, 51.561021222868924],
        [0.053520610298103, 51.561053530354123],
        [0.053462167424935, 51.561101315180693],
        [0.05341113492947, 51.561153466618308],
        [0.053348868329508, 51.561244483152393],
        [0.05316761570283, 51.561480565496296],
        [0.053104927973561, 51.561530222955383],
        [0.053068295498403, 51.561549748612862],
        [0.05301015991179, 51.561572348336831],
        [0.05293456277099, 51.561591656503929],
        [0.0528066215538, 51.561601988547096],
        [0.052750762018673, 51.561611059305697],
        [0.052698028532548, 51.56162547094911],
        [0.052648461546111, 51.561646122041147],
        [0.052599299165019, 51.561675758707388],
        [0.052554866276307, 51.561714305285683],
        [0.052497999614206, 51.561797133467621],
        [0.052302451736113, 51.561876092710186],
        [0.052032423017021, 51.561967145535661],
        [0.051713229801519, 51.562087834054253],
        [0.051506362625996, 51.562203859848935],
        [0.051366012894637, 51.562323218604334],
        [0.050981058487336, 51.562906378880918],
        [0.050719444233211, 51.563216702660895],
        [0.050638993542486, 51.563320625246249],
        [0.050412420846191, 51.563832670871015],
        [0.050318454142948, 51.56398898689644],
        [0.04864586912897, 51.563500226240222],
        [0.048086378055096, 51.563314853359351],
        [0.047436780269277, 51.563114863503458],
        [0.046940149616446, 51.562979646412749],
        [0.046282667296681, 51.562764500243908],
        [0.0456146659594, 51.562572015484285],
        [0.044603314280674, 51.56225152024696],
        [0.043892955179106, 51.562047174181217],
        [0.043712529037524, 51.561981073695435],
        [0.042626600356242, 51.561669953994745],
        [0.042295352985764, 51.561554319608476],
        [0.041928589607953, 51.561450992881944],
        [0.042093423760494, 51.561136977904511],
        [0.042248488031155, 51.560669358205551],
        [0.042544650322557, 51.559809000290038],
        [0.042835309705473, 51.559083627240483],
        [0.043029119733794, 51.558450765825263],
        [0.042851068789673, 51.558372932250286],
        [0.04349416060996, 51.558075765923178],
        [0.044060561322937, 51.557773637329561],
        [0.044185592931478, 51.557698618249944],
        [0.044395896985229, 51.557562761520373],
        [0.044456676497364, 51.557406129201006],
        [0.04454824492326, 51.557099681968324],
        [0.044653932749135, 51.556882915275857],
        [0.044834415630177, 51.556661247787723],
        [0.045048323304942, 51.55641291861987],
        [0.045437675561887, 51.555991568826052],
        [0.045864770463571, 51.55554348074422],
        [0.046091801679318, 51.555298517775036],
        [0.04621758805012, 51.555111974104875],
        [0.0462824913639, 51.554983146087345],
        [0.046300854852496, 51.554813763493293],
        [0.046137379187127, 51.554835499389206],
        [0.045289708832242, 51.554879956285902],
        [0.043637766752797, 51.554971692751273],
        [0.041981090596497, 51.555054495624944],
        [0.041748602230994, 51.554984802061895],
        [0.041504912081565, 51.554954870712621],
        [0.041129019434304, 51.55496860528919],
        [0.040109689000842, 51.555013313325453],
        [0.039227654833116, 51.555063719493219],
        [0.038079634532233, 51.555134027585538],
        [0.037165682794575, 51.55518047634925],
        [0.036103781556348, 51.555241176228975],
        [0.035413327526381, 51.555253157189824],
        [0.035345579401688, 51.555254332555961],
        [0.035009197709606, 51.55521610384492],
        [0.034837542636164, 51.555184009856404],
        [0.03407584750394, 51.555021861699501],
        [0.033817745690974, 51.554959790697453],
        [0.033420944369367, 51.554860555508888],
        [0.0330127334631, 51.554764214500956],
        [0.032296696700418, 51.554590472450791],
        [0.032177778386737, 51.55457634561057],
        [0.03174943289819, 51.554545995398072],
        [0.030904515548878, 51.554458108507028],
        [0.029436386460194, 51.554336933809267],
        [0.029231822318177, 51.554375543631977],
        [0.028973405103275, 51.554403394020603],
        [0.028740213565746, 51.55441462084783],
        [0.028179100231273, 51.554382956370375],
        [0.027546758220804, 51.554339031254898],
        [0.026716505894325, 51.554256256398524],
        [0.025341814883602, 51.554062374392863],
        [0.025293156914198, 51.554720577064487],
        [0.025276547099746, 51.555548187449808],
        [0.024708768257465, 51.555561584595814],
        [0.023762411963071, 51.555528453411959],
        [0.023698691501206, 51.555620378288893],
        [0.023561945890251, 51.555887120755514],
        [0.023570487898455, 51.556502070325379],
        [0.023545965501657, 51.556599613846451],
        [0.023527459630371, 51.556637702137984],
        [0.023486448027014, 51.556688768294983],
        [0.02342421255679, 51.556749193127189],
        [0.023352689759162, 51.556795389866551],
        [0.023291941169426, 51.556824314729944],
        [0.023230793708431, 51.556844253796349],
        [0.023155151324752, 51.556862644260839],
        [0.023057607068478, 51.556875117497142],
        [0.022796147548207, 51.55680228900497],
        [0.022575137115636, 51.556698187629358],
        [0.022507644607295, 51.55660762619722],
        [0.022476459603235, 51.556164826484817],
        [0.022157564826631, 51.556195502827492],
        [0.021782690496441, 51.556232538589526],
        [0.021326287817616, 51.556285366057075],
        [0.020877512445655, 51.556249932474763],
        [0.020497650621267, 51.556207015524812],
        [0.02034163497295, 51.556267255215232],
        [0.020066658911079, 51.55647522381615],
        [0.01973735573624, 51.556792038696173],
        [0.019029763446143, 51.557427407834396],
        [0.018647516188098, 51.557721749777322],
        [0.018248491933072, 51.557995695975173],
        [0.018131896811614, 51.5580993184265],
        [0.018130495037484, 51.558100241802642],
        [0.018027559168895, 51.558186543178387],
        [0.017880531177178, 51.558287091775661],
        [0.017747550501096, 51.558411678708715],
        [0.017131244061951, 51.558796369986084],
        [0.016786247035836, 51.55898754919712],
        [0.016597129430013, 51.559082524804339],
        [0.016280334667406, 51.559226456056003],
        [0.016075487572395, 51.55929202544101],
        [0.015952782116008, 51.559322910340299],
        [0.015788389400244, 51.559357209149063],
        [0.015622316435098, 51.559386141013796],
        [0.015379759059588, 51.559414587977088],
        [0.015004256398731, 51.559438123693567],
        [0.014754661007995, 51.559437913820382],
        [0.014472775733049, 51.560339319206371],
        [0.014190247609302, 51.561324366181083],
        [0.014181704960704, 51.561784036013485],
        [0.014182062333449, 51.56179212324129],
        [0.014193345919409, 51.562243359315886],
        [0.014188502847801, 51.562982636180621],
        [0.014231147710647, 51.563425240425666],
        [0.014273472343811, 51.563762636441382],
        [0.014289600888161, 51.563899047416129],
        [0.014317131062767, 51.564391370487812],
        [0.014362511825725, 51.564699937574794],
        [0.014454435174675, 51.5652127373125],
        [0.014431223414713, 51.565601617057688],
        [0.015596829199627, 51.565595987329672],
        [0.016503706808657, 51.565612778187813],
        [0.017167170376052, 51.565606769239416],
        [0.0175091837538, 51.56564045632436],
        [0.017750510690051, 51.565681269554645],
        [0.017966840637344, 51.565744094516496],
        [0.018151849526419, 51.565816450451827],
        [0.018337654914787, 51.565906777646887],
        [0.01848036610575, 51.566001442973537],
        [0.018481807910096, 51.566001418169662],
        [0.018685902562529, 51.566146285195266],
        [0.018752805127916, 51.566223369951601],
        [0.018820026369649, 51.56630764328721],
        [0.018821627407238, 51.566311212789493],
        [0.018858380500969, 51.566359140577937],
        [0.018893731663826, 51.566407991740277],
        [0.018927680893566, 51.566457766277829],
        [0.018957304738937, 51.566507615234116],
        [0.01898264299548, 51.566558437190047],
        [0.019002253827508, 51.566610256958995],
        [0.019010816487696, 51.56664068453977],
        [0.019022174540001, 51.566701638941773],
        [0.019026363295918, 51.566763615973564],
        [0.019026186765064, 51.566824768859654],
        [0.019018801076817, 51.566886045799293],
        [0.019008491892846, 51.566946473782039],
        [0.019006085951469, 51.56695730633222],
        [0.018988567556928, 51.567017858366022],
        [0.018966683794146, 51.567077586250399],
        [0.018940434646982, 51.56713648998312],
        [0.018908378258056, 51.567194594370974],
        [0.018563280439525, 51.567840806674852],
        [0.018561957986163, 51.567843527212894],
        [0.018417844007553, 51.56830373090353],
        [0.018149647826706, 51.568894663142146],
        [0.017906444337968, 51.569463582562598],
        [0.017687855987992, 51.569936756352604],
        [0.017667649880258, 51.570001850670806],
        [0.017710093009425, 51.570047882434956],
        [0.017795157599787, 51.570078793043663],
        [0.017972267361627, 51.570102725023382],
        [0.018155304236007, 51.570130151838214],
        [0.018247667686947, 51.570130361675169],
        [0.018344764024944, 51.570107109215741],
        [0.018436101526896, 51.570051582310576],
        [0.018617970847804, 51.569954930334042],
        [0.018836086602305, 51.5698621507347],
        [0.019077781289394, 51.569813028822644],
        [0.019129642237863, 51.569843610565634],
        [0.019064308785472, 51.570323142231118],
        [0.019025190885257, 51.570873264412917],
        [0.018945531209759, 51.571746019852078],
        [0.0188986523197, 51.572251312309731],
        [0.018882724572029, 51.57234780736534],
        [0.018760967875721, 51.572303140625166],
        [0.018759525872276, 51.572303165434612],
        [0.018015336137593, 51.572020109660414],
        [0.017892481040095, 51.572178694044091],
        [0.017782851330983, 51.572310073013043],
        [0.017625147684198, 51.57246386079764],
        [0.017472096965821, 51.572592389036451],
        [0.017311128909955, 51.57267249306701],
        [0.017060635756575, 51.572751438083415],
        [0.016672781484269, 51.57285702351556],
        [0.01645923242886, 51.572890369203215],
        [0.016343184035828, 51.572909449417409],
        [0.016465047437128, 51.57311958090672],
        [0.016832852908519, 51.573604256215503],
        [0.017195932483417, 51.574112392421831],
        [0.017317504287586, 51.574250587145634],
        [0.017382348950073, 51.574411339326659],
        [0.017390465975919, 51.574594649062661],
        [0.01735623684831, 51.574929762715605],
        [0.017350890165677, 51.57539567190581],
        [0.017320580144563, 51.575884491762025],
        [0.017379762771845, 51.576503964365145],
        [0.017413250716093, 51.577455705909117],
        [0.017361532971148, 51.577591484183635],
        [0.016615353852943, 51.579188807423215],
        [0.016374143195132, 51.579315251939143],
        [0.015977028019881, 51.580126013839696],
        [0.015232890268523, 51.581706206090914],
        [0.015332597070315, 51.581741363401811],
        [0.015429379650918, 51.581775671592531],
        [0.015669934191122, 51.58186236506392],
        [0.01553063395249, 51.581976265997312],
        [0.015473317334393, 51.582050989766493],
        [0.015379035060276, 51.582203684736747],
        [0.015246799022402, 51.582509905607289],
        [0.015403683932958, 51.582532390528776],
        [0.015386230925432, 51.582725131892452],
        [0.01541379761103, 51.582956667484915],
        [0.015501957922924, 51.583383200991555],
        [0.014865957781381, 51.583395921388629],
        [0.014100144874526, 51.583410866448915],
        [0.013369010897066, 51.583785814570639],
        [0.013325298367088, 51.584103103871328],
        [0.013273437506917, 51.584562615911331],
        [0.013137607386359, 51.585408451375876],
        [0.013032720389243, 51.586007358753264],
        [0.01291899783599, 51.586961624829186],
        [0.012832276007609, 51.587612377275988],
        [0.01268073708938, 51.588625743274562],
        [0.012621929712574, 51.588993649392719],
        [0.012575442030459, 51.589313683470287],
        [0.012513458363953, 51.589805741637534],
        [0.012492118058692, 51.590368144167833],
        [0.012390903223867, 51.590756560961999],
        [0.012390786172392, 51.590949903522812],
        [0.012452570391461, 51.59126987927462],
        [0.012275660289807, 51.59144826822569],
        [0.012280266971086, 51.591552503197072],
        [0.012248133021808, 51.59164208075687],
        [0.012264613838029, 51.592014990336736],
        [0.012191159363714, 51.592116966728994],
        [0.012198716954049, 51.592157303764978],
        [0.012090042592865, 51.592148375952604],
        [0.01208505557039, 51.592688915597023],
        [0.012134465072982, 51.592990219177985],
        [0.01217470369781, 51.593378008740466],
        [0.012188098669175, 51.593452417489317],
        [0.012303969979577, 51.594114083119003],
        [0.012342527977299, 51.594300467620634],
        [0.012347319858709, 51.594343549834157],
        [0.012352985554212, 51.594406400737846],
        [0.012376427596922, 51.594512111205795],
        [0.012412232796475, 51.594668867370324],
        [0.012428250137837, 51.594802582133994],
        [0.012536675230873, 51.595360960481536],
        [0.012611880044217, 51.59591900914171],
        [0.012597223165061, 51.596403960390624],
        [0.01268487226723, 51.596916832647082],
        [0.012791498021782, 51.597695559585482],
        [0.01285691875193, 51.598391362123643],
        [0.012905000124279, 51.599054189433694],
        [0.012991192055837, 51.599207383379344],
        [0.013230601102308, 51.599592655264537],
        [0.013401189273692, 51.599890980106011],
        [0.01377027176618, 51.600367549012759],
        [0.014143656489158, 51.600941162723899],
        [0.014817172585362, 51.60177040786801],
        [0.01573915775892, 51.603057600259348],
        [0.017046213761914, 51.604853442749707],
        [0.017186730444259, 51.605058756190523],
        [0.017401392516994, 51.605307757889307],
        [0.017432285056854, 51.605353088997589],
        [0.017456290075554, 51.605373359289956],
        [0.017988575740784, 51.605815635682561],
        [0.017983144854862, 51.605888568880438],
        [0.018058924352749, 51.605969098339294],
        [0.018129785678907, 51.606003850206321],
        [0.017987311456959, 51.606047665739759],
        [0.018274197469222, 51.606524734605415],
        [0.01870680257367, 51.607161162835112],
        [0.019104832581862, 51.607766710283435],
        [0.019118817492777, 51.607788951127667],
        [0.019446397560787, 51.60765292309739],
        [0.019552797288204, 51.6076097265491],
        [0.019428204911486, 51.607796217974276],
        [0.019307638906913, 51.60807346493457],
        [0.019242061296818, 51.608222970530903]
      ]
    ]
  }
}
