{
  "type": "Feature",
  "properties": {
    "name": "Richmond upon Thames",
    "level": 2,
    "londonBorough": true,
    "center": [-0.292, 51.432]
  },
  "geometry": {
    "type": "Polygon",
    "coordinates": [
      [
        [-0.351639456776062, 51.40804065758433],
        [-0.351981264096821, 51.40821182436931],
        [-0.352641375294115, 51.40856821241407],
        [-0.352980897297818, 51.40872315774096],
        [-0.353809883403876, 51.409142161416504],
        [-0.354143890865666, 51.40929073116345],
        [-0.35443567392436, 51.40945399421566],
        [-0.355130443683082, 51.40980725762631],
        [-0.355165438031352, 51.409833826774886],
        [-0.355207926750501, 51.40989197456343],
        [-0.355255283569283, 51.41009496863347],
        [-0.35526081068218, 51.410181373439954],
        [-0.355256245154741, 51.41026853585272],
        [-0.355231010479239, 51.41037069531737],
        [-0.355239853426726, 51.410565055700665],
        [-0.355268795218612, 51.41064009894272],
        [-0.355305858440194, 51.41068917812591],
        [-0.355378368398729, 51.41075224333359],
        [-0.355645179471311, 51.41085040742651],
        [-0.356558786961869, 51.4111168080461],
        [-0.357116124153367, 51.411293679289734],
        [-0.357338903178225, 51.41137683438861],
        [-0.357667426885517, 51.411478556470804],
        [-0.357819923561322, 51.41151666293351],
        [-0.358327150684022, 51.411607398280886],
        [-0.35839255576162, 51.41162809771218],
        [-0.358494267072281, 51.41167898057653],
        [-0.358802159126167, 51.4117947983504],
        [-0.359065090281318, 51.41188121009991],
        [-0.359160646267932, 51.411903230470855],
        [-0.35967333997561, 51.41200212965275],
        [-0.359794895839168, 51.412020916417255],
        [-0.360011375277909, 51.41203923284415],
        [-0.360375130695807, 51.41204072521987],
        [-0.360711256753828, 51.412050822438935],
        [-0.361259495930958, 51.41204050437856],
        [-0.361658838087337, 51.412011916135484],
        [-0.362441101020744, 51.41197159171674],
        [-0.363123621243013, 51.41190558959778],
        [-0.364419204815912, 51.41166469528748],
        [-0.364761153860722, 51.41159213198873],
        [-0.365136863819401, 51.4115002553304],
        [-0.365813670913742, 51.41131186113617],
        [-0.366045616049702, 51.41125934203023],
        [-0.366195093445386, 51.411220959994296],
        [-0.366501810244266, 51.41112811720015],
        [-0.366644581094384, 51.41107615250969],
        [-0.366765665025077, 51.41102748240231],
        [-0.36733154284724, 51.410763795880996],
        [-0.367607019546968, 51.41065972413522],
        [-0.367847873731233, 51.410558766564215],
        [-0.368326861932007, 51.41039278170893],
        [-0.369047811489906, 51.41017530853759],
        [-0.369135131243951, 51.41014594943722],
        [-0.369328709887648, 51.41008030062465],
        [-0.370266126978351, 51.40971925535335],
        [-0.372639417191996, 51.408766665171726],
        [-0.372863612183956, 51.408688846300485],
        [-0.373171608375913, 51.408599600882944],
        [-0.373541467089115, 51.40854988051819],
        [-0.374218361652457, 51.40843787472333],
        [-0.374902728828462, 51.408358341301486],
        [-0.375580198498088, 51.408311080944664],
        [-0.376147615408465, 51.40828567216103],
        [-0.376390235132011, 51.40825576158986],
        [-0.376449540403273, 51.40824579226155],
        [-0.377085727595449, 51.408064863776815],
        [-0.377422778160142, 51.40800748296447],
        [-0.377724280984806, 51.40793881826154],
        [-0.377892039247628, 51.407911465305595],
        [-0.378118592960794, 51.40788852272779],
        [-0.379449087214148, 51.40783408879895],
        [-0.379617042210908, 51.40784180646036],
        [-0.380229050685249, 51.407897026803774],
        [-0.381205597042548, 51.40801213319363],
        [-0.381379881912956, 51.40804421522665],
        [-0.381657619446853, 51.40811909057836],
        [-0.382408074970118, 51.40828501913918],
        [-0.383022322501185, 51.408440071338276],
        [-0.383371131051705, 51.408538404101535],
        [-0.383445668986961, 51.40948273443761],
        [-0.383832000847233, 51.40953662134734],
        [-0.383798530562012, 51.41011886688684],
        [-0.384330312425696, 51.41016666459753],
        [-0.385101477970238, 51.410235743297406],
        [-0.38626116605693, 51.41037850917916],
        [-0.386501860818178, 51.41040340472637],
        [-0.386656859949832, 51.41041183311736],
        [-0.386849891342218, 51.410401900755495],
        [-0.387075237461822, 51.41037262953179],
        [-0.3873579142435, 51.41034864291768],
        [-0.387876453860268, 51.41032340394404],
        [-0.389198023262395, 51.41031999285897],
        [-0.389316856842384, 51.41070290321114],
        [-0.389670922882131, 51.41069338064402],
        [-0.389792577474123, 51.411405450531895],
        [-0.389929384091996, 51.412218443042185],
        [-0.390059809733137, 51.412803840331186],
        [-0.390167495704512, 51.41346356184623],
        [-0.390313666493982, 51.414337830382856],
        [-0.389737746239201, 51.41435779584228],
        [-0.389027093398213, 51.41436511583833],
        [-0.388543605463818, 51.41437375651098],
        [-0.387586676276909, 51.41435070436083],
        [-0.386143910701019, 51.414280490046465],
        [-0.386180110752625, 51.41431426031283],
        [-0.38623001975432, 51.41436710332804],
        [-0.386301370658273, 51.41454613491243],
        [-0.38635266739798, 51.41464126118236],
        [-0.38661538298427, 51.415021658680324],
        [-0.386601180964064, 51.41505743271857],
        [-0.386456023143953, 51.4153000273073],
        [-0.386440555099617, 51.41537175342815],
        [-0.386459674269146, 51.41552308866227],
        [-0.38650775807393, 51.41575035863152],
        [-0.38651406757396, 51.415897920554364],
        [-0.386570834145562, 51.41649129992776],
        [-0.386531973963687, 51.416533029186574],
        [-0.38659432022378, 51.41680455807391],
        [-0.386741281728002, 51.41745043533982],
        [-0.386774668617194, 51.41756419884771],
        [-0.386783004131055, 51.41765423736648],
        [-0.386896297270738, 51.41790848246505],
        [-0.386897734733866, 51.417908502248075],
        [-0.38700974577589, 51.41824006402836],
        [-0.387246383348129, 51.41879005682182],
        [-0.38741215920281, 51.419024340998874],
        [-0.387416313547032, 51.419028894342325],
        [-0.38771500296646, 51.41932795323763],
        [-0.387047156558447, 51.41975129819491],
        [-0.386692798020625, 51.42005306136716],
        [-0.38666306638384, 51.420080528503576],
        [-0.389716224282333, 51.42155949403641],
        [-0.39089610101602, 51.42211883632092],
        [-0.391087209958596, 51.42220598794428],
        [-0.391281289513567, 51.42229048231093],
        [-0.391363471381939, 51.42232578118932],
        [-0.391412322040397, 51.42240918138302],
        [-0.391567496842765, 51.42257766960912],
        [-0.391771695908137, 51.42278369896252],
        [-0.39202570428324, 51.42292296849504],
        [-0.392093480065685, 51.4229589684608],
        [-0.392375833002135, 51.42311031611],
        [-0.392906268162566, 51.423283049405136],
        [-0.3927703542044, 51.42346732783045],
        [-0.39234318020304, 51.42338503466328],
        [-0.39189913470334, 51.423291717628935],
        [-0.391129853231719, 51.42316246196578],
        [-0.390749791732324, 51.42296750576767],
        [-0.390435249139072, 51.42283189841354],
        [-0.39011364666608, 51.42269259629179],
        [-0.389271457788253, 51.42234651009125],
        [-0.388203630226353, 51.42187322051828],
        [-0.387029824140336, 51.42138767190283],
        [-0.386361609221826, 51.421085323323204],
        [-0.385732653959603, 51.42085275286068],
        [-0.38551772432724, 51.42074817878877],
        [-0.385392910751654, 51.42073926564948],
        [-0.385328942292305, 51.42079953262582],
        [-0.38526772207487, 51.42086343437789],
        [-0.385165957557415, 51.421016701291286],
        [-0.38511320379697, 51.42108521579207],
        [-0.384929730650398, 51.42127152777431],
        [-0.384877875201076, 51.421355341586214],
        [-0.384856513582663, 51.421390117501566],
        [-0.384613054943776, 51.42172757355525],
        [-0.384398163219107, 51.42198898766314],
        [-0.384218701806908, 51.42226527758519],
        [-0.384101594164357, 51.422527139807336],
        [-0.384112304283202, 51.42267206468889],
        [-0.384229386736517, 51.42277799023844],
        [-0.384684743193704, 51.423284242274484],
        [-0.38492476383735, 51.42361577129922],
        [-0.385207759057945, 51.42395238801795],
        [-0.385563331432206, 51.42435205101119],
        [-0.385858559187109, 51.4247499826682],
        [-0.386294763757227, 51.425392648373546],
        [-0.386483492530497, 51.42571087853312],
        [-0.38670213599858, 51.42595578267285],
        [-0.387347949069749, 51.426773982328235],
        [-0.387648009539295, 51.42719895274898],
        [-0.387746941122608, 51.42733070279924],
        [-0.388124585334911, 51.427758537467355],
        [-0.388382256989831, 51.42799857954636],
        [-0.388381765860798, 51.4280534262077],
        [-0.388216990132727, 51.42803497439377],
        [-0.388088716315365, 51.42787854190186],
        [-0.387147462416431, 51.428178529043116],
        [-0.387445037699352, 51.428510844319],
        [-0.387985534385136, 51.42864417154373],
        [-0.387910512836608, 51.42873216421349],
        [-0.387314570267809, 51.42931566439098],
        [-0.387123046622572, 51.429484783441616],
        [-0.386821183521335, 51.42972342342457],
        [-0.386022464258726, 51.43026366070976],
        [-0.385665001350809, 51.43052850928434],
        [-0.384910753410207, 51.43103068433254],
        [-0.384459002793728, 51.43135807590111],
        [-0.384104767596489, 51.43157170777739],
        [-0.383708682126985, 51.431829723372886],
        [-0.383314072079156, 51.432127324382506],
        [-0.382936469910363, 51.43235052208882],
        [-0.382771288094923, 51.43242467842387],
        [-0.382544792704498, 51.43252406639041],
        [-0.38153076023792, 51.433047813694664],
        [-0.379385030757602, 51.434084663202086],
        [-0.378886616311026, 51.434387108970164],
        [-0.378203083033831, 51.4347166664988],
        [-0.377865432979982, 51.43486666334406],
        [-0.377454665972647, 51.43500935256864],
        [-0.376981775867593, 51.435159273401275],
        [-0.376511280761231, 51.435322714052404],
        [-0.37628185367708, 51.43546341428037],
        [-0.376212928887897, 51.43550022750442],
        [-0.376138156342547, 51.43553965739259],
        [-0.377933723402717, 51.43630998323608],
        [-0.377891830238656, 51.4368021849434],
        [-0.374879370960317, 51.438131797444434],
        [-0.370401807981224, 51.44007313922956],
        [-0.366850817202779, 51.441643248903816],
        [-0.367100129103871, 51.44171326528299],
        [-0.367451998594821, 51.441812585695196],
        [-0.367773955745626, 51.441903395447945],
        [-0.368297128455786, 51.442081533319524],
        [-0.368976814527545, 51.442269040349316],
        [-0.369218048100654, 51.44232365277526],
        [-0.369420770451906, 51.44236873669711],
        [-0.369682520246498, 51.44249377393147],
        [-0.369712210851516, 51.44250857460218],
        [-0.370590569597199, 51.442936233136145],
        [-0.370622465533463, 51.44296994817808],
        [-0.370769770393631, 51.443076306778735],
        [-0.370878660042694, 51.44312997568284],
        [-0.370993398868504, 51.44318102805325],
        [-0.371242661677641, 51.44325283331623],
        [-0.371504614170788, 51.4432915425936],
        [-0.371971757518992, 51.44334658949004],
        [-0.372119130385914, 51.44337021762557],
        [-0.372367469393409, 51.44346808548633],
        [-0.372615074653007, 51.44358662504792],
        [-0.372893746371005, 51.44364085029416],
        [-0.373168422292639, 51.44364556146907],
        [-0.373345071744804, 51.44361474094598],
        [-0.373415513292819, 51.443576151956435],
        [-0.37348183153718, 51.443532110304474],
        [-0.373524561419209, 51.44346346199845],
        [-0.37356169780547, 51.44339023989796],
        [-0.373607684166451, 51.443229914711054],
        [-0.373670260156933, 51.44312916919482],
        [-0.373953142324421, 51.44302428564731],
        [-0.374553748765315, 51.442967869652],
        [-0.374716461440863, 51.44296473014219],
        [-0.374880484726541, 51.442965205516494],
        [-0.375560524197318, 51.44306275548536],
        [-0.375698436251994, 51.4430691625494],
        [-0.375961571336957, 51.44307460652655],
        [-0.376092579183879, 51.44307282436378],
        [-0.376412184481031, 51.44302779311988],
        [-0.376590359219622, 51.44295382555256],
        [-0.376708764666308, 51.44286104542079],
        [-0.376905358536864, 51.44259219835262],
        [-0.377146808243926, 51.44247864038172],
        [-0.377377302091747, 51.44243057445681],
        [-0.377627070692283, 51.44240705417599],
        [-0.3779158356201, 51.44242004235016],
        [-0.378244271749386, 51.442491129668596],
        [-0.378512563673938, 51.44259465590643],
        [-0.379090732836292, 51.44280587843549],
        [-0.37931735784252, 51.442948393042144],
        [-0.379517554976784, 51.44310582889532],
        [-0.379629758734872, 51.44322877651884],
        [-0.379628817977514, 51.4433366717137],
        [-0.379463883821793, 51.44344319936509],
        [-0.379391608765877, 51.44357438782091],
        [-0.37942495652932, 51.44364858607078],
        [-0.37948467043342, 51.443709660244096],
        [-0.379551575844257, 51.443770833788825],
        [-0.379722107467323, 51.44387210663891],
        [-0.379812598369458, 51.443917419770685],
        [-0.37980585510528, 51.44410796436857],
        [-0.379631563930273, 51.44427551090932],
        [-0.379753411562847, 51.44432935058769],
        [-0.379790177764393, 51.444388308971774],
        [-0.380570253218469, 51.444628392004475],
        [-0.381487475993823, 51.44481550997035],
        [-0.381839392668173, 51.444874321948454],
        [-0.382870760438907, 51.445048616720385],
        [-0.383253423074116, 51.44521485741954],
        [-0.383940917701327, 51.44563258866021],
        [-0.384167402453696, 51.44573912237616],
        [-0.384495767577488, 51.445894718996364],
        [-0.385751165143875, 51.44649111811821],
        [-0.385996547247956, 51.446592513035505],
        [-0.38626649030535, 51.44673201332829],
        [-0.386293166533934, 51.44679172994648],
        [-0.386313994295243, 51.44685406375973],
        [-0.386322484924688, 51.44702143811337],
        [-0.386408635530531, 51.44714941583099],
        [-0.386452490459009, 51.44725253206215],
        [-0.386444709321392, 51.44730997592962],
        [-0.386382712968266, 51.447558210396416],
        [-0.386363411739343, 51.44777915623009],
        [-0.38634601777217, 51.447864344022655],
        [-0.38629097774951, 51.4480785032926],
        [-0.386300267074692, 51.44814157750765],
        [-0.386318281960844, 51.44820207411948],
        [-0.386361066799464, 51.44825391931932],
        [-0.386411043819291, 51.44830586349046],
        [-0.38658954108525, 51.448427018883585],
        [-0.386773412879518, 51.4485590387543],
        [-0.386965092820113, 51.44871454582733],
        [-0.387433903561037, 51.44913284389898],
        [-0.38758905701092, 51.449304033709105],
        [-0.387693254464479, 51.449369312262355],
        [-0.387797483872463, 51.4494336919269],
        [-0.384567562634061, 51.44989550041079],
        [-0.383786763878224, 51.44950975891834],
        [-0.383739622589539, 51.44954058222227],
        [-0.383448184537236, 51.44976496948724],
        [-0.382852521831103, 51.450249534839],
        [-0.382133439914557, 51.45080523206241],
        [-0.380650000714513, 51.45197443824072],
        [-0.379729597340925, 51.45272696989082],
        [-0.378848890642769, 51.453414399220776],
        [-0.377769391435392, 51.454227662006616],
        [-0.377519130919403, 51.454425627385696],
        [-0.377268836360764, 51.454624490997475],
        [-0.376750598674408, 51.455073228604334],
        [-0.376478111936907, 51.455288868729106],
        [-0.376198493225757, 51.45550261098406],
        [-0.375932489520189, 51.4556976572661],
        [-0.375301471555468, 51.45620057873513],
        [-0.375275485337777, 51.45628384735901],
        [-0.374759149721811, 51.45655635281363],
        [-0.374201693077153, 51.45681120037762],
        [-0.373414654010793, 51.457288568139184],
        [-0.373045361471367, 51.457473182604595],
        [-0.372861524941558, 51.45721884607143],
        [-0.372714585097373, 51.45701987458669],
        [-0.372693931788835, 51.45699351015673],
        [-0.37258906879208, 51.45710895506568],
        [-0.372463264458689, 51.457246590033556],
        [-0.371974366670893, 51.457192143102766],
        [-0.370708966369916, 51.45707564989049],
        [-0.36982952035822, 51.45699418456053],
        [-0.369591500363077, 51.456968394091334],
        [-0.368480912747982, 51.45687021566444],
        [-0.368460835410532, 51.45686813781223],
        [-0.36845271272386, 51.45689410257148],
        [-0.368436499367806, 51.4569451332995],
        [-0.368131958948921, 51.457170199731294],
        [-0.367828946454006, 51.457433054482806],
        [-0.367585867726784, 51.45746833744896],
        [-0.367361047043847, 51.45747599789385],
        [-0.366971408863706, 51.45754430882176],
        [-0.365063593721202, 51.45780277833121],
        [-0.364480619698856, 51.457682243376034],
        [-0.364441981530407, 51.457595377885134],
        [-0.364209580810079, 51.45761371736393],
        [-0.362867456530786, 51.457670520504536],
        [-0.362424233460344, 51.4577074941517],
        [-0.36203313853469, 51.45781623391876],
        [-0.36144063653876, 51.45800218973168],
        [-0.359817809931751, 51.4582195947691],
        [-0.358606134848598, 51.45829076329872],
        [-0.357908786300629, 51.4583493406077],
        [-0.357533591986191, 51.45837555849939],
        [-0.357157087631763, 51.45839815989565],
        [-0.356795583319007, 51.458403884841516],
        [-0.356431330648339, 51.45840597320568],
        [-0.355163614081574, 51.45835402459287],
        [-0.354900588590443, 51.45834314048422],
        [-0.353461169886798, 51.45818265436404],
        [-0.353180289606771, 51.45782800767327],
        [-0.353015281051115, 51.45761347028506],
        [-0.352841997832048, 51.45738892480909],
        [-0.35284071588054, 51.456944684374115],
        [-0.352839376289889, 51.456861935868616],
        [-0.352671279342404, 51.45685327953684],
        [-0.352655486421229, 51.456852158405724],
        [-0.352414017836244, 51.456842470782476],
        [-0.351653729255705, 51.45677063637053],
        [-0.350872278968405, 51.456766841293636],
        [-0.350574152931063, 51.45677163995112],
        [-0.350140631035418, 51.456779028838795],
        [-0.349235034995546, 51.456785165887005],
        [-0.348704624772132, 51.45676510742891],
        [-0.347997379836025, 51.45681899015311],
        [-0.347738237631418, 51.4568603003295],
        [-0.347720811469934, 51.45686455093395],
        [-0.347562764404349, 51.45689649452795],
        [-0.347380497562592, 51.45696136826672],
        [-0.34703148531662, 51.45705986045773],
        [-0.346654519913169, 51.457175042925435],
        [-0.346641409536427, 51.45717935422949],
        [-0.346570158154889, 51.457159465481965],
        [-0.346410011453274, 51.45716979624767],
        [-0.346202203192981, 51.457224416335485],
        [-0.346040886693105, 51.45726710260637],
        [-0.345728592455747, 51.45738499286951],
        [-0.345596772232662, 51.45744787790523],
        [-0.345546837992331, 51.45771424649219],
        [-0.345293826735113, 51.45786444540593],
        [-0.345054330337247, 51.457919515489934],
        [-0.344842786202603, 51.457957894199325],
        [-0.344630128176081, 51.457987264437776],
        [-0.344325743535744, 51.457965881021956],
        [-0.34406786018529, 51.45797213067981],
        [-0.343878090569724, 51.458005419765364],
        [-0.343668836878283, 51.45806001497156],
        [-0.343521732303814, 51.45806782834326],
        [-0.342963714794309, 51.458054547815465],
        [-0.342679680299082, 51.458107185127716],
        [-0.342370898273947, 51.45840586269832],
        [-0.342148716220736, 51.458618538058786],
        [-0.341993651728092, 51.45876651787259],
        [-0.34185918426716, 51.458902199462294],
        [-0.34172386359379, 51.45902168257392],
        [-0.341557303009349, 51.45904990076045],
        [-0.34107017754614, 51.4591455224038],
        [-0.340575823853632, 51.45924193896553],
        [-0.340427602293817, 51.45924074029863],
        [-0.340134004060896, 51.45923928191397],
        [-0.340205173783575, 51.45910270622974],
        [-0.340364250574642, 51.45880461302091],
        [-0.340520969378767, 51.45849209843077],
        [-0.340651887274918, 51.45817652076737],
        [-0.340724743816478, 51.45795364190302],
        [-0.340732672816831, 51.45781437241078],
        [-0.340738939632126, 51.457720940470026],
        [-0.340677895959196, 51.45745929787963],
        [-0.340630494566429, 51.45725809719508],
        [-0.340481083629708, 51.457091422134965],
        [-0.339890989810848, 51.45661366657833],
        [-0.339402797154832, 51.45622367804818],
        [-0.33897301217042, 51.45589026761972],
        [-0.33858149308805, 51.45608884707334],
        [-0.338555108320781, 51.45610196174181],
        [-0.337736987229271, 51.45548338020111],
        [-0.337950845502638, 51.4554207677276],
        [-0.337669443558358, 51.454965361002294],
        [-0.337561641180909, 51.45484243540838],
        [-0.337421145664698, 51.454747821707144],
        [-0.337266462593179, 51.45468717765534],
        [-0.336983517672423, 51.45463100881359],
        [-0.336635303554769, 51.455301396547945],
        [-0.336532678294419, 51.455511261358936],
        [-0.336293121447266, 51.4556868105246],
        [-0.336033484183506, 51.45566244347657],
        [-0.334707216417165, 51.45556088319482],
        [-0.334278021479449, 51.455528708349576],
        [-0.33370951156683, 51.455488257369076],
        [-0.333701861728345, 51.45546117151187],
        [-0.33363203175078, 51.45524436195522],
        [-0.333494612237637, 51.45526309121249],
        [-0.333252566037944, 51.45530910857924],
        [-0.333030199478864, 51.45540756105626],
        [-0.332940543766684, 51.45549800856197],
        [-0.332858506393839, 51.45557687423578],
        [-0.332646631402475, 51.455703351551946],
        [-0.332561748673948, 51.45578127731743],
        [-0.332470947437348, 51.45586361503416],
        [-0.332344086938406, 51.45638246940186],
        [-0.332155743637374, 51.456574025674165],
        [-0.331837593174038, 51.45677272719114],
        [-0.33141569914779, 51.45729008013171],
        [-0.331083772969708, 51.45751106451685],
        [-0.330692464524245, 51.45774199337095],
        [-0.330367799135821, 51.457882147718045],
        [-0.329529817765899, 51.45800689562311],
        [-0.329055211817463, 51.458035202934724],
        [-0.328704797301656, 51.45801312289556],
        [-0.328411936313742, 51.457952295897464],
        [-0.328215309399344, 51.457857770105505],
        [-0.327635051342501, 51.457350417663875],
        [-0.327268617341767, 51.45697920034653],
        [-0.327117420906476, 51.45702020656154],
        [-0.327047650041899, 51.45699942778415],
        [-0.326910774111442, 51.45704243654772],
        [-0.326636860020024, 51.45729031418201],
        [-0.326528189612859, 51.45738857859766],
        [-0.326345170359336, 51.457630558984754],
        [-0.326168602179973, 51.45781418069611],
        [-0.325975030947878, 51.45783299876754],
        [-0.325739499549801, 51.45789707849116],
        [-0.325621149674661, 51.45798441299093],
        [-0.325570244425287, 51.45811677327364],
        [-0.325602355090267, 51.45826200922029],
        [-0.325729690936991, 51.45836184462015],
        [-0.32591261837532, 51.458437294981586],
        [-0.325922204429548, 51.45856872063506],
        [-0.326056291054841, 51.458602108431094],
        [-0.326064857477669, 51.45860402921172],
        [-0.32607342390123, 51.45860594999174],
        [-0.326081990325523, 51.45860787077113],
        [-0.326089085173623, 51.458610669778494],
        [-0.326097618720116, 51.45861348932552],
        [-0.326104713570058, 51.45861628833198],
        [-0.326111808420874, 51.45861908733799],
        [-0.326117431695782, 51.45862276457254],
        [-0.326124493669538, 51.458626462346594],
        [-0.326130116946371, 51.458630139580556],
        [-0.326134334404591, 51.45863289750586],
        [-0.326139957683005, 51.45863657473935],
        [-0.326144109385445, 51.458641130201876],
        [-0.326148293967112, 51.45864478689549],
        [-0.326152478549445, 51.458648443588935],
        [-0.326156663132442, 51.45865210028224],
        [-0.326159376139011, 51.458656635204875],
        [-0.326162089146109, 51.45866117012746],
        [-0.326164802153735, 51.45866570504998],
        [-0.326166109340622, 51.45866932066438],
        [-0.326168822349114, 51.45867385558682],
        [-0.32616865795891, 51.45867834943079],
        [-0.32616989939039, 51.45868376258276],
        [-0.326169735000234, 51.45868825642672],
        [-0.326169570610035, 51.458692750270686],
        [-0.326167967519589, 51.458697223575435],
        [-0.32616636442882, 51.458701696880134],
        [-0.326164761337727, 51.458706170184804],
        [-0.326163158246312, 51.45871064348946],
        [-0.326161653789249, 51.45871242048773],
        [-0.3261615880328, 51.45871421802531],
        [-0.326158546239903, 51.45871867079056],
        [-0.326155537324762, 51.45872222478695],
        [-0.326151056829612, 51.45872665701258],
        [-0.326146609212127, 51.45873019046929],
        [-0.326143600295287, 51.45873374446535],
        [-0.326137746853812, 51.458736358613365],
        [-0.326133299234351, 51.45873989206954],
        [-0.326127445791505, 51.458742506217014],
        [-0.326120186525394, 51.45874420105562],
        [-0.326112960137972, 51.45874499712502],
        [-0.326105733750309, 51.45874579319397],
        [-0.3260984744829, 51.458747488031214],
        [-0.32608405458587, 51.45874818139812],
        [-0.326076828197241, 51.458748977465284],
        [-0.326069601808371, 51.45874977353199],
        [-0.326063781240872, 51.45875148890752],
        [-0.326056521971061, 51.45875318374215],
        [-0.326050668522199, 51.458755797885736],
        [-0.32604481507267, 51.45875841202903],
        [-0.326038895861093, 51.458762823709456],
        [-0.326031472184379, 51.458769012386114],
        [-0.326025487208199, 51.45877522160327],
        [-0.326020940933123, 51.45878145136117],
        [-0.326016361775628, 51.458788579887575],
        [-0.326011782616685, 51.45879570841379],
        [-0.326008773685023, 51.45879926240621],
        [-0.326005698990104, 51.45880461393597],
        [-0.326002657175913, 51.45880906669691],
        [-0.326001021183361, 51.45881443876779],
        [-0.325997979368042, 51.45881889152861],
        [-0.325996376256164, 51.4588233648307],
        [-0.325994740262327, 51.45882873690147],
        [-0.325994575854118, 51.45883323074492],
        [-0.325994378564211, 51.45883862335706],
        [-0.325994181274242, 51.458844015969184],
        [-0.325995521334011, 51.458846732816646],
        [-0.325996762749068, 51.458852145970155],
        [-0.325998037046009, 51.45885666035496],
        [-0.326000717166869, 51.45886209404977],
        [-0.326001991464457, 51.45886660843453],
        [-0.326006143173389, 51.45887116390184],
        [-0.326008856177441, 51.4588756988278],
        [-0.326013007887866, 51.458880254294854],
        [-0.326017159599112, 51.458884809761784],
        [-0.326021344192362, 51.458888466459875],
        [-0.326026934611425, 51.45889304246753],
        [-0.326231232249083, 51.4590533258037],
        [-0.32625905305354, 51.459079800865695],
        [-0.3262854680531, 51.45910535661462],
        [-0.326311850206214, 51.45913181112654],
        [-0.326335322084644, 51.45915912332689],
        [-0.326358793990831, 51.45918643552267],
        [-0.326379355617043, 51.45921460540918],
        [-0.326399917268258, 51.459242775292175],
        [-0.326419007352226, 51.45927182340418],
        [-0.32642034744928, 51.45927454024692],
        [-0.326425806460174, 51.45928271131133],
        [-0.326431265472989, 51.459290882375484],
        [-0.326438163207049, 51.45929907397551],
        [-0.326443622223969, 51.45930724503911],
        [-0.326449048369525, 51.45931631487129],
        [-0.326454507390388, 51.45932448593442],
        [-0.326458527692778, 51.45933263646142],
        [-0.326463953844199, 51.45934170629293],
        [-0.326466535428781, 51.4593498362839],
        [-0.326469084141304, 51.45935886504363],
        [-0.326471632854793, 51.45936789380331],
        [-0.326471336998577, 51.45937598272274],
        [-0.326470548047995, 51.45939755317449],
        [-0.326462598353991, 51.45941812217848],
        [-0.326453209928911, 51.45943867064584],
        [-0.326440944046478, 51.45945917804018],
        [-0.326428678152863, 51.459479685433045],
        [-0.326416412248067, 51.45950019282446],
        [-0.326407352528079, 51.45951175359976],
        [-0.326395250977829, 51.459527767144856],
        [-0.326381710692031, 51.459543760151725],
        [-0.326365292941738, 51.459559712082864],
        [-0.326350346783406, 51.45957478578005],
        [-0.326333961886763, 51.459589838937774],
        [-0.326317576979275, 51.45960489209306],
        [-0.326302597913732, 51.4596208645525],
        [-0.326289057567477, 51.45963685754787],
        [-0.32627551721166, 51.45965285054156],
        [-0.326266260161457, 51.45966980391722],
        [-0.326264722798631, 51.45967247968496],
        [-0.326260176463906, 51.45967870945073],
        [-0.326257068859249, 51.45968495975468],
        [-0.326246340185898, 51.459702791358815],
        [-0.326241826723397, 51.45970812235508],
        [-0.326238719114154, 51.4597143726585],
        [-0.326235644381997, 51.45971972419316],
        [-0.326232536771087, 51.45972597449637],
        [-0.3262308678921, 51.459732245338266],
        [-0.326229231890737, 51.45973761741145],
        [-0.326227563010836, 51.45974388825328],
        [-0.326227332863808, 51.459750179633865],
        [-0.32622713559486, 51.45975557224579],
        [-0.326226905447678, 51.45976186362636],
        [-0.326229552768248, 51.459768196084525],
        [-0.326233540189473, 51.45977724538732],
        [-0.326237560490231, 51.45978539592133],
        [-0.326244458261846, 51.459793587532424],
        [-0.326251388913646, 51.45980088037446],
        [-0.326259758302838, 51.459808193754526],
        [-0.326269566430129, 51.45981552767234],
        [-0.326279407437771, 51.459821962820676],
        [-0.326289248448181, 51.459828397968195],
        [-0.326300561074237, 51.45983395488417],
        [-0.326311840826455, 51.459840410567736],
        [-0.326323153458243, 51.459845967481584],
        [-0.326334466092791, 51.45985152439434],
        [-0.326351500801467, 51.45985806222407],
        [-0.326372884601642, 51.45986376289388],
        [-0.326395740019434, 51.4598685853279],
        [-0.326420099928524, 51.45987163075652],
        [-0.326444492715004, 51.45987377741137],
        [-0.32646888550389, 51.45987592406117],
        [-0.326493278295181, 51.459878070705905],
        [-0.326517671088877, 51.4598802173456],
        [-0.326541998140721, 51.459884161517785],
        [-0.32656482071556, 51.459889882687854],
        [-0.326570509924386, 51.45989176236407],
        [-0.326579076609923, 51.45989368310911],
        [-0.326589049163163, 51.45989652315673],
        [-0.326606149667476, 51.4599012634123],
        [-0.326614716356341, 51.45990318415474],
        [-0.326623283045938, 51.459905104896585],
        [-0.326633255604483, 51.45990794494047],
        [-0.326641789425577, 51.45991076444981],
        [-0.326648917378998, 51.459912664656],
        [-0.326657418332057, 51.45991638293302],
        [-0.326665952156242, 51.459919202440595],
        [-0.326673047242408, 51.45992200141419],
        [-0.326680109459984, 51.459925699156216],
        [-0.326687171678704, 51.4599293968978],
        [-0.326692762289897, 51.459933972874694],
        [-0.326698352902205, 51.45993854885131],
        [-0.326703943515626, 51.45994312482768],
        [-0.326706722388271, 51.45994586220019],
        [-0.326710808525627, 51.45995221518095],
        [-0.326716300535569, 51.45995948746328],
        [-0.326718915066192, 51.459966718679745],
        [-0.326722968338367, 51.45997397042894],
        [-0.32672414412984, 51.45998118111248],
        [-0.326725287053008, 51.459989290564856],
        [-0.326726462845185, 51.45999650124838],
        [-0.326726199896019, 51.46000369139916],
        [-0.326725904078076, 51.460011780318744],
        [-0.326725641128678, 51.46001897046949],
        [-0.326725411047865, 51.46002526185139],
        [-0.326723676486936, 51.46003333023816],
        [-0.3267205360513, 51.460040479323254],
        [-0.326718834357722, 51.4600476489411],
        [-0.326715693920298, 51.460054798026015],
        [-0.326711114738358, 51.46006192657791],
        [-0.32670653555497, 51.460069055129594],
        [-0.326701956370133, 51.46007618368107],
        [-0.326697410053158, 51.460082413463525],
        [-0.32669139212116, 51.46008952148142],
        [-0.326683968312283, 51.46009571019689],
        [-0.326628878873111, 51.46022441422478],
        [-0.326557141028322, 51.460375361556075],
        [-0.326452402164431, 51.46056270655655],
        [-0.326452336415053, 51.460564504093796],
        [-0.32644023459337, 51.46058051763838],
        [-0.326428099887909, 51.46059742995019],
        [-0.326418842694683, 51.46061438333405],
        [-0.326408146733276, 51.46063131618025],
        [-0.326400328287257, 51.460648290099236],
        [-0.326392476959317, 51.460666162786204],
        [-0.32638606438792, 51.46068405600964],
        [-0.326379684687632, 51.46070105046407],
        [-0.32637614963388, 51.46071898476113],
        [-0.326372680330109, 51.4607351215209],
        [-0.326369408282989, 51.46074586566909],
        [-0.326367574999373, 51.46075663035454],
        [-0.326365741714836, 51.460767395039916],
        [-0.326363875552698, 51.4607790584938],
        [-0.326363481032409, 51.460789843716505],
        [-0.326363086511875, 51.46080062893917],
        [-0.326362691991095, 51.460811414161824],
        [-0.326363736237229, 51.46082221992189],
        [-0.326364780483796, 51.46083302568193],
        [-0.326367263498638, 51.46084385197935],
        [-0.326369746514597, 51.46085467827668],
        [-0.326373668300198, 51.46086552511133],
        [-0.326377721593691, 51.460872776871604],
        [-0.326383082151746, 51.460883644243154],
        [-0.326388475588624, 51.46089361284594],
        [-0.326395307797549, 51.46090360198553],
        [-0.326403578779477, 51.460913611661724],
        [-0.326411849764987, 51.46092362133733],
        [-0.326420153629835, 51.46093273224382],
        [-0.326429896268931, 51.460941863686394],
        [-0.326439638911894, 51.46095099512818],
        [-0.326449414433935, 51.46095922780061],
        [-0.326460595856273, 51.4609683797771],
        [-0.326471810157861, 51.460976632983964],
        [-0.3264844961104, 51.46098400795722],
        [-0.326497149192722, 51.460992281697706],
        [-0.326507023356261, 51.46099781805969],
        [-0.326526903185513, 51.46100529570681],
        [-0.326546783021314, 51.46101277335059],
        [-0.326568167383102, 51.46101847398882],
        [-0.326589584622829, 51.461023275854565],
        [-0.326612473513035, 51.461027199482224],
        [-0.326635329535619, 51.461032021874104],
        [-0.326656746788991, 51.46103682372769],
        [-0.326679602821229, 51.46104164611102],
        [-0.32670102008392, 51.46104644795658],
        [-0.326720899966598, 51.461053925571214],
        [-0.326740779855827, 51.461061403182526],
        [-0.326767689282198, 51.46107347729692],
        [-0.326777563496309, 51.46107901363648],
        [-0.326787470581534, 51.461083651206536],
        [-0.326797377668777, 51.46108828877576],
        [-0.326807251889695, 51.46109382511288],
        [-0.326817126113007, 51.461099361449186],
        [-0.326827000338714, 51.46110489778468],
        [-0.326835435790247, 51.46111041358763],
        [-0.326842432467068, 51.461115908858375],
        [-0.326850835054969, 51.46112232342898],
        [-0.326857798868061, 51.46112871746756],
        [-0.326863291038435, 51.461135989743084],
        [-0.326868783210534, 51.46114326201836],
        [-0.326878361648841, 51.46115688726824],
        [-0.326883558023437, 51.461172248461466],
        [-0.326887315622375, 51.46118758912337],
        [-0.326888195664688, 51.46120288872297],
        [-0.326889075707472, 51.46121818832252],
        [-0.326889922883842, 51.461234386690776],
        [-0.326889364146579, 51.46124966575916],
        [-0.3268890683443, 51.46125775467772],
        [-0.326861026505954, 51.4613553714354],
        [-0.326812874389353, 51.4614518019675],
        [-0.326809766733785, 51.46145805228389],
        [-0.326767369558403, 51.46155456492222],
        [-0.326720688689981, 51.46165011717368],
        [-0.326669691233066, 51.46174560780158],
        [-0.326340020427022, 51.46202146456833],
        [-0.326261644770598, 51.462314396494456],
        [-0.326208655757536, 51.462385579074834],
        [-0.326081275517542, 51.462444009515956],
        [-0.326033391776285, 51.46249368319998],
        [-0.325995234489706, 51.46263162102028],
        [-0.325943025767599, 51.46272079937392],
        [-0.325856284935356, 51.4628094846451],
        [-0.325774090495537, 51.46289194010786],
        [-0.32573299701228, 51.46299206793445],
        [-0.325701185792552, 51.46311390999659],
        [-0.325611079999123, 51.463333835722636],
        [-0.325582228761195, 51.463374788638376],
        [-0.32540607803116, 51.4636249587066],
        [-0.325140401887987, 51.46396107576751],
        [-0.32487625940204, 51.46429451642694],
        [-0.324657470681084, 51.4644901219633],
        [-0.32433548889149, 51.464751695201805],
        [-0.324070255882822, 51.46495742674947],
        [-0.323845902494409, 51.465147555821694],
        [-0.323804625295098, 51.465173942868866],
        [-0.323763380981107, 51.465199431134295],
        [-0.323720730651318, 51.465224000046945],
        [-0.323676674306109, 51.46524764960528],
        [-0.323635594532232, 51.465268643991045],
        [-0.323590132130992, 51.465291374177134],
        [-0.323544669684711, 51.465314104345076],
        [-0.323497801224711, 51.4653359151545],
        [-0.323450998598775, 51.46535592841166],
        [-0.323399945088193, 51.465374082391584],
        [-0.323357755577485, 51.4653860684375],
        [-0.323333096483993, 51.465391111248515],
        [-0.323306998476427, 51.46539613347808],
        [-0.323282405257433, 51.46539937874547],
        [-0.323256373126153, 51.46540260343082],
        [-0.323230340991331, 51.46540582811034],
        [-0.323204341797159, 51.46540815401766],
        [-0.323178375545178, 51.465409581152805],
        [-0.323152376346494, 51.46541190704856],
        [-0.323126410091027, 51.465413334172155],
        [-0.323100443834071, 51.46541476129],
        [-0.323074477575628, 51.465416188402074],
        [-0.323061494445849, 51.46541690195594],
        [-0.322999456609943, 51.46542051086372],
        [-0.322934606845317, 51.465422281044454],
        [-0.322871195985808, 51.46542407177088],
        [-0.322807851026132, 51.465424064930545],
        [-0.322744539020515, 51.465423159289784],
        [-0.322681259972685, 51.465421354848715],
        [-0.322618013886365, 51.4654186516074],
        [-0.322554833722231, 51.46541415079984],
        [-0.322514643150911, 51.46541087810186],
        [-0.321846791907285, 51.46540671691561],
        [-0.321734491142125, 51.465406908050156],
        [-0.320788634128684, 51.46540685446229],
        [-0.320751222541341, 51.46540631867099],
        [-0.320326172183432, 51.46623921928735],
        [-0.320118093114762, 51.46669125259369],
        [-0.31996046645261, 51.467063077039704],
        [-0.319908041098019, 51.46735367884841],
        [-0.319727561195347, 51.468543481623996],
        [-0.319655013798349, 51.46875466202554],
        [-0.319484608872426, 51.469160473667024],
        [-0.319221191781497, 51.46982483141314],
        [-0.318822572638543, 51.47072015259256],
        [-0.318729055128478, 51.47083571258362],
        [-0.318673760843777, 51.47089067245084],
        [-0.31863335283173, 51.47093235719111],
        [-0.318487829152061, 51.47105256668005],
        [-0.318231843505769, 51.47120086656688],
        [-0.317575131041376, 51.471517868939834],
        [-0.317406857401004, 51.471590990342946],
        [-0.317068124823729, 51.471718317083635],
        [-0.31688595473047, 51.471777749737534],
        [-0.316602153518002, 51.47186000250876],
        [-0.315904630859753, 51.47203343097091],
        [-0.315450381861985, 51.47213031833531],
        [-0.314781365287377, 51.47238957722141],
        [-0.314038088389795, 51.47259291113152],
        [-0.313268151912461, 51.47285520654358],
        [-0.311590728458039, 51.47347761717036],
        [-0.310523843610173, 51.47390377600026],
        [-0.310167240420268, 51.474046112498655],
        [-0.309564601096217, 51.474300003710155],
        [-0.308515822768648, 51.47474169247029],
        [-0.306998801235958, 51.47557857168763],
        [-0.306629045726835, 51.47584210471552],
        [-0.306241756585135, 51.47615124445473],
        [-0.305991774607063, 51.47636884587137],
        [-0.305806981900777, 51.47653703131444],
        [-0.30569186404842, 51.4766513697124],
        [-0.305529664198287, 51.47683157125246],
        [-0.305349166338229, 51.47707805172354],
        [-0.305271033850045, 51.4772046142997],
        [-0.305164428962367, 51.47740000660869],
        [-0.304822033512858, 51.4778959327524],
        [-0.304275206949118, 51.47854536918776],
        [-0.303067044367947, 51.47970769181439],
        [-0.302232560711599, 51.4803070946637],
        [-0.300914718937861, 51.48124030022561],
        [-0.299821472922406, 51.482174049887995],
        [-0.2990769234962, 51.48294738796815],
        [-0.298397125656962, 51.48376032815502],
        [-0.297837617005088, 51.48447519512573],
        [-0.297389535740935, 51.48521415821218],
        [-0.297196975315875, 51.485434373194295],
        [-0.297130388841664, 51.485520632342336],
        [-0.297064337823102, 51.485592511430305],
        [-0.296988377322857, 51.48565975038826],
        [-0.296924636009631, 51.48570828276818],
        [-0.296852324353958, 51.485754892170014],
        [-0.296739169861618, 51.485815296122404],
        [-0.296558959231704, 51.48589720687957],
        [-0.29637600286931, 51.48597548052442],
        [-0.29610001087297, 51.486076681558025],
        [-0.293951464449788, 51.4867603381224],
        [-0.29339611363235, 51.4869366013232],
        [-0.292116465341045, 51.48730014811713],
        [-0.291766140157446, 51.48734720142034],
        [-0.291688033563179, 51.48735595527087],
        [-0.290163113691238, 51.487383189701035],
        [-0.289829434730109, 51.48737023099424],
        [-0.289680189706737, 51.48735546512791],
        [-0.289399546635115, 51.48731090610797],
        [-0.288537145204925, 51.487108584134084],
        [-0.288361929588501, 51.48705656880107],
        [-0.288210177212223, 51.487031872838806],
        [-0.288138367333588, 51.4870263284274],
        [-0.287965552425994, 51.487025604114905],
        [-0.287457588780441, 51.48701279184885],
        [-0.287448951406339, 51.48701266571448],
        [-0.287250157113313, 51.487013359434044],
        [-0.287110687982614, 51.48700682620543],
        [-0.286926929315443, 51.486990653463174],
        [-0.286797941460256, 51.48697348211076],
        [-0.285709649560917, 51.486765141271526],
        [-0.284700913814095, 51.486548062327564],
        [-0.28399064460339, 51.48632275312915],
        [-0.282873080907252, 51.485820805588524],
        [-0.28281243069489, 51.48578664566179],
        [-0.282733775863862, 51.48573333803325],
        [-0.282618280220147, 51.485625536499],
        [-0.282327299764329, 51.48520492716864],
        [-0.282127956806664, 51.48506712131512],
        [-0.280817663360089, 51.48444452999494],
        [-0.280689766798859, 51.484398592205004],
        [-0.280555842164228, 51.48435975980156],
        [-0.280467304742459, 51.484339577562906],
        [-0.280265251964055, 51.4843123351749],
        [-0.280108687672799, 51.48430104666371],
        [-0.279998558508889, 51.48428054739559],
        [-0.279900655376629, 51.484241343330005],
        [-0.279849916675478, 51.484211823418306],
        [-0.279796738759876, 51.48417057759129],
        [-0.279430242444598, 51.48399704310752],
        [-0.278674120647195, 51.48349945812851],
        [-0.277836541339082, 51.48283251406082],
        [-0.276987607006806, 51.482085364607784],
        [-0.276832593472375, 51.48191852593519],
        [-0.276697529234705, 51.48175737565888],
        [-0.276561670277114, 51.48157912797601],
        [-0.276437496796448, 51.48139655567806],
        [-0.276334440487308, 51.48122688300153],
        [-0.276241528266484, 51.48105556086104],
        [-0.276120475126381, 51.48079030396317],
        [-0.274683673308498, 51.47795365070962],
        [-0.273944031350309, 51.47687087051819],
        [-0.273489431356496, 51.47628686520343],
        [-0.272848019559697, 51.475502273456],
        [-0.272554319189326, 51.4751958019662],
        [-0.272257676473326, 51.474891084833686],
        [-0.271589940688473, 51.47427065915931],
        [-0.270841371666247, 51.4736939996185],
        [-0.269923516283548, 51.47310134888471],
        [-0.269454393123719, 51.472827351334686],
        [-0.268064296592113, 51.47215847349373],
        [-0.267561355835196, 51.47194152021599],
        [-0.267219442782038, 51.47180697707708],
        [-0.266868556786819, 51.471681292724824],
        [-0.266511609909207, 51.47156361088888],
        [-0.266245469814831, 51.47148144189335],
        [-0.265959047618589, 51.47140256931505],
        [-0.265556881225061, 51.47130040216624],
        [-0.265147146408667, 51.47120801331735],
        [-0.264732686946171, 51.47112634401885],
        [-0.264313536681933, 51.47105449548057],
        [-0.264004341003231, 51.47100675447716],
        [-0.263660438447874, 51.47096299492413],
        [-0.263165676554261, 51.47091070514569],
        [-0.262667525670115, 51.47087185170403],
        [-0.262166053666573, 51.47084463707817],
        [-0.261664104075322, 51.47083000262723],
        [-0.261180520589364, 51.47082463081823],
        [-0.260780196084767, 51.47082588747458],
        [-0.260445930349017, 51.470831719787],
        [-0.260112932632456, 51.47084206617877],
        [-0.259781100246709, 51.47085962286732],
        [-0.259450433035698, 51.470884389861006],
        [-0.259122369878618, 51.47091638853359],
        [-0.258796807975725, 51.47095831511145],
        [-0.258521611771546, 51.47100098883791],
        [-0.258218525711492, 51.471057635523714],
        [-0.25783961604178, 51.47113923293223],
        [-0.257467523589364, 51.47123082211296],
        [-0.257100843352458, 51.4713314830036],
        [-0.256741014194814, 51.47144123704758],
        [-0.256427575633859, 51.4715426873934],
        [-0.25612979395297, 51.47164886598301],
        [-0.255802509942694, 51.47177348908741],
        [-0.255483584276601, 51.47190542959011],
        [-0.255173016870733, 51.4720446875581],
        [-0.254869368578009, 51.472191241638704],
        [-0.254576990844586, 51.472344257416104],
        [-0.254042906299833, 51.47264294812005],
        [-0.253792084931103, 51.472801076951626],
        [-0.253701692262792, 51.472868073286634],
        [-0.253615547968632, 51.47293693131464],
        [-0.253430063927068, 51.473118513575834],
        [-0.253268425283827, 51.47331663715401],
        [-0.252581120953236, 51.47404467568425],
        [-0.252378867011957, 51.47428805419781],
        [-0.251940129768243, 51.474690670241614],
        [-0.25190654457652, 51.47474052719878],
        [-0.251840057253202, 51.474860034628506],
        [-0.251786556342777, 51.47497883639373],
        [-0.25174737802936, 51.47509965016443],
        [-0.251704179283235, 51.475325615480905],
        [-0.251432663226315, 51.475873702485515],
        [-0.250787206006726, 51.477087046836026],
        [-0.250715761100812, 51.477335970720965],
        [-0.250648598713278, 51.4775858576894],
        [-0.250523540423238, 51.47821975700446],
        [-0.250408807981712, 51.47899768912914],
        [-0.250363070407715, 51.479666043635575],
        [-0.25037123128497, 51.480130174850544],
        [-0.250408572680514, 51.480471545119926],
        [-0.250487698638727, 51.481000581306496],
        [-0.250483821148226, 51.48129007968004],
        [-0.250403949296457, 51.481947133787486],
        [-0.250373937061321, 51.4821292322898],
        [-0.250331004491076, 51.48231023875819],
        [-0.2503058364084, 51.48240338447952],
        [-0.250223071095238, 51.48264674355022],
        [-0.250148401742291, 51.48282907486224],
        [-0.250069860785871, 51.482999658194245],
        [-0.249788895343937, 51.48349184703335],
        [-0.249206033128619, 51.484307751804415],
        [-0.249091092913559, 51.48445081374819],
        [-0.248973651742994, 51.484583946567014],
        [-0.248846236942649, 51.48471423260482],
        [-0.248711761812943, 51.48484081609486],
        [-0.248570191894833, 51.484964595741125],
        [-0.248420122123416, 51.485084651288645],
        [-0.248186072686709, 51.485253809719836],
        [-0.247827633004129, 51.48547416447012],
        [-0.247755548004573, 51.48551355329538],
        [-0.247215540147021, 51.48581122560323],
        [-0.246826249687427, 51.48600953437259],
        [-0.246217685237729, 51.486291789293226],
        [-0.245196121508026, 51.486789075402065],
        [-0.244702985347625, 51.48702808760335],
        [-0.243443027872278, 51.487918356074516],
        [-0.243039273304025, 51.48822974031882],
        [-0.242778146924819, 51.48839038920529],
        [-0.242589735015558, 51.48849547494417],
        [-0.242395702170178, 51.488596879167716],
        [-0.242020256747458, 51.48877110008068],
        [-0.241795000022501, 51.488860345086955],
        [-0.241486786846279, 51.48897172604443],
        [-0.24117031506151, 51.48907309066399],
        [-0.240846886053527, 51.48916805537155],
        [-0.240526715489219, 51.48925317640917],
        [-0.240192320776447, 51.489333586911336],
        [-0.239836503939508, 51.48940917871933],
        [-0.239476713325283, 51.48947571736715],
        [-0.239111474901266, 51.48953407992693],
        [-0.238745142296454, 51.48958343248987],
        [-0.238373396903529, 51.48962371017135],
        [-0.23796583392409, 51.48965895229647],
        [-0.237866293077021, 51.48966285207976],
        [-0.23741033725657, 51.489682977217974],
        [-0.236845282870308, 51.48969336716303],
        [-0.236551464138486, 51.489692546238786],
        [-0.23597277659603, 51.48968294361869],
        [-0.235128629825344, 51.489646862319134],
        [-0.2347526846171, 51.489646599376606],
        [-0.234564582387104, 51.4896311783629],
        [-0.234531540918062, 51.48962888245352],
        [-0.234363523857248, 51.48961556197638],
        [-0.233903112831848, 51.489564566159295],
        [-0.233631325207001, 51.489515510543185],
        [-0.233374073117843, 51.48946307629067],
        [-0.23319343292072, 51.48940370254282],
        [-0.232724030745443, 51.489250052829156],
        [-0.231979593557422, 51.48898254723235],
        [-0.231699702464024, 51.48884523903022],
        [-0.231621951374113, 51.48880719760442],
        [-0.231011520005526, 51.488464371457844],
        [-0.230633731788603, 51.48828871485605],
        [-0.230283332799743, 51.488112571107514],
        [-0.229624670422954, 51.48763951855042],
        [-0.228713095323662, 51.486965707776584],
        [-0.228447494280771, 51.486757567170486],
        [-0.228087563064539, 51.486456277701926],
        [-0.227869192324462, 51.48625604333627],
        [-0.22764158341289, 51.486034087049674],
        [-0.227430020067492, 51.48580697737374],
        [-0.227293680804456, 51.48564575010151],
        [-0.22707785164801, 51.48534303870196],
        [-0.226969387580367, 51.48516874378865],
        [-0.226811175557377, 51.48486600374902],
        [-0.22649902661346, 51.48407624236245],
        [-0.226289697641325, 51.4833464862028],
        [-0.22628586762703, 51.48333383883759],
        [-0.22614834680464, 51.48290641562894],
        [-0.225886665427517, 51.482375499090146],
        [-0.225727676875877, 51.482130297325156],
        [-0.225715385345865, 51.48211302568128],
        [-0.225638135010322, 51.481765647278074],
        [-0.225788747923147, 51.48152153290553],
        [-0.22579351852031, 51.4809532818765],
        [-0.225741409664066, 51.48062606727193],
        [-0.225619654780727, 51.480163811156054],
        [-0.225611612904754, 51.47959176914238],
        [-0.225673727582344, 51.478956042967745],
        [-0.225677031352818, 51.478277162256845],
        [-0.225627283648685, 51.47755521413905],
        [-0.225544158831445, 51.476988330417825],
        [-0.225479653628756, 51.47675804646191],
        [-0.225391824803786, 51.47646086525008],
        [-0.225350837682157, 51.476366723317604],
        [-0.225243019557176, 51.476139380650764],
        [-0.225215099179386, 51.47607960779682],
        [-0.225074739776965, 51.47583738447093],
        [-0.224593417950606, 51.47517904321888],
        [-0.224252879000746, 51.47475213987823],
        [-0.224097238080941, 51.47456993338252],
        [-0.223929910930629, 51.4743920458912],
        [-0.223662425251165, 51.474123615427445],
        [-0.223150007187652, 51.473636552933144],
        [-0.222773634931343, 51.47328014255307],
        [-0.221733868922298, 51.47235793703317],
        [-0.222485445954681, 51.472025820591725],
        [-0.222996142535032, 51.47174130609951],
        [-0.223237563296861, 51.47164245047036],
        [-0.223425137903238, 51.471521196569896],
        [-0.22352795657799, 51.4714319304306],
        [-0.22354195506954, 51.47140516510184],
        [-0.223541074598901, 51.47139076380687],
        [-0.223534403134124, 51.47137717402141],
        [-0.223442255553947, 51.47130293885676],
        [-0.223385350525262, 51.471248121810525],
        [-0.223339516067918, 51.471093656035954],
        [-0.223333779785298, 51.47101893159349],
        [-0.223338116570938, 51.470944359781996],
        [-0.223351374261824, 51.47089959830339],
        [-0.223380181682065, 51.470862266413775],
        [-0.223420396351842, 51.47082780509966],
        [-0.223461665950556, 51.47080325147582],
        [-0.223508482058699, 51.470784177356784],
        [-0.22356663560355, 51.47076977122445],
        [-0.223636091685926, 51.47076093178042],
        [-0.223728187815769, 51.470762326995164],
        [-0.224337888029074, 51.470856990335186],
        [-0.225572751204284, 51.47109330230271],
        [-0.2257391031349, 51.47118484510297],
        [-0.226342081379592, 51.47130457515215],
        [-0.226783951358179, 51.471383198136294],
        [-0.227072334797208, 51.471446909292965],
        [-0.227802208444651, 51.471710631420166],
        [-0.228124040918841, 51.47187735963639],
        [-0.228357037863288, 51.4719213464349],
        [-0.228395474225184, 51.47193271814216],
        [-0.228529351746666, 51.47197071070782],
        [-0.228766702513565, 51.47212536978864],
        [-0.229080450016068, 51.47212920958606],
        [-0.229221929235589, 51.47211965609992],
        [-0.229291003592767, 51.47212069924722],
        [-0.229455833168035, 51.47214027398901],
        [-0.229582690906546, 51.47217366311009],
        [-0.229687580363627, 51.47221661212576],
        [-0.229986711485161, 51.47237489918928],
        [-0.230382053242735, 51.47254003301606],
        [-0.230678845790025, 51.47272166338829],
        [-0.230745230336786, 51.47275503794938],
        [-0.230803397774803, 51.472777497533826],
        [-0.230968800350605, 51.47281955992969],
        [-0.231107938472603, 51.47283334923837],
        [-0.231492449063679, 51.47283195533113],
        [-0.2317227560024, 51.4727967611561],
        [-0.232108774874807, 51.472793589482094],
        [-0.232615357581467, 51.47261418314841],
        [-0.232695428930749, 51.47255424131128],
        [-0.232730020841232, 51.472516095109114],
        [-0.232740754162923, 51.47249917120742],
        [-0.232748301235795, 51.47241565507351],
        [-0.23294936546266, 51.47220556401832],
        [-0.232986020992867, 51.47215126241112],
        [-0.233009551351576, 51.47210125923027],
        [-0.233025037665255, 51.47203584764051],
        [-0.232947989892946, 51.471682182053804],
        [-0.232946863379862, 51.47167407186155],
        [-0.232895306697643, 51.471256943891355],
        [-0.232890999327903, 51.47077218525051],
        [-0.232950420312353, 51.47035223349756],
        [-0.232969887817507, 51.47007196202061],
        [-0.233014759067465, 51.46969315626214],
        [-0.233100637850981, 51.469184577693994],
        [-0.233226936827829, 51.46882228604197],
        [-0.233390163376366, 51.468398502624865],
        [-0.233447471465012, 51.46814487929219],
        [-0.233415793099126, 51.467846751377834],
        [-0.233392117327785, 51.46771420540049],
        [-0.233327199283009, 51.46756844854604],
        [-0.23283060138264, 51.46663384149918],
        [-0.233277307962175, 51.466362706123796],
        [-0.233414802159025, 51.46626945766625],
        [-0.233566807353306, 51.46613596156074],
        [-0.233649623543715, 51.46604188905305],
        [-0.233647162272097, 51.466031061011556],
        [-0.233649514319061, 51.46570916606213],
        [-0.233580167176154, 51.46537989618983],
        [-0.233567965185163, 51.46532305979877],
        [-0.23347950086679, 51.46492965528329],
        [-0.23340721507124, 51.46445286445626],
        [-0.233340777355623, 51.4642720139746],
        [-0.233314197476594, 51.463991048354735],
        [-0.234563607115443, 51.46425716093273],
        [-0.234896733610716, 51.46431703056528],
        [-0.235233050659094, 51.464368854046604],
        [-0.23557399690684, 51.46441265300027],
        [-0.241502527349974, 51.465047562810255],
        [-0.24301495384855, 51.465177246905036],
        [-0.243976055609902, 51.46523031285257],
        [-0.245048305033298, 51.46523827382037],
        [-0.248137515027019, 51.465058761326766],
        [-0.248641901086193, 51.46504561388513],
        [-0.249046215634703, 51.465051652516195],
        [-0.249448541199054, 51.46507204798024],
        [-0.251065995089932, 51.465204095323],
        [-0.251828104149273, 51.465228050269054],
        [-0.25291550027974, 51.46521638169073],
        [-0.253554061460659, 51.4648940736104],
        [-0.253931872694229, 51.46465150903038],
        [-0.25553626062714, 51.463465007267516],
        [-0.256020315311036, 51.463040570772016],
        [-0.25660099652525, 51.46238466470507],
        [-0.257089237485867, 51.46166083752299],
        [-0.257519128925922, 51.46103236035232],
        [-0.257534440327114, 51.461008308293145],
        [-0.257905610610449, 51.46048506790129],
        [-0.258021932806757, 51.46030335025127],
        [-0.258020494107128, 51.46030332887547],
        [-0.258043409102856, 51.4602685987811],
        [-0.256808007553775, 51.45986086406928],
        [-0.256809857138582, 51.45985010062627],
        [-0.256825510364062, 51.45977929298496],
        [-0.256867573969643, 51.45973315762579],
        [-0.256984755596341, 51.45960450922013],
        [-0.25704925418531, 51.45949845789489],
        [-0.25715348583316, 51.45933184850358],
        [-0.257155708558087, 51.45916012569498],
        [-0.257246545169929, 51.4589672389827],
        [-0.257317480471196, 51.458805529975464],
        [-0.257702269508496, 51.458340044262314],
        [-0.258150512707962, 51.45768216228576],
        [-0.258340838315033, 51.45733338483229],
        [-0.258525951842075, 51.456932373410446],
        [-0.258529034256096, 51.45692702372321],
        [-0.258731644597948, 51.456482208832675],
        [-0.258954696202633, 51.455991835619194],
        [-0.25901851820223, 51.45563848062103],
        [-0.259080248469464, 51.45526441186353],
        [-0.259113038630901, 51.45493217787489],
        [-0.254988854191339, 51.45290601195788],
        [-0.252448381158529, 51.45166587781622],
        [-0.249285098688763, 51.450118737660034],
        [-0.247326309920813, 51.44918033025531],
        [-0.247286662941216, 51.449125782646774],
        [-0.247245130305364, 51.449082897052286],
        [-0.247076158287182, 51.448910412785104],
        [-0.246684085800723, 51.448513376826384],
        [-0.246009927722195, 51.44785403515499],
        [-0.245524746329623, 51.44737107270799],
        [-0.245047756773496, 51.446899921020595],
        [-0.244500011067892, 51.44636026413117],
        [-0.244244620890521, 51.44607767239664],
        [-0.243028962406206, 51.44471867925213],
        [-0.242560573181246, 51.44417480668715],
        [-0.242046863977096, 51.44361226754689],
        [-0.241629258043997, 51.443132999277275],
        [-0.241659436254898, 51.44309658272101],
        [-0.241963643307139, 51.44274414334064],
        [-0.242455639232062, 51.44222276219809],
        [-0.242729209273479, 51.44191842096763],
        [-0.243203226958068, 51.441715101445794],
        [-0.243774765186853, 51.441482666604784],
        [-0.244454370493815, 51.4412086834836],
        [-0.24502603393177, 51.44097264746773],
        [-0.245945703530221, 51.44059164187969],
        [-0.247936239318244, 51.43978780595172],
        [-0.249062880567792, 51.439336130956605],
        [-0.251151576756319, 51.43848334906365],
        [-0.252043069284948, 51.43812165910783],
        [-0.253273440688351, 51.43762652823432],
        [-0.254090535362038, 51.43729069166405],
        [-0.254507072707823, 51.43712064211354],
        [-0.255030324998569, 51.436906318027816],
        [-0.255138925975187, 51.43685038270652],
        [-0.255269096070651, 51.43679476832325],
        [-0.255682954087969, 51.43661927925587],
        [-0.256180486179639, 51.43662668174221],
        [-0.256208252740147, 51.436653173010384],
        [-0.256360572076359, 51.436582599688556],
        [-0.256335441815882, 51.43656244241124],
        [-0.256457118838281, 51.436503103388986],
        [-0.256279324626976, 51.43637366470422],
        [-0.256343655157112, 51.43634674492749],
        [-0.256403603335804, 51.43632155842807],
        [-0.256814337412527, 51.43615231367069],
        [-0.257152419202418, 51.436001770776905],
        [-0.258115950079388, 51.43559704286254],
        [-0.258785830529792, 51.435309344056265],
        [-0.260014479916803, 51.434817714387485],
        [-0.260424291648316, 51.43459628698105],
        [-0.260926367555487, 51.43440770071898],
        [-0.261857482325166, 51.43402134557496],
        [-0.262210018523855, 51.43390607322547],
        [-0.262778107313204, 51.43364561860987],
        [-0.26299151273951, 51.433557057828224],
        [-0.26425645958982, 51.43305423167741],
        [-0.264599734844279, 51.43291723310099],
        [-0.26529944188859, 51.43256159607527],
        [-0.265812008433719, 51.43232278639702],
        [-0.266260863312952, 51.43209472239457],
        [-0.266721163686047, 51.43179218833774],
        [-0.267339324565579, 51.43142364317679],
        [-0.267729913633283, 51.43125226420002],
        [-0.268018314795449, 51.43108207180429],
        [-0.268410177003564, 51.43095297405059],
        [-0.268680980669294, 51.43079151255823],
        [-0.268943744351504, 51.43065241291285],
        [-0.269383589646972, 51.430395428066255],
        [-0.270308594746497, 51.429900107118634],
        [-0.270634698646042, 51.42972147221695],
        [-0.270962237749698, 51.42954285758673],
        [-0.271114044001433, 51.42940841107786],
        [-0.271192550888106, 51.42934842013725],
        [-0.271377762859929, 51.429205473506016],
        [-0.272161669072429, 51.42855968122081],
        [-0.273003181840426, 51.42787336710652],
        [-0.273550729074383, 51.42742911148822],
        [-0.274183429327019, 51.42690067857593],
        [-0.27538999486653, 51.42587710837123],
        [-0.275835796090697, 51.4255743255292],
        [-0.276439641802584, 51.425085023020166],
        [-0.276807171799683, 51.42475950358533],
        [-0.276824152521155, 51.424766947212255],
        [-0.280458897897036, 51.42185640584886],
        [-0.282692101249448, 51.42125517759041],
        [-0.282753149628554, 51.42123808708256],
        [-0.284956981295662, 51.42061300512866],
        [-0.285639025601139, 51.420412559190005],
        [-0.286209833523593, 51.42026353849109],
        [-0.286618828047418, 51.42017239928451],
        [-0.287444164775188, 51.422025220999444],
        [-0.28941351401982, 51.42625436072074],
        [-0.289509038028244, 51.426469775406964],
        [-0.289570036020657, 51.42660825024197],
        [-0.289895892076136, 51.427319812467864],
        [-0.289988612179216, 51.42753338730311],
        [-0.290051985113159, 51.42768538519017],
        [-0.290639085191974, 51.42899066132146],
        [-0.290699570920807, 51.42898884563136],
        [-0.292968500433194, 51.42894007891913],
        [-0.293021763833638, 51.42893905609681],
        [-0.292894796916985, 51.42860178836261],
        [-0.293303616907648, 51.42855558536121],
        [-0.293333976652429, 51.42855153117542],
        [-0.293389321613097, 51.427181886251915],
        [-0.293396715192827, 51.42709926326908],
        [-0.29340244935695, 51.42679090537236],
        [-0.293409953788348, 51.42651224835602],
        [-0.293437302906341, 51.42651174729999],
        [-0.294789880680015, 51.426461291031764],
        [-0.29478399149808, 51.42665814021505],
        [-0.294771684318467, 51.42679554579468],
        [-0.294732159538486, 51.427007192811566],
        [-0.294943298022788, 51.427015659800325],
        [-0.295422848458072, 51.42703972026269],
        [-0.295435787605815, 51.427039908428114],
        [-0.295365972905446, 51.42733114802115],
        [-0.295465070269509, 51.42764462740394],
        [-0.295827872391805, 51.4278297518262],
        [-0.295946934664386, 51.42776134163342],
        [-0.295963117208961, 51.42775168518937],
        [-0.296146207878172, 51.42785686076209],
        [-0.296238054390233, 51.42790135960625],
        [-0.29665168371599, 51.42811239909508],
        [-0.297158970465826, 51.42835806981525],
        [-0.297314281741982, 51.42847542939512],
        [-0.297493800134732, 51.42856076752902],
        [-0.29764593686085, 51.428686173756496],
        [-0.297700470641509, 51.42868966348567],
        [-0.298066169196071, 51.42895215801085],
        [-0.298323802700429, 51.4291420422211],
        [-0.298297355546164, 51.42915694544326],
        [-0.298216609619045, 51.429200735438606],
        [-0.29888512284085, 51.42959891308006],
        [-0.300094187351182, 51.43039430025667],
        [-0.300406910950496, 51.43061195600799],
        [-0.300648276831267, 51.43077552098789],
        [-0.300902784767164, 51.43093388048594],
        [-0.301180637225655, 51.431122252819385],
        [-0.301618071052956, 51.43142983854959],
        [-0.302070012298102, 51.43115222458178],
        [-0.301834447358358, 51.430909613094116],
        [-0.301531694137824, 51.43053923408706],
        [-0.301762626873632, 51.430402297867836],
        [-0.301780280273608, 51.430391762690675],
        [-0.302177281036582, 51.43066458930107],
        [-0.304231531652427, 51.43105402339989],
        [-0.305867825233897, 51.43134835624312],
        [-0.305942126793392, 51.43136201949588],
        [-0.306130888557046, 51.431237054682235],
        [-0.306247941820849, 51.43118389220985],
        [-0.306263876393089, 51.4305195810369],
        [-0.306419025912566, 51.43052541973228],
        [-0.306427652716568, 51.430525544372905],
        [-0.306430008119586, 51.43015059357505],
        [-0.306954967292182, 51.43015368081438],
        [-0.306955375215128, 51.430181563275305],
        [-0.306957130529931, 51.43025083042835],
        [-0.307261942566491, 51.43025523259614],
        [-0.307295410380787, 51.43024492496852],
        [-0.307328878180187, 51.43023461733117],
        [-0.30747180361057, 51.43029872898228],
        [-0.30774076736569, 51.43041681627359],
        [-0.308111561110991, 51.4305822342041],
        [-0.308567265288033, 51.43078574520892],
        [-0.30853049024431, 51.430807695647026],
        [-0.308088854968093, 51.43108008761974],
        [-0.308105743599686, 51.43109022306838],
        [-0.309375918322313, 51.431833339865186],
        [-0.309635749680377, 51.432004346364906],
        [-0.309783086992864, 51.43214405521629],
        [-0.309983590617996, 51.432168527990584],
        [-0.310118251556965, 51.432183958037506],
        [-0.310131490710467, 51.432176055704744],
        [-0.310417807422923, 51.43201921836484],
        [-0.310678319150793, 51.43221091492853],
        [-0.310916198746141, 51.4320021214366],
        [-0.312016884363331, 51.43113941578646],
        [-0.312246688348053, 51.43091521618802],
        [-0.31282300692476, 51.4303443999683],
        [-0.313754218010902, 51.429198674707195],
        [-0.313969646560805, 51.428856464040884],
        [-0.314225807166173, 51.42854091684536],
        [-0.314469205599771, 51.42825935683697],
        [-0.313419397447183, 51.42782161168529],
        [-0.312888924986213, 51.427578375798575],
        [-0.312369297586798, 51.4273532784954],
        [-0.31182743396777, 51.42710717598754],
        [-0.31110452140715, 51.42673886294481],
        [-0.310389007772744, 51.426365256546475],
        [-0.310014809718588, 51.42613684938727],
        [-0.309633339224747, 51.425949701374385],
        [-0.309261216243099, 51.42570423603421],
        [-0.308580924323418, 51.42515667294715],
        [-0.307997709423085, 51.424629391296435],
        [-0.307773769133795, 51.42434469478697],
        [-0.307496398181743, 51.42402685349492],
        [-0.306971723984872, 51.42339520012134],
        [-0.306890793046648, 51.42328881942901],
        [-0.306742326205034, 51.42302499439788],
        [-0.306536980896806, 51.42270459418658],
        [-0.306357647125438, 51.42238097246144],
        [-0.306283125179174, 51.42221803146559],
        [-0.306214254210159, 51.42205786981304],
        [-0.306102929486856, 51.42176220777361],
        [-0.306036942089901, 51.42148518575969],
        [-0.306030400376022, 51.42123420172113],
        [-0.306117754431324, 51.42108888715353],
        [-0.306402879511968, 51.42065147781371],
        [-0.306536559788397, 51.420342270368536],
        [-0.306590208242272, 51.420174886557454],
        [-0.306636768583355, 51.42000470257751],
        [-0.306694516322852, 51.41964853634932],
        [-0.30670357445277, 51.41936450557288],
        [-0.306688926617383, 51.419060348896245],
        [-0.306714759502466, 51.418750482311545],
        [-0.306873356714794, 51.41838947814373],
        [-0.307141321823417, 51.41787088692964],
        [-0.307232104931588, 51.417710333853535],
        [-0.307431359354426, 51.41741646030211],
        [-0.307499251915671, 51.41729154628986],
        [-0.307561394570091, 51.417166549209796],
        [-0.307618318450889, 51.41702708880489],
        [-0.307672367228369, 51.416887586857555],
        [-0.307690292435359, 51.41679162635949],
        [-0.307780011850872, 51.41654293138684],
        [-0.308308166843374, 51.41524754824814],
        [-0.308372715474728, 51.415018272897804],
        [-0.308402170883405, 51.414804677442994],
        [-0.308451725886124, 51.414630938899215],
        [-0.308473839141994, 51.41446040126874],
        [-0.30847031315796, 51.414283198871665],
        [-0.308501371214344, 51.413948228253965],
        [-0.30850891209877, 51.41378287576583],
        [-0.30851200841403, 51.413621056113705],
        [-0.308498708569064, 51.41351385385166],
        [-0.308442038145285, 51.41310118110558],
        [-0.308444162336023, 51.4128098559176],
        [-0.308464871027996, 51.412521496682494],
        [-0.308510498534465, 51.41229824282249],
        [-0.308716994428189, 51.4116124000066],
        [-0.308837220015456, 51.41104311327369],
        [-0.309081382947298, 51.409491838588124],
        [-0.309091839535588, 51.4093642963979],
        [-0.309095564358357, 51.40930230210372],
        [-0.309066676493063, 51.40813646123776],
        [-0.308999273229438, 51.40668949927784],
        [-0.309011618953606, 51.40651072720359],
        [-0.309005260067905, 51.40625434996966],
        [-0.309016997388128, 51.40605308792099],
        [-0.308990805770998, 51.40563276147596],
        [-0.30898467008433, 51.405565229387136],
        [-0.308840265658, 51.4047637146468],
        [-0.308725821494421, 51.40400759436035],
        [-0.308694592362409, 51.40349007623885],
        [-0.308713955029371, 51.40296519497023],
        [-0.30878808404772, 51.40220280331689],
        [-0.308896090009005, 51.401652223679356],
        [-0.309022099741962, 51.401198123232234],
        [-0.309075748236901, 51.40102983869719],
        [-0.30925446609686, 51.40062775562414],
        [-0.309350047077992, 51.40045288194027],
        [-0.309406458432293, 51.400365569434506],
        [-0.309653720628216, 51.400014832445834],
        [-0.309694072683701, 51.39997314981568],
        [-0.309793157355027, 51.39989814284892],
        [-0.309950079714756, 51.39981407819152],
        [-0.310217579652612, 51.399655171732846],
        [-0.310482303424125, 51.399493526900535],
        [-0.310722466848916, 51.3993351244336],
        [-0.311473371271913, 51.39881449068222],
        [-0.311890000044402, 51.39850935314836],
        [-0.311988269767144, 51.39841724688873],
        [-0.312022937260919, 51.398373683085715],
        [-0.31214788601936, 51.398142577513205],
        [-0.31221119409131, 51.39802388931492],
        [-0.312522559223218, 51.3974537537338],
        [-0.312586258450064, 51.39740251457857],
        [-0.31297794601867, 51.39711050279641],
        [-0.314212099909949, 51.39619034732902],
        [-0.316645319971358, 51.39444031779461],
        [-0.317444574486674, 51.39389066547626],
        [-0.31760271508879, 51.393772436726195],
        [-0.317720101113875, 51.39366801067521],
        [-0.318289268524996, 51.393316480919935],
        [-0.318538769952971, 51.393176181554196],
        [-0.318795255355795, 51.39304137734864],
        [-0.319070217812054, 51.39291223311989],
        [-0.319392850881815, 51.39277657795297],
        [-0.319855175749123, 51.39259436545627],
        [-0.320068301384895, 51.39254436536952],
        [-0.320467507345521, 51.39247634934496],
        [-0.32074861346517, 51.39241473286725],
        [-0.320938652777965, 51.3923670981157],
        [-0.321232072945456, 51.39228317572386],
        [-0.321612829274715, 51.392208596765215],
        [-0.322087654425516, 51.39211647935324],
        [-0.322325329301997, 51.39206322970007],
        [-0.323715756557293, 51.391695552001316],
        [-0.324612495040888, 51.39150334782797],
        [-0.324868018954778, 51.39147282942753],
        [-0.325693120951362, 51.391431565814],
        [-0.325990134128173, 51.39144570090123],
        [-0.326723662192305, 51.39155059842655],
        [-0.327084760199708, 51.39162049989774],
        [-0.327525260125774, 51.391720309449916],
        [-0.327609134682581, 51.39174578619079],
        [-0.327687230158611, 51.39177207964547],
        [-0.327840056673435, 51.39183810709924],
        [-0.327980997615381, 51.391914755731534],
        [-0.328229581591748, 51.392035204537876],
        [-0.328391712661541, 51.39212204669096],
        [-0.328693903359975, 51.3923098034795],
        [-0.329212839417902, 51.39274254749397],
        [-0.329997257161208, 51.39334543353476],
        [-0.330151817078785, 51.393482523126224],
        [-0.33028048529459, 51.39362014283469],
        [-0.330808101171302, 51.394091670826775],
        [-0.330876012351263, 51.394160980896395],
        [-0.331126727848766, 51.39446040387407],
        [-0.3317407746646, 51.39532253213268],
        [-0.332121160770151, 51.39577217444178],
        [-0.33228546540981, 51.39591839224747],
        [-0.332484612323568, 51.39605521389785],
        [-0.334028980129394, 51.39718864756432],
        [-0.335009007932195, 51.397871614702154],
        [-0.335714037534137, 51.39836902067368],
        [-0.335828724953437, 51.398456976959956],
        [-0.3359872384452, 51.398604905653805],
        [-0.336536683136086, 51.399032653793135],
        [-0.336952799317853, 51.399371280478235],
        [-0.337093683526005, 51.399490181586835],
        [-0.33722702568107, 51.39961886720832],
        [-0.337724541912234, 51.40009173429299],
        [-0.337927812479149, 51.400314033210684],
        [-0.338135203772121, 51.40058135245159],
        [-0.338357129247188, 51.40084438115464],
        [-0.338366764076748, 51.40085620795127],
        [-0.338502372596544, 51.401041576628316],
        [-0.338632531662051, 51.40125834145961],
        [-0.338973194995335, 51.40173617320169],
        [-0.339203157393281, 51.40193636697043],
        [-0.339610279400454, 51.40232611331528],
        [-0.339802719187661, 51.40249070369038],
        [-0.340051727278616, 51.402681273844856],
        [-0.340245471591569, 51.40280991215937],
        [-0.340529821749014, 51.40301716819734],
        [-0.340657852978354, 51.40309451759689],
        [-0.340878084157517, 51.40320644421525],
        [-0.341016890789542, 51.403264162382456],
        [-0.341232351302442, 51.403349043456224],
        [-0.341427070820156, 51.40341114948612],
        [-0.34192892095797, 51.4035279585699],
        [-0.342153161844152, 51.40356889918311],
        [-0.342630546986835, 51.403646691648795],
        [-0.342919096130958, 51.40369843190609],
        [-0.343063094852867, 51.403731941442686],
        [-0.343167020516116, 51.40376038805693],
        [-0.343307625998743, 51.403808237226094],
        [-0.343524627798017, 51.403890438096695],
        [-0.343808909417312, 51.40398078332553],
        [-0.344131155802254, 51.404134611358664],
        [-0.344438677285173, 51.404298122164136],
        [-0.344646542174356, 51.40439457975849],
        [-0.346247579272192, 51.40544771633999],
        [-0.34639006228578, 51.40552346480014],
        [-0.346651150909236, 51.40565933720241],
        [-0.346962084283683, 51.40580850148182],
        [-0.347101792707747, 51.40588151219461],
        [-0.34717548276615, 51.40591132725785],
        [-0.347556662098463, 51.40602641009406],
        [-0.34786347222318, 51.4061305516375],
        [-0.3480211728222, 51.40618313227492],
        [-0.348022609889866, 51.40618315253139],
        [-0.348252791810351, 51.40625923558981],
        [-0.348837840125248, 51.40646261542374],
        [-0.349220348951675, 51.406620875196154],
        [-0.349595332403471, 51.406828486101325],
        [-0.349696926174222, 51.40688207282086],
        [-0.349911934703406, 51.406980419993516],
        [-0.349964071955841, 51.40700992982504],
        [-0.350053910994992, 51.407070544678064],
        [-0.350481387291843, 51.407457841039665],
        [-0.350618699113979, 51.40755779104157],
        [-0.350701742560277, 51.40760751883058],
        [-0.351138134407497, 51.407787213079516],
        [-0.351317610110581, 51.40787426679389],
        [-0.351639456776062, 51.40804065758433]
      ]
    ]
  }
}
