{
  "type": "Feature",
  "properties": {
    "name": "Richmond upon Thames",
    "level": 2,
    "londonBorough": true,
    "center": [-0.292, 51.432]
  },
  "geometry": {
    "type": "Polygon",
    "coordinates": [
      [
        [-0.351639456776062, 51.40804065758433],
        [-0.35443567392436, 51.40945399421566],
        [-0.355130443683082, 51.40980725762631],
        [-0.355305858440194, 51.41068917812591],
        [-0.355378368398729, 51.41075224333359],
        [-0.359794895839168, 51.412020916417255],
        [-0.360011375277909, 51.41203923284415],
        [-0.361658838087337, 51.412011916135484],
        [-0.362441101020744, 51.41197159171674],
        [-0.364419204815912, 51.41166469528748],
        [-0.364761153860722, 51.41159213198873],
        [-0.366195093445386, 51.411220959994296],
        [-0.366501810244266, 51.41112811720015],
        [-0.372863612183956, 51.408688846300485],
        [-0.373171608375913, 51.408599600882944],
        [-0.376147615408465, 51.40828567216103],
        [-0.376390235132011, 51.40825576158986],
        [-0.377892039247628, 51.407911465305595],
        [-0.378118592960794, 51.40788852272779],
        [-0.379617042210908, 51.40784180646036],
        [-0.380229050685249, 51.407897026803774],
        [-0.383022322501185, 51.408440071338276],
        [-0.383371131051705, 51.408538404101535],
        [-0.383445668986961, 51.40948273443761],
        [-0.383832000847233, 51.40953662134734],
        [-0.383798530562012, 51.41011886688684],
        [-0.386501860818178, 51.41040340472637],
        [-0.386656859949832, 51.41041183311736],
        [-0.387876453860268, 51.41032340394404],
        [-0.389198023262395, 51.41031999285897],
        [-0.389316856842384, 51.41070290321114],
        [-0.389670922882131, 51.41069338064402],
        [-0.390167495704512, 51.41346356184623],
        [-0.390313666493982, 51.414337830382856],
        [-0.387586676276909, 51.41435070436083],
        [-0.386143910701019, 51.414280490046465],
        [-0.38635266739798, 51.41464126118236],
        [-0.38661538298427, 51.415021658680324],
        [-0.386456023143953, 51.4153000273073],
        [-0.386440555099617, 51.41537175342815],
        [-0.386570834145562, 51.41649129992776],
        [-0.386531973963687, 51.416533029186574],
        [-0.386774668617194, 51.41756419884771],
        [-0.386783004131055, 51.41765423736648],
        [-0.387416313547032, 51.419028894342325],
        [-0.38771500296646, 51.41932795323763],
        [-0.386692798020625, 51.42005306136716],
        [-0.38666306638384, 51.420080528503576],
        [-0.391281289513567, 51.42229048231093],
        [-0.391363471381939, 51.42232578118932],
        [-0.391567496842765, 51.42257766960912],
        [-0.391771695908137, 51.42278369896252],
        [-0.392375833002135, 51.42311031611],
        [-0.392906268162566, 51.423283049405136],
        [-0.3927703542044, 51.42346732783045],
        [-0.39189913470334, 51.423291717628935],
        [-0.391129853231719, 51.42316246196578],
        [-0.38551772432724, 51.42074817878877],
        [-0.385392910751654, 51.42073926564948],
        [-0.384101594164357, 51.422527139807336],
        [-0.384112304283202, 51.42267206468889],
        [-0.388124585334911, 51.427758537467355],
        [-0.388382256989831, 51.42799857954636],
        [-0.388088716315365, 51.42787854190186],
        [-0.387147462416431, 51.428178529043116],
        [-0.387445037699352, 51.428510844319],
        [-0.387985534385136, 51.42864417154373],
        [-0.387123046622572, 51.429484783441616],
        [-0.386821183521335, 51.42972342342457],
        [-0.383314072079156, 51.432127324382506],
        [-0.382936469910363, 51.43235052208882],
        [-0.378886616311026, 51.434387108970164],
        [-0.378203083033831, 51.4347166664988],
        [-0.376212928887897, 51.43550022750442],
        [-0.376138156342547, 51.43553965739259],
        [-0.377933723402717, 51.43630998323608],
        [-0.377891830238656, 51.4368021849434],
        [-0.370401807981224, 51.44007313922956],
        [-0.366850817202779, 51.441643248903816],
        [-0.369218048100654, 51.44232365277526],
        [-0.369420770451906, 51.44236873669711],
        [-0.370878660042694, 51.44312997568284],
        [-0.370993398868504, 51.44318102805325],
        [-0.372615074653007, 51.44358662504792],
        [-0.372893746371005, 51.44364085029416],
        [-0.373345071744804, 51.44361474094598],
        [-0.373415513292819, 51.443576151956435],
        [-0.373670260156933, 51.44312916919482],
        [-0.373953142324421, 51.44302428564731],
        [-0.376092579183879, 51.44307282436378],
        [-0.376412184481031, 51.44302779311988],
        [-0.376905358536864, 51.44259219835262],
        [-0.377146808243926, 51.44247864038172],
        [-0.3779158356201, 51.44242004235016],
        [-0.378244271749386, 51.442491129668596],
        [-0.379517554976784, 51.44310582889532],
        [-0.379629758734872, 51.44322877651884],
        [-0.379463883821793, 51.44344319936509],
        [-0.379391608765877, 51.44357438782091],
        [-0.379722107467323, 51.44387210663891],
        [-0.379812598369458, 51.443917419770685],
        [-0.37980585510528, 51.44410796436857],
        [-0.379631563930273, 51.44427551090932],
        [-0.379753411562847, 51.44432935058769],
        [-0.379790177764393, 51.444388308971774],
        [-0.381839392668173, 51.444874321948454],
        [-0.382870760438907, 51.445048616720385],
        [-0.385996547247956, 51.446592513035505],
        [-0.38626649030535, 51.44673201332829],
        [-0.386408635530531, 51.44714941583099],
        [-0.386452490459009, 51.44725253206215],
        [-0.386300267074692, 51.44814157750765],
        [-0.386318281960844, 51.44820207411948],
        [-0.387693254464479, 51.449369312262355],
        [-0.387797483872463, 51.4494336919269],
        [-0.384567562634061, 51.44989550041079],
        [-0.383786763878224, 51.44950975891834],
        [-0.375301471555468, 51.45620057873513],
        [-0.375275485337777, 51.45628384735901],
        [-0.374201693077153, 51.45681120037762],
        [-0.373414654010793, 51.457288568139184],
        [-0.373045361471367, 51.457473182604595],
        [-0.372714585097373, 51.45701987458669],
        [-0.372693931788835, 51.45699351015673],
        [-0.37258906879208, 51.45710895506568],
        [-0.372463264458689, 51.457246590033556],
        [-0.368480912747982, 51.45687021566444],
        [-0.368460835410532, 51.45686813781223],
        [-0.368131958948921, 51.457170199731294],
        [-0.367828946454006, 51.457433054482806],
        [-0.366971408863706, 51.45754430882176],
        [-0.365063593721202, 51.45780277833121],
        [-0.364209580810079, 51.45761371736393],
        [-0.362867456530786, 51.457670520504536],
        [-0.36144063653876, 51.45800218973168],
        [-0.359817809931751, 51.4582195947691],
        [-0.356795583319007, 51.458403884841516],
        [-0.356431330648339, 51.45840597320568],
        [-0.354900588590443, 51.45834314048422],
        [-0.353461169886798, 51.45818265436404],
        [-0.353015281051115, 51.45761347028506],
        [-0.352841997832048, 51.45738892480909],
        [-0.35284071588054, 51.456944684374115],
        [-0.352839376289889, 51.456861935868616],
        [-0.349235034995546, 51.456785165887005],
        [-0.348704624772132, 51.45676510742891],
        [-0.346202203192981, 51.457224416335485],
        [-0.346040886693105, 51.45726710260637],
        [-0.345728592455747, 51.45738499286951],
        [-0.345596772232662, 51.45744787790523],
        [-0.345546837992331, 51.45771424649219],
        [-0.345293826735113, 51.45786444540593],
        [-0.345054330337247, 51.457919515489934],
        [-0.342963714794309, 51.458054547815465],
        [-0.342679680299082, 51.458107185127716],
        [-0.34185918426716, 51.458902199462294],
        [-0.34172386359379, 51.45902168257392],
        [-0.340427602293817, 51.45924074029863],
        [-0.340134004060896, 51.45923928191397],
        [-0.340651887274918, 51.45817652076737],
        [-0.340724743816478, 51.45795364190302],
        [-0.340677895959196, 51.45745929787963],
        [-0.340630494566429, 51.45725809719508],
        [-0.339402797154832, 51.45622367804818],
        [-0.33897301217042, 51.45589026761972],
        [-0.338555108320781, 51.45610196174181],
        [-0.337736987229271, 51.45548338020111],
        [-0.337950845502638, 51.4554207677276],
        [-0.337669443558358, 51.454965361002294],
        [-0.337561641180909, 51.45484243540838],
        [-0.337266462593179, 51.45468717765534],
        [-0.336983517672423, 51.45463100881359],
        [-0.336532678294419, 51.455511261358936],
        [-0.336293121447266, 51.4556868105246],
        [-0.334278021479449, 51.455528708349576],
        [-0.33370951156683, 51.455488257369076],
        [-0.333701861728345, 51.45546117151187],
        [-0.33363203175078, 51.45524436195522],
        [-0.333252566037944, 51.45530910857924],
        [-0.333030199478864, 51.45540756105626],
        [-0.332561748673948, 51.45578127731743],
        [-0.332470947437348, 51.45586361503416],
        [-0.332344086938406, 51.45638246940186],
        [-0.332155743637374, 51.456574025674165],
        [-0.330692464524245, 51.45774199337095],
        [-0.330367799135821, 51.457882147718045],
        [-0.328704797301656, 51.45801312289556],
        [-0.328411936313742, 51.457952295897464],
        [-0.327635051342501, 51.457350417663875],
        [-0.327268617341767, 51.45697920034653],
        [-0.327047650041899, 51.45699942778415],
        [-0.326910774111442, 51.45704243654772],
        [-0.326345170359336, 51.457630558984754],
        [-0.326168602179973, 51.45781418069611],
        [-0.325621149674661, 51.45798441299093],
        [-0.325570244425287, 51.45811677327364],
        [-0.326152478549445, 51.458648443588935],
        [-0.326156663132442, 51.45865210028224],
        [-0.326000717166869, 51.45886209404977],
        [-0.326001991464457, 51.45886660843453],
        [-0.326458527692778, 51.45933263646142],
        [-0.326463953844199, 51.45934170629293],
        [-0.326233540189473, 51.45977724538732],
        [-0.326237560490231, 51.45978539592133],
        [-0.326718915066192, 51.459966718679745],
        [-0.326722968338367, 51.45997397042894],
        [-0.326363086511875, 51.46080062893917],
        [-0.326362691991095, 51.460811414161824],
        [-0.326868783210534, 51.46114326201836],
        [-0.326878361648841, 51.46115688726824],
        [-0.326720688689981, 51.46165011717368],
        [-0.326669691233066, 51.46174560780158],
        [-0.326340020427022, 51.46202146456833],
        [-0.325140401887987, 51.46396107576751],
        [-0.32487625940204, 51.46429451642694],
        [-0.323845902494409, 51.465147555821694],
        [-0.323804625295098, 51.465173942868866],
        [-0.323230340991331, 51.46540582811034],
        [-0.323204341797159, 51.46540815401766],
        [-0.320788634128684, 51.46540685446229],
        [-0.320751222541341, 51.46540631867099],
        [-0.320118093114762, 51.46669125259369],
        [-0.31996046645261, 51.467063077039704],
        [-0.319727561195347, 51.468543481623996],
        [-0.319655013798349, 51.46875466202554],
        [-0.318673760843777, 51.47089067245084],
        [-0.31863335283173, 51.47093235719111],
        [-0.317575131041376, 51.471517868939834],
        [-0.317406857401004, 51.471590990342946],
        [-0.314038088389795, 51.47259291113152],
        [-0.313268151912461, 51.47285520654358],
        [-0.308515822768648, 51.47474169247029],
        [-0.306998801235958, 51.47557857168763],
        [-0.305806981900777, 51.47653703131444],
        [-0.30569186404842, 51.4766513697124],
        [-0.304275206949118, 51.47854536918776],
        [-0.303067044367947, 51.47970769181439],
        [-0.300914718937861, 51.48124030022561],
        [-0.299821472922406, 51.482174049887995],
        [-0.2990769234962, 51.48294738796815],
        [-0.298397125656962, 51.48376032815502],
        [-0.297064337823102, 51.485592511430305],
        [-0.296988377322857, 51.48565975038826],
        [-0.29637600286931, 51.48597548052442],
        [-0.29610001087297, 51.486076681558025],
        [-0.291766140157446, 51.48734720142034],
        [-0.291688033563179, 51.48735595527087],
        [-0.290163113691238, 51.487383189701035],
        [-0.289829434730109, 51.48737023099424],
        [-0.288361929588501, 51.48705656880107],
        [-0.288210177212223, 51.487031872838806],
        [-0.286926929315443, 51.486990653463174],
        [-0.286797941460256, 51.48697348211076],
        [-0.28399064460339, 51.48632275312915],
        [-0.282873080907252, 51.485820805588524],
        [-0.282327299764329, 51.48520492716864],
        [-0.282127956806664, 51.48506712131512],
        [-0.280817663360089, 51.48444452999494],
        [-0.279796738759876, 51.48417057759129],
        [-0.279430242444598, 51.48399704310752],
        [-0.277836541339082, 51.48283251406082],
        [-0.276987607006806, 51.482085364607784],
        [-0.276437496796448, 51.48139655567806],
        [-0.276334440487308, 51.48122688300153],
        [-0.274683673308498, 51.47795365070962],
        [-0.273944031350309, 51.47687087051819],
        [-0.273489431356496, 51.47628686520343],
        [-0.272848019559697, 51.475502273456],
        [-0.271589940688473, 51.47427065915931],
        [-0.270841371666247, 51.4736939996185],
        [-0.269923516283548, 51.47310134888471],
        [-0.269454393123719, 51.472827351334686],
        [-0.266245469814831, 51.47148144189335],
        [-0.265959047618589, 51.47140256931505],
        [-0.263660438447874, 51.47096299492413],
        [-0.263165676554261, 51.47091070514569],
        [-0.260445930349017, 51.470831719787],
        [-0.260112932632456, 51.47084206617877],
        [-0.258218525711492, 51.471057635523714],
        [-0.25783961604178, 51.47113923293223],
        [-0.255802509942694, 51.47177348908741],
        [-0.255483584276601, 51.47190542959011],
        [-0.253792084931103, 51.472801076951626],
        [-0.253701692262792, 51.472868073286634],
        [-0.252378867011957, 51.47428805419781],
        [-0.251940129768243, 51.474690670241614],
        [-0.250715761100812, 51.477335970720965],
        [-0.250648598713278, 51.4775858576894],
        [-0.250408807981712, 51.47899768912914],
        [-0.250363070407715, 51.479666043635575],
        [-0.250408572680514, 51.480471545119926],
        [-0.250487698638727, 51.481000581306496],
        [-0.250331004491076, 51.48231023875819],
        [-0.2503058364084, 51.48240338447952],
        [-0.250069860785871, 51.482999658194245],
        [-0.249788895343937, 51.48349184703335],
        [-0.248420122123416, 51.485084651288645],
        [-0.248186072686709, 51.485253809719836],
        [-0.245196121508026, 51.486789075402065],
        [-0.244702985347625, 51.48702808760335],
        [-0.242778146924819, 51.48839038920529],
        [-0.242589735015558, 51.48849547494417],
        [-0.24117031506151, 51.48907309066399],
        [-0.240846886053527, 51.48916805537155],
        [-0.238373396903529, 51.48962371017135],
        [-0.23796583392409, 51.48965895229647],
        [-0.233631325207001, 51.489515510543185],
        [-0.233374073117843, 51.48946307629067],
        [-0.232724030745443, 51.489250052829156],
        [-0.231979593557422, 51.48898254723235],
        [-0.230633731788603, 51.48828871485605],
        [-0.230283332799743, 51.488112571107514],
        [-0.228713095323662, 51.486965707776584],
        [-0.228447494280771, 51.486757567170486],
        [-0.227293680804456, 51.48564575010151],
        [-0.22707785164801, 51.48534303870196],
        [-0.225715385345865, 51.48211302568128],
        [-0.225638135010322, 51.481765647278074],
        [-0.225788747923147, 51.48152153290553],
        [-0.22579351852031, 51.4809532818765],
        [-0.225741409664066, 51.48062606727193],
        [-0.225619654780727, 51.480163811156054],
        [-0.225673727582344, 51.478956042967745],
        [-0.225677031352818, 51.478277162256845],
        [-0.225479653628756, 51.47675804646191],
        [-0.225391824803786, 51.47646086525008],
        [-0.224593417950606, 51.47517904321888],
        [-0.224252879000746, 51.47475213987823],
        [-0.222773634931343, 51.47328014255307],
        [-0.221733868922298, 51.47235793703317],
        [-0.223237563296861, 51.47164245047036],
        [-0.223425137903238, 51.471521196569896],
        [-0.22354195506954, 51.47140516510184],
        [-0.223541074598901, 51.47139076380687],
        [-0.223333779785298, 51.47101893159349],
        [-0.223338116570938, 51.470944359781996],
        [-0.223636091685926, 51.47076093178042],
        [-0.223728187815769, 51.470762326995164],
        [-0.226783951358179, 51.471383198136294],
        [-0.227072334797208, 51.471446909292965],
        [-0.228529351746666, 51.47197071070782],
        [-0.228766702513565, 51.47212536978864],
        [-0.229455833168035, 51.47214027398901],
        [-0.229582690906546, 51.47217366311009],
        [-0.230803397774803, 51.472777497533826],
        [-0.230968800350605, 51.47281955992969],
        [-0.232108774874807, 51.472793589482094],
        [-0.232615357581467, 51.47261418314841],
        [-0.233009551351576, 51.47210125923027],
        [-0.233025037665255, 51.47203584764051],
        [-0.232895306697643, 51.471256943891355],
        [-0.232890999327903, 51.47077218525051],
        [-0.233014759067465, 51.46969315626214],
        [-0.233100637850981, 51.469184577693994],
        [-0.233390163376366, 51.468398502624865],
        [-0.233447471465012, 51.46814487929219],
        [-0.233327199283009, 51.46756844854604],
        [-0.23283060138264, 51.46663384149918],
        [-0.233566807353306, 51.46613596156074],
        [-0.233649623543715, 51.46604188905305],
        [-0.233340777355623, 51.4642720139746],
        [-0.233314197476594, 51.463991048354735],
        [-0.235233050659094, 51.464368854046604],
        [-0.23557399690684, 51.46441265300027],
        [-0.24301495384855, 51.465177246905036],
        [-0.243976055609902, 51.46523031285257],
        [-0.248137515027019, 51.465058761326766],
        [-0.248641901086193, 51.46504561388513],
        [-0.251828104149273, 51.465228050269054],
        [-0.25291550027974, 51.46521638169073],
        [-0.253931872694229, 51.46465150903038],
        [-0.25553626062714, 51.463465007267516],
        [-0.256020315311036, 51.463040570772016],
        [-0.25660099652525, 51.46238466470507],
        [-0.258020494107128, 51.46030332887547],
        [-0.258043409102856, 51.4602685987811],
        [-0.256808007553775, 51.45986086406928],
        [-0.256809857138582, 51.45985010062627],
        [-0.257246545169929, 51.4589672389827],
        [-0.257317480471196, 51.458805529975464],
        [-0.258150512707962, 51.45768216228576],
        [-0.258340838315033, 51.45733338483229],
        [-0.258731644597948, 51.456482208832675],
        [-0.258954696202633, 51.455991835619194],
        [-0.259080248469464, 51.45526441186353],
        [-0.259113038630901, 51.45493217787489],
        [-0.249285098688763, 51.450118737660034],
        [-0.247326309920813, 51.44918033025531],
        [-0.245047756773496, 51.446899921020595],
        [-0.244500011067892, 51.44636026413117],
        [-0.242046863977096, 51.44361226754689],
        [-0.241629258043997, 51.443132999277275],
        [-0.242455639232062, 51.44222276219809],
        [-0.242729209273479, 51.44191842096763],
        [-0.255269096070651, 51.43679476832325],
        [-0.255682954087969, 51.43661927925587],
        [-0.256180486179639, 51.43662668174221],
        [-0.256208252740147, 51.436653173010384],
        [-0.256457118838281, 51.436503103388986],
        [-0.256279324626976, 51.43637366470422],
        [-0.265812008433719, 51.43232278639702],
        [-0.266260863312952, 51.43209472239457],
        [-0.270634698646042, 51.42972147221695],
        [-0.270962237749698, 51.42954285758673],
        [-0.276824152521155, 51.424766947212255],
        [-0.280458897897036, 51.42185640584886],
        [-0.286209833523593, 51.42026353849109],
        [-0.286618828047418, 51.42017239928451],
        [-0.290051985113159, 51.42768538519017],
        [-0.290639085191974, 51.42899066132146],
        [-0.292968500433194, 51.42894007891913],
        [-0.293021763833638, 51.42893905609681],
        [-0.292894796916985, 51.42860178836261],
        [-0.293303616907648, 51.42855558536121],
        [-0.293333976652429, 51.42855153117542],
        [-0.293437302906341, 51.42651174729999],
        [-0.294789880680015, 51.426461291031764],
        [-0.294771684318467, 51.42679554579468],
        [-0.294732159538486, 51.427007192811566],
        [-0.295422848458072, 51.42703972026269],
        [-0.295435787605815, 51.427039908428114],
        [-0.295365972905446, 51.42733114802115],
        [-0.295465070269509, 51.42764462740394],
        [-0.295946934664386, 51.42776134163342],
        [-0.295963117208961, 51.42775168518937],
        [-0.297314281741982, 51.42847542939512],
        [-0.297493800134732, 51.42856076752902],
        [-0.298297355546164, 51.42915694544326],
        [-0.298216609619045, 51.429200735438606],
        [-0.301180637225655, 51.431122252819385],
        [-0.301618071052956, 51.43142983854959],
        [-0.302070012298102, 51.43115222458178],
        [-0.301834447358358, 51.430909613094116],
        [-0.301531694137824, 51.43053923408706],
        [-0.301762626873632, 51.430402297867836],
        [-0.301780280273608, 51.430391762690675],
        [-0.302177281036582, 51.43066458930107],
        [-0.305867825233897, 51.43134835624312],
        [-0.305942126793392, 51.43136201949588],
        [-0.306130888557046, 51.431237054682235],
        [-0.306247941820849, 51.43118389220985],
        [-0.306430008119586, 51.43015059357505],
        [-0.306954967292182, 51.43015368081438],
        [-0.308111561110991, 51.4305822342041],
        [-0.308567265288033, 51.43078574520892],
        [-0.30853049024431, 51.430807695647026],
        [-0.308088854968093, 51.43108008761974],
        [-0.309635749680377, 51.432004346364906],
        [-0.309783086992864, 51.43214405521629],
        [-0.309983590617996, 51.432168527990584],
        [-0.310118251556965, 51.432183958037506],
        [-0.310417807422923, 51.43201921836484],
        [-0.310678319150793, 51.43221091492853],
        [-0.310916198746141, 51.4320021214366],
        [-0.312016884363331, 51.43113941578646],
        [-0.314225807166173, 51.42854091684536],
        [-0.314469205599771, 51.42825935683697],
        [-0.309633339224747, 51.425949701374385],
        [-0.309261216243099, 51.42570423603421],
        [-0.307496398181743, 51.42402685349492],
        [-0.306971723984872, 51.42339520012134],
        [-0.306102929486856, 51.42176220777361],
        [-0.306036942089901, 51.42148518575969],
        [-0.306030400376022, 51.42123420172113],
        [-0.306590208242272, 51.420174886557454],
        [-0.306636768583355, 51.42000470257751],
        [-0.306688926617383, 51.419060348896245],
        [-0.306714759502466, 51.418750482311545],
        [-0.307499251915671, 51.41729154628986],
        [-0.307561394570091, 51.417166549209796],
        [-0.308402170883405, 51.414804677442994],
        [-0.308451725886124, 51.414630938899215],
        [-0.308444162336023, 51.4128098559176],
        [-0.308464871027996, 51.412521496682494],
        [-0.309091839535588, 51.4093642963979],
        [-0.309095564358357, 51.40930230210372],
        [-0.309005260067905, 51.40625434996966],
        [-0.309016997388128, 51.40605308792099],
        [-0.308713955029371, 51.40296519497023],
        [-0.30878808404772, 51.40220280331689],
        [-0.309022099741962, 51.401198123232234],
        [-0.309075748236901, 51.40102983869719],
        [-0.309653720628216, 51.400014832445834],
        [-0.309694072683701, 51.39997314981568],
        [-0.311473371271913, 51.39881449068222],
        [-0.311890000044402, 51.39850935314836],
        [-0.312522559223218, 51.3974537537338],
        [-0.312586258450064, 51.39740251457857],
        [-0.318538769952971, 51.393176181554196],
        [-0.318795255355795, 51.39304137734864],
        [-0.319392850881815, 51.39277657795297],
        [-0.319855175749123, 51.39259436545627],
        [-0.323715756557293, 51.391695552001316],
        [-0.324612495040888, 51.39150334782797],
        [-0.325693120951362, 51.391431565814],
        [-0.325990134128173, 51.39144570090123],
        [-0.327687230158611, 51.39177207964547],
        [-0.327840056673435, 51.39183810709924],
        [-0.328391712661541, 51.39212204669096],
        [-0.328693903359975, 51.3923098034795],
        [-0.329997257161208, 51.39334543353476],
        [-0.330151817078785, 51.393482523126224],
        [-0.330808101171302, 51.394091670826775],
        [-0.330876012351263, 51.394160980896395],
        [-0.332121160770151, 51.39577217444178],
        [-0.33228546540981, 51.39591839224747],
        [-0.336952799317853, 51.399371280478235],
        [-0.337093683526005, 51.399490181586835],
        [-0.338632531662051, 51.40125834145961],
        [-0.338973194995335, 51.40173617320169],
        [-0.340245471591569, 51.40280991215937],
        [-0.340529821749014, 51.40301716819734],
        [-0.341232351302442, 51.403349043456224],
        [-0.341427070820156, 51.40341114948612],
        [-0.343524627798017, 51.403890438096695],
        [-0.343808909417312, 51.40398078332553],
        [-0.34639006228578, 51.40552346480014],
        [-0.346651150909236, 51.40565933720241],
        [-0.348837840125248, 51.40646261542374],
        [-0.349220348951675, 51.406620875196154],
        [-0.350618699113979, 51.40755779104157],
        [-0.350701742560277, 51.40760751883058],
        [-0.351639456776062, 51.40804065758433]
      ]
    ]
  }
}
