{
  "type": "Feature",
  "properties": {
    "name": "Southwark",
    "level": 2,
    "londonBorough": true
  },
  "geometry": {
    "type": "Polygon",
    "coordinates": [
      [
        [-0.078306681580984, 51.42060913099274],
        [-0.079197507784203, 51.42083686171409],
        [-0.079222852009689, 51.420849866877234],
        [-0.079149830345917, 51.421184997230235],
        [-0.078930850444587, 51.421570792069126],
        [-0.079465106067062, 51.42169285626227],
        [-0.079828826474083, 51.422108883257046],
        [-0.079856255305034, 51.422140807103936],
        [-0.080851869668205, 51.421859456316525],
        [-0.080896916910382, 51.42184850345565],
        [-0.081694506035611, 51.42330758721128],
        [-0.081726519902499, 51.42336746301418],
        [-0.083438893118961, 51.42300699339571],
        [-0.083476641176594, 51.4229986179868],
        [-0.083631681548555, 51.42472505291438],
        [-0.083683124325103, 51.42500826464023],
        [-0.08517267015662, 51.42726099889778],
        [-0.085250739564146, 51.427354899035166],
        [-0.086040068400076, 51.42777785814999],
        [-0.086074016664431, 51.427826073767264],
        [-0.085868683684271, 51.428471093254146],
        [-0.08589044531724, 51.42850112451795],
        [-0.087257682740788, 51.42886516736107],
        [-0.087680714660131, 51.42900066569098],
        [-0.08822609174658, 51.42934139277696],
        [-0.088319571829073, 51.42944543409808],
        [-0.0888909637601, 51.430541967487294],
        [-0.089308729428173, 51.43180415654836],
        [-0.090577794784885, 51.43645786283272],
        [-0.090665359734419, 51.436669717728144],
        [-0.090981301657112, 51.437408665601716],
        [-0.091194587353279, 51.437849182774514],
        [-0.091898038565215, 51.43881925441423],
        [-0.091989448620681, 51.43897361771843],
        [-0.092874470912157, 51.441077915403],
        [-0.09300264193918, 51.44142082251749],
        [-0.094105696603397, 51.44281823656364],
        [-0.094507372745095, 51.44340119611545],
        [-0.094953059564553, 51.444344575616576],
        [-0.095016194785171, 51.44452185768068],
        [-0.09509654947287, 51.44546109723185],
        [-0.095140528902297, 51.445545443577],
        [-0.095903478413803, 51.4465083622747],
        [-0.096108004600452, 51.44674639246418],
        [-0.0988920550822, 51.44873668611015],
        [-0.099253320264807, 51.44908246632441],
        [-0.099723424677006, 51.45009996152053],
        [-0.099808641255665, 51.4501966648712],
        [-0.100322198247276, 51.45030660514528],
        [-0.100760942057052, 51.45031191574239],
        [-0.100802221334379, 51.45108595143689],
        [-0.100830880126949, 51.45115835683904],
        [-0.101380475626304, 51.451856994665754],
        [-0.101425314325459, 51.45195574059889],
        [-0.101478912725045, 51.452259660472606],
        [-0.101468797404086, 51.45236471048963],
        [-0.101060605621404, 51.45301006511627],
        [-0.101038774627204, 51.45308524961767],
        [-0.101034805639109, 51.45321557853125],
        [-0.101162675619863, 51.45377609238733],
        [-0.101005764772617, 51.45405412088012],
        [-0.100938373686328, 51.45415194816969],
        [-0.09620141784171, 51.457163187776494],
        [-0.095837119455748, 51.457408165704464],
        [-0.094866820829079, 51.458862697379494],
        [-0.094729590601236, 51.45901244273319],
        [-0.092327715636778, 51.46103359603865],
        [-0.092211795521963, 51.461120736799664],
        [-0.090939782433967, 51.46283201176511],
        [-0.090667113889375, 51.463294289069296],
        [-0.090071123027577, 51.46608668534735],
        [-0.090079668568757, 51.46615786633535],
        [-0.092265330013942, 51.46908817770617],
        [-0.092717608705812, 51.469774479081956],
        [-0.093031052598529, 51.47202953111886],
        [-0.09308024610382, 51.472127451498125],
        [-0.093623696778411, 51.47176759169447],
        [-0.093663206775443, 51.47171787544389],
        [-0.093999224991947, 51.47087623374099],
        [-0.094065142607452, 51.47078018503039],
        [-0.095069850319433, 51.470200302631596],
        [-0.095997457693305, 51.469880844845314],
        [-0.097135720482201, 51.47069247294219],
        [-0.098917081051997, 51.471933574588874],
        [-0.099177179802999, 51.47218868548996],
        [-0.099247391107339, 51.47226626093517],
        [-0.099542867548842, 51.47305610552167],
        [-0.099775247027428, 51.47342407255988],
        [-0.100573402456411, 51.47421126889964],
        [-0.100619641202992, 51.47427676472166],
        [-0.100591355223063, 51.47478438873878],
        [-0.100337838968067, 51.47627665103635],
        [-0.10011160540314, 51.47673070899029],
        [-0.099997698624791, 51.47687274489765],
        [-0.108219390965382, 51.480274491820914],
        [-0.108245917822625, 51.480294703495325],
        [-0.104085967980817, 51.48090285822307],
        [-0.104046885294002, 51.4809076218414],
        [-0.105634048984245, 51.48243503717669],
        [-0.10604374306002, 51.482697044857176],
        [-0.105904913083955, 51.482780231966004],
        [-0.105635738393538, 51.48295033981611],
        [-0.106823330417156, 51.48352166486477],
        [-0.107222566917687, 51.48365400620732],
        [-0.106550145819151, 51.48469258486063],
        [-0.106357607348087, 51.48489001032842],
        [-0.108281097204014, 51.48574387856368],
        [-0.108452499215687, 51.48584825977406],
        [-0.103803261867548, 51.49046100375119],
        [-0.103392966356473, 51.49087162419728],
        [-0.103258566188327, 51.491055596787405],
        [-0.103159773730185, 51.49117989492026],
        [-0.103395948694322, 51.491320402173486],
        [-0.103156213542036, 51.491473894695915],
        [-0.103712145711888, 51.49199726142829],
        [-0.103731628509372, 51.492013763120255],
        [-0.103883320503275, 51.491968555314266],
        [-0.103943088730465, 51.491951536556144],
        [-0.104886911768503, 51.49350812080376],
        [-0.104896206455507, 51.49352715541824],
        [-0.105742055979079, 51.493695493984674],
        [-0.107158977406333, 51.49416260635472],
        [-0.110972873375789, 51.49557658667393],
        [-0.111442547115137, 51.49644743753919],
        [-0.110295066692235, 51.4967778641121],
        [-0.109121078673243, 51.499105999774066],
        [-0.10835358963654, 51.50034808493819],
        [-0.10682576491417, 51.50157879273433],
        [-0.106704007634665, 51.501665853507234],
        [-0.106527300432707, 51.501583866069055],
        [-0.105986591262896, 51.50201037480495],
        [-0.105947663669828, 51.50204571636279],
        [-0.106115508659149, 51.502132957086516],
        [-0.106080808511113, 51.50241386388425],
        [-0.10613681358096, 51.50252267904258],
        [-0.106751544702339, 51.50222236121464],
        [-0.107457970444313, 51.503012518924734],
        [-0.106395574426816, 51.503371258815214],
        [-0.106519864642043, 51.503640344599575],
        [-0.106599541038383, 51.5040471953702],
        [-0.106434542409884, 51.50482958174204],
        [-0.106465685935054, 51.5049820587976],
        [-0.106596832558063, 51.50529441937836],
        [-0.107363587739521, 51.507063940865166],
        [-0.108175537640372, 51.50690888028732],
        [-0.108593065117699, 51.50775282112606],
        [-0.108799676775978, 51.507704895445634],
        [-0.109178791080604, 51.50982515642331],
        [-0.109188414629608, 51.509871173563766],
        [-0.105179114572176, 51.50987481156993],
        [-0.104640167302166, 51.50987419643493],
        [-0.104661594814084, 51.509670411764034],
        [-0.104772238216234, 51.50964342358105],
        [-0.104743375367705, 51.50960968472454],
        [-0.104659959742146, 51.509605638959066],
        [-0.104734275750898, 51.50847467739641],
        [-0.104687997730104, 51.5084091831455],
        [-0.104204634529688, 51.5084238522363],
        [-0.104213420052698, 51.509045379783025],
        [-0.104089182571358, 51.5090874350248],
        [-0.104196579385814, 51.50913863012922],
        [-0.104204222222725, 51.50957938881269],
        [-0.104058045554643, 51.50962918269181],
        [-0.104037361422747, 51.50964143789533],
        [-0.104183172834717, 51.50966987335355],
        [-0.10417988287463, 51.50985326826223],
        [-0.103300855396657, 51.50981747383213],
        [-0.101587826525458, 51.50980684412502],
        [-0.097732715348588, 51.509533953686585],
        [-0.096850074489841, 51.50944679459683],
        [-0.092361092141882, 51.50844583253623],
        [-0.091928126259063, 51.508357856201265],
        [-0.085675829530847, 51.50772810512058],
        [-0.085187454498671, 51.5076904570176],
        [-0.081921305428029, 51.50719375131106],
        [-0.081397499532086, 51.50710784719721],
        [-0.073759194548541, 51.505113080902404],
        [-0.073201136244279, 51.50495193875337],
        [-0.070545600058908, 51.50382287268912],
        [-0.070480464669783, 51.50379572250032],
        [-0.068206690580476, 51.50311441986303],
        [-0.067907657753099, 51.50303035877848],
        [-0.064662331160952, 51.502258337795766],
        [-0.064232321377492, 51.50217120643681],
        [-0.060204751020241, 51.5016703131249],
        [-0.060065277183243, 51.50166350971793],
        [-0.057704188699938, 51.501991327564376],
        [-0.057224872506457, 51.50208140763036],
        [-0.05487468483589, 51.50279513275267],
        [-0.054873244963146, 51.50279510887066],
        [-0.045495049349659, 51.50793404481734],
        [-0.045151296566017, 51.50805331298537],
        [-0.043348982672365, 51.5084800828083],
        [-0.042715124877016, 51.50854234623505],
        [-0.038850567408539, 51.508600085983716],
        [-0.038193858119449, 51.50855672906659],
        [-0.03670654941307, 51.5082242921371],
        [-0.035960806354224, 51.50807331904157],
        [-0.032769849851568, 51.50708010595404],
        [-0.032430345794501, 51.50699977159959],
        [-0.030840054081023, 51.506150253188856],
        [-0.030758512531983, 51.506103021514576],
        [-0.030317497050717, 51.50567026316198],
        [-0.030081183027465, 51.505402809371205],
        [-0.029601401871932, 51.5043992630723],
        [-0.029586803458987, 51.50437024131521],
        [-0.029636557322172, 51.50425237428516],
        [-0.029662131587868, 51.50406036126151],
        [-0.0293836273761, 51.50273376201328],
        [-0.029372568351301, 51.50268951218452],
        [-0.030123882955848, 51.49706194155151],
        [-0.030204241844891, 51.49606690474759],
        [-0.030015970370149, 51.49398463868024],
        [-0.029947689447916, 51.493563534184055],
        [-0.032910879974983, 51.4929307359648],
        [-0.033247754869295, 51.492868941600605],
        [-0.033304047027216, 51.49300027930535],
        [-0.03523867920263, 51.49263343623386],
        [-0.037315037950433, 51.49221947401522],
        [-0.037917373769237, 51.492315883560856],
        [-0.037954299900745, 51.49232819186851],
        [-0.039223025921358, 51.49294202924988],
        [-0.039255865628132, 51.49294887321929],
        [-0.040370215355165, 51.49282991320049],
        [-0.04055302397427, 51.49279969522257],
        [-0.040563331996507, 51.492794471875726],
        [-0.04007036679901, 51.492163042680644],
        [-0.041055669756839, 51.49182789416772],
        [-0.040343734268678, 51.49106241425657],
        [-0.042508026044796, 51.49024066443082],
        [-0.04222583878811, 51.490035417236065],
        [-0.042740688297338, 51.49002153033875],
        [-0.04449876523758, 51.49010661650458],
        [-0.04473702707113, 51.49036238384366],
        [-0.044758114671743, 51.490441870787286],
        [-0.045521777481372, 51.490235181127865],
        [-0.045831727565585, 51.49016211083124],
        [-0.046164390445758, 51.490366391752325],
        [-0.046567348136641, 51.4903416309601],
        [-0.046566096741977, 51.49047200351072],
        [-0.046567412988937, 51.490744502666594],
        [-0.047595726963947, 51.49044598666004],
        [-0.047550009764388, 51.490369687226085],
        [-0.051151635190098, 51.48955011982268],
        [-0.051466098439699, 51.48943844133938],
        [-0.051958688674356, 51.48913548026725],
        [-0.05016954403258, 51.4883611525773],
        [-0.050108722753863, 51.4883349617961],
        [-0.050464349746754, 51.48793350802863],
        [-0.050644194079773, 51.48787085163441],
        [-0.051750260254571, 51.48780740093634],
        [-0.052119802596143, 51.48782253290256],
        [-0.052622086368524, 51.487561995556355],
        [-0.052631143898203, 51.48755225406954],
        [-0.052889820578237, 51.487633886473105],
        [-0.053977464865564, 51.48793521020363],
        [-0.053515385752104, 51.48721802110893],
        [-0.05340612943488, 51.48707772069093],
        [-0.053030505763645, 51.48686735137322],
        [-0.052994192317543, 51.48684066974477],
        [-0.052880513466615, 51.486601376277505],
        [-0.05284432316507, 51.48647038195235],
        [-0.052946418334692, 51.48610247951865],
        [-0.052949151636204, 51.4860045050591],
        [-0.053079687684293, 51.48598329164361],
        [-0.053181245411003, 51.48596609328527],
        [-0.053140162531557, 51.48584850677945],
        [-0.053560134491866, 51.48579522821387],
        [-0.053551847128755, 51.485516318612895],
        [-0.05342308637953, 51.48529296202767],
        [-0.05316909944294, 51.485169143119705],
        [-0.053097325025186, 51.48516345509378],
        [-0.05301365989457, 51.48438869817549],
        [-0.053117977840067, 51.48437424351593],
        [-0.052984704654421, 51.483580677486124],
        [-0.052982362001676, 51.48356804887688],
        [-0.052832640116082, 51.48356646192269],
        [-0.052800907629633, 51.48346611654621],
        [-0.052921491768257, 51.483407868210364],
        [-0.052978656403913, 51.48338453728794],
        [-0.052955926168043, 51.48280233536702],
        [-0.052959661996491, 51.48274844149622],
        [-0.052818693071554, 51.48274430205714],
        [-0.052811428155031, 51.482644362984644],
        [-0.052942666604388, 51.48264024747033],
        [-0.053168202837366, 51.48103071062389],
        [-0.053156651080598, 51.48103141808671],
        [-0.053489378549694, 51.48048928958749],
        [-0.053514303572871, 51.48047891218195],
        [-0.053356766819624, 51.4803566945435],
        [-0.053358833143638, 51.48030816851885],
        [-0.053413176971481, 51.480317164120095],
        [-0.053573406780093, 51.48034230573234],
        [-0.053470205458271, 51.48016163870164],
        [-0.053478119622552, 51.48007723913988],
        [-0.053947278072195, 51.47920554522823],
        [-0.054328519794647, 51.47860576727542],
        [-0.052699249892257, 51.47800858516332],
        [-0.052763032069984, 51.473839747791345],
        [-0.052756998416967, 51.47293318705852],
        [-0.051801467790709, 51.470080126769574],
        [-0.051687078404275, 51.46975718760521],
        [-0.052151296089085, 51.469337749173356],
        [-0.052281831165922, 51.46921402042376],
        [-0.050994494565029, 51.46773041840668],
        [-0.050881395976396, 51.46758015907372],
        [-0.051128238872973, 51.46746376075676],
        [-0.051326567884993, 51.46737083579234],
        [-0.051000238704407, 51.46712260912303],
        [-0.050575133169531, 51.46679360358258],
        [-0.050822240602828, 51.46667091544327],
        [-0.050888438759537, 51.46663784384684],
        [-0.048629118903593, 51.466072390386074],
        [-0.048206076819797, 51.465898084470716],
        [-0.04854015564566, 51.46562667124983],
        [-0.047330498487756, 51.46502650195071],
        [-0.047037526740474, 51.464908314137475],
        [-0.045999078740258, 51.463974656314676],
        [-0.04572036085612, 51.46352307406335],
        [-0.045346334654734, 51.462606778666085],
        [-0.045236826076497, 51.46220477816935],
        [-0.04511411829304, 51.4605957384781],
        [-0.045123242645962, 51.460281146452544],
        [-0.045303469116912, 51.45909531780209],
        [-0.045335714805835, 51.45898074899348],
        [-0.046103175810992, 51.45712216340327],
        [-0.046160351499277, 51.45696304639518],
        [-0.04499577905454, 51.45666126027722],
        [-0.044632325130369, 51.4565769620166],
        [-0.041825105453405, 51.45503731590019],
        [-0.041648633568749, 51.45499030372911],
        [-0.04244565064435, 51.45388941985045],
        [-0.042989340037955, 51.45319167117971],
        [-0.045000608135516, 51.451292699085265],
        [-0.045124222873198, 51.45122911386509],
        [-0.04519642895312, 51.451054960265495],
        [-0.045178885912522, 51.45096024433245],
        [-0.045875218419685, 51.450191287639036],
        [-0.046150745829621, 51.44987304233007],
        [-0.048721722678403, 51.45013079223872],
        [-0.049086624269061, 51.45011258547217],
        [-0.053644965103902, 51.448718054217025],
        [-0.053787802523109, 51.44870963456524],
        [-0.056543419471608, 51.44993969059259],
        [-0.057561283652479, 51.45033875074207],
        [-0.058618922462942, 51.449563116222066],
        [-0.05868748117713, 51.44950759768686],
        [-0.06138354230974, 51.448138565215714],
        [-0.061826917004529, 51.447796081342815],
        [-0.063083889534998, 51.446183785596816],
        [-0.063244682659547, 51.44585281363033],
        [-0.063639978983734, 51.4448089980882],
        [-0.063713333436952, 51.44453773130654],
        [-0.063665496201249, 51.44335530146139],
        [-0.063733590475637, 51.44286812310766],
        [-0.063870376978119, 51.4425259624219],
        [-0.064082746312253, 51.44209782077728],
        [-0.064611675183281, 51.441533720693045],
        [-0.065026169285226, 51.441157475069595],
        [-0.064280033127438, 51.440903252125786],
        [-0.064053529763116, 51.440849152286496],
        [-0.063706837534383, 51.43798914358557],
        [-0.06370071877382, 51.43792969069032],
        [-0.063457402295786, 51.43762711331485],
        [-0.063456737638834, 51.43754077241149],
        [-0.064420283090096, 51.43704140618252],
        [-0.064467172554957, 51.43698732501563],
        [-0.066144279105653, 51.43430910398516],
        [-0.066708747471566, 51.43392273704487],
        [-0.069021580253993, 51.43284576831074],
        [-0.069529130353922, 51.43268236844014],
        [-0.070392956601781, 51.432496954989084],
        [-0.070695285854402, 51.43245786766669],
        [-0.072076853707389, 51.4324815001824],
        [-0.072215929846777, 51.43245860818007],
        [-0.072861704111255, 51.43208703822919],
        [-0.073586072204508, 51.431351653071054],
        [-0.074893542555618, 51.42974905442688],
        [-0.075048385505822, 51.42917966205744],
        [-0.075093302076052, 51.42879551226289],
        [-0.074490709094665, 51.42762825352217],
        [-0.074327048790604, 51.427449307721204],
        [-0.073930389305755, 51.426208991041406],
        [-0.073935607101081, 51.4261533220275],
        [-0.074949302351037, 51.425718542767996],
        [-0.074965945348349, 51.42569903218385],
        [-0.078306681580984, 51.42060913099274]
      ]
    ]
  }
}
