{
  "type": "Feature",
  "properties": {
    "name": "Southwark",
    "level": 2,
    "londonBorough": true,
    "center": [-0.08, 51.477]
  },
  "geometry": {
    "type": "Polygon",
    "coordinates": [
      [
        [-0.078306681580984, 51.42060913099274],
        [-0.079160891111126, 51.420818276169626],
        [-0.079197507784203, 51.42083686171409],
        [-0.079222852009689, 51.420849866877234],
        [-0.079255463814239, 51.42089536487988],
        [-0.079269045805653, 51.42091447215393],
        [-0.079261682086026, 51.4209871923768],
        [-0.079149830345917, 51.421184997230235],
        [-0.078930850444587, 51.421570792069126],
        [-0.079465106067062, 51.42169285626227],
        [-0.079515876768437, 51.421751241536185],
        [-0.079629789647352, 51.42188170378399],
        [-0.079828826474083, 51.422108883257046],
        [-0.079856255305034, 51.422140807103936],
        [-0.08007732619852, 51.422048206945284],
        [-0.080343374770946, 51.42198062339206],
        [-0.080851869668205, 51.421859456316525],
        [-0.080896916910382, 51.42184850345565],
        [-0.081158499972572, 51.42233389603646],
        [-0.081694506035611, 51.42330758721128],
        [-0.081726519902499, 51.42336746301418],
        [-0.081779402594847, 51.42337552272217],
        [-0.082031767453307, 51.42332569674866],
        [-0.082843734753663, 51.423136646069125],
        [-0.083438893118961, 51.42300699339571],
        [-0.083476641176594, 51.4229986179868],
        [-0.083495278265271, 51.42310323803282],
        [-0.083511093155255, 51.42341284539941],
        [-0.083536923719404, 51.42368934355124],
        [-0.083585496447166, 51.42414426892173],
        [-0.083618353369942, 51.42452789497659],
        [-0.083631681548555, 51.42472505291438],
        [-0.083683124325103, 51.42500826464023],
        [-0.083862716537185, 51.42539159187715],
        [-0.084078803262461, 51.42572785411697],
        [-0.084372348058257, 51.42613822277134],
        [-0.084652237012817, 51.426531281355864],
        [-0.084955215801866, 51.42695709018145],
        [-0.08517267015662, 51.42726099889778],
        [-0.085250739564146, 51.427354899035166],
        [-0.085261713835146, 51.42736766808494],
        [-0.085438109185246, 51.42748385757106],
        [-0.085794706201022, 51.42765964395807],
        [-0.085904269849616, 51.42768841139189],
        [-0.085991557054188, 51.42773390104317],
        [-0.086040068400076, 51.42777785814999],
        [-0.086074016664431, 51.427826073767264],
        [-0.086092339781185, 51.42786953787758],
        [-0.086100525018065, 51.427914634974606],
        [-0.086098647448689, 51.4279595677492],
        [-0.086066479291471, 51.42804087590116],
        [-0.085945278917951, 51.42818727598229],
        [-0.08588739497285, 51.42829873925481],
        [-0.08585629858077, 51.428423229747395],
        [-0.085868683684271, 51.428471093254146],
        [-0.08589044531724, 51.42850112451795],
        [-0.085916820115472, 51.428524036966536],
        [-0.085997108850038, 51.42856491596233],
        [-0.086045460307898, 51.4285782953124],
        [-0.086121313302507, 51.428587627384836],
        [-0.086613342580548, 51.428724256271195],
        [-0.087257682740788, 51.42886516736107],
        [-0.087680714660131, 51.42900066569098],
        [-0.087873798763394, 51.42909644052688],
        [-0.088114910869299, 51.42924785385805],
        [-0.08822609174658, 51.42934139277696],
        [-0.088319571829073, 51.42944543409808],
        [-0.088497094849862, 51.429707318685125],
        [-0.0888909637601, 51.430541967487294],
        [-0.089308729428173, 51.43180415654836],
        [-0.089593005399983, 51.43278359656029],
        [-0.090023269821027, 51.434367923841364],
        [-0.09022539096503, 51.43514458714226],
        [-0.090464745013743, 51.4360981128866],
        [-0.090577794784885, 51.43645786283272],
        [-0.090665359734419, 51.436669717728144],
        [-0.090981301657112, 51.437408665601716],
        [-0.091194587353279, 51.437849182774514],
        [-0.09148893687712, 51.43831260183307],
        [-0.091726317612354, 51.438624015855524],
        [-0.091837879966227, 51.438743635974035],
        [-0.091898038565215, 51.43881925441423],
        [-0.091989448620681, 51.43897361771843],
        [-0.092040058935304, 51.439105734441334],
        [-0.092258380043908, 51.43959848886891],
        [-0.092540455268257, 51.44032249247606],
        [-0.092767954422072, 51.44083697753691],
        [-0.092874470912157, 51.441077915403],
        [-0.09300264193918, 51.44142082251749],
        [-0.093206653730629, 51.441773955856995],
        [-0.093357009779626, 51.44196434819942],
        [-0.09363407094918, 51.442256619572134],
        [-0.093798997493028, 51.44244275194884],
        [-0.094004521467007, 51.44269069427996],
        [-0.094105696603397, 51.44281823656364],
        [-0.094507372745095, 51.44340119611545],
        [-0.094953059564553, 51.444344575616576],
        [-0.095016194785171, 51.44452185768068],
        [-0.095037517517233, 51.44463191457556],
        [-0.09504326631013, 51.44470125143187],
        [-0.095017054101205, 51.444881577786354],
        [-0.095013140521891, 51.44507935255481],
        [-0.095025012118957, 51.445209039684286],
        [-0.095040042238655, 51.445297411936586],
        [-0.09509654947287, 51.44546109723185],
        [-0.095140528902297, 51.445545443577],
        [-0.095251610198412, 51.44571181413796],
        [-0.095697740528328, 51.44626491643221],
        [-0.095903478413803, 51.4465083622747],
        [-0.096108004600452, 51.44674639246418],
        [-0.097429865176855, 51.44776693734891],
        [-0.097958520835687, 51.44813612146647],
        [-0.09845141516866, 51.448430983348565],
        [-0.0988920550822, 51.44873668611015],
        [-0.099253320264807, 51.44908246632441],
        [-0.09930410857154, 51.44914174199764],
        [-0.099344680161351, 51.44920444905388],
        [-0.099403466550745, 51.44934838519555],
        [-0.099416973304176, 51.449404358562816],
        [-0.099427308001224, 51.44953671795475],
        [-0.09956485150678, 51.44986358221704],
        [-0.099645511646855, 51.450000678710516],
        [-0.099723424677006, 51.45009996152053],
        [-0.099808641255665, 51.4501966648712],
        [-0.099858739454178, 51.4502379438154],
        [-0.099923630735286, 51.45026957060993],
        [-0.099993135352856, 51.450294078029074],
        [-0.10006876615617, 51.45030969205618],
        [-0.100147571977403, 51.450318163378945],
        [-0.100205102365716, 51.45031909574401],
        [-0.100322198247276, 51.45030660514528],
        [-0.100760942057052, 51.45031191574239],
        [-0.100766268680963, 51.450356965237],
        [-0.100792533953859, 51.45066044269786],
        [-0.100789197262246, 51.45101829564706],
        [-0.100802221334379, 51.45108595143689],
        [-0.100830880126949, 51.45115835683904],
        [-0.100877789253148, 51.4512418490617],
        [-0.100957875074803, 51.45135825221486],
        [-0.101131999402567, 51.45156700423224],
        [-0.101322617793399, 51.451759836376375],
        [-0.101340271813904, 51.451785301690535],
        [-0.101380475626304, 51.451856994665754],
        [-0.101425314325459, 51.45195574059889],
        [-0.101457133810571, 51.45205607418989],
        [-0.101474495680163, 51.45215797215458],
        [-0.101478912725045, 51.452259660472606],
        [-0.101468797404086, 51.45236471048963],
        [-0.101387442502918, 51.45252166328893],
        [-0.101335146323167, 51.45260264927812],
        [-0.101106046668989, 51.452920874836856],
        [-0.101060605621404, 51.45301006511627],
        [-0.101038774627204, 51.45308524961767],
        [-0.101034805639109, 51.45321557853125],
        [-0.101162675619863, 51.45377609238733],
        [-0.101118597577953, 51.453867103286115],
        [-0.101005764772617, 51.45405412088012],
        [-0.100938373686328, 51.45415194816969],
        [-0.100627606158588, 51.454391513128876],
        [-0.100044836733157, 51.45476875286169],
        [-0.099117482710534, 51.45540208849358],
        [-0.09859130810384, 51.45569840577639],
        [-0.097848894425542, 51.456037074749666],
        [-0.097602155549593, 51.45615537083771],
        [-0.097207029986882, 51.45641514019364],
        [-0.096575950643109, 51.45687970656944],
        [-0.09620141784171, 51.457163187776494],
        [-0.095837119455748, 51.457408165704464],
        [-0.095664866769666, 51.457604104984526],
        [-0.095503630884369, 51.45788115670095],
        [-0.09520811452249, 51.45837544678669],
        [-0.095148570539114, 51.45845721154817],
        [-0.09512261923932, 51.45849276041777],
        [-0.09502537011987, 51.4586503498498],
        [-0.094866820829079, 51.458862697379494],
        [-0.094729590601236, 51.45901244273319],
        [-0.094571920589015, 51.459169049825974],
        [-0.094142531139536, 51.45959371655139],
        [-0.093650361299912, 51.46000477118506],
        [-0.093094173745295, 51.46043186851272],
        [-0.092938268895296, 51.46058040877591],
        [-0.09283998867492, 51.46065884446196],
        [-0.092758469123429, 51.46071507115242],
        [-0.092551859751825, 51.46083670737448],
        [-0.092327715636778, 51.46103359603865],
        [-0.092211795521963, 51.461120736799664],
        [-0.091539123254603, 51.46199286513422],
        [-0.091124157231134, 51.46255354449856],
        [-0.090939782433967, 51.46283201176511],
        [-0.090667113889375, 51.463294289069296],
        [-0.090106012359614, 51.46573384335008],
        [-0.09007184789492, 51.466000367908364],
        [-0.090071123027577, 51.46608668534735],
        [-0.090079668568757, 51.46615786633535],
        [-0.090094569528983, 51.46621476264715],
        [-0.090136331875826, 51.46631795894449],
        [-0.091146240843502, 51.467613157712734],
        [-0.092265330013942, 51.46908817770617],
        [-0.092717608705812, 51.469774479081956],
        [-0.09274012060065, 51.46982160692685],
        [-0.092781929498132, 51.46992390366445],
        [-0.092849008163077, 51.470145314035506],
        [-0.09292882611325, 51.470751815724746],
        [-0.092946519336511, 51.470949041893206],
        [-0.093024457510278, 51.47201503566282],
        [-0.093031052598529, 51.47202953111886],
        [-0.09308024610382, 51.472127451498125],
        [-0.093486909718497, 51.471905652353485],
        [-0.093623696778411, 51.47176759169447],
        [-0.093663206775443, 51.47171787544389],
        [-0.09372703516873, 51.47160290845735],
        [-0.093999224991947, 51.47087623374099],
        [-0.094065142607452, 51.47078018503039],
        [-0.094105640723834, 51.47074127583643],
        [-0.094200651194962, 51.47067267782552],
        [-0.094323150127356, 51.47060092948554],
        [-0.094452880571738, 51.47052839928882],
        [-0.094797105929592, 51.47035324173754],
        [-0.095069850319433, 51.470200302631596],
        [-0.095997457693305, 51.469880844845314],
        [-0.097135720482201, 51.47069247294219],
        [-0.098917081051997, 51.471933574588874],
        [-0.099177179802999, 51.47218868548996],
        [-0.099247391107339, 51.47226626093517],
        [-0.099375093724091, 51.47262353922637],
        [-0.099542867548842, 51.47305610552167],
        [-0.099775247027428, 51.47342407255988],
        [-0.100367987092666, 51.47399121917608],
        [-0.100573402456411, 51.47421126889964],
        [-0.100619641202992, 51.47427676472166],
        [-0.10065421864544, 51.47434566866281],
        [-0.100682650097752, 51.47445853680342],
        [-0.100591355223063, 51.47478438873878],
        [-0.100337838968067, 51.47627665103635],
        [-0.100169838173265, 51.47664622282001],
        [-0.10011160540314, 51.47673070899029],
        [-0.099997698624791, 51.47687274489765],
        [-0.101511410712796, 51.47752674616505],
        [-0.103621903320452, 51.478341456682095],
        [-0.105554275235194, 51.479146956105005],
        [-0.107203006149226, 51.47984802704165],
        [-0.107854249486534, 51.48011932311209],
        [-0.108068110543704, 51.48020640507971],
        [-0.108219390965382, 51.480274491820914],
        [-0.108245917822625, 51.480294703495325],
        [-0.108237743851139, 51.48035302344867],
        [-0.108214928509785, 51.48038233089443],
        [-0.108178353207796, 51.48039612892894],
        [-0.108085388264697, 51.48041531193093],
        [-0.10555704724385, 51.48071351056204],
        [-0.105006604954484, 51.48079004564854],
        [-0.104085967980817, 51.48090285822307],
        [-0.104046885294002, 51.4809076218414],
        [-0.104621077238756, 51.481439374387264],
        [-0.104640444191103, 51.48145857188441],
        [-0.104623713948964, 51.48158419773509],
        [-0.104898551710054, 51.481833238479226],
        [-0.105155599799338, 51.48209458070195],
        [-0.105280741206844, 51.48209840141236],
        [-0.10532676038972, 51.482100044273615],
        [-0.105421860950525, 51.48220319716752],
        [-0.105634048984245, 51.48243503717669],
        [-0.10604374306002, 51.482697044857176],
        [-0.105904913083955, 51.482780231966004],
        [-0.105635738393538, 51.48295033981611],
        [-0.105663928350918, 51.482965183379555],
        [-0.106328618730592, 51.483295156649106],
        [-0.106823330417156, 51.48352166486477],
        [-0.107222566917687, 51.48365400620732],
        [-0.106926294647231, 51.48406108385322],
        [-0.106615896621523, 51.48453088076509],
        [-0.106550145819151, 51.48469258486063],
        [-0.106357607348087, 51.48489001032842],
        [-0.10784448730931, 51.485504825457625],
        [-0.107991801383836, 51.48556475500939],
        [-0.108136672185168, 51.48564892492502],
        [-0.108281097204014, 51.48574387856368],
        [-0.108452499215687, 51.48584825977406],
        [-0.108121488224374, 51.48615496229366],
        [-0.105519868887633, 51.48876936790328],
        [-0.104711011180925, 51.489552140792426],
        [-0.104188458857317, 51.490030192444216],
        [-0.103803261867548, 51.49046100375119],
        [-0.103392966356473, 51.49087162419728],
        [-0.10326019222632, 51.49105112679813],
        [-0.103258566188327, 51.491055596787405],
        [-0.103159773730185, 51.49117989492026],
        [-0.103395948694322, 51.491320402173486],
        [-0.103156213542036, 51.491473894695915],
        [-0.103527417875655, 51.49169302269458],
        [-0.103405681242906, 51.49178008038772],
        [-0.103582889784358, 51.491883663209535],
        [-0.103712145711888, 51.49199726142829],
        [-0.103731628509372, 51.492013763120255],
        [-0.103883320503275, 51.491968555314266],
        [-0.103943088730465, 51.491951536556144],
        [-0.10410508530697, 51.49224821303437],
        [-0.104257319428565, 51.49250246633058],
        [-0.104400559107015, 51.49273049554383],
        [-0.104519042881008, 51.49293024743286],
        [-0.10469904900348, 51.4930707432875],
        [-0.104793890770605, 51.49331957192998],
        [-0.104886911768503, 51.49350812080376],
        [-0.104896206455507, 51.49352715541824],
        [-0.105337771034506, 51.49361342514438],
        [-0.105742055979079, 51.493695493984674],
        [-0.107158977406333, 51.49416260635472],
        [-0.109399431646586, 51.494955922576146],
        [-0.110507353185443, 51.49537214979028],
        [-0.110584315843669, 51.49539227420359],
        [-0.110664380899454, 51.495407053009394],
        [-0.110813551009011, 51.49542294504547],
        [-0.110957352575244, 51.495499000598514],
        [-0.110972873375789, 51.49557658667393],
        [-0.111442547115137, 51.49644743753919],
        [-0.110295066692235, 51.4967778641121],
        [-0.110303871266926, 51.49684365170641],
        [-0.110295371718951, 51.49687498871923],
        [-0.109516250571483, 51.4983650888128],
        [-0.109520123682928, 51.498375942324365],
        [-0.109470433151175, 51.49849744013695],
        [-0.109121078673243, 51.499105999774066],
        [-0.10835358963654, 51.50034808493819],
        [-0.108227979837171, 51.50049353678209],
        [-0.108188831995153, 51.50053427105861],
        [-0.107846500959368, 51.50079852510293],
        [-0.10682576491417, 51.50157879273433],
        [-0.106704007634665, 51.501665853507234],
        [-0.106527300432707, 51.501583866069055],
        [-0.105986591262896, 51.50201037480495],
        [-0.105947663669828, 51.50204571636279],
        [-0.106115508659149, 51.502132957086516],
        [-0.106086883879407, 51.502163069532195],
        [-0.106064974185002, 51.502204980745745],
        [-0.106050623332649, 51.50227309245532],
        [-0.106080808511113, 51.50241386388425],
        [-0.10613681358096, 51.50252267904258],
        [-0.106751544702339, 51.50222236121464],
        [-0.107457970444313, 51.503012518924734],
        [-0.106395574426816, 51.503371258815214],
        [-0.106518424699127, 51.50364032135125],
        [-0.106519864642043, 51.503640344599575],
        [-0.106599541038383, 51.5040471953702],
        [-0.106566456759707, 51.5042543893312],
        [-0.106545613893899, 51.504305310406416],
        [-0.106467120668549, 51.504495584594395],
        [-0.106434631485759, 51.50468840002528],
        [-0.106434542409884, 51.50482958174204],
        [-0.106465685935054, 51.5049820587976],
        [-0.106592661581951, 51.50529075501756],
        [-0.106596832558063, 51.50529441937836],
        [-0.107363587739521, 51.507063940865166],
        [-0.108175537640372, 51.50690888028732],
        [-0.108244960081989, 51.507007119669694],
        [-0.108290932525641, 51.507114872575244],
        [-0.108406368386294, 51.50742427974286],
        [-0.108424445008119, 51.50747492958313],
        [-0.108506362921678, 51.507758616882214],
        [-0.108593065117699, 51.50775282112606],
        [-0.108799676775978, 51.507704895445634],
        [-0.108862333064814, 51.508071003331956],
        [-0.108921525839455, 51.50841637244775],
        [-0.108924841439813, 51.50844070579321],
        [-0.109140669146307, 51.50963210130314],
        [-0.109178791080604, 51.50982515642331],
        [-0.109188414629608, 51.509871173563766],
        [-0.108494627361358, 51.50988606486001],
        [-0.107921848859046, 51.50990200503589],
        [-0.107359709671206, 51.50990462528127],
        [-0.106986266187899, 51.509909389371096],
        [-0.10651223636974, 51.50990713286381],
        [-0.105587890265474, 51.50988681053796],
        [-0.105179114572176, 51.50987481156993],
        [-0.104640167302166, 51.50987419643493],
        [-0.104657237123527, 51.50967124059734],
        [-0.104661594814084, 51.509670411764034],
        [-0.104772238216234, 51.50964342358105],
        [-0.104750240366992, 51.50961788895816],
        [-0.104743375367705, 51.50960968472454],
        [-0.104659959742146, 51.509605638959066],
        [-0.104657211748281, 51.50946351221071],
        [-0.104688889205039, 51.509116911565044],
        [-0.104764259950661, 51.509106439228226],
        [-0.104743143063539, 51.50909440766681],
        [-0.104682560808681, 51.50906105546353],
        [-0.104684425551452, 51.509016122829294],
        [-0.1047021632961, 51.50862343486152],
        [-0.104741880738663, 51.508569222113664],
        [-0.104734275750898, 51.50847467739641],
        [-0.104687997730104, 51.5084091831455],
        [-0.104204634529688, 51.5084238522363],
        [-0.104205895922106, 51.50849761157821],
        [-0.104235347672389, 51.508621285647976],
        [-0.104223417485352, 51.50880454092359],
        [-0.104213420052698, 51.509045379783025],
        [-0.104089182571358, 51.5090874350248],
        [-0.104196579385814, 51.50913863012922],
        [-0.104204222222725, 51.50957938881269],
        [-0.104058045554643, 51.50962918269181],
        [-0.104037361422747, 51.50964143789533],
        [-0.104183172834717, 51.50966987335355],
        [-0.10417988287463, 51.50985326826223],
        [-0.103613573402953, 51.50985220610687],
        [-0.103300855396657, 51.50981747383213],
        [-0.101587826525458, 51.50980684412502],
        [-0.100210609766175, 51.50972609196874],
        [-0.099951797765633, 51.50971200754203],
        [-0.099316457851599, 51.509672936769036],
        [-0.098545392294466, 51.50960558373806],
        [-0.097732715348588, 51.509533953686585],
        [-0.096850074489841, 51.50944679459683],
        [-0.096016122387663, 51.50933254232495],
        [-0.095729898335603, 51.509284731051636],
        [-0.095304230703642, 51.509194188014924],
        [-0.09494901750435, 51.5091074856264],
        [-0.094013962301485, 51.508895356280654],
        [-0.093170842340677, 51.5086559379707],
        [-0.092823475926089, 51.508554069295386],
        [-0.092650914380335, 51.50851079649254],
        [-0.092361092141882, 51.50844583253623],
        [-0.091928126259063, 51.508357856201265],
        [-0.091104976599141, 51.50826172966332],
        [-0.090326773394422, 51.5081591351322],
        [-0.089502728762196, 51.508084564899406],
        [-0.089064060649231, 51.50802975755901],
        [-0.088969467483617, 51.50801742516015],
        [-0.08862350225402, 51.507985708852175],
        [-0.088098582942169, 51.50792589514745],
        [-0.087757390776973, 51.50788346299465],
        [-0.087750228098525, 51.50788244695038],
        [-0.087659692404074, 51.507876474449674],
        [-0.086767410322484, 51.507814261110454],
        [-0.086101294866882, 51.50775393348326],
        [-0.085776407348646, 51.507735142320826],
        [-0.085737601205727, 51.507732710413],
        [-0.085675829530847, 51.50772810512058],
        [-0.085187454498671, 51.5076904570176],
        [-0.08489102164965, 51.507646049488045],
        [-0.08420705016224, 51.50753056474801],
        [-0.083935401742945, 51.5074793655808],
        [-0.083466468049985, 51.507424941999275],
        [-0.082668929260264, 51.50730309602448],
        [-0.081921305428029, 51.50719375131106],
        [-0.081397499532086, 51.50710784719721],
        [-0.081127070434161, 51.5070620569815],
        [-0.081059842132556, 51.50705016590111],
        [-0.080776642299568, 51.50699966962275],
        [-0.080295319272986, 51.506897369848396],
        [-0.080189852971354, 51.50686956495858],
        [-0.079985058619872, 51.50680506279727],
        [-0.079821647575231, 51.50675023042581],
        [-0.079256762900104, 51.50657911378696],
        [-0.078949881651882, 51.50650934078076],
        [-0.078506688742272, 51.506391471513],
        [-0.078250550377329, 51.50631443469118],
        [-0.078219172794831, 51.50630672645639],
        [-0.078105296032025, 51.50627338630102],
        [-0.077244841506233, 51.50603806476623],
        [-0.076338087593374, 51.505773201138375],
        [-0.075240584033917, 51.505453042950975],
        [-0.074055826857667, 51.50518629634745],
        [-0.073759194548541, 51.505113080902404],
        [-0.073201136244279, 51.50495193875337],
        [-0.072718300637409, 51.50478393678803],
        [-0.071846655099402, 51.50440540900354],
        [-0.071276871228851, 51.504146944722315],
        [-0.070920992342316, 51.50397562754446],
        [-0.070545600058908, 51.50382287268912],
        [-0.070480464669783, 51.50379572250032],
        [-0.070217914494843, 51.50370057722782],
        [-0.070100110169106, 51.503658171976404],
        [-0.069865448449108, 51.50358506708126],
        [-0.069138429407499, 51.50336537030853],
        [-0.068206690580476, 51.50311441986303],
        [-0.067907657753099, 51.50303035877848],
        [-0.06771842842995, 51.5030074573548],
        [-0.067716988539578, 51.50300743363038],
        [-0.066955089867144, 51.50279524182039],
        [-0.06652704285243, 51.50269556164708],
        [-0.066181222853226, 51.502593638783424],
        [-0.065917623376466, 51.50252364576514],
        [-0.064662331160952, 51.502258337795766],
        [-0.064232321377492, 51.50217120643681],
        [-0.063609638979406, 51.502074597460414],
        [-0.063106916352195, 51.50200334727227],
        [-0.062391707128085, 51.50191419619354],
        [-0.060903217423442, 51.50171243916237],
        [-0.06044580506643, 51.50169408387077],
        [-0.060204751020241, 51.5016703131249],
        [-0.060065277183243, 51.50166350971793],
        [-0.059892305386207, 51.501665144592224],
        [-0.059527098677179, 51.50171485644629],
        [-0.058821236704392, 51.501812884623774],
        [-0.058299072825078, 51.501894166454676],
        [-0.057704188699938, 51.501991327564376],
        [-0.057224872506457, 51.50208140763036],
        [-0.056966846089568, 51.502151771565316],
        [-0.056379779025053, 51.50230211196089],
        [-0.056378300930626, 51.50230298672583],
        [-0.055979764172561, 51.50239080344567],
        [-0.05557958108236, 51.502517259791226],
        [-0.055166537749127, 51.5026749756851],
        [-0.05487468483589, 51.50279513275267],
        [-0.054873244963146, 51.50279510887066],
        [-0.053652696141115, 51.503440312291616],
        [-0.052789389234862, 51.50395204962754],
        [-0.052415705256028, 51.50416616369667],
        [-0.052252272782925, 51.50424798011232],
        [-0.05182807159386, 51.504463951096916],
        [-0.051434411610919, 51.50467323392033],
        [-0.049452505718514, 51.50583450772121],
        [-0.048645975845316, 51.50629680051965],
        [-0.048146705563117, 51.50658255097623],
        [-0.046954953169074, 51.507223668412564],
        [-0.046568006542537, 51.507409666057576],
        [-0.046395681329236, 51.507496721853904],
        [-0.045980293226396, 51.507707423151],
        [-0.045495049349659, 51.50793404481734],
        [-0.045151296566017, 51.50805331298537],
        [-0.044326273260504, 51.50827246724123],
        [-0.043931520273501, 51.508371097618294],
        [-0.043611709075077, 51.508435905597885],
        [-0.043348982672365, 51.5084800828083],
        [-0.042715124877016, 51.50854234623505],
        [-0.042103559573848, 51.50858879167396],
        [-0.04133825513511, 51.50862457307804],
        [-0.040929990092836, 51.50863483996062],
        [-0.040582630898716, 51.50863623112101],
        [-0.040234255851082, 51.508627712382854],
        [-0.039617608595209, 51.50862460047697],
        [-0.038850567408539, 51.508600085983716],
        [-0.038193858119449, 51.50855672906659],
        [-0.037872165673542, 51.50849739162521],
        [-0.037484502755815, 51.50843065453044],
        [-0.037246488585711, 51.50836911853524],
        [-0.03670654941307, 51.5082242921371],
        [-0.035960806354224, 51.50807331904157],
        [-0.035586051778709, 51.50794114554519],
        [-0.034967135516578, 51.507723047050554],
        [-0.034338811674284, 51.507522772844645],
        [-0.033542663116163, 51.50727112106708],
        [-0.033048875479413, 51.50715942499595],
        [-0.032769849851568, 51.50708010595404],
        [-0.032430345794501, 51.50699977159959],
        [-0.03220346396399, 51.50688085911604],
        [-0.031807929571317, 51.5066628946039],
        [-0.031741761090423, 51.50662671279986],
        [-0.031654450833858, 51.506546112163406],
        [-0.031551223771218, 51.506467042829414],
        [-0.031424957611511, 51.5063875866731],
        [-0.031284330994263, 51.50630699004383],
        [-0.031052173838166, 51.50624374112261],
        [-0.030840054081023, 51.506150253188856],
        [-0.030758512531983, 51.506103021514576],
        [-0.03065832291811, 51.506020405318225],
        [-0.030613090571886, 51.50596658913668],
        [-0.030592498746332, 51.50594286246001],
        [-0.030501995714657, 51.505836128645214],
        [-0.030317497050717, 51.50567026316198],
        [-0.030081183027465, 51.505402809371205],
        [-0.029998141498778, 51.505223360031344],
        [-0.029908493978265, 51.50509685627439],
        [-0.02983724433075, 51.504911310041656],
        [-0.029714999900607, 51.50463857759213],
        [-0.029601401871932, 51.5043992630723],
        [-0.029586803458987, 51.50437024131521],
        [-0.029593222076665, 51.50435506165519],
        [-0.029636557322172, 51.50425237428516],
        [-0.029662131587868, 51.50406036126151],
        [-0.029606324349685, 51.50381752133216],
        [-0.029551088031232, 51.50349465636504],
        [-0.029454462087899, 51.503029011992425],
        [-0.0293836273761, 51.50273376201328],
        [-0.029372568351301, 51.50268951218452],
        [-0.02938820192131, 51.50262772558832],
        [-0.029421684097011, 51.50248620430448],
        [-0.029431934836832, 51.50234878897069],
        [-0.029455902749433, 51.5020938003765],
        [-0.029562830186158, 51.50111809563827],
        [-0.029695629544507, 51.50014372464068],
        [-0.029852613899456, 51.49954385419102],
        [-0.029890387792347, 51.49926931352257],
        [-0.029938969650288, 51.49894459552644],
        [-0.030022610504812, 51.49840823975063],
        [-0.030030678900709, 51.4980540645909],
        [-0.030042416038108, 51.497547975120035],
        [-0.030110201945228, 51.497145343460836],
        [-0.030123882955848, 51.49706194155151],
        [-0.030204241844891, 51.49606690474759],
        [-0.030218305084521, 51.49574070740774],
        [-0.030214833850356, 51.495487056067724],
        [-0.030207062377725, 51.49533315102214],
        [-0.030141962756534, 51.49467109684829],
        [-0.030015970370149, 51.49398463868024],
        [-0.029947689447916, 51.493563534184055],
        [-0.030435132679915, 51.49345122062747],
        [-0.031060964386445, 51.493336732450324],
        [-0.03193800285751, 51.49317609837986],
        [-0.032064513267357, 51.49311527293702],
        [-0.032412829590982, 51.493055471503496],
        [-0.032581171200721, 51.493026821710785],
        [-0.032550313718927, 51.49300741939714],
        [-0.032910879974983, 51.4929307359648],
        [-0.033247754869295, 51.492868941600605],
        [-0.033304047027216, 51.49300027930535],
        [-0.033327273139678, 51.49299617251262],
        [-0.03523867920263, 51.49263343623386],
        [-0.037315037950433, 51.49221947401522],
        [-0.037376821718605, 51.49222320590193],
        [-0.037475917362943, 51.492230260015226],
        [-0.037500350694554, 51.492231568197695],
        [-0.037530503535408, 51.49223387136062],
        [-0.037560656379509, 51.49223617451581],
        [-0.037590809226858, 51.49223847766328],
        [-0.0376209234865, 51.49224167942286],
        [-0.037650999160197, 51.49224577979456],
        [-0.037653839621123, 51.49224672659424],
        [-0.037693876213394, 51.49225369144341],
        [-0.037732434703271, 51.49226153080997],
        [-0.037770916030595, 51.49227116740377],
        [-0.037809358787137, 51.492281702605005],
        [-0.037846362034434, 51.492292213706286],
        [-0.037883288127244, 51.49230452203594],
        [-0.037917373769237, 51.492315883560856],
        [-0.037954299900745, 51.49232819186851],
        [-0.037989709355798, 51.49234227331892],
        [-0.03802367930343, 51.49235633067345],
        [-0.038057610689568, 51.49237128663837],
        [-0.038091542098054, 51.49238624259367],
        [-0.038123995416685, 51.49240207307524],
        [-0.038234979249952, 51.49246777769867],
        [-0.038386745518895, 51.492556646080274],
        [-0.038410368962637, 51.49257682509906],
        [-0.038443876312321, 51.49260166577689],
        [-0.038478823236658, 51.49262653052532],
        [-0.03851377019895, 51.49265139526364],
        [-0.038551634852358, 51.49267540952968],
        [-0.038589576690647, 51.49269762654327],
        [-0.038627479994055, 51.49272074216519],
        [-0.03866690002018, 51.492742084612196],
        [-0.038707798196365, 51.492762552503095],
        [-0.038717682145476, 51.49276721414421],
        [-0.038751536926832, 51.49278396715362],
        [-0.038788270821269, 51.4928007683058],
        [-0.038823603766338, 51.49281664675063],
        [-0.038860376281243, 51.4928325492603],
        [-0.03889862693426, 51.492847577213105],
        [-0.038935476632463, 51.49286168245885],
        [-0.03897380446545, 51.4928749131467],
        [-0.039013571867896, 51.49288816789565],
        [-0.039051938309938, 51.49290049993789],
        [-0.039093222431616, 51.49291198149222],
        [-0.039133105588289, 51.4929225403397],
        [-0.039174466873646, 51.49293222462474],
        [-0.039191625773302, 51.49293520934265],
        [-0.039223025921358, 51.49294202924988],
        [-0.039255865628132, 51.49294887321929],
        [-0.039287304354761, 51.4929547944889],
        [-0.039320182639318, 51.49296073981987],
        [-0.039353099490566, 51.49296578652105],
        [-0.039386016349322, 51.49297083321307],
        [-0.039420411322311, 51.49297500534371],
        [-0.039453405307525, 51.49297825477559],
        [-0.039486399297679, 51.49298150419823],
        [-0.039519431847426, 51.492983854990904],
        [-0.03955394250538, 51.4929853312204],
        [-0.039587013615215, 51.49298678337336],
        [-0.039620123280084, 51.49298733689621],
        [-0.039654749600724, 51.492986117233755],
        [-0.039687936369143, 51.492984873495864],
        [-0.039703809977447, 51.492984239590896],
        [-0.039737035293915, 51.49298209721824],
        [-0.039771777257464, 51.49297818165859],
        [-0.039803640114497, 51.49297421796108],
        [-0.039836942516542, 51.49297027831821],
        [-0.039870322008555, 51.492964541423994],
        [-0.039902261942409, 51.492958780457634],
        [-0.039934240414882, 51.49295212086155],
        [-0.039966218878241, 51.49294546125662],
        [-0.040370215355165, 51.49282991320049],
        [-0.04055302397427, 51.49279969522257],
        [-0.040563331996507, 51.492794471875726],
        [-0.04007036679901, 51.492163042680644],
        [-0.041055669756839, 51.49182789416772],
        [-0.040343734268678, 51.49106241425657],
        [-0.042508026044796, 51.49024066443082],
        [-0.04222583878811, 51.490035417236065],
        [-0.042357253094195, 51.49002771932121],
        [-0.042740688297338, 51.49002153033875],
        [-0.04449876523758, 51.49010661650458],
        [-0.044552657389687, 51.49012639979008],
        [-0.044576474619587, 51.49014208447044],
        [-0.04473702707113, 51.49036238384366],
        [-0.044758114671743, 51.490441870787286],
        [-0.045135415036233, 51.490377119432736],
        [-0.04511574498982, 51.49033182826219],
        [-0.045521777481372, 51.490235181127865],
        [-0.045831727565585, 51.49016211083124],
        [-0.045927228990134, 51.490219456756606],
        [-0.046164390445758, 51.490366391752325],
        [-0.046567348136641, 51.4903416309601],
        [-0.046566096741977, 51.49047200351072],
        [-0.046567412988937, 51.490744502666594],
        [-0.047595726963947, 51.49044598666004],
        [-0.047550009764388, 51.490369687226085],
        [-0.049220097426985, 51.4899856197826],
        [-0.049260903099406, 51.49004205302783],
        [-0.049358306267952, 51.490021191757],
        [-0.049713025802271, 51.48994525891216],
        [-0.049657421050731, 51.48986429954032],
        [-0.05034520802022, 51.48974714230387],
        [-0.050817456655347, 51.48961740579615],
        [-0.051151635190098, 51.48955011982268],
        [-0.051466098439699, 51.48943844133938],
        [-0.051958688674356, 51.48913548026725],
        [-0.05016954403258, 51.4883611525773],
        [-0.050108722753863, 51.4883349617961],
        [-0.050344179488598, 51.48811675855924],
        [-0.050308922707917, 51.48809908631601],
        [-0.050384458097313, 51.48801671061539],
        [-0.050464349746754, 51.48793350802863],
        [-0.050644194079773, 51.48787085163441],
        [-0.050738027575248, 51.487933561511134],
        [-0.050770001011333, 51.48792689890036],
        [-0.051115699120624, 51.48782563252364],
        [-0.051308441807441, 51.487798260810266],
        [-0.051750260254571, 51.48780740093634],
        [-0.052119802596143, 51.48782253290256],
        [-0.05217492103637, 51.48781355659286],
        [-0.052412820534327, 51.48777434346761],
        [-0.052500502033492, 51.48771105271619],
        [-0.052622086368524, 51.487561995556355],
        [-0.052631143898203, 51.48755225406954],
        [-0.052889820578237, 51.487633886473105],
        [-0.053977464865564, 51.48793521020363],
        [-0.053728778579482, 51.487517421190766],
        [-0.053564524521347, 51.487281785305456],
        [-0.053515385752104, 51.48721802110893],
        [-0.05340612943488, 51.48707772069093],
        [-0.05332191026489, 51.487025963741026],
        [-0.053254542721579, 51.48698437841287],
        [-0.053186065247897, 51.48696885328724],
        [-0.053156068089789, 51.486962959661305],
        [-0.053030505763645, 51.48686735137322],
        [-0.052994192317543, 51.48684066974477],
        [-0.052933899782495, 51.486734454656556],
        [-0.052901690279948, 51.48667906467771],
        [-0.052880513466615, 51.486601376277505],
        [-0.05284432316507, 51.48647038195235],
        [-0.052856756823575, 51.48644900607138],
        [-0.052893981162572, 51.48638667567716],
        [-0.052920326008838, 51.486343049173264],
        [-0.052940507650175, 51.48627504017961],
        [-0.052946418334692, 51.48610247951865],
        [-0.052949151636204, 51.4860045050591],
        [-0.053079687684293, 51.48598329164361],
        [-0.053181245411003, 51.48596609328527],
        [-0.053140162531557, 51.48584850677945],
        [-0.053560134491866, 51.48579522821387],
        [-0.053551847128755, 51.485516318612895],
        [-0.05342308637953, 51.48529296202767],
        [-0.053314823011143, 51.48523091396787],
        [-0.053249341584963, 51.48521274080509],
        [-0.053195818911277, 51.48521814703884],
        [-0.05316909944294, 51.485169143119705],
        [-0.053097325025186, 51.48516345509378],
        [-0.053040884858366, 51.48483158852542],
        [-0.053001173563753, 51.484614206320984],
        [-0.052999963934174, 51.48460879064653],
        [-0.052964379481142, 51.48439597326905],
        [-0.05301365989457, 51.48438869817549],
        [-0.053117977840067, 51.48437424351593],
        [-0.052984704654421, 51.483580677486124],
        [-0.052982362001676, 51.48356804887688],
        [-0.052890210732208, 51.48356741793896],
        [-0.052832640116082, 51.48356646192269],
        [-0.052800907629633, 51.48346611654621],
        [-0.052922264996847, 51.48345734062526],
        [-0.052921491768257, 51.483407868210364],
        [-0.052978656403913, 51.48338453728794],
        [-0.052949510956234, 51.482919133300385],
        [-0.052955926168043, 51.48280233536702],
        [-0.052959661996491, 51.48274844149622],
        [-0.052857514259608, 51.482745845998025],
        [-0.052818693071554, 51.48274430205714],
        [-0.052811428155031, 51.482644362984644],
        [-0.052942666604388, 51.48264024747033],
        [-0.05297443653574, 51.48240157049691],
        [-0.053017504912503, 51.4819652427787],
        [-0.053052711229109, 51.481747305925566],
        [-0.053118782995023, 51.481447149149965],
        [-0.053250680642482, 51.48105546092913],
        [-0.053260387271008, 51.48103044265977],
        [-0.053168202837366, 51.48103071062389],
        [-0.053156651080598, 51.48103141808671],
        [-0.05318773097059, 51.48097797820876],
        [-0.053218887324035, 51.48092274106151],
        [-0.053268576605275, 51.48083813585184],
        [-0.053306025210763, 51.48077041343626],
        [-0.053427785527492, 51.48051524502379],
        [-0.053489378549694, 51.48048928958749],
        [-0.053514303572871, 51.48047891218195],
        [-0.053506922573202, 51.480381668994156],
        [-0.05338823712179, 51.48036171334181],
        [-0.053356766819624, 51.4803566945435],
        [-0.053358833143638, 51.48030816851885],
        [-0.053413176971481, 51.480317164120095],
        [-0.053573406780093, 51.48034230573234],
        [-0.053573474549309, 51.480273063425344],
        [-0.053573221476035, 51.48024518199818],
        [-0.053520278599083, 51.480237108993],
        [-0.053470205458271, 51.48016163870164],
        [-0.053478119622552, 51.48007723913988],
        [-0.053521759545068, 51.47996555543167],
        [-0.0536213259254, 51.479791851519934],
        [-0.053654081983898, 51.47980048865462],
        [-0.053695396426166, 51.47981106637493],
        [-0.05370798082383, 51.47978609583595],
        [-0.053999784664112, 51.47925767481443],
        [-0.054018469512646, 51.47922471210101],
        [-0.05395295808439, 51.47920743803186],
        [-0.053947278072195, 51.47920554522823],
        [-0.054328519794647, 51.47860576727542],
        [-0.052699249892257, 51.47800858516332],
        [-0.05274746695852, 51.476301680042056],
        [-0.052763032069984, 51.473839747791345],
        [-0.052756998416967, 51.47293318705852],
        [-0.052173765686473, 51.471210396142475],
        [-0.051980512542105, 51.47060917292984],
        [-0.051801467790709, 51.470080126769574],
        [-0.051687078404275, 51.46975718760521],
        [-0.051686574328161, 51.46970142467322],
        [-0.051782449213003, 51.469613990436464],
        [-0.052151296089085, 51.469337749173356],
        [-0.052281831165922, 51.46921402042376],
        [-0.052040909211932, 51.46895462592498],
        [-0.051684337437731, 51.46857100875292],
        [-0.051446360238958, 51.468344035522],
        [-0.050994494565029, 51.46773041840668],
        [-0.050881395976396, 51.46758015907372],
        [-0.051128238872973, 51.46746376075676],
        [-0.051326567884993, 51.46737083579234],
        [-0.051319603837926, 51.4673653244365],
        [-0.051000238704407, 51.46712260912303],
        [-0.050575133169531, 51.46679360358258],
        [-0.050633984806865, 51.46676400704213],
        [-0.050822240602828, 51.46667091544327],
        [-0.050888438759537, 51.46663784384684],
        [-0.050519987217702, 51.46660114262241],
        [-0.050278527449764, 51.46655755954262],
        [-0.049904990741248, 51.466471312086554],
        [-0.049670053542969, 51.46640985088311],
        [-0.049623073844268, 51.46639737886058],
        [-0.049406725810084, 51.46633892417406],
        [-0.049055769949384, 51.46622966871745],
        [-0.048629118903593, 51.466072390386074],
        [-0.048206076819797, 51.465898084470716],
        [-0.04854015564566, 51.46562667124983],
        [-0.047720804198155, 51.465225445494156],
        [-0.047561666247427, 51.46517603342342],
        [-0.047330498487756, 51.46502650195071],
        [-0.047037526740474, 51.464908314137475],
        [-0.04677298520765, 51.46473124753829],
        [-0.046586746560217, 51.46460854187414],
        [-0.046363603966671, 51.46440608532563],
        [-0.046213776204986, 51.464239921642594],
        [-0.045999078740258, 51.463974656314676],
        [-0.04572036085612, 51.46352307406335],
        [-0.045457247809141, 51.4629422565584],
        [-0.045346334654734, 51.462606778666085],
        [-0.045236826076497, 51.46220477816935],
        [-0.04518852521217, 51.46181908572444],
        [-0.045129047405989, 51.46132439531497],
        [-0.045105587485211, 51.46093012430441],
        [-0.04511411829304, 51.4605957384781],
        [-0.045123242645962, 51.460281146452544],
        [-0.045177004858292, 51.45983150910639],
        [-0.045242637289923, 51.459407249177055],
        [-0.045303469116912, 51.45909531780209],
        [-0.045335714805835, 51.45898074899348],
        [-0.045615574223146, 51.45815808718108],
        [-0.045717367207094, 51.457898096779886],
        [-0.045742705625271, 51.45781039078315],
        [-0.045779917073409, 51.45768061704318],
        [-0.045781355518485, 51.457680641021966],
        [-0.046001621619458, 51.457174426895214],
        [-0.046103175810992, 51.45712216340327],
        [-0.046160351499277, 51.45696304639518],
        [-0.04499577905454, 51.45666126027722],
        [-0.044632325130369, 51.4565769620166],
        [-0.043452245583965, 51.45593138066932],
        [-0.042745557293845, 51.45549243062528],
        [-0.042100355983126, 51.45516421412004],
        [-0.041962049800525, 51.45509985444895],
        [-0.041825105453405, 51.45503731590019],
        [-0.041648633568749, 51.45499030372911],
        [-0.04244565064435, 51.45388941985045],
        [-0.042989340037955, 51.45319167117971],
        [-0.043189653735421, 51.45311857714365],
        [-0.043662772504935, 51.45265705471695],
        [-0.043886164007686, 51.45241438255331],
        [-0.044507940125881, 51.451707138674514],
        [-0.044874022044813, 51.45132476015662],
        [-0.045000608135516, 51.451292699085265],
        [-0.045124222873198, 51.45122911386509],
        [-0.04519642895312, 51.451054960265495],
        [-0.045178885912522, 51.45096024433245],
        [-0.045483148990292, 51.450643379036684],
        [-0.045875218419685, 51.450191287639036],
        [-0.046150745829621, 51.44987304233007],
        [-0.046511446192216, 51.44991952103026],
        [-0.046941449538416, 51.449960858404715],
        [-0.047757929145886, 51.45005179620995],
        [-0.048239787145371, 51.45009219384279],
        [-0.048721722678403, 51.45013079223872],
        [-0.049086624269061, 51.45011258547217],
        [-0.049366399356905, 51.45003181070894],
        [-0.049935494809689, 51.449848835505186],
        [-0.050954592381096, 51.4495078748798],
        [-0.05306998331253, 51.448837101383425],
        [-0.053464568141815, 51.44876361933135],
        [-0.053579674183335, 51.44873045915403],
        [-0.053644965103902, 51.448718054217025],
        [-0.053787802523109, 51.44870963456524],
        [-0.053908341333649, 51.44871793066891],
        [-0.053953904263151, 51.44872947831948],
        [-0.054007561312968, 51.44875375009662],
        [-0.054081300897701, 51.44881342674002],
        [-0.054331246184918, 51.44899383246021],
        [-0.054748735419859, 51.449194104178616],
        [-0.055435475846556, 51.44949326447511],
        [-0.056543419471608, 51.44993969059259],
        [-0.057561283652479, 51.45033875074207],
        [-0.058100632608095, 51.44994031786319],
        [-0.058618922462942, 51.449563116222066],
        [-0.05868748117713, 51.44950759768686],
        [-0.05906151129527, 51.44930785875462],
        [-0.059677639505082, 51.448998818321805],
        [-0.060972646834832, 51.44842762856096],
        [-0.06138354230974, 51.448138565215714],
        [-0.061826917004529, 51.447796081342815],
        [-0.062079712476824, 51.44753587582542],
        [-0.06221989699109, 51.44735204464446],
        [-0.06234319572677, 51.44719311370542],
        [-0.062569033593589, 51.44695764106238],
        [-0.062901422487634, 51.44644875254748],
        [-0.063083889534998, 51.446183785596816],
        [-0.063244682659547, 51.44585281363033],
        [-0.063365086421425, 51.445558044184374],
        [-0.063484088532983, 51.44526235218592],
        [-0.063639978983734, 51.4448089980882],
        [-0.063713333436952, 51.44453773130654],
        [-0.063749735342829, 51.44415344545027],
        [-0.063665496201249, 51.44335530146139],
        [-0.063733590475637, 51.44286812310766],
        [-0.063870376978119, 51.4425259624219],
        [-0.064082746312253, 51.44209782077728],
        [-0.064165754873139, 51.44197239472132],
        [-0.064218781702439, 51.44190942232778],
        [-0.064277522239342, 51.44184744353685],
        [-0.064611675183281, 51.441533720693045],
        [-0.065026169285226, 51.441157475069595],
        [-0.064671286158645, 51.4410086323495],
        [-0.064280033127438, 51.440903252125786],
        [-0.064053529763116, 51.440849152286496],
        [-0.063800959061264, 51.43954014028877],
        [-0.063752247805898, 51.438990781089935],
        [-0.063733510645865, 51.438209006069506],
        [-0.063706837534383, 51.43798914358557],
        [-0.06370071877382, 51.43792969069032],
        [-0.063543570348421, 51.437767024504424],
        [-0.063457402295786, 51.43762711331485],
        [-0.063456737638834, 51.43754077241149],
        [-0.063550734952551, 51.437495563328824],
        [-0.063982765474924, 51.437282378922745],
        [-0.064158191447204, 51.437216931827116],
        [-0.064244884348989, 51.437174299365104],
        [-0.064364918588176, 51.437091750294364],
        [-0.064420283090096, 51.43704140618252],
        [-0.064467172554957, 51.43698732501563],
        [-0.064530567255176, 51.43688315725671],
        [-0.064560284383036, 51.43679282169135],
        [-0.064611156208523, 51.43667855513513],
        [-0.064800290068421, 51.43628869695781],
        [-0.065086392020926, 51.43591932393297],
        [-0.065415756176615, 51.43541127741521],
        [-0.06560676131257, 51.43507900210634],
        [-0.065788045760274, 51.43470430037725],
        [-0.065834290535525, 51.434631323356065],
        [-0.065909028792469, 51.43453093912119],
        [-0.06597400167563, 51.43445737180933],
        [-0.066042945957467, 51.43439196342156],
        [-0.066144279105653, 51.43430910398516],
        [-0.066708747471566, 51.43392273704487],
        [-0.067151552028121, 51.43369173343454],
        [-0.067753295756837, 51.433444463806616],
        [-0.068602180457255, 51.432999827365904],
        [-0.069021580253993, 51.43284576831074],
        [-0.069529130353922, 51.43268236844014],
        [-0.069622278316876, 51.432656924497635],
        [-0.069984161559899, 51.43257025924683],
        [-0.070187216238412, 51.43253133701085],
        [-0.070392956601781, 51.432496954989084],
        [-0.070695285854402, 51.43245786766669],
        [-0.070943171500368, 51.43244755942644],
        [-0.071109903840923, 51.432451202734605],
        [-0.071334937468046, 51.43247109276046],
        [-0.071607755182179, 51.43248367511553],
        [-0.072076853707389, 51.4324815001824],
        [-0.072215929846777, 51.43245860818007],
        [-0.072383342988352, 51.432411901770315],
        [-0.072460825764834, 51.4323826008702],
        [-0.072540086525383, 51.432345235730914],
        [-0.072630091641271, 51.432291860365964],
        [-0.072708708656005, 51.43223559986505],
        [-0.072764020254111, 51.432186150262034],
        [-0.072861704111255, 51.43208703822919],
        [-0.073586072204508, 51.431351653071054],
        [-0.074893542555618, 51.42974905442688],
        [-0.074927698160986, 51.429655192106345],
        [-0.074970250255587, 51.42953269105071],
        [-0.075048385505822, 51.42917966205744],
        [-0.075093302076052, 51.42879551226289],
        [-0.075028557767379, 51.428556142397746],
        [-0.074944221745004, 51.428372205431124],
        [-0.074795683671071, 51.428107178792885],
        [-0.074490709094665, 51.42762825352217],
        [-0.074327048790604, 51.427449307721204],
        [-0.074166141212445, 51.42706807111803],
        [-0.073984763315701, 51.4265237299413],
        [-0.073930389305755, 51.426208991041406],
        [-0.073935607101081, 51.4261533220275],
        [-0.073954445476667, 51.42615003452951],
        [-0.074002222357193, 51.426142726231745],
        [-0.074048599529802, 51.426134495643126],
        [-0.074094976686193, 51.42612626503598],
        [-0.074141429393362, 51.42611623711134],
        [-0.07418795764576, 51.426104411869034],
        [-0.074238911651145, 51.426089961517704],
        [-0.074289903405374, 51.426074612494276],
        [-0.074340970684888, 51.42605746614908],
        [-0.074389162974977, 51.42604027254611],
        [-0.074437430784363, 51.42602128162358],
        [-0.074485736330629, 51.42600139203103],
        [-0.074532604361157, 51.425981478802285],
        [-0.074554581999853, 51.425971947890055],
        [-0.074582460622095, 51.42595891683542],
        [-0.074611776701579, 51.42594590938881],
        [-0.074639655291861, 51.4259328783202],
        [-0.074667533866357, 51.425919847244764],
        [-0.074694012725565, 51.425905893898914],
        [-0.074721929040114, 51.42589196416034],
        [-0.074747008167013, 51.42587708853887],
        [-0.074773524748171, 51.42586223652462],
        [-0.07479716637197, 51.425847337279215],
        [-0.074820845750173, 51.42583153937893],
        [-0.074844562881318, 51.425814842823776],
        [-0.074866842526525, 51.425798122651976],
        [-0.074886284987644, 51.425780456603086],
        [-0.074893736706017, 51.42577428411023],
        [-0.074913216914388, 51.42575571940667],
        [-0.074932697106851, 51.42573715469963],
        [-0.074949302351037, 51.425718542767996],
        [-0.074965945348349, 51.42569903218385],
        [-0.074981150866336, 51.42567949798695],
        [-0.074996356371181, 51.42565996378788],
        [-0.075008724701164, 51.425639483716985],
        [-0.075021093019873, 51.425619003644634],
        [-0.075033461327311, 51.42559852357076],
        [-0.07504295469977, 51.42557799627667],
        [-0.075455004614403, 51.424980453566754],
        [-0.075456479814024, 51.424979578520535],
        [-0.075664770068208, 51.42467814600627],
        [-0.076598718669168, 51.42319529253985],
        [-0.077603148633786, 51.42171088996662],
        [-0.078042386562172, 51.421012166596874],
        [-0.078238803423394, 51.420718628249695],
        [-0.078306681580984, 51.42060913099274]
      ]
    ]
  }
}
