{
  "type": "Feature",
  "properties": {
    "name": "Sutton",
    "level": 2,
    "londonBorough": true,
    "center": [-0.1945, 51.3618]
  },
  "geometry": {
    "type": "Polygon",
    "coordinates": [
      [
        [-0.156568836043788, 51.321510587021535],
        [-0.158660110924435, 51.3239778250703],
        [-0.158957037450663, 51.323874580322965],
        [-0.159050326831457, 51.32398216127306],
        [-0.160625652191152, 51.323243430226455],
        [-0.164177659528157, 51.326015872641456],
        [-0.164212479283388, 51.32604249740387],
        [-0.163592693780269, 51.32621533300053],
        [-0.16438444866317, 51.32799032212959],
        [-0.164387564799173, 51.32812795983551],
        [-0.164222597720811, 51.32816134503081],
        [-0.164007602792155, 51.32818944935694],
        [-0.163999163462042, 51.32850855919219],
        [-0.163996112335724, 51.32858494961598],
        [-0.162315930474875, 51.328891328761266],
        [-0.163102143304794, 51.330266062211486],
        [-0.169607497369011, 51.32951180591674],
        [-0.170091218189457, 51.32947619982461],
        [-0.170016558847077, 51.329945352932185],
        [-0.16991982631776, 51.33024779560151],
        [-0.172808590767482, 51.330015024866746],
        [-0.172888961414363, 51.33001537946428],
        [-0.173908252948775, 51.33228844983523],
        [-0.174164357552033, 51.333213297103015],
        [-0.174691475160934, 51.33317025489988],
        [-0.174894046171873, 51.33370847846173],
        [-0.17504499358089, 51.33381154902811],
        [-0.178867797468441, 51.33591509613811],
        [-0.179395464734341, 51.336184987431984],
        [-0.181789828128719, 51.337715870111694],
        [-0.182021272406235, 51.33785345404398],
        [-0.187461020904754, 51.34069402309829],
        [-0.187382825412931, 51.3407836392083],
        [-0.191304540489886, 51.34211762889841],
        [-0.193254449501857, 51.34262703303826],
        [-0.194440025680981, 51.34289351279614],
        [-0.196072612303308, 51.343331431786055],
        [-0.196292222843872, 51.34304075315279],
        [-0.196715436897877, 51.343159678030325],
        [-0.196589572788161, 51.343403240380944],
        [-0.196566284068777, 51.343447845211024],
        [-0.197133248896656, 51.343562686877775],
        [-0.197344429152034, 51.34359651226285],
        [-0.197582680778222, 51.34345269880923],
        [-0.197677555981627, 51.34348653236122],
        [-0.198470300548104, 51.342457375697286],
        [-0.198582689377359, 51.34230083310194],
        [-0.199351266514909, 51.34188729735073],
        [-0.199582503791429, 51.34188545636406],
        [-0.200648473693398, 51.34055023716412],
        [-0.201224393658673, 51.33988553149675],
        [-0.201671352985226, 51.33983753943553],
        [-0.201682726518877, 51.33984041186336],
        [-0.201733538130374, 51.33986277441821],
        [-0.201903107396116, 51.3401891141377],
        [-0.202107713039575, 51.340133802567244],
        [-0.202323340222944, 51.34009035028214],
        [-0.211901436397521, 51.336063464350126],
        [-0.213055839316656, 51.33554242141685],
        [-0.21227244221289, 51.33405476867547],
        [-0.211931063700648, 51.33330946016926],
        [-0.214032204026441, 51.33047735118215],
        [-0.214120334249112, 51.330351898281805],
        [-0.215923595196472, 51.32986230222284],
        [-0.216108651659042, 51.32982825106727],
        [-0.220963308802464, 51.32986432457627],
        [-0.220967612558785, 51.32986438995008],
        [-0.22216900048772, 51.33101660851079],
        [-0.223119688280943, 51.33174865054362],
        [-0.228296521876204, 51.33523709185823],
        [-0.228726081731397, 51.33552685755229],
        [-0.229810321938922, 51.33648657889163],
        [-0.229847642164828, 51.336524012807864],
        [-0.228338440696276, 51.33712888146667],
        [-0.228274269216938, 51.337154888750945],
        [-0.228484696582061, 51.33724530036044],
        [-0.227883776769954, 51.33748980288776],
        [-0.226985449747917, 51.33781433167435],
        [-0.225679740146792, 51.33894741760598],
        [-0.224451905384894, 51.33984696136038],
        [-0.224115567595347, 51.340042398559746],
        [-0.223701425392015, 51.339984860552235],
        [-0.223286151996885, 51.339882340634404],
        [-0.222301786399032, 51.340461819358644],
        [-0.22251403725929, 51.34069075621157],
        [-0.222725426954308, 51.340830652306025],
        [-0.218392248698491, 51.34297881478172],
        [-0.217289430353327, 51.34338828732466],
        [-0.217480868289597, 51.34378328064671],
        [-0.217741962104095, 51.344418538144815],
        [-0.218015118163851, 51.345594436975404],
        [-0.217802558481149, 51.34563256926767],
        [-0.218182511949235, 51.34612844925889],
        [-0.218385437153544, 51.34644987582274],
        [-0.219459578952468, 51.348634336339515],
        [-0.219759127287814, 51.34909391720236],
        [-0.220210568816294, 51.35008097569198],
        [-0.22025238664376, 51.3501877242727],
        [-0.220367892969889, 51.35098712671012],
        [-0.220445870595727, 51.35142085749902],
        [-0.221312115425675, 51.35133959134396],
        [-0.22128701333864, 51.35117194703512],
        [-0.222116868048087, 51.35132572958652],
        [-0.221989932237482, 51.35174825561061],
        [-0.221962349490111, 51.351904308890894],
        [-0.221999881376593, 51.353531647054176],
        [-0.222032042309395, 51.3537767349534],
        [-0.222501764347897, 51.355258655794245],
        [-0.222609468755131, 51.35574139599276],
        [-0.222751334778398, 51.3570115097387],
        [-0.222761331976981, 51.3570871995237],
        [-0.223299755763834, 51.35813131799501],
        [-0.223484975980098, 51.358429984535725],
        [-0.226700071685322, 51.3623194467538],
        [-0.226897717701858, 51.36259491476381],
        [-0.229929770019389, 51.36401843530166],
        [-0.230007172064994, 51.3640600715289],
        [-0.232832659168377, 51.36581671807763],
        [-0.233215910827691, 51.36601134328845],
        [-0.23384424147457, 51.36532478948379],
        [-0.235913348474978, 51.36635863987825],
        [-0.236804372546986, 51.36679830281696],
        [-0.237433936794352, 51.36693906817492],
        [-0.237849327009692, 51.367008265105376],
        [-0.238590981220191, 51.36707337374299],
        [-0.238942001547949, 51.36683585051915],
        [-0.240551749255306, 51.36700301934813],
        [-0.240915296039401, 51.367038154152624],
        [-0.241101965376046, 51.36647802011696],
        [-0.241174837945562, 51.36626329176612],
        [-0.245153593726571, 51.36680316136686],
        [-0.245429183624679, 51.366846856476435],
        [-0.245041490796451, 51.367743906058855],
        [-0.244903607869515, 51.36815639911053],
        [-0.244627673409597, 51.36943640733437],
        [-0.244605841275057, 51.369706757236465],
        [-0.244704627919841, 51.37163175238167],
        [-0.244732967792527, 51.372318311461505],
        [-0.24462490159762, 51.373791476652116],
        [-0.244661012946854, 51.37442509570162],
        [-0.245202242772734, 51.377443020530166],
        [-0.245230753561311, 51.37835079881318],
        [-0.244992349299621, 51.380601667240136],
        [-0.244984782592718, 51.38064921455422],
        [-0.244792736522442, 51.38101143639323],
        [-0.244778683928472, 51.38100313256337],
        [-0.244340053455091, 51.38292726671734],
        [-0.244174723886194, 51.38349222069703],
        [-0.242959762891875, 51.38294524458026],
        [-0.242931485118439, 51.382933130186125],
        [-0.241826472559416, 51.38435536634945],
        [-0.241620212425069, 51.38452492862823],
        [-0.238854934274564, 51.38602832229314],
        [-0.238744585275388, 51.38609500722932],
        [-0.239323696995111, 51.38770708637871],
        [-0.239459460952837, 51.38795192574334],
        [-0.239646012263815, 51.389157934454445],
        [-0.239706881078218, 51.389294636682735],
        [-0.23665753575324, 51.39010218278944],
        [-0.236417544679862, 51.39017590712974],
        [-0.234657241859156, 51.39053877862602],
        [-0.234293885507302, 51.38903783872406],
        [-0.234213750813361, 51.38872998431597],
        [-0.233670980801917, 51.387820747461085],
        [-0.233928217459141, 51.38770951986881],
        [-0.228888734633484, 51.384633528778394],
        [-0.227742264820386, 51.38395433899446],
        [-0.222003250871173, 51.38152212342218],
        [-0.221000066451755, 51.38108064672007],
        [-0.219369266018779, 51.38066739376138],
        [-0.21915092705362, 51.38062810495621],
        [-0.21836317851776, 51.38019077889021],
        [-0.218136260692769, 51.38015045846147],
        [-0.214744307735365, 51.38319497900715],
        [-0.213801432717403, 51.38404749612605],
        [-0.213907930298756, 51.38411746337934],
        [-0.213957045323657, 51.38414788765479],
        [-0.213398555582071, 51.38446580468923],
        [-0.212985580028949, 51.38481111777004],
        [-0.213156116450907, 51.38489734978879],
        [-0.213371740161359, 51.38500675056846],
        [-0.212765348098497, 51.38537339351358],
        [-0.212635801711614, 51.38548922054948],
        [-0.20990588292311, 51.38812284557229],
        [-0.209792997066772, 51.38825331218833],
        [-0.206018245483422, 51.38653914115964],
        [-0.205028247796885, 51.38609233406228],
        [-0.20502681146654, 51.386092312058786],
        [-0.203517930206886, 51.38722563730216],
        [-0.202196270012275, 51.38618380525989],
        [-0.200505322832595, 51.384885392845256],
        [-0.197861572637296, 51.386113618862794],
        [-0.196525498607225, 51.38675851568715],
        [-0.195246312081463, 51.38712550241815],
        [-0.193950736677617, 51.387871711262655],
        [-0.193603702334228, 51.387669423279995],
        [-0.193234267817938, 51.38785347157884],
        [-0.193200700170889, 51.387866442901235],
        [-0.193072715881267, 51.38779522611993],
        [-0.191860644792066, 51.386932120946014],
        [-0.191662541249872, 51.387072046450406],
        [-0.190327171130809, 51.386348206308185],
        [-0.190469436186416, 51.38620292439554],
        [-0.190124789240376, 51.3861229624979],
        [-0.189736557447965, 51.38612775617071],
        [-0.189541644383657, 51.38596827290171],
        [-0.189568385065828, 51.38587336422405],
        [-0.189460803606599, 51.385868104847646],
        [-0.188993950010661, 51.38582581872992],
        [-0.188443712155824, 51.385456708375045],
        [-0.188411493598031, 51.385435527190815],
        [-0.185466050087357, 51.38701491853567],
        [-0.184530789829222, 51.38751391043498],
        [-0.182728201407847, 51.388029122031384],
        [-0.182712152063615, 51.38803516795631],
        [-0.180054013044176, 51.38957301771304],
        [-0.180015738972246, 51.38959580407643],
        [-0.179852930217528, 51.38949705396204],
        [-0.179451371253696, 51.38972822105774],
        [-0.179264593068042, 51.389835029025235],
        [-0.175603664586853, 51.39283648073327],
        [-0.17486754668316, 51.39341853112908],
        [-0.173071470704692, 51.3927151947704],
        [-0.172871392965102, 51.39265002591589],
        [-0.171317367343849, 51.392510677756356],
        [-0.171143938529197, 51.39242613801304],
        [-0.170134078730353, 51.39183394360483],
        [-0.169971678239286, 51.391725294181484],
        [-0.169926413715668, 51.39145480797386],
        [-0.16987983297494, 51.39139742680209],
        [-0.168763037739786, 51.390964518327934],
        [-0.168343480564843, 51.39074483489115],
        [-0.167769470944454, 51.39021788415938],
        [-0.167609020575183, 51.39006070157075],
        [-0.166466494793537, 51.389697511070594],
        [-0.166455183122926, 51.389692837738906],
        [-0.166149599546128, 51.38913950388832],
        [-0.166057030884682, 51.38886647703971],
        [-0.1653943508238, 51.38804226810189],
        [-0.165290504569672, 51.38797949204553],
        [-0.164166976012967, 51.38811297053557],
        [-0.16408125950879, 51.38813590766097],
        [-0.162879568678423, 51.38806761291237],
        [-0.162814205735575, 51.38815651461442],
        [-0.161850731794526, 51.38813331041264],
        [-0.161770295644148, 51.38813204851947],
        [-0.161237645879169, 51.38793844211864],
        [-0.160986550936118, 51.38782029465902],
        [-0.160032389519912, 51.38846087975204],
        [-0.15970365388884, 51.38859420398842],
        [-0.158844326142199, 51.38887656262522],
        [-0.158700861770369, 51.38890578253103],
        [-0.158318401406897, 51.38883772235051],
        [-0.158282419760364, 51.38883895532172],
        [-0.158300559475297, 51.38899571270266],
        [-0.158296957997189, 51.38904961204508],
        [-0.158055710271099, 51.389258945863965],
        [-0.157896335618334, 51.38929061247792],
        [-0.157732370258898, 51.3892934301896],
        [-0.15763514379737, 51.38920916901346],
        [-0.150321584192084, 51.38993655743357],
        [-0.148080504758293, 51.39015744925591],
        [-0.146738295749975, 51.39043568363429],
        [-0.144378371470515, 51.390679804529206],
        [-0.143233527449268, 51.39041347058592],
        [-0.143183689476725, 51.39040188960857],
        [-0.142064776266326, 51.389566718716154],
        [-0.141903728763742, 51.389355534850424],
        [-0.141028172883977, 51.38960962877229],
        [-0.140666920922954, 51.38972799573062],
        [-0.136878439028574, 51.39032248393993],
        [-0.136703392325928, 51.390350275537635],
        [-0.134974622925142, 51.390907295693424],
        [-0.134868605544691, 51.39096945620836],
        [-0.132712432349781, 51.39016084441116],
        [-0.132634710987223, 51.39012813138491],
        [-0.133066291502874, 51.38973033788349],
        [-0.133260519897374, 51.38954908239702],
        [-0.129722278119222, 51.38735329701603],
        [-0.129493429796942, 51.38718507755581],
        [-0.130585299340496, 51.38631402536752],
        [-0.130663546168003, 51.386263116155874],
        [-0.128847659112851, 51.38568107984798],
        [-0.128761183914877, 51.38565182144787],
        [-0.129462503494144, 51.38540582885568],
        [-0.129534880757354, 51.38528738146785],
        [-0.128795838850075, 51.382723453104504],
        [-0.128657151622483, 51.38249462201811],
        [-0.129134674806372, 51.382414119604974],
        [-0.130302258713645, 51.382221429307855],
        [-0.128241558327871, 51.38066965897298],
        [-0.12807895518348, 51.38049889757496],
        [-0.127062939337732, 51.37761308714732],
        [-0.126959247706137, 51.377337151815496],
        [-0.126228595045427, 51.37605210049261],
        [-0.126225943316709, 51.376046662454435],
        [-0.126063978953395, 51.37607194935101],
        [-0.12583306224137, 51.37560423161],
        [-0.126329033552009, 51.375492561557934],
        [-0.126865407927167, 51.375482253778536],
        [-0.126847395774003, 51.37543070733327],
        [-0.126673276860978, 51.37490904377545],
        [-0.127190526210779, 51.37483907683035],
        [-0.127849373514852, 51.37474978791108],
        [-0.125051303616998, 51.37377789243499],
        [-0.124744271094491, 51.37366146859971],
        [-0.12456628593816, 51.37319999091631],
        [-0.12453066179232, 51.37298179684896],
        [-0.124675202123997, 51.37296072956855],
        [-0.124773464506288, 51.372947014820305],
        [-0.12333957715903, 51.371189358687886],
        [-0.123305957841588, 51.37109799364134],
        [-0.123355548036828, 51.37062307299358],
        [-0.123359923427238, 51.37055120129726],
        [-0.122694013705312, 51.36817994184405],
        [-0.122677623886044, 51.36805378101662],
        [-0.122330988279913, 51.36729103794995],
        [-0.1222206426476, 51.366933157196854],
        [-0.122104743374797, 51.36593850196409],
        [-0.122094245387732, 51.365808838352024],
        [-0.124091233373846, 51.36534803197499],
        [-0.124064170282867, 51.36527205967503],
        [-0.123471256084262, 51.36519242024936],
        [-0.123064453444447, 51.36505820636653],
        [-0.122405556443959, 51.36458991755684],
        [-0.12237073051986, 51.364528208789025],
        [-0.121302182150394, 51.36473319768041],
        [-0.12092800400854, 51.36331084057476],
        [-0.12127639374274, 51.36311678968308],
        [-0.121192384459923, 51.362782711110405],
        [-0.121112464567178, 51.36252423703289],
        [-0.121437511443616, 51.36233880401355],
        [-0.121429413132102, 51.36232608431485],
        [-0.121353766459691, 51.36217379321167],
        [-0.121476925121979, 51.362147890763566],
        [-0.121581238130553, 51.36212618236443],
        [-0.121343728889433, 51.36150637111728],
        [-0.121480055245285, 51.361299026539456],
        [-0.121380445263217, 51.361065416494206],
        [-0.121459874682582, 51.36105499971369],
        [-0.122053312351616, 51.36097998300747],
        [-0.122002309124653, 51.360506147320365],
        [-0.121839707697202, 51.35998645792772],
        [-0.122434681081392, 51.35997890952311],
        [-0.122928396302625, 51.35991847698322],
        [-0.12272104793214, 51.359649868480396],
        [-0.121860198391462, 51.35906413132349],
        [-0.121919344596811, 51.35905788541404],
        [-0.123338444892581, 51.35891786011529],
        [-0.123456720995055, 51.359151767563745],
        [-0.124715147254914, 51.35886616703503],
        [-0.124535446254884, 51.358377682239485],
        [-0.124573720961252, 51.35835491390415],
        [-0.124196374383095, 51.35743071324373],
        [-0.121429259121326, 51.35773079176468],
        [-0.120310650399607, 51.353478162636044],
        [-0.120177569892799, 51.35304527425227],
        [-0.119115095917591, 51.35314332579125],
        [-0.117374462493842, 51.34669633194588],
        [-0.117365155298516, 51.34664312504951],
        [-0.116991238100434, 51.346656898516734],
        [-0.116919089214982, 51.34575466364817],
        [-0.118410350014424, 51.34563114789271],
        [-0.118663496269413, 51.34579618469344],
        [-0.118834704190905, 51.34561278434678],
        [-0.118930812566826, 51.34551001182726],
        [-0.125604083867586, 51.345251887608],
        [-0.12592481982018, 51.345239034361136],
        [-0.1263360424028, 51.345049571206445],
        [-0.12685650317826, 51.34485735725823],
        [-0.126884030186767, 51.34488657428849],
        [-0.127148371836999, 51.345165080343804],
        [-0.12683095671551, 51.34544867194537],
        [-0.126781433924641, 51.34546586545532],
        [-0.127002831931783, 51.345705915439204],
        [-0.1271705568195, 51.34683988564029],
        [-0.127347348979397, 51.34718803393586],
        [-0.127443040094208, 51.34730646954211],
        [-0.127556544913775, 51.34744587316108],
        [-0.128354248308964, 51.34742804712417],
        [-0.128371952052784, 51.34745171116155],
        [-0.128868922048037, 51.34727260199172],
        [-0.12886483652293, 51.34726714107699],
        [-0.128735608493298, 51.347090617278845],
        [-0.12888704261419, 51.34700400825819],
        [-0.129152195451778, 51.34684007926137],
        [-0.129020382698544, 51.34662124855708],
        [-0.128993036324163, 51.346587538561224],
        [-0.130559789951275, 51.34612604733313],
        [-0.131431295096798, 51.34602304796685],
        [-0.131147764421211, 51.34550953488481],
        [-0.131126303358378, 51.34547232219],
        [-0.131329077188875, 51.345464766109686],
        [-0.132892514299434, 51.3454366414481],
        [-0.13267921733537, 51.34481993577385],
        [-0.132513712206375, 51.34429931476321],
        [-0.133470878448206, 51.34445485874776],
        [-0.134126489402979, 51.34450487266564],
        [-0.136262676721519, 51.34440938745726],
        [-0.136272830899921, 51.3444068512059],
        [-0.136350500579416, 51.344792976508586],
        [-0.1365378869485, 51.34477527457527],
        [-0.136731049563339, 51.34475676495633],
        [-0.141154052485482, 51.343540180901776],
        [-0.141556877370857, 51.34341437985456],
        [-0.142226819282886, 51.343145333574306],
        [-0.142098676133103, 51.343012007004624],
        [-0.142940981691351, 51.34274119425289],
        [-0.143000685636299, 51.34279160091525],
        [-0.144186064637801, 51.342238450392514],
        [-0.144595444335607, 51.342092059534295],
        [-0.143571698539969, 51.340706243460254],
        [-0.1434640818325, 51.34056245236965],
        [-0.144108997591177, 51.340307387196084],
        [-0.144324130865803, 51.3402064800684],
        [-0.144263492912577, 51.33985929876743],
        [-0.144526598858075, 51.339494764730524],
        [-0.147394000311596, 51.338812642130954],
        [-0.147547430312803, 51.338781795773556],
        [-0.147307457429213, 51.33807476774015],
        [-0.147209022511809, 51.338094793200376],
        [-0.146162797327305, 51.33452610383248],
        [-0.145944914164535, 51.334091002947204],
        [-0.145750593495363, 51.33292966048559],
        [-0.145617104786802, 51.332431147144],
        [-0.145027227628837, 51.33139663207275],
        [-0.144067511698026, 51.33067010062093],
        [-0.149170083171434, 51.32882909880813],
        [-0.149330519090157, 51.328765987073474],
        [-0.146038772305698, 51.327244507394006],
        [-0.14445480617359, 51.326481116022066],
        [-0.144472920517894, 51.32592565040867],
        [-0.144272612182271, 51.32590988666606],
        [-0.145582379726963, 51.32350708440083],
        [-0.145585502124196, 51.323500838909375],
        [-0.147606512168935, 51.32278372689703],
        [-0.147956379430347, 51.32268494443767],
        [-0.148769027766525, 51.32267711008408],
        [-0.14903724006141, 51.3227883634716],
        [-0.15050165215347, 51.322205388076426],
        [-0.150594820431106, 51.32217268696354],
        [-0.151380069519803, 51.32238202659276],
        [-0.151508541998772, 51.32239934221553],
        [-0.152107181389021, 51.322288286902804],
        [-0.152731260282831, 51.323008560544935],
        [-0.156568836043788, 51.321510587021535]
      ]
    ]
  }
}
