{
  "type": "Feature",
  "properties": { "name": "Sutton", "level": 2, "londonBorough": true },
  "geometry": {
    "type": "Polygon",
    "coordinates": [
      [
        [-0.156568836043788, 51.321510587021535],
        [-0.158660110924435, 51.323977825070301],
        [-0.158957037450663, 51.323874580322965],
        [-0.159050326831457, 51.323982161273058],
        [-0.160625652191152, 51.323243430226455],
        [-0.162220720031547, 51.324486988985122],
        [-0.16290700046523, 51.325020234837446],
        [-0.163476109684309, 51.325468905926648],
        [-0.164177659528157, 51.326015872641456],
        [-0.164212479283388, 51.326042497403868],
        [-0.163592693780269, 51.326215333000533],
        [-0.163772700437611, 51.326559879577616],
        [-0.164293193074181, 51.327543751313478],
        [-0.164368031550913, 51.327718484167796],
        [-0.16438444866317, 51.327990322129587],
        [-0.164387564799173, 51.328127959835513],
        [-0.164222597720811, 51.328161345030807],
        [-0.164007602792155, 51.328189449356941],
        [-0.163999163462042, 51.328508559192187],
        [-0.163996112335724, 51.32858494961598],
        [-0.16356055449717, 51.328744486220685],
        [-0.163128620877627, 51.328813251422055],
        [-0.16235914537629, 51.328887510480115],
        [-0.162315930474875, 51.328891328761266],
        [-0.163102143304794, 51.330266062211486],
        [-0.165459619154205, 51.329966685757533],
        [-0.168411425376493, 51.32959292586829],
        [-0.169607497369011, 51.329511805916738],
        [-0.170091218189457, 51.329476199824612],
        [-0.170016558847077, 51.329945352932185],
        [-0.16991982631776, 51.330247795601508],
        [-0.16998642421843, 51.330233548611552],
        [-0.170187759563451, 51.330188133683841],
        [-0.171496923906523, 51.330115056150568],
        [-0.171886612677279, 51.330061787583048],
        [-0.172503572473232, 51.330032747557091],
        [-0.172670587946179, 51.330020065922653],
        [-0.172808590767482, 51.330015024866746],
        [-0.172888961414363, 51.330015379464278],
        [-0.172972581066124, 51.3301506755517],
        [-0.173085195436701, 51.330387142370938],
        [-0.173223567643077, 51.330661780272003],
        [-0.173507531633022, 51.331246239727719],
        [-0.173744939922375, 51.331774217588887],
        [-0.173908252948775, 51.332288449835232],
        [-0.174164357552033, 51.333213297103015],
        [-0.174691475160934, 51.333170254899883],
        [-0.174800964646462, 51.333485807078816],
        [-0.174894046171873, 51.33370847846173],
        [-0.17504499358089, 51.333811549028113],
        [-0.175619716527208, 51.334124456657705],
        [-0.175936535617013, 51.334316439762333],
        [-0.176118979258182, 51.33442179797585],
        [-0.176290409789245, 51.334515293884124],
        [-0.178528686018405, 51.335741659150706],
        [-0.178867797468441, 51.335915096138109],
        [-0.179395464734341, 51.336184987431984],
        [-0.17974101981707, 51.336413377521239],
        [-0.18084640889108, 51.33714007611043],
        [-0.181640726613106, 51.33763801669042],
        [-0.181789828128719, 51.337715870111694],
        [-0.182021272406235, 51.33785345404398],
        [-0.182330637168956, 51.338017426356068],
        [-0.182392631250733, 51.338047165079246],
        [-0.183554608894999, 51.338615544812157],
        [-0.184632932659886, 51.3391943067653],
        [-0.184918029819594, 51.339355198161762],
        [-0.185934992406087, 51.339888932736798],
        [-0.187253920331735, 51.340593696959658],
        [-0.187473102767651, 51.340678922484479],
        [-0.187461020904754, 51.340694023098287],
        [-0.187382825412931, 51.340783639208297],
        [-0.187899387173715, 51.340937313776656],
        [-0.188363108801925, 51.341083873883832],
        [-0.188373046867182, 51.341086725404558],
        [-0.188754255033651, 51.341214022290551],
        [-0.189498998321601, 51.341480029614758],
        [-0.190195529024811, 51.341730898896813],
        [-0.190921741125807, 51.341993912914987],
        [-0.191304540489886, 51.342117628898407],
        [-0.193254449501857, 51.342627033038262],
        [-0.194440025680981, 51.342893512796138],
        [-0.196072612303308, 51.343331431786055],
        [-0.19611953163627, 51.343270104886322],
        [-0.196292222843872, 51.343040753152792],
        [-0.196715436897877, 51.343159678030325],
        [-0.196589572788161, 51.343403240380944],
        [-0.196566284068777, 51.343447845211024],
        [-0.197133248896656, 51.343562686877775],
        [-0.197344429152034, 51.343596512262849],
        [-0.197356367529092, 51.343585005512772],
        [-0.197469975741319, 51.343470748333495],
        [-0.197490206665031, 51.34346746259488],
        [-0.197582680778222, 51.34345269880923],
        [-0.197677555981627, 51.343486532361219],
        [-0.197724297076265, 51.343429698427407],
        [-0.197859897432088, 51.343267218798459],
        [-0.198055715903164, 51.343033724000399],
        [-0.198385200611308, 51.342650308643549],
        [-0.198470300548104, 51.342457375697286],
        [-0.198582689377359, 51.342300833101937],
        [-0.198776552561574, 51.342153636755022],
        [-0.199145858217814, 51.341889535002117],
        [-0.199351266514909, 51.341887297350731],
        [-0.199582503791429, 51.341885456364061],
        [-0.200092379376865, 51.341221539557466],
        [-0.200648473693398, 51.340550237164123],
        [-0.201224393658673, 51.339885531496748],
        [-0.201383623020123, 51.339925745992225],
        [-0.20138369337833, 51.339923948536764],
        [-0.201386809399807, 51.339917701510828],
        [-0.201391395483069, 51.33991057779113],
        [-0.201394511502552, 51.339904330764973],
        [-0.201399027225704, 51.339899004500403],
        [-0.201405013009616, 51.339892801541787],
        [-0.201409563908942, 51.339886576549041],
        [-0.201415514511358, 51.339881272317598],
        [-0.201422899995026, 51.339875990119481],
        [-0.201428850594518, 51.339870685887313],
        [-0.201436236074941, 51.339865403688329],
        [-0.201443586375811, 51.339861020216617],
        [-0.201452371557333, 51.339856658777713],
        [-0.201461156737192, 51.33985229733814],
        [-0.201468507033596, 51.339847913864809],
        [-0.201478691914784, 51.339844473184719],
        [-0.201487441912868, 51.339841010470913],
        [-0.201497591614368, 51.339838468516966],
        [-0.201506341609909, 51.339835005801724],
        [-0.201515021251304, 51.339833340541432],
        [-0.201525170949633, 51.339830798585041],
        [-0.201535285470842, 51.339829155355602],
        [-0.201545399991346, 51.339827512125289],
        [-0.201555514511148, 51.33982586889406],
        [-0.201564158973672, 51.339825102357942],
        [-0.201575673198202, 51.339824379884696],
        [-0.201585717366248, 51.339824534106583],
        [-0.201595761534381, 51.339824688327575],
        [-0.201607205409179, 51.339825763306948],
        [-0.201618649284538, 51.339826838285219],
        [-0.201630093160463, 51.339827913262376],
        [-0.201640066981643, 51.339829864935332],
        [-0.201651475685125, 51.339831838638283],
        [-0.201661414334549, 51.339834689037318],
        [-0.201671352985226, 51.339837539435528],
        [-0.201682726518877, 51.339840411863356],
        [-0.201686960817935, 51.339842275410419],
        [-0.201696864299, 51.339846024534381],
        [-0.201706767781696, 51.339849773657519],
        [-0.201715236383859, 51.339853500749797],
        [-0.201725104697347, 51.339858148599319],
        [-0.201733538130374, 51.339862774418208],
        [-0.201903107396116, 51.340189114137701],
        [-0.202071418768567, 51.34014403666491],
        [-0.202107713039575, 51.340133802567244],
        [-0.202323340222944, 51.340090350282139],
        [-0.202610337697172, 51.33998414482555],
        [-0.202956346032466, 51.339837477748084],
        [-0.203503908518145, 51.339639945192893],
        [-0.204272140940307, 51.339306406991959],
        [-0.206749270973007, 51.338263439163214],
        [-0.206898184352343, 51.338200072457283],
        [-0.206899619186958, 51.338200094423343],
        [-0.209635422987085, 51.337036926899707],
        [-0.210453785576403, 51.336704114753417],
        [-0.211029414240129, 51.336447624452781],
        [-0.211506493173389, 51.33625167598251],
        [-0.211901436397521, 51.336063464350126],
        [-0.213055839316656, 51.335542421416847],
        [-0.21227244221289, 51.334054768675472],
        [-0.211931063700648, 51.333309460169261],
        [-0.212477191501535, 51.332555217441126],
        [-0.212670753902595, 51.332302779409382],
        [-0.212727682189891, 51.332241598673093],
        [-0.213316433923065, 51.331424154467335],
        [-0.214032204026441, 51.330477351182147],
        [-0.214120334249112, 51.330351898281805],
        [-0.214289819816541, 51.3302753469629],
        [-0.214369700004663, 51.330251385362395],
        [-0.215923595196472, 51.329862302222843],
        [-0.216108651659042, 51.329828251067269],
        [-0.216841269308629, 51.32985109807997],
        [-0.217330670939704, 51.329853152680059],
        [-0.218773506640683, 51.329847227895172],
        [-0.219360495024567, 51.329849858864847],
        [-0.220064520111392, 51.329832683214264],
        [-0.220666028334535, 51.329831031967487],
        [-0.220719359727068, 51.329862417280204],
        [-0.220963308802464, 51.32986432457627],
        [-0.220967612558785, 51.329864389950082],
        [-0.221516557485296, 51.330405093248551],
        [-0.22216900048772, 51.331016608510787],
        [-0.223119688280943, 51.331748650543616],
        [-0.224154589387249, 51.332456782047686],
        [-0.225729237707931, 51.333463544939583],
        [-0.22700226133175, 51.33432723361036],
        [-0.226919281353329, 51.334394321660405],
        [-0.227370054948748, 51.334654737825751],
        [-0.228296521876204, 51.335237091858232],
        [-0.228726081731397, 51.335526857552289],
        [-0.229230354631183, 51.335889692450941],
        [-0.229810321938922, 51.33648657889163],
        [-0.229847642164828, 51.336524012807864],
        [-0.228477035027683, 51.337071626252005],
        [-0.228338440696276, 51.337128881466668],
        [-0.228274269216938, 51.337154888750945],
        [-0.228484696582061, 51.337245300360443],
        [-0.227883776769954, 51.33748980288776],
        [-0.226985449747917, 51.337814331674352],
        [-0.226851897127473, 51.337889646773668],
        [-0.226677964334443, 51.338081254882667],
        [-0.226182259545478, 51.338537769801405],
        [-0.225679740146792, 51.338947417605979],
        [-0.224451905384894, 51.339846961360379],
        [-0.224115567595347, 51.340042398559746],
        [-0.223701425392015, 51.339984860552235],
        [-0.223286151996885, 51.339882340634404],
        [-0.222301786399032, 51.340461819358644],
        [-0.22251403725929, 51.340690756211572],
        [-0.222725426954308, 51.340830652306025],
        [-0.22181098053353, 51.341346440745347],
        [-0.22109001763385, 51.341685307673352],
        [-0.220406736131167, 51.342014850788154],
        [-0.219815805532448, 51.342332304575748],
        [-0.219205613036654, 51.342627880188161],
        [-0.218392248698491, 51.342978814781723],
        [-0.217289430353327, 51.343388287324657],
        [-0.217427088755022, 51.343652068690119],
        [-0.217480868289597, 51.343783280646711],
        [-0.217741962104095, 51.344418538144815],
        [-0.217709066397361, 51.344452209699725],
        [-0.217795404821064, 51.344854595816969],
        [-0.218015118163851, 51.345594436975404],
        [-0.217802558481149, 51.345632569267671],
        [-0.21806029684212, 51.345984506171988],
        [-0.218168858210779, 51.346110256255258],
        [-0.218182511949235, 51.346128449258892],
        [-0.218385437153544, 51.346449875822742],
        [-0.218618074373924, 51.346930923793806],
        [-0.218745048889214, 51.347248496788495],
        [-0.218771974160436, 51.347294768750601],
        [-0.218864649511222, 51.347422974357826],
        [-0.21895496240308, 51.347649163848956],
        [-0.219315735881166, 51.348381254873729],
        [-0.219459578952468, 51.348634336339515],
        [-0.219759127287814, 51.34909391720236],
        [-0.219887132578922, 51.349422295617096],
        [-0.219913851255759, 51.349473959735867],
        [-0.220137761126958, 51.349921598876705],
        [-0.220210568816294, 51.350080975691981],
        [-0.22025238664376, 51.350187724272701],
        [-0.220266293636066, 51.350236495850901],
        [-0.220266099681113, 51.350315628177825],
        [-0.220214481357851, 51.350387684328538],
        [-0.220283014310824, 51.350694475497562],
        [-0.220367892969889, 51.350987126710123],
        [-0.220445870595727, 51.351420857499022],
        [-0.221312115425675, 51.351339591343958],
        [-0.22128701333864, 51.35117194703512],
        [-0.222116868048087, 51.35132572958652],
        [-0.222079638809062, 51.351397105663956],
        [-0.222026987240898, 51.351532994662605],
        [-0.221989932237482, 51.351748255610609],
        [-0.221962349490111, 51.351904308890894],
        [-0.22196849144157, 51.35211662843377],
        [-0.22198944742605, 51.352354352216409],
        [-0.221995616010099, 51.352677281613566],
        [-0.222074253215205, 51.352723438369502],
        [-0.222069295185018, 51.352777318954075],
        [-0.221992780725241, 51.352824717865367],
        [-0.221981176763612, 51.35290187843335],
        [-0.221976140650631, 51.353069065080604],
        [-0.221980734183673, 51.353247189053363],
        [-0.221999881376593, 51.353531647054176],
        [-0.222032042309395, 51.353776734953399],
        [-0.222114388693746, 51.354098122672845],
        [-0.222160590951308, 51.354351516989624],
        [-0.222207715086973, 51.3545069055262],
        [-0.222272620481307, 51.354648175665609],
        [-0.222440032114106, 51.355072470775859],
        [-0.222443990374584, 51.355081523475299],
        [-0.222501764347897, 51.355258655794245],
        [-0.222609468755131, 51.355741395992759],
        [-0.222703273375928, 51.356212234734272],
        [-0.222747757693583, 51.356435926951939],
        [-0.222806596654461, 51.356659836917238],
        [-0.222806903113469, 51.356763256846456],
        [-0.222751334778398, 51.357011509738697],
        [-0.222761331976981, 51.357087199523697],
        [-0.222789588552972, 51.357099318631619],
        [-0.222875019194834, 51.357118599938566],
        [-0.222888782316635, 51.357134096203851],
        [-0.222981134454535, 51.357382794550851],
        [-0.223156529477368, 51.357749656629082],
        [-0.223203571248014, 51.357833102348081],
        [-0.223227079668149, 51.357893709535674],
        [-0.22324663922688, 51.357982133980613],
        [-0.223299755763834, 51.35813131799501],
        [-0.223484975980098, 51.358429984535725],
        [-0.223647280196758, 51.358652765184388],
        [-0.223852219255504, 51.358961621992911],
        [-0.224082826345137, 51.359275363850571],
        [-0.224262977621077, 51.359445357636389],
        [-0.22433727669443, 51.359455476479667],
        [-0.224429424703714, 51.359561187659359],
        [-0.224521364626325, 51.359672291184985],
        [-0.224720144021475, 51.35995497439626],
        [-0.224948620444409, 51.36024979763792],
        [-0.225449551771602, 51.360816728060641],
        [-0.226169701407443, 51.361658552964052],
        [-0.226307449530063, 51.36177394565518],
        [-0.226369412374032, 51.361843227711503],
        [-0.226431561198262, 51.36194488598764],
        [-0.226463133972305, 51.362020002735591],
        [-0.226700071685322, 51.362319446753801],
        [-0.226897717701858, 51.362594914763811],
        [-0.2269669173805, 51.362625637748259],
        [-0.228541412085047, 51.363329298598238],
        [-0.229929770019389, 51.364018435301659],
        [-0.230007172064994, 51.364060071528897],
        [-0.230481167429903, 51.364359491922038],
        [-0.231607994490034, 51.365089620791458],
        [-0.23176854817305, 51.365172977705662],
        [-0.231914606993033, 51.3652597126827],
        [-0.23206151368759, 51.365361747707375],
        [-0.232832659168377, 51.365816718077632],
        [-0.233215910827691, 51.366011343288449],
        [-0.23384424147457, 51.365324789483793],
        [-0.233974044336741, 51.365386097490962],
        [-0.234188538074677, 51.365486450856409],
        [-0.235250640665125, 51.365959279198307],
        [-0.235913348474978, 51.36635863987825],
        [-0.236804372546986, 51.36679830281696],
        [-0.237076240286929, 51.366901312794923],
        [-0.237433936794352, 51.366939068174922],
        [-0.237849327009692, 51.367008265105376],
        [-0.238590981220191, 51.36707337374299],
        [-0.238942001547949, 51.366835850519152],
        [-0.239499739965887, 51.366901785703348],
        [-0.240551749255306, 51.367003019348132],
        [-0.240915296039401, 51.367038154152624],
        [-0.241101965376046, 51.366478020116958],
        [-0.241174837945562, 51.366263291766117],
        [-0.24125629626956, 51.366274406522834],
        [-0.242984021864776, 51.366511656776851],
        [-0.244615199876734, 51.366719557808963],
        [-0.245153593726571, 51.36680316136686],
        [-0.245429183624679, 51.366846856476435],
        [-0.245353094570427, 51.366995893238624],
        [-0.245317358093384, 51.36706639950193],
        [-0.245041490796451, 51.367743906058855],
        [-0.244903607869515, 51.368156399110532],
        [-0.244769629134553, 51.368692149003337],
        [-0.24473131687844, 51.368980237234865],
        [-0.244703746018769, 51.369062556011258],
        [-0.244656325403037, 51.36925068996689],
        [-0.244645167084422, 51.369317067966108],
        [-0.244627673409597, 51.369436407334369],
        [-0.244605841275057, 51.369706757236465],
        [-0.24456219831217, 51.370472272087994],
        [-0.24460901591019, 51.370901020866341],
        [-0.244707347147006, 51.371372806556458],
        [-0.24471258659476, 51.371498781302321],
        [-0.244704627919841, 51.371631752381667],
        [-0.244732967792527, 51.372318311461505],
        [-0.244733059074268, 51.372879450288785],
        [-0.244723492308527, 51.373016893543316],
        [-0.244696315897945, 51.373163964813756],
        [-0.244623830583219, 51.373180863991216],
        [-0.24462490159762, 51.373791476652116],
        [-0.244661012946854, 51.374425095701618],
        [-0.244742074132293, 51.37444699308827],
        [-0.244763942464114, 51.374513865832995],
        [-0.244791062066584, 51.374819120731019],
        [-0.244788606245158, 51.374958468995956],
        [-0.244794067649678, 51.375003513733475],
        [-0.244824304153236, 51.375114575483025],
        [-0.244854307806845, 51.375194159690892],
        [-0.244865540149096, 51.375276160466527],
        [-0.244940179755373, 51.375616298955116],
        [-0.244968717747384, 51.37584693656062],
        [-0.245082789918943, 51.37632075579787],
        [-0.245137362088665, 51.376659694252339],
        [-0.245197519726873, 51.377115619864043],
        [-0.245207523193565, 51.377192206623008],
        [-0.245202242772734, 51.377443020530166],
        [-0.245230753561311, 51.37835079881318],
        [-0.245184897447211, 51.379061424982901],
        [-0.245145092098022, 51.379425927464069],
        [-0.245054253159246, 51.380035162887445],
        [-0.245036255288633, 51.380092445803136],
        [-0.244992349299621, 51.380601667240136],
        [-0.244984782592718, 51.380649214554218],
        [-0.244922739699225, 51.38088119293549],
        [-0.244835784822069, 51.380862804501469],
        [-0.244792736522442, 51.38101143639323],
        [-0.244778683928472, 51.381003132563372],
        [-0.244672416285603, 51.381602244624496],
        [-0.244695284788587, 51.381643053806293],
        [-0.24448402531887, 51.38243213456002],
        [-0.244340053455091, 51.382927266717338],
        [-0.244174723886194, 51.383492220697029],
        [-0.242959762891875, 51.382945244580263],
        [-0.242931485118439, 51.382933130186125],
        [-0.24282157809295, 51.383063672833416],
        [-0.242553297891218, 51.383351907865517],
        [-0.24255541303716, 51.383371723255102],
        [-0.242558482477084, 51.383404142562597],
        [-0.242094266889039, 51.384005076919088],
        [-0.241951206497814, 51.384175587937655],
        [-0.241826472559416, 51.384355366349453],
        [-0.241620212425069, 51.384524928628231],
        [-0.241403252625787, 51.384673647039264],
        [-0.241065009467429, 51.38487449990366],
        [-0.240720064233297, 51.385062661568604],
        [-0.240059581611521, 51.385421438443615],
        [-0.239912775644943, 51.385501964995584],
        [-0.239750916049188, 51.38560025036881],
        [-0.23937761245444, 51.385778090262058],
        [-0.239191022320556, 51.38588409658518],
        [-0.239035918358738, 51.385918635218516],
        [-0.238914182564908, 51.385982451410008],
        [-0.238854934274564, 51.386028322293143],
        [-0.238744585275388, 51.386095007229322],
        [-0.238956147548255, 51.386686301446055],
        [-0.238971003437478, 51.386748573479458],
        [-0.238995832340738, 51.386850562719367],
        [-0.239013717443062, 51.387058559960558],
        [-0.239097309894639, 51.387239667690935],
        [-0.239223878952957, 51.387461887747207],
        [-0.239323696995111, 51.387707086378711],
        [-0.239459460952837, 51.387951925743337],
        [-0.239470752749619, 51.388144536430133],
        [-0.239494871381388, 51.38822763046084],
        [-0.239490995821299, 51.388366057826538],
        [-0.239580350389095, 51.388509482928661],
        [-0.239612248008299, 51.388652044763447],
        [-0.239584655301273, 51.38873436186779],
        [-0.239573804665531, 51.388867288889926],
        [-0.239571367936283, 51.388893330734334],
        [-0.239581893708215, 51.38891866806798],
        [-0.239600279344177, 51.388963907138404],
        [-0.239638497275992, 51.389129045331941],
        [-0.239646012263815, 51.389157934454445],
        [-0.239706881078218, 51.389294636682735],
        [-0.239691011063066, 51.389296196785729],
        [-0.239618532831254, 51.389312193819855],
        [-0.239238213409243, 51.389409894060314],
        [-0.238928404348181, 51.389542824580097],
        [-0.238757784287637, 51.389606805177976],
        [-0.238634946848328, 51.38966161196921],
        [-0.238539000990876, 51.389689845175354],
        [-0.238243579480889, 51.389747452589269],
        [-0.237593272443396, 51.389913927741006],
        [-0.236756252911912, 51.390076690588934],
        [-0.23665753575324, 51.390102182789441],
        [-0.236417544679862, 51.390175907129738],
        [-0.234657241859156, 51.390538778626023],
        [-0.234489750273467, 51.39007313759906],
        [-0.234463318753994, 51.389900981184525],
        [-0.234439658184709, 51.389806202649709],
        [-0.234389423619165, 51.389318947432287],
        [-0.234293885507302, 51.389037838724057],
        [-0.234213750813361, 51.388729984315972],
        [-0.234127422818458, 51.388508365231893],
        [-0.234038968227122, 51.388379337562974],
        [-0.233950530986591, 51.388212541259804],
        [-0.233670980801917, 51.387820747461085],
        [-0.233928217459141, 51.387709519868807],
        [-0.233689046807926, 51.387575522411829],
        [-0.232085707505517, 51.386590035396281],
        [-0.231097031701543, 51.385990596119122],
        [-0.230462224433733, 51.385606919467008],
        [-0.228888734633484, 51.384633528778394],
        [-0.227742264820386, 51.383954338994457],
        [-0.224589907350073, 51.382636861302892],
        [-0.222003250871173, 51.38152212342218],
        [-0.221000066451755, 51.381080646720072],
        [-0.220576467700814, 51.380924037825373],
        [-0.220327855149793, 51.38085011957007],
        [-0.220202161876751, 51.380793355448894],
        [-0.220004485865181, 51.380739993953704],
        [-0.219874700565177, 51.380714641419438],
        [-0.219703196659537, 51.380690453372665],
        [-0.219369266018779, 51.380667393761378],
        [-0.21915092705362, 51.380628104956209],
        [-0.218767261050508, 51.380405551120191],
        [-0.218494263518172, 51.380256619597979],
        [-0.21836317851776, 51.38019077889021],
        [-0.218136260692769, 51.380150458461472],
        [-0.218008951933163, 51.380283411359748],
        [-0.217888434284599, 51.380389489598905],
        [-0.217653565710486, 51.38062781807286],
        [-0.217464892099825, 51.380823684379422],
        [-0.217131206223607, 51.381090183998879],
        [-0.216746170964442, 51.381420647921459],
        [-0.216558573135314, 51.381588652080438],
        [-0.216295037189709, 51.381824742978218],
        [-0.215915353479055, 51.38220204721258],
        [-0.215460175577308, 51.38259888342386],
        [-0.214744307735365, 51.38319497900715],
        [-0.213801432717403, 51.384047496126051],
        [-0.213907930298756, 51.38411746337934],
        [-0.213957045323657, 51.384147887654791],
        [-0.213500043297907, 51.384516811447945],
        [-0.21349300185163, 51.384513107044583],
        [-0.213398555582071, 51.384465804689228],
        [-0.212985580028949, 51.384811117770042],
        [-0.213156116450907, 51.384897349788787],
        [-0.213371740161359, 51.385006750568458],
        [-0.213133600358613, 51.385217143113536],
        [-0.213041500535571, 51.385183365170555],
        [-0.212930801587588, 51.385258113991],
        [-0.212765348098497, 51.385373393513582],
        [-0.212635801711614, 51.385489220549481],
        [-0.212427117914908, 51.385681176534113],
        [-0.212253674787878, 51.385853886114447],
        [-0.21208625589977, 51.386019493281388],
        [-0.211949629451873, 51.386169383425177],
        [-0.211779335610208, 51.386334946285501],
        [-0.211550220096349, 51.386534682245355],
        [-0.211295177649483, 51.386772690168314],
        [-0.211047209210535, 51.387013503326813],
        [-0.210878309463459, 51.387216855108804],
        [-0.210537775036764, 51.387546179792835],
        [-0.210418447973428, 51.387620794495966],
        [-0.210352618609615, 51.387650363915526],
        [-0.210289732059163, 51.387678179726691],
        [-0.210175832828866, 51.387797840106515],
        [-0.210165322239419, 51.387809369940257],
        [-0.210153340188583, 51.387821776556436],
        [-0.210138345081903, 51.387837734187151],
        [-0.210075351491226, 51.387905115703475],
        [-0.210066382451078, 51.38791397129603],
        [-0.210139740824422, 51.387986133458568],
        [-0.210019396411054, 51.388049941095865],
        [-0.20990588292311, 51.38812284557229],
        [-0.209792997066772, 51.388253312188333],
        [-0.209494901670935, 51.388047323106257],
        [-0.209396353733365, 51.387994559326984],
        [-0.209328459373806, 51.387966543954441],
        [-0.209055900275354, 51.387879646352623],
        [-0.20888864984585, 51.387856406883145],
        [-0.208831475051123, 51.387848338808539],
        [-0.208717687055263, 51.387817822993],
        [-0.207866992038972, 51.387446009908658],
        [-0.207734711728981, 51.387373844299191],
        [-0.207590593134701, 51.387273620364255],
        [-0.207314477286619, 51.387094040396207],
        [-0.206648284218464, 51.386782593642138],
        [-0.206018245483422, 51.386539141159638],
        [-0.205028247796885, 51.386092334062283],
        [-0.20502681146654, 51.386092312058786],
        [-0.203517930206886, 51.387225637302159],
        [-0.202196270012275, 51.38618380525989],
        [-0.200505322832595, 51.384885392845256],
        [-0.200316868474695, 51.384963431968089],
        [-0.199528059900883, 51.385361376907554],
        [-0.197861572637296, 51.386113618862794],
        [-0.196525498607225, 51.386758515687148],
        [-0.196437869209334, 51.386794036621488],
        [-0.196314118988121, 51.386834397039244],
        [-0.195444944371399, 51.387044930348914],
        [-0.19534876619549, 51.387078520290466],
        [-0.195246312081463, 51.387125502418151],
        [-0.193950736677617, 51.387871711262655],
        [-0.193603702334228, 51.387669423279995],
        [-0.193234267817938, 51.387853471578843],
        [-0.193200700170889, 51.387866442901235],
        [-0.193072715881267, 51.387795226119927],
        [-0.191860644792066, 51.386932120946014],
        [-0.191662541249872, 51.387072046450406],
        [-0.191104609917341, 51.386824230579322],
        [-0.190942939385545, 51.386732707592138],
        [-0.190788344845198, 51.386643991423867],
        [-0.190534997204204, 51.386471917146693],
        [-0.190351056881593, 51.386362064156081],
        [-0.190327171130809, 51.386348206308185],
        [-0.190469436186416, 51.38620292439554],
        [-0.190124789240376, 51.3861229624979],
        [-0.189736557447965, 51.386127756170708],
        [-0.18965716992969, 51.386063581223134],
        [-0.189541644383657, 51.385968272901707],
        [-0.189568385065828, 51.385873364224047],
        [-0.189460803606599, 51.385868104847646],
        [-0.188993950010661, 51.38582581872992],
        [-0.188443712155824, 51.385456708375045],
        [-0.188411493598031, 51.385435527190815],
        [-0.187027760198604, 51.38622885713702],
        [-0.186075900983007, 51.386712316944838],
        [-0.185466050087357, 51.387014918535669],
        [-0.184530789829222, 51.387513910434983],
        [-0.184289308373417, 51.387623475796815],
        [-0.184054282804356, 51.38771515545649],
        [-0.18316801455217, 51.387919937519648],
        [-0.18289106893733, 51.387981289165623],
        [-0.182749960635903, 51.388024063923972],
        [-0.182728201407847, 51.388029122031384],
        [-0.182712152063615, 51.388035167956311],
        [-0.182470165037881, 51.388157311442512],
        [-0.18223565533103, 51.388308346859866],
        [-0.181349100061432, 51.388809867698171],
        [-0.180488416492949, 51.389310884381274],
        [-0.180054013044176, 51.38957301771304],
        [-0.180015738972246, 51.389595804076428],
        [-0.179852930217528, 51.389497053962039],
        [-0.179451371253696, 51.389728221057737],
        [-0.179264593068042, 51.389835029025235],
        [-0.179113796128581, 51.389940597329236],
        [-0.178872842549034, 51.390108611950012],
        [-0.177685826338281, 51.391116216774549],
        [-0.176508913164457, 51.392085298601856],
        [-0.175603664586853, 51.392836480733273],
        [-0.17486754668316, 51.393418531129079],
        [-0.174325612489902, 51.393166388335672],
        [-0.174040913842067, 51.393060335433134],
        [-0.173450187536774, 51.392842499465125],
        [-0.173071470704692, 51.392715194770403],
        [-0.172871392965102, 51.392650025915891],
        [-0.172488342132889, 51.39259549209892],
        [-0.172200606912982, 51.392565824733701],
        [-0.17180552822406, 51.392524590010744],
        [-0.171580785144804, 51.392501299500573],
        [-0.171554999724033, 51.392499098610806],
        [-0.17140484759396, 51.392479669473268],
        [-0.171379133860907, 51.392475671135557],
        [-0.171317367343849, 51.392510677756356],
        [-0.171143938529197, 51.392426138013043],
        [-0.170977009008796, 51.392322814914337],
        [-0.170686715620453, 51.392141128261571],
        [-0.170219693998637, 51.391849668816732],
        [-0.170171176282159, 51.391840817784541],
        [-0.170134078730353, 51.39183394360483],
        [-0.169971678239286, 51.391725294181484],
        [-0.169925234445434, 51.391556406410984],
        [-0.169936327636857, 51.391494530438237],
        [-0.169926413715668, 51.391454807973858],
        [-0.16987983297494, 51.391397426802087],
        [-0.169226873575476, 51.39108327519746],
        [-0.168884059942757, 51.390993387579861],
        [-0.168763037739786, 51.390964518327934],
        [-0.168343480564843, 51.390744834891152],
        [-0.168152502880448, 51.390632139100155],
        [-0.168047712509173, 51.390520790522842],
        [-0.167769470944454, 51.390217884159377],
        [-0.167609020575183, 51.390060701570746],
        [-0.167381275113086, 51.389933041254302],
        [-0.167146061450981, 51.389848428373213],
        [-0.166919179554902, 51.389807110067935],
        [-0.166710827787401, 51.38976967830493],
        [-0.166565427105559, 51.3897395260555],
        [-0.166466494793537, 51.389697511070594],
        [-0.166455183122926, 51.389692837738906],
        [-0.166358011476474, 51.389606786233969],
        [-0.166313987247983, 51.389521566387423],
        [-0.166256820740852, 51.389405565839766],
        [-0.166149599546128, 51.389139503888323],
        [-0.166057030884682, 51.388866477039713],
        [-0.165852603365728, 51.388659144044681],
        [-0.165688934010685, 51.388474930377946],
        [-0.165548247841935, 51.388291076301144],
        [-0.1653943508238, 51.388042268101891],
        [-0.165290504569672, 51.387979492045531],
        [-0.165111892911645, 51.387989284844444],
        [-0.164625143400124, 51.388049106253462],
        [-0.164413888490805, 51.388084465351682],
        [-0.164292227166852, 51.388107738782381],
        [-0.164166976012967, 51.388112970535573],
        [-0.16408125950879, 51.388135907660967],
        [-0.164003698494207, 51.38809872173865],
        [-0.163883691753414, 51.388080654466513],
        [-0.163762104844413, 51.388066159368719],
        [-0.163724867434903, 51.388062878001591],
        [-0.163601664369899, 51.388052853735473],
        [-0.163478281451188, 51.38804732284742],
        [-0.1633547906118, 51.388044487933762],
        [-0.163349045178574, 51.388044397874211],
        [-0.163222501706437, 51.388046011298044],
        [-0.163095850259908, 51.388050320688791],
        [-0.162970455190747, 51.388059145967745],
        [-0.162928620831433, 51.388062986398609],
        [-0.162879568678423, 51.388067612912373],
        [-0.162814205735575, 51.388156514614423],
        [-0.161918240710958, 51.388134369458967],
        [-0.161850731794526, 51.388133310412641],
        [-0.161770295644148, 51.388132048519473],
        [-0.161552085919655, 51.388053985891901],
        [-0.161237645879169, 51.387938442118639],
        [-0.160986550936118, 51.387820294659022],
        [-0.160634429107407, 51.388071058236115],
        [-0.160364722228487, 51.388273655133979],
        [-0.160032389519912, 51.388460879752039],
        [-0.15970365388884, 51.388594203988418],
        [-0.159057536520586, 51.388792683905137],
        [-0.158844326142199, 51.388876562625221],
        [-0.158700861770369, 51.388905782531033],
        [-0.158647253377077, 51.388880659907201],
        [-0.158610592972812, 51.388862997730257],
        [-0.158538672548375, 51.388828594615603],
        [-0.158318401406897, 51.388837722350509],
        [-0.158282419760364, 51.388838955321717],
        [-0.158303258825799, 51.388964280826379],
        [-0.158300559475297, 51.388995712702659],
        [-0.158296957997189, 51.389049612045078],
        [-0.158245847468102, 51.389105462424993],
        [-0.158136985403373, 51.389203569738761],
        [-0.158055710271099, 51.389258945863965],
        [-0.157896335618334, 51.389290612477922],
        [-0.157732370258898, 51.389293430189603],
        [-0.15763514379737, 51.389209169013462],
        [-0.155960730736717, 51.38938696252589],
        [-0.155682133464633, 51.389416749757295],
        [-0.15421792658573, 51.389585237222462],
        [-0.152834267878618, 51.389716307820642],
        [-0.152830949445294, 51.389763017357105],
        [-0.15267254690135, 51.38977041202255],
        [-0.15248114322402, 51.38977638686309],
        [-0.15247644740641, 51.389750234095878],
        [-0.151639712389912, 51.389826964400577],
        [-0.150321584192084, 51.389936557433572],
        [-0.148080504758293, 51.390157449255909],
        [-0.147165281790169, 51.390255388801137],
        [-0.147120535110405, 51.390260076816588],
        [-0.146998989005478, 51.390315707786698],
        [-0.146738295749975, 51.390435683634287],
        [-0.144378371470515, 51.390679804529206],
        [-0.143233527449268, 51.390413470585919],
        [-0.143183689476725, 51.390401889608569],
        [-0.142196011105679, 51.389662323409254],
        [-0.142064776266326, 51.389566718716154],
        [-0.141903728763742, 51.389355534850424],
        [-0.14182101760647, 51.389374906341814],
        [-0.141028172883977, 51.389609628772291],
        [-0.140666920922954, 51.389727995730617],
        [-0.14053828044259, 51.389745738213968],
        [-0.140230470325981, 51.389786715631764],
        [-0.13997866404432, 51.389793509840601],
        [-0.139706784634244, 51.389799085546677],
        [-0.139605836079377, 51.389807374716526],
        [-0.139378317091447, 51.389853221774082],
        [-0.139084650484498, 51.389899816387867],
        [-0.138032929256981, 51.390208643200488],
        [-0.137836191602384, 51.390239688865108],
        [-0.137659039253514, 51.39024856379465],
        [-0.137411283946297, 51.390261711761738],
        [-0.137408301645691, 51.390264362158241],
        [-0.137380134006062, 51.390285496825847],
        [-0.137360913259266, 51.390298680301058],
        [-0.136878439028574, 51.390322483939933],
        [-0.136703392325928, 51.390350275537635],
        [-0.136466701698555, 51.390409460137164],
        [-0.136143143946543, 51.390519420041954],
        [-0.135822019165503, 51.390640208985538],
        [-0.135527807744918, 51.390735346536076],
        [-0.135178426412307, 51.390843993612549],
        [-0.134974622925142, 51.390907295693424],
        [-0.134868605544691, 51.39096945620836],
        [-0.134721274933, 51.390951823361348],
        [-0.134628309301179, 51.390940451438638],
        [-0.134378981967648, 51.390886122869105],
        [-0.134402768967666, 51.390866717703844],
        [-0.134391460360269, 51.390862041307486],
        [-0.134182233262568, 51.390775977124662],
        [-0.133991570691241, 51.390692906016923],
        [-0.133487327886091, 51.390474445839288],
        [-0.13301650271401, 51.390282594717128],
        [-0.132836896517716, 51.390210489091274],
        [-0.132712432349781, 51.390160844411163],
        [-0.132634710987223, 51.390128131384913],
        [-0.132664609791356, 51.390099831287088],
        [-0.133066291502874, 51.389730337883492],
        [-0.133260519897374, 51.389549082397018],
        [-0.132907158578119, 51.38936719552283],
        [-0.132444690615051, 51.389111627081043],
        [-0.132079643995198, 51.388863904786071],
        [-0.131873742300709, 51.388767098162155],
        [-0.131871007130935, 51.388728385992984],
        [-0.131153243020159, 51.388283492269665],
        [-0.131140645506646, 51.388275197917928],
        [-0.130808399912771, 51.388069361101742],
        [-0.130157797040344, 51.387634525209755],
        [-0.129913923091309, 51.387482253653403],
        [-0.129722278119222, 51.387353297016027],
        [-0.129493429796942, 51.387185077555813],
        [-0.129566520443359, 51.387119698444295],
        [-0.129775700412243, 51.386924299021757],
        [-0.129981119265601, 51.38671535016185],
        [-0.13021906555161, 51.386554581303947],
        [-0.130585299340496, 51.386314025367518],
        [-0.130663546168003, 51.386263116155874],
        [-0.129786297001186, 51.385994623609577],
        [-0.128847659112851, 51.385681079847977],
        [-0.128761183914877, 51.385651821447873],
        [-0.128851164974533, 51.385524662923004],
        [-0.128939802665385, 51.385500898884167],
        [-0.129134532677706, 51.38544825369862],
        [-0.129173714566119, 51.385438987366797],
        [-0.129260732436182, 51.385419693570512],
        [-0.129462503494144, 51.385405828855681],
        [-0.129534880757354, 51.385287381467847],
        [-0.129437878245702, 51.384917132316197],
        [-0.129346606521069, 51.384653088376091],
        [-0.129106505809299, 51.383739193688847],
        [-0.129053195279868, 51.383425396495156],
        [-0.128995447859982, 51.383396596971558],
        [-0.128895281039105, 51.382998419314468],
        [-0.128795838850075, 51.382723453104504],
        [-0.128657151622483, 51.382494622018108],
        [-0.129134674806372, 51.382414119604974],
        [-0.130302258713645, 51.382221429307855],
        [-0.130296660614937, 51.38221774289341],
        [-0.130284138145635, 51.382207651089026],
        [-0.129653977045715, 51.381731771288784],
        [-0.128648839858083, 51.380972024854557],
        [-0.128241558327871, 51.380669658972977],
        [-0.12807895518348, 51.380498897574959],
        [-0.127963548711216, 51.380263243326475],
        [-0.127888500271042, 51.38002463675199],
        [-0.127798273263053, 51.379735428417256],
        [-0.127580925278986, 51.379145630611767],
        [-0.127317051555682, 51.378393219919268],
        [-0.127062939337732, 51.377613087147317],
        [-0.126959247706137, 51.377337151815496],
        [-0.126777039166022, 51.377189456035197],
        [-0.126646029840349, 51.376913982882705],
        [-0.126561418466056, 51.376663531827894],
        [-0.126228595045427, 51.376052100492608],
        [-0.126225943316709, 51.376046662454435],
        [-0.126140598251019, 51.376060585055967],
        [-0.126063978953395, 51.376071949351008],
        [-0.12583306224137, 51.375604231609998],
        [-0.125949295262069, 51.375572817899197],
        [-0.125969581891285, 51.375568646047071],
        [-0.126231243168299, 51.375494594657056],
        [-0.126329033552009, 51.375492561557934],
        [-0.126865407927167, 51.375482253778536],
        [-0.126847395774003, 51.375430707333273],
        [-0.126673276860978, 51.374909043775453],
        [-0.127190526210779, 51.374839076830348],
        [-0.127849373514852, 51.374749787911078],
        [-0.127771461541602, 51.374722463990494],
        [-0.127764355307772, 51.374720551885851],
        [-0.12653847125214, 51.374304376323614],
        [-0.125770523562999, 51.374004326506459],
        [-0.125051303616998, 51.373777892434987],
        [-0.124744271094491, 51.373661468599707],
        [-0.124601873671477, 51.37341908365245],
        [-0.12456628593816, 51.373199990916312],
        [-0.12453066179232, 51.372981796848961],
        [-0.124675202123997, 51.372960729568547],
        [-0.124773464506288, 51.372947014820305],
        [-0.124724270805566, 51.372885076908624],
        [-0.124231272481939, 51.372256686867772],
        [-0.123671716939777, 51.371534603618578],
        [-0.1235820635289, 51.371443240475159],
        [-0.12333957715903, 51.371189358687886],
        [-0.123305957841588, 51.371097993641342],
        [-0.123292290100607, 51.37097547366686],
        [-0.123286431377853, 51.370907934393351],
        [-0.123293497420862, 51.37087567378498],
        [-0.123285714566276, 51.37067950774815],
        [-0.123355548036828, 51.370623072993581],
        [-0.123359923427238, 51.37055120129726],
        [-0.123302591814658, 51.37040729859666],
        [-0.123285945131683, 51.370322500325557],
        [-0.123270587289169, 51.370241319786849],
        [-0.123201870004499, 51.369954250318287],
        [-0.123087579539863, 51.369692529561952],
        [-0.1230244332995, 51.369550332082078],
        [-0.122915611207676, 51.369014420612245],
        [-0.122694013705312, 51.368179941844048],
        [-0.122677623886044, 51.36805378101662],
        [-0.122602478696792, 51.367888909150054],
        [-0.12251791122545, 51.367743670224833],
        [-0.122490406225424, 51.367643410133923],
        [-0.122369941409424, 51.367392380847505],
        [-0.122330988279913, 51.367291037949947],
        [-0.1222206426476, 51.366933157196854],
        [-0.122127414351246, 51.366543176871843],
        [-0.122098796879318, 51.366259447128421],
        [-0.122104743374797, 51.365938501964088],
        [-0.122094245387732, 51.365808838352024],
        [-0.123069500052356, 51.365602347431491],
        [-0.124107986759214, 51.365395062443234],
        [-0.124091233373846, 51.365348031974989],
        [-0.124064170282867, 51.365272059675029],
        [-0.123471256084262, 51.365192420249357],
        [-0.123064453444447, 51.365058206366527],
        [-0.122676531916201, 51.364848754685546],
        [-0.122496191179916, 51.364727160450087],
        [-0.122405556443959, 51.364589917556842],
        [-0.12237073051986, 51.364528208789025],
        [-0.122351957589328, 51.364530605713739],
        [-0.121528044287886, 51.364619914115615],
        [-0.121461676115242, 51.364626943327202],
        [-0.121464879659026, 51.364653972898992],
        [-0.121472501704892, 51.364713447164675],
        [-0.121302182150394, 51.364733197680408],
        [-0.12092800400854, 51.363310840574762],
        [-0.12127639374274, 51.363116789683083],
        [-0.121246317100358, 51.363009293765245],
        [-0.121192384459923, 51.362782711110405],
        [-0.121112464567178, 51.362524237032893],
        [-0.121437511443616, 51.362338804013547],
        [-0.121429413132102, 51.362326084314851],
        [-0.121353766459691, 51.362173793211667],
        [-0.12139580088692, 51.362164575301485],
        [-0.121476925121979, 51.362147890763566],
        [-0.121581238130553, 51.362126182364428],
        [-0.121343728889433, 51.361506371117279],
        [-0.121480055245285, 51.361299026539456],
        [-0.121380445263217, 51.361065416494206],
        [-0.121459874682582, 51.361054999713687],
        [-0.122053312351616, 51.360979983007468],
        [-0.121907018964285, 51.360553180405297],
        [-0.122008677757914, 51.360526033445147],
        [-0.122002309124653, 51.360506147320365],
        [-0.121839707697202, 51.359986457927718],
        [-0.121900364062841, 51.359978437686635],
        [-0.122358046792749, 51.359921026941301],
        [-0.122391397169223, 51.359983611399926],
        [-0.122434681081392, 51.359978909523107],
        [-0.122928396302625, 51.359918476983218],
        [-0.12272104793214, 51.359649868480396],
        [-0.121860198391462, 51.359064131323493],
        [-0.121919344596811, 51.359057885414039],
        [-0.123338444892581, 51.358917860115291],
        [-0.123456720995055, 51.359151767563745],
        [-0.124715147254914, 51.358866167035032],
        [-0.124703403036604, 51.358837202263196],
        [-0.124517780992997, 51.358388190697568],
        [-0.124535446254884, 51.358377682239485],
        [-0.124573720961252, 51.358354913904151],
        [-0.12427883289764, 51.357592104427496],
        [-0.124196374383095, 51.35743071324373],
        [-0.121429259121326, 51.357730791764681],
        [-0.120990569304264, 51.356131140607829],
        [-0.120731889207818, 51.355187248823739],
        [-0.12052223722142, 51.354168603853267],
        [-0.120310650399607, 51.353478162636044],
        [-0.120177569892799, 51.353045274252267],
        [-0.119115095917591, 51.353143325791251],
        [-0.119099529582595, 51.353067536719031],
        [-0.119009958760018, 51.352764841197093],
        [-0.118733081458927, 51.352021190361633],
        [-0.118518771952658, 51.351257860419807],
        [-0.118374494876514, 51.350608064432059],
        [-0.118289832937216, 51.350045556367768],
        [-0.118161309404614, 51.349502127579647],
        [-0.118022885710843, 51.349130301214942],
        [-0.117902643710739, 51.348700313865344],
        [-0.117556236771912, 51.347621910851203],
        [-0.117374462493842, 51.346696331945878],
        [-0.117365155298516, 51.346643125049511],
        [-0.116991238100434, 51.346656898516734],
        [-0.116919089214982, 51.345754663648172],
        [-0.117247485744616, 51.345695194928801],
        [-0.117312723543137, 51.345680056583092],
        [-0.118410350014424, 51.345631147892711],
        [-0.118663496269413, 51.345796184693441],
        [-0.118834704190905, 51.345612784346777],
        [-0.118930812566826, 51.345510011827258],
        [-0.11924470811787, 51.345594188840536],
        [-0.120717746888687, 51.345529703377046],
        [-0.124835562050837, 51.34529444232556],
        [-0.125604083867586, 51.345251887608001],
        [-0.12592481982018, 51.345239034361136],
        [-0.126030448617362, 51.345184070033056],
        [-0.1263360424028, 51.345049571206445],
        [-0.12685650317826, 51.344857357258228],
        [-0.126884030186767, 51.344886574288488],
        [-0.127148371836999, 51.345165080343804],
        [-0.126895795094734, 51.345267155941976],
        [-0.126920616780606, 51.345397947816892],
        [-0.126924225561946, 51.345415091759484],
        [-0.12683095671551, 51.34544867194537],
        [-0.126781433924641, 51.345465865455317],
        [-0.127002831931783, 51.345705915439204],
        [-0.127037424128153, 51.345949272929417],
        [-0.127126773008139, 51.346645841395556],
        [-0.1271705568195, 51.346839885640293],
        [-0.127347348979397, 51.347188033935858],
        [-0.127443040094208, 51.347306469542112],
        [-0.127556544913775, 51.347445873161078],
        [-0.128200573303989, 51.347358145809757],
        [-0.128246861334227, 51.347349892753897],
        [-0.128287335883743, 51.347343345332227],
        [-0.128354248308964, 51.347428047124168],
        [-0.128371952052784, 51.347451711161547],
        [-0.128868922048037, 51.347272601991719],
        [-0.12886483652293, 51.347267141076991],
        [-0.128735608493298, 51.347090617278845],
        [-0.128747381760822, 51.347083611167214],
        [-0.12888704261419, 51.347004008258189],
        [-0.129152195451778, 51.346840079261369],
        [-0.129135999773559, 51.346814640878442],
        [-0.129020382698544, 51.346621248557078],
        [-0.128993036324163, 51.346587538561224],
        [-0.129092558521517, 51.346541466688912],
        [-0.129297415634726, 51.346447616979084],
        [-0.129462172206288, 51.346386399697835],
        [-0.129669239315354, 51.346308771585711],
        [-0.129856369910777, 51.346262299420054],
        [-0.130128715222972, 51.346203698241268],
        [-0.130559789951275, 51.346126047333129],
        [-0.131431295096798, 51.346023047966852],
        [-0.131421871405829, 51.346007609958733],
        [-0.131300241363594, 51.345785347188119],
        [-0.131147764421211, 51.345509534884812],
        [-0.131126303358378, 51.345472322189998],
        [-0.131329077188875, 51.345464766109686],
        [-0.132892514299434, 51.345436641448103],
        [-0.132883857271018, 51.345402331010384],
        [-0.13267921733537, 51.344819935773849],
        [-0.132513712206375, 51.344299314763212],
        [-0.132595030351431, 51.344312301842926],
        [-0.133078525748084, 51.344392850606511],
        [-0.133470878448206, 51.34445485874776],
        [-0.134126489402979, 51.344504872665638],
        [-0.134779548357402, 51.344511677081385],
        [-0.13502576803332, 51.344494914452291],
        [-0.135492936980998, 51.344482567968576],
        [-0.135884380319405, 51.344460920991395],
        [-0.136181406794607, 51.344430576130328],
        [-0.136262676721519, 51.344409387457262],
        [-0.136272830899921, 51.344406851205903],
        [-0.136350500579416, 51.344792976508586],
        [-0.1365378869485, 51.344775274575269],
        [-0.136731049563339, 51.34475676495633],
        [-0.137086264775624, 51.344672487702759],
        [-0.137940123813695, 51.344436966116611],
        [-0.139018942510629, 51.344142063614015],
        [-0.141154052485482, 51.343540180901776],
        [-0.141556877370857, 51.343414379854558],
        [-0.141792755318421, 51.343333590491284],
        [-0.142059202319017, 51.343242494275295],
        [-0.142252956565292, 51.343173625631415],
        [-0.142226819282886, 51.343145333574306],
        [-0.142098676133103, 51.343012007004624],
        [-0.142140870659107, 51.342998287912124],
        [-0.142940981691351, 51.342741194252888],
        [-0.143000685636299, 51.342791600915248],
        [-0.143409946444345, 51.342612838419718],
        [-0.143896706920438, 51.342399331708769],
        [-0.144214019756647, 51.342292849757122],
        [-0.144197817221071, 51.342267413370188],
        [-0.144184339322002, 51.34224561724691],
        [-0.144181723605234, 51.342239280884868],
        [-0.144186064637801, 51.342238450392514],
        [-0.144595444335607, 51.342092059534295],
        [-0.14454945210331, 51.342022086872987],
        [-0.144114022104837, 51.341356020408639],
        [-0.143963523647594, 51.341385110221992],
        [-0.143853869444138, 51.341220603929933],
        [-0.143571698539969, 51.340706243460254],
        [-0.1434640818325, 51.340562452369653],
        [-0.143575309646049, 51.340510258923011],
        [-0.143804575727013, 51.340414972389759],
        [-0.144108997591177, 51.340307387196084],
        [-0.144324130865803, 51.340206480068403],
        [-0.144271504198844, 51.339909785054829],
        [-0.144263492912577, 51.339859298767429],
        [-0.144526598858075, 51.339494764730524],
        [-0.145156750185978, 51.339320394640239],
        [-0.145711452268097, 51.339165510008762],
        [-0.147383884200478, 51.33881428066681],
        [-0.147394000311596, 51.338812642130954],
        [-0.147547430312803, 51.338781795773556],
        [-0.147307457429213, 51.338074767740153],
        [-0.147209022511809, 51.338094793200376],
        [-0.147017021360159, 51.337373235652656],
        [-0.14686019940105, 51.336598277835826],
        [-0.146487539150911, 51.335372964651775],
        [-0.146162797327305, 51.334526103832481],
        [-0.145944914164535, 51.334091002947204],
        [-0.145890506433957, 51.333838344675335],
        [-0.145782764717321, 51.333342037765043],
        [-0.145750593495363, 51.33292966048559],
        [-0.145617104786802, 51.332431147144],
        [-0.145445167950794, 51.332102887056585],
        [-0.145172055020599, 51.331542809900867],
        [-0.145027227628837, 51.331396632072753],
        [-0.144067511698026, 51.330670100620928],
        [-0.144639069503261, 51.330450740714873],
        [-0.146244278455296, 51.329907817586921],
        [-0.148057169686128, 51.32926833733223],
        [-0.149170083171434, 51.328829098808129],
        [-0.149330519090157, 51.328765987073474],
        [-0.148580109794738, 51.328437581623334],
        [-0.146933393189468, 51.327626470050866],
        [-0.146518511582841, 51.327449941600733],
        [-0.146038772305698, 51.327244507394006],
        [-0.14445480617359, 51.326481116022066],
        [-0.144389723760816, 51.326315517306355],
        [-0.144472920517894, 51.325925650408671],
        [-0.144272612182271, 51.325909886666061],
        [-0.145094090398496, 51.324404023341756],
        [-0.145582379726963, 51.323507084400831],
        [-0.145585502124196, 51.323500838909375],
        [-0.14565249610251, 51.323476719995696],
        [-0.145936647539536, 51.323370608011714],
        [-0.146554981328706, 51.323127699154213],
        [-0.147159096025027, 51.322916936035718],
        [-0.147606512168935, 51.322783726897029],
        [-0.147956379430347, 51.322684944437668],
        [-0.148384127687194, 51.322683614896313],
        [-0.148769027766525, 51.322677110084079],
        [-0.14903724006141, 51.322788363471602],
        [-0.149453566830424, 51.32253595148385],
        [-0.149593176620468, 51.32249049587945],
        [-0.15032815152734, 51.322272791371411],
        [-0.150497276979137, 51.322207117530965],
        [-0.15050165215347, 51.322205388076426],
        [-0.150594820431106, 51.32217268696354],
        [-0.150722002306305, 51.322186385969921],
        [-0.151380069519803, 51.322382026592763],
        [-0.151508541998772, 51.322399342215533],
        [-0.151514279188548, 51.32239943277358],
        [-0.151760530281118, 51.322343067952659],
        [-0.151993727643817, 51.322290093728888],
        [-0.152089330207683, 51.322268221154864],
        [-0.152107181389021, 51.322288286902804],
        [-0.152731260282831, 51.323008560544935],
        [-0.153539732065385, 51.322675988686463],
        [-0.154781320226418, 51.322172179924344],
        [-0.155545047529827, 51.321845184240061],
        [-0.155648256716114, 51.321955622066312],
        [-0.155927496642257, 51.321863797039249],
        [-0.155805468692847, 51.321721588467554],
        [-0.155827307308313, 51.32171383889613],
        [-0.156204011446693, 51.321589375537187],
        [-0.156477648026121, 51.321529834904219],
        [-0.156515263454892, 51.32152233356377],
        [-0.156568836043788, 51.321510587021535]
      ]
    ]
  }
}
