{
  "type": "Feature",
  "properties": {
    "name": "Tower Hamlets",
    "level": 2,
    "londonBorough": true
  },
  "geometry": {
    "type": "Polygon",
    "coordinates": [
      [
        [-0.029947689447916, 51.493563534184055],
        [-0.030214833850356, 51.495487056067724],
        [-0.030218305084521, 51.49574070740774],
        [-0.030030678900709, 51.4980540645909],
        [-0.030022610504812, 51.49840823975063],
        [-0.02938820192131, 51.50262772558832],
        [-0.029372568351301, 51.50268951218452],
        [-0.029606324349685, 51.50381752133216],
        [-0.029662131587868, 51.50406036126151],
        [-0.029593222076665, 51.50435506165519],
        [-0.029586803458987, 51.50437024131521],
        [-0.029998141498778, 51.505223360031344],
        [-0.030081183027465, 51.505402809371205],
        [-0.03065832291811, 51.506020405318225],
        [-0.030758512531983, 51.506103021514576],
        [-0.03220346396399, 51.50688085911604],
        [-0.032430345794501, 51.50699977159959],
        [-0.035586051778709, 51.50794114554519],
        [-0.035960806354224, 51.50807331904157],
        [-0.038850567408539, 51.508600085983716],
        [-0.039617608595209, 51.50862460047697],
        [-0.04133825513511, 51.50862457307804],
        [-0.042103559573848, 51.50858879167396],
        [-0.044326273260504, 51.50827246724123],
        [-0.045151296566017, 51.50805331298537],
        [-0.046954953169074, 51.507223668412564],
        [-0.048146705563117, 51.50658255097623],
        [-0.053652696141115, 51.503440312291616],
        [-0.054873244963146, 51.50279510887066],
        [-0.056966846089568, 51.502151771565316],
        [-0.057224872506457, 51.50208140763036],
        [-0.059527098677179, 51.50171485644629],
        [-0.059892305386207, 51.501665144592224],
        [-0.063609638979406, 51.502074597460414],
        [-0.064232321377492, 51.50217120643681],
        [-0.06771842842995, 51.5030074573548],
        [-0.067907657753099, 51.50303035877848],
        [-0.070217914494843, 51.50370057722782],
        [-0.070480464669783, 51.50379572250032],
        [-0.072718300637409, 51.50478393678803],
        [-0.073201136244279, 51.50495193875337],
        [-0.079985058619872, 51.50680506279727],
        [-0.080189852971354, 51.50686956495858],
        [-0.079780825909749, 51.507584074000754],
        [-0.07934502339856, 51.50790696568589],
        [-0.079243270843515, 51.50789360891421],
        [-0.078736390850263, 51.50880974413823],
        [-0.078721233918478, 51.50882748100969],
        [-0.079089237421973, 51.50905472657861],
        [-0.079099204661686, 51.50905758760362],
        [-0.078962478967917, 51.509121893269516],
        [-0.078882546568026, 51.50941194368379],
        [-0.078544126060578, 51.509440571550165],
        [-0.078515172773934, 51.50944369423021],
        [-0.077963246897695, 51.51002546321934],
        [-0.077789454540745, 51.510114339309276],
        [-0.077078116412791, 51.510203395525245],
        [-0.076919172864251, 51.51021337904625],
        [-0.07689394845282, 51.510470153359286],
        [-0.076895390667622, 51.5105043488286],
        [-0.076558703888346, 51.510525805374165],
        [-0.076285572048482, 51.510543807133395],
        [-0.076150877749094, 51.51045706744227],
        [-0.076082077365143, 51.5101061272654],
        [-0.075781396248303, 51.5101281722028],
        [-0.075621379899841, 51.50978742548159],
        [-0.075584049510972, 51.50974994334505],
        [-0.075411844294958, 51.50980107311137],
        [-0.074834476883796, 51.509993930331184],
        [-0.07314070863099, 51.51010729875598],
        [-0.072990936290159, 51.510104838004025],
        [-0.072781014363816, 51.51029832639058],
        [-0.072759675947561, 51.51036002461644],
        [-0.073487346466573, 51.5136758560686],
        [-0.073664148492515, 51.51413108701874],
        [-0.076433996923215, 51.51625742977455],
        [-0.076819148081, 51.51659197480572],
        [-0.078048166192559, 51.51848527367229],
        [-0.078082623445591, 51.518967840141315],
        [-0.078334388286586, 51.51894498756248],
        [-0.07942972551766, 51.51884512556304],
        [-0.078452771099408, 51.52154308180648],
        [-0.07823645946911, 51.521853378500545],
        [-0.076717896389806, 51.52221157158227],
        [-0.076453858610134, 51.52201210306731],
        [-0.076163378418355, 51.52220067923844],
        [-0.076079494561429, 51.5223782554831],
        [-0.075727245749191, 51.52348485792537],
        [-0.075718605313005, 51.52358723144995],
        [-0.075915414602925, 51.52432155575058],
        [-0.076443040393141, 51.52428704527109],
        [-0.076640415155754, 51.52627404162593],
        [-0.076635605664533, 51.526388168314256],
        [-0.076315321390012, 51.527146384666516],
        [-0.077253274544128, 51.527296651692346],
        [-0.075680324730175, 51.52839312924743],
        [-0.075635284956593, 51.52843555464799],
        [-0.074373566146549, 51.53001282688793],
        [-0.074170571030067, 51.530142584222745],
        [-0.072787882086738, 51.53069000375418],
        [-0.072265406030303, 51.530839687638014],
        [-0.067308834807001, 51.531140310704835],
        [-0.066313239362307, 51.53122641808997],
        [-0.065364133902446, 51.532936442426305],
        [-0.065140252145485, 51.53321781421325],
        [-0.065110306532173, 51.533175954462635],
        [-0.064980689303512, 51.53290044233043],
        [-0.062674670707954, 51.533184313889855],
        [-0.062238001879609, 51.53324724332286],
        [-0.062754096443638, 51.534234159224496],
        [-0.062838017694726, 51.53463481516535],
        [-0.062850285961613, 51.53499112345029],
        [-0.062664138088662, 51.535300091398994],
        [-0.062470390969628, 51.53551631009361],
        [-0.062095124215007, 51.53545705508736],
        [-0.061701499648924, 51.5352868869463],
        [-0.060655095531052, 51.53442878665317],
        [-0.060460418476275, 51.53432754895228],
        [-0.05935575973966, 51.53409435655768],
        [-0.059063302649189, 51.53408861861328],
        [-0.058112627606122, 51.534201478517],
        [-0.057565952402876, 51.5343417041656],
        [-0.055240245821022, 51.535084624812306],
        [-0.055225683691292, 51.53508798042117],
        [-0.054703591202634, 51.53515845826884],
        [-0.054389921048127, 51.53517663688037],
        [-0.053015850950923, 51.534972188499566],
        [-0.05283602508153, 51.53492873706145],
        [-0.052581663450228, 51.535719458611865],
        [-0.052394551469178, 51.53591418890416],
        [-0.051428548115837, 51.53638464508219],
        [-0.050956829523697, 51.536456842364686],
        [-0.049625504909304, 51.53633130009902],
        [-0.04955138350842, 51.53631118328038],
        [-0.048514655524636, 51.53573730004528],
        [-0.048428451517979, 51.53569629855611],
        [-0.047853591082254, 51.53558421788799],
        [-0.047574768888905, 51.535529219020624],
        [-0.047159464569923, 51.53549622745012],
        [-0.046923234316002, 51.53549049603423],
        [-0.044860664598157, 51.535807747146706],
        [-0.044788943439895, 51.53583263024369],
        [-0.044299885539807, 51.53614101684543],
        [-0.043970517111193, 51.5364241872843],
        [-0.042391367978547, 51.53700034839985],
        [-0.04143719238664, 51.5374610284737],
        [-0.037156686675016, 51.54143165277578],
        [-0.037762637578035, 51.54179429952736],
        [-0.035149715275507, 51.543362935857544],
        [-0.034537153525357, 51.543655724770716],
        [-0.0333876574842, 51.544627443801744],
        [-0.033263026480742, 51.5446748136892],
        [-0.033062509330791, 51.54467594816652],
        [-0.03292036835357, 51.544627702648384],
        [-0.03106500387585, 51.543540847060875],
        [-0.030950715689277, 51.543482275470275],
        [-0.029925761574986, 51.54323845394305],
        [-0.029652126971199, 51.543129544205584],
        [-0.029016209995269, 51.54229334118189],
        [-0.029006937743869, 51.54227430093724],
        [-0.025659531788558, 51.54324496674745],
        [-0.025612682461135, 51.54336108208372],
        [-0.025505566773929, 51.54327025248704],
        [-0.025348521414564, 51.543233437223265],
        [-0.019893347931321, 51.54358572028001],
        [-0.01922812888627, 51.54359427382882],
        [-0.016764913097769, 51.543394387110524],
        [-0.016571534095841, 51.54336413988249],
        [-0.016312288882095, 51.5428255951984],
        [-0.016092544041842, 51.54253951108322],
        [-0.016436532858059, 51.54175937352937],
        [-0.016515282244442, 51.541507113328244],
        [-0.016634947841973, 51.54137514663725],
        [-0.016787170920826, 51.541257219167356],
        [-0.0176226227594, 51.54101415151785],
        [-0.017751664467216, 51.54093180152858],
        [-0.017879533658652, 51.540179481798475],
        [-0.017945948619988, 51.540078088165686],
        [-0.018810420980343, 51.53946500679116],
        [-0.018916325043504, 51.53935079061669],
        [-0.019234266410505, 51.53853783161543],
        [-0.019426986351926, 51.53828389681035],
        [-0.020825259684692, 51.537563807441934],
        [-0.02108993395588, 51.537346155137804],
        [-0.021245912570161, 51.53714105695081],
        [-0.021264142547615, 51.537019964156606],
        [-0.021175012286231, 51.53668123756132],
        [-0.021170383781574, 51.53652199018082],
        [-0.020975247027585, 51.53630017764088],
        [-0.020867806054039, 51.53621743141664],
        [-0.020439476553847, 51.536086105818164],
        [-0.020142424466445, 51.53598667005494],
        [-0.019555552305293, 51.53545519142946],
        [-0.019346255818177, 51.53519446873716],
        [-0.019003331979295, 51.53422556826387],
        [-0.018963231057872, 51.53411967735632],
        [-0.018125978195603, 51.53347784942372],
        [-0.017987915554859, 51.53327048486114],
        [-0.018237278881748, 51.532608344563265],
        [-0.018232504545631, 51.5324526914887],
        [-0.017452218684762, 51.53149617955246],
        [-0.017443925592511, 51.53148794602086],
        [-0.016858947482448, 51.53114712872049],
        [-0.016472072203412, 51.53099220890663],
        [-0.014958878470658, 51.530512483067845],
        [-0.014578821810963, 51.53039993768114],
        [-0.014048168978803, 51.53000427126493],
        [-0.013966140208356, 51.529934538401456],
        [-0.011178471836719, 51.529455659009365],
        [-0.010928586167542, 51.529400163785525],
        [-0.010786564297994, 51.529317720870836],
        [-0.010636221061164, 51.52919466977408],
        [-0.01035363740029, 51.52853341408983],
        [-0.01021245107035, 51.52839882730369],
        [-0.008932969296517, 51.52772065250935],
        [-0.008726452281608, 51.52759664531437],
        [-0.008368660384536, 51.527007847324974],
        [-0.008229170917886, 51.526834618491726],
        [-0.00763693770738, 51.52633266255996],
        [-0.007524538277048, 51.526199460637564],
        [-0.007505521816573, 51.525776483188594],
        [-0.007548978349246, 51.525639633883564],
        [-0.007896839222623, 51.52520040641201],
        [-0.00798101371041, 51.5249563367202],
        [-0.008111253338917, 51.52382187777914],
        [-0.00815321843845, 51.523586983025034],
        [-0.007832338557113, 51.52297902580756],
        [-0.007812802992544, 51.522832113786805],
        [-0.008897799622907, 51.5210915750078],
        [-0.00904377031941, 51.52075233214476],
        [-0.008922835910129, 51.51988968234065],
        [-0.008849484896981, 51.51978682012207],
        [-0.00697228280021, 51.51887275684019],
        [-0.006813459309373, 51.518746858466265],
        [-0.006029543993025, 51.51781808112566],
        [-0.005900066903202, 51.51761444422429],
        [-0.00579711632091, 51.51693554642487],
        [-0.005783510621252, 51.51688405691423],
        [-0.005621095136875, 51.516708636106664],
        [-0.005375552840004, 51.516588455147804],
        [-0.004606845114439, 51.516665306043045],
        [-0.004556462142685, 51.51669682243997],
        [-0.003703875554355, 51.517702980999054],
        [-0.003649169906427, 51.517734423436366],
        [-0.002360261644012, 51.5179723654307],
        [-0.002294361475642, 51.517963149583714],
        [-0.000662702189824, 51.517173667521185],
        [0.00057129360888, 51.51658608706417],
        [0.002545210361329, 51.515879748430876],
        [0.002665423055903, 51.51582733683343],
        [0.00361423497764, 51.51527876521697],
        [0.003808035982523, 51.515129772882034],
        [0.004112145131266, 51.51463717361781],
        [0.004089676641129, 51.51448648058519],
        [0.002481500667902, 51.51179816136841],
        [0.002353818789987, 51.51154854639658],
        [0.002233285526249, 51.5111989905031],
        [0.002222446359572, 51.511017523432315],
        [0.002453174786693, 51.51065927253542],
        [0.002502631530298, 51.51063684564881],
        [0.003285401068242, 51.510543442526654],
        [0.003539207582303, 51.51054720026759],
        [0.004002787829487, 51.510667875052064],
        [0.004079998229424, 51.51071961250983],
        [0.004430481833281, 51.51125138522285],
        [0.004524065759366, 51.51147909911067],
        [0.004624944624566, 51.51252951853064],
        [0.004615098808978, 51.512797668688854],
        [0.004917883144768, 51.51358834510433],
        [0.005076459595249, 51.51378617087886],
        [0.005558960995659, 51.514172699507824],
        [0.006106450515199, 51.514332398317464],
        [0.007103883317838, 51.51426857098867],
        [0.007292227415869, 51.51419250687789],
        [0.007633701438924, 51.51376400592912],
        [0.007847504634964, 51.51357869362361],
        [0.008029002831124, 51.51298656546139],
        [0.00798958752689, 51.51271296344675],
        [0.007855076671408, 51.51230879704568],
        [0.006634375476265, 51.51093132704386],
        [0.006211437124228, 51.51058784806847],
        [0.005935367536126, 51.51007728947529],
        [0.005931459773269, 51.5099883287298],
        [0.006239701405189, 51.509722268215555],
        [0.006482433923647, 51.50963808066908],
        [0.00884190407687, 51.509187622266495],
        [0.009050107978928, 51.509104920056494],
        [0.009863260747501, 51.50832750764],
        [0.009863919118393, 51.508211490622834],
        [0.009346006955026, 51.507281528336556],
        [0.009178411378796, 51.50697684963802],
        [0.008278698973525, 51.50614604792543],
        [0.007597973806146, 51.50551022928845],
        [0.005174199875726, 51.5064284841021],
        [0.004146198654558, 51.50671134085386],
        [0.002181836036154, 51.50673859925929],
        [0.001364524437815, 51.50666711955771],
        [-0.000918753100646, 51.50605858983569],
        [-0.001317546545659, 51.505869346624564],
        [-0.002662593934488, 51.50496601623442],
        [-0.00287506082637, 51.50481945689574],
        [-0.004034303458475, 51.50361618813984],
        [-0.004326041090084, 51.50323806491315],
        [-0.00508031952173, 51.501572863986596],
        [-0.005137096579597, 51.501460522018796],
        [-0.005178142282101, 51.50094953653832],
        [-0.005179488618979, 51.50088571138398],
        [-0.004947026876278, 51.50013806180319],
        [-0.00460327541999, 51.499002731732695],
        [-0.003658164690591, 51.4971224615354],
        [-0.002824153031473, 51.49566853010358],
        [-0.001213735355833, 51.49348913880289],
        [-0.001081648373058, 51.493314227416896],
        [-0.000676888840873, 51.49216075759963],
        [-0.000415335019697, 51.49138922024733],
        [-0.000449130044669, 51.490913183273335],
        [-0.000447145224568, 51.49066225299838],
        [-0.000580923550653, 51.48984350028094],
        [-0.000703961016968, 51.48953355132242],
        [-0.001476417062325, 51.48830662545414],
        [-0.001745551604878, 51.48801535225213],
        [-0.002175264545748, 51.48764228306459],
        [-0.002953226536017, 51.48714474981744],
        [-0.00514300605924, 51.48608041843991],
        [-0.005381192874883, 51.485969363852355],
        [-0.007464642867517, 51.48535911079483],
        [-0.007958052599215, 51.48520832356939],
        [-0.010605945434713, 51.48473260157763],
        [-0.012785469525513, 51.48452675742953],
        [-0.012887116329249, 51.48450779688724],
        [-0.017451277112584, 51.48477840001003],
        [-0.017650286537, 51.48477277201794],
        [-0.019472934528942, 51.4852235307585],
        [-0.020020365363276, 51.485387450221424],
        [-0.023554098036574, 51.48684003414652],
        [-0.023824546049486, 51.48698128116588],
        [-0.02659857165018, 51.48885351313701],
        [-0.026797500953488, 51.48901693043233],
        [-0.028386957373132, 51.49080533075206],
        [-0.029006996001558, 51.49162599378054],
        [-0.029629743987434, 51.49268500445206],
        [-0.029769226435632, 51.49292475445551],
        [-0.029947689447916, 51.493563534184055]
      ]
    ]
  }
}
