{
  "type": "Feature",
  "properties": { "name": "Tower Hamlets", "level": 2, "londonBorough": true },
  "geometry": {
    "type": "Polygon",
    "coordinates": [
      [
        [-0.029947689447916, 51.493563534184055],
        [-0.030015970370149, 51.493984638680239],
        [-0.030141962756534, 51.494671096848293],
        [-0.030207062377725, 51.495333151022137],
        [-0.030214833850356, 51.495487056067724],
        [-0.030218305084521, 51.495740707407741],
        [-0.030204241844891, 51.496066904747593],
        [-0.030123882955848, 51.497061941551507],
        [-0.030110201945228, 51.497145343460836],
        [-0.030042416038108, 51.497547975120035],
        [-0.030030678900709, 51.498054064590903],
        [-0.030022610504812, 51.498408239750631],
        [-0.029938969650288, 51.498944595526439],
        [-0.029890387792347, 51.499269313522568],
        [-0.029852613899456, 51.499543854191018],
        [-0.029695629544507, 51.500143724640679],
        [-0.029562830186158, 51.501118095638269],
        [-0.029455902749433, 51.5020938003765],
        [-0.029431934836832, 51.502348788970693],
        [-0.029421684097011, 51.502486204304482],
        [-0.02938820192131, 51.502627725588319],
        [-0.029372568351301, 51.502689512184517],
        [-0.0293836273761, 51.502733762013278],
        [-0.029454462087899, 51.503029011992425],
        [-0.029551088031232, 51.503494656365042],
        [-0.029606324349685, 51.503817521332159],
        [-0.029662131587868, 51.504060361261509],
        [-0.029636557322172, 51.504252374285159],
        [-0.029593222076665, 51.50435506165519],
        [-0.029586803458987, 51.504370241315208],
        [-0.029601401871932, 51.504399263072301],
        [-0.029714999900607, 51.504638577592132],
        [-0.02983724433075, 51.504911310041656],
        [-0.029908493978265, 51.505096856274392],
        [-0.029998141498778, 51.505223360031344],
        [-0.030081183027465, 51.505402809371205],
        [-0.030317497050717, 51.505670263161981],
        [-0.030501995714657, 51.505836128645214],
        [-0.030592498746332, 51.50594286246001],
        [-0.030613090571886, 51.505966589136683],
        [-0.03065832291811, 51.506020405318225],
        [-0.030758512531983, 51.506103021514576],
        [-0.030840054081023, 51.506150253188856],
        [-0.031052173838166, 51.50624374112261],
        [-0.031284330994263, 51.506306990043832],
        [-0.031424957611511, 51.5063875866731],
        [-0.031551223771218, 51.506467042829414],
        [-0.031654450833858, 51.506546112163406],
        [-0.031741761090423, 51.506626712799857],
        [-0.031807929571317, 51.506662894603899],
        [-0.03220346396399, 51.506880859116038],
        [-0.032430345794501, 51.506999771599588],
        [-0.032769849851568, 51.507080105954039],
        [-0.033048875479413, 51.507159424995947],
        [-0.033542663116163, 51.507271121067078],
        [-0.034338811674284, 51.507522772844645],
        [-0.034967135516578, 51.507723047050554],
        [-0.035586051778709, 51.507941145545189],
        [-0.035960806354224, 51.508073319041571],
        [-0.03670654941307, 51.508224292137101],
        [-0.037246488585711, 51.508369118535242],
        [-0.037484502755815, 51.508430654530443],
        [-0.037872165673542, 51.508497391625212],
        [-0.038193858119449, 51.508556729066591],
        [-0.038850567408539, 51.508600085983716],
        [-0.039617608595209, 51.508624600476971],
        [-0.040234255851082, 51.508627712382854],
        [-0.040582630898716, 51.50863623112101],
        [-0.040929990092836, 51.508634839960621],
        [-0.04133825513511, 51.508624573078038],
        [-0.042103559573848, 51.508588791673958],
        [-0.042715124877016, 51.508542346235053],
        [-0.043348982672365, 51.508480082808298],
        [-0.043611709075077, 51.508435905597885],
        [-0.043931520273501, 51.508371097618294],
        [-0.044326273260504, 51.508272467241227],
        [-0.045151296566017, 51.508053312985368],
        [-0.045495049349659, 51.50793404481734],
        [-0.045980293226396, 51.507707423150997],
        [-0.046395681329236, 51.507496721853904],
        [-0.046568006542537, 51.507409666057576],
        [-0.046954953169074, 51.507223668412564],
        [-0.048146705563117, 51.506582550976233],
        [-0.048645975845316, 51.50629680051965],
        [-0.049452505718514, 51.505834507721211],
        [-0.051434411610919, 51.504673233920329],
        [-0.05182807159386, 51.504463951096916],
        [-0.052252272782925, 51.504247980112318],
        [-0.052415705256028, 51.504166163696667],
        [-0.052789389234862, 51.503952049627543],
        [-0.053652696141115, 51.503440312291616],
        [-0.054873244963146, 51.502795108870657],
        [-0.05487468483589, 51.502795132752667],
        [-0.055166537749127, 51.502674975685103],
        [-0.05557958108236, 51.502517259791226],
        [-0.055979764172561, 51.502390803445671],
        [-0.056378300930626, 51.50230298672583],
        [-0.056379779025053, 51.502302111960887],
        [-0.056966846089568, 51.502151771565316],
        [-0.057224872506457, 51.502081407630357],
        [-0.057704188699938, 51.501991327564376],
        [-0.058299072825078, 51.501894166454676],
        [-0.058821236704392, 51.501812884623774],
        [-0.059527098677179, 51.501714856446291],
        [-0.059892305386207, 51.501665144592224],
        [-0.060065277183243, 51.501663509717929],
        [-0.060204751020241, 51.501670313124897],
        [-0.06044580506643, 51.501694083870767],
        [-0.060903217423442, 51.501712439162368],
        [-0.062391707128085, 51.501914196193539],
        [-0.063106916352195, 51.502003347272272],
        [-0.063609638979406, 51.502074597460414],
        [-0.064232321377492, 51.502171206436813],
        [-0.064662331160952, 51.502258337795766],
        [-0.065917623376466, 51.502523645765137],
        [-0.066181222853226, 51.502593638783424],
        [-0.06652704285243, 51.50269556164708],
        [-0.066955089867144, 51.502795241820387],
        [-0.067716988539578, 51.50300743363038],
        [-0.06771842842995, 51.503007457354798],
        [-0.067907657753099, 51.503030358778481],
        [-0.068206690580476, 51.503114419863032],
        [-0.069138429407499, 51.503365370308529],
        [-0.069865448449108, 51.503585067081261],
        [-0.070100110169106, 51.503658171976404],
        [-0.070217914494843, 51.503700577227818],
        [-0.070480464669783, 51.503795722500321],
        [-0.070545600058908, 51.503822872689121],
        [-0.070920992342316, 51.503975627544463],
        [-0.071276871228851, 51.504146944722315],
        [-0.071846655099402, 51.504405409003539],
        [-0.072718300637409, 51.50478393678803],
        [-0.073201136244279, 51.504951938753372],
        [-0.073759194548541, 51.505113080902404],
        [-0.074055826857667, 51.505186296347453],
        [-0.075240584033917, 51.505453042950975],
        [-0.076338087593374, 51.505773201138375],
        [-0.077244841506233, 51.50603806476623],
        [-0.078105296032025, 51.506273386301018],
        [-0.078219172794831, 51.506306726456387],
        [-0.078250550377329, 51.506314434691177],
        [-0.078506688742272, 51.506391471512998],
        [-0.078949881651882, 51.506509340780759],
        [-0.079256762900104, 51.506579113786962],
        [-0.079821647575231, 51.506750230425808],
        [-0.079985058619872, 51.50680506279727],
        [-0.080189852971354, 51.506869564958578],
        [-0.079780825909749, 51.507584074000754],
        [-0.079757142877245, 51.507598973631119],
        [-0.079550057386693, 51.507725975285361],
        [-0.079404582673627, 51.507792835963023],
        [-0.07937942556116, 51.507842782460415],
        [-0.07934502339856, 51.507906965685891],
        [-0.079243270843515, 51.507893608914209],
        [-0.07910271251827, 51.50822043545022],
        [-0.079054785843794, 51.508332057776492],
        [-0.079047063796813, 51.508412864559673],
        [-0.078871287018594, 51.508651885888341],
        [-0.078736390850263, 51.508809744138233],
        [-0.078721233918478, 51.508827481009689],
        [-0.078736885807975, 51.508832233707956],
        [-0.078790890699313, 51.508850204299158],
        [-0.07874826575514, 51.50893853262734],
        [-0.079089237421973, 51.509054726578611],
        [-0.079099204661686, 51.509057587603621],
        [-0.079049186922615, 51.509116119425755],
        [-0.078962478967917, 51.509121893269516],
        [-0.078882546568026, 51.509411943683787],
        [-0.078544126060578, 51.509440571550165],
        [-0.078515172773934, 51.509443694230207],
        [-0.078502218460758, 51.509511825630121],
        [-0.078398165710406, 51.509655800681429],
        [-0.078166745513518, 51.509881319638829],
        [-0.077963246897695, 51.510025463219343],
        [-0.077789454540745, 51.510114339309276],
        [-0.077578064328278, 51.510172024082017],
        [-0.077078116412791, 51.510203395525245],
        [-0.076919172864251, 51.510213379046249],
        [-0.076882642001862, 51.5102595414833],
        [-0.076886474575148, 51.510339638331494],
        [-0.07689394845282, 51.510470153359286],
        [-0.076895390667622, 51.510504348828597],
        [-0.076558703888346, 51.510525805374165],
        [-0.076285572048482, 51.510543807133395],
        [-0.076276396403619, 51.510453730778416],
        [-0.076172517592043, 51.510456523152506],
        [-0.076150877749094, 51.510457067442267],
        [-0.076082077365143, 51.510106127265402],
        [-0.075781396248303, 51.510128172202798],
        [-0.075776164620423, 51.510081324919675],
        [-0.075758459217432, 51.509885895301657],
        [-0.075699186149557, 51.509856146515901],
        [-0.075693539296361, 51.509853356088954],
        [-0.07564082197363, 51.509804830404192],
        [-0.075621379899841, 51.509787425481591],
        [-0.075584049510972, 51.509749943345049],
        [-0.07556654098455, 51.509755051607215],
        [-0.075411844294958, 51.509801073111369],
        [-0.074834476883796, 51.509993930331184],
        [-0.074618042261631, 51.509966097397736],
        [-0.074421466385447, 51.509945784183991],
        [-0.074196884443133, 51.510008641846184],
        [-0.07404957563902, 51.510050286580906],
        [-0.073833027154431, 51.51009349177766],
        [-0.073521127509333, 51.510108152604552],
        [-0.07314070863099, 51.510107298755983],
        [-0.072990936290159, 51.510104838004025],
        [-0.072914191983886, 51.510147640714266],
        [-0.072835361770495, 51.510239868342545],
        [-0.072781014363816, 51.510298326390583],
        [-0.072759675947561, 51.510360024616439],
        [-0.072749283487382, 51.510640422629955],
        [-0.072763983162958, 51.510804329303305],
        [-0.072771181840381, 51.510872791270359],
        [-0.072827114018308, 51.511084136928481],
        [-0.072916512495321, 51.511253767277559],
        [-0.072983512863499, 51.511441913975041],
        [-0.073043993856459, 51.511682110519921],
        [-0.073063167843528, 51.51180832176761],
        [-0.073143047730701, 51.512340196764427],
        [-0.073267422664976, 51.512944743302853],
        [-0.073389226571667, 51.513371194226011],
        [-0.073391879517485, 51.513376633356074],
        [-0.073487346466573, 51.513675856068602],
        [-0.073664148492515, 51.51413108701874],
        [-0.07396906207515, 51.514453532784835],
        [-0.074306537385524, 51.514687485783661],
        [-0.074441998502045, 51.514790426720282],
        [-0.074813780952172, 51.515099579870551],
        [-0.075146073145563, 51.515354128230591],
        [-0.076433996923215, 51.516257429774548],
        [-0.076819148081, 51.516591974805721],
        [-0.076857622446976, 51.516636669288381],
        [-0.076876878584012, 51.516658567206676],
        [-0.076918082315488, 51.51670690345086],
        [-0.077370467864347, 51.517395957153731],
        [-0.077402954959673, 51.517445948844347],
        [-0.077643297022024, 51.517865345180688],
        [-0.077686288588312, 51.51797396067802],
        [-0.077734090800981, 51.518036792875705],
        [-0.077803158241197, 51.518108066874163],
        [-0.077965818049897, 51.518250117379026],
        [-0.078146869114682, 51.518468905862832],
        [-0.078048166192559, 51.51848527367229],
        [-0.078082623445591, 51.518967840141315],
        [-0.078334388286586, 51.518944987562477],
        [-0.07942972551766, 51.51884512556304],
        [-0.079173588526952, 51.519451526672853],
        [-0.078990040551453, 51.52011397076717],
        [-0.07884055305592, 51.520651975731504],
        [-0.078843244873609, 51.520656516105547],
        [-0.078810956347262, 51.52073871886747],
        [-0.078730546817431, 51.521039552058724],
        [-0.078471456521479, 51.521510115418195],
        [-0.078452771099408, 51.521543081806477],
        [-0.07823645946911, 51.521853378500545],
        [-0.077922818184295, 51.521941762008012],
        [-0.077131390620586, 51.522114037191059],
        [-0.076717896389806, 51.522211571582268],
        [-0.076453858610134, 51.522012103067311],
        [-0.07618706898977, 51.522151608675074],
        [-0.076163378418355, 51.522200679238438],
        [-0.076079494561429, 51.522378255483098],
        [-0.076014526100218, 51.522551645655213],
        [-0.075863093421345, 51.522895375493903],
        [-0.075838379304405, 51.522968709135199],
        [-0.075815219279261, 51.523039370494836],
        [-0.075770453187195, 51.523178020921769],
        [-0.075727245749191, 51.523484857925368],
        [-0.075718605313005, 51.523587231449952],
        [-0.075776462298294, 51.523856159124676],
        [-0.075915414602925, 51.524321555750582],
        [-0.076443040393141, 51.524287045271087],
        [-0.076560493889585, 51.525331209669616],
        [-0.076601303914237, 51.525731148719188],
        [-0.076629218369076, 51.525992390795913],
        [-0.07664249483794, 51.526156273148871],
        [-0.076640415155754, 51.526274041625932],
        [-0.076635605664533, 51.526388168314256],
        [-0.076539619303455, 51.526510691727786],
        [-0.07635716545854, 51.526871898487201],
        [-0.076315321390012, 51.527146384666516],
        [-0.077253274544128, 51.527296651692346],
        [-0.076888494005308, 51.527502896123806],
        [-0.076349470683924, 51.527875342212475],
        [-0.076039163490024, 51.528122943884902],
        [-0.075680324730175, 51.528393129247434],
        [-0.075635284956593, 51.528435554647992],
        [-0.075478441558203, 51.528599343826563],
        [-0.075318375047709, 51.528805344950477],
        [-0.074932193231638, 51.529415897465618],
        [-0.07464962095006, 51.529791645039431],
        [-0.074373566146549, 51.530012826887933],
        [-0.074170571030067, 51.530142584222745],
        [-0.074045035119819, 51.530213362872033],
        [-0.073772957672053, 51.53034018673906],
        [-0.073149101973747, 51.530569142762538],
        [-0.072922368132729, 51.530646351158211],
        [-0.072787882086738, 51.530690003754181],
        [-0.072265406030303, 51.530839687638014],
        [-0.071926480884508, 51.530876382300058],
        [-0.07163328023406, 51.530922820238871],
        [-0.071232438667988, 51.530957595761357],
        [-0.070531269289655, 51.531002717639133],
        [-0.069914613898724, 51.531026744544597],
        [-0.06929591285324, 51.531030950896287],
        [-0.067995677302778, 51.531093173588559],
        [-0.067308834807001, 51.531140310704835],
        [-0.066313239362307, 51.531226418089972],
        [-0.066178929436544, 51.531503872835529],
        [-0.065896207809904, 51.532017183534933],
        [-0.065623617118288, 51.532461417843265],
        [-0.065364133902446, 51.532936442426305],
        [-0.065140252145485, 51.533217814213252],
        [-0.065110306532173, 51.533175954462635],
        [-0.064980689303512, 51.53290044233043],
        [-0.063263092487727, 51.533078925602311],
        [-0.062674670707954, 51.533184313889855],
        [-0.062238001879609, 51.533247243322862],
        [-0.062314138388829, 51.533389684372018],
        [-0.062457518957851, 51.533612370692481],
        [-0.062571109874822, 51.533789601962532],
        [-0.062716593530239, 51.534098651335711],
        [-0.062754096443638, 51.534234159224496],
        [-0.062838017694726, 51.534634815165347],
        [-0.062850285961613, 51.53499112345029],
        [-0.062796640701372, 51.535099946878262],
        [-0.062664138088662, 51.535300091398994],
        [-0.062470390969628, 51.535516310093612],
        [-0.062095124215007, 51.535457055087363],
        [-0.061701499648924, 51.535286886946302],
        [-0.061341048867374, 51.535014750425923],
        [-0.060938570063523, 51.534679869304505],
        [-0.060683149138479, 51.534447235589958],
        [-0.060655095531052, 51.534428786653173],
        [-0.060460418476275, 51.534327548952277],
        [-0.060371209782104, 51.534289204376833],
        [-0.060199194895964, 51.53423150529489],
        [-0.059909678939872, 51.534156575297658],
        [-0.059684685821445, 51.534124077696177],
        [-0.05935575973966, 51.534094356557681],
        [-0.059063302649189, 51.534088618613282],
        [-0.058753772714038, 51.534111373640442],
        [-0.058112627606122, 51.534201478516998],
        [-0.057565952402876, 51.534341704165598],
        [-0.057299926171019, 51.534426325245832],
        [-0.056815037023941, 51.534605339469891],
        [-0.056211901240016, 51.534818362672119],
        [-0.055648290961089, 51.534983478036885],
        [-0.055425154046259, 51.535042727318412],
        [-0.055247450278961, 51.535084744252487],
        [-0.055240245821022, 51.535084624812306],
        [-0.055225683691292, 51.535087980421167],
        [-0.055038697773087, 51.535110958742052],
        [-0.054863775166412, 51.535121547190968],
        [-0.054703591202634, 51.535158458268839],
        [-0.054389921048127, 51.535176636880372],
        [-0.054141068031902, 51.535162617323522],
        [-0.053856767830195, 51.535134520289745],
        [-0.053466800533603, 51.535082187745381],
        [-0.053015850950923, 51.534972188499566],
        [-0.05283602508153, 51.534928737061449],
        [-0.052809858953869, 51.535170203113189],
        [-0.052710830857374, 51.535530960210863],
        [-0.052581663450228, 51.535719458611865],
        [-0.052394551469178, 51.535914188904158],
        [-0.052142153003103, 51.536084454134148],
        [-0.051879683342357, 51.53622037977329],
        [-0.05176510395904, 51.536269734576337],
        [-0.051603915756071, 51.536330005479961],
        [-0.051428548115837, 51.536384645082187],
        [-0.050956829523697, 51.536456842364686],
        [-0.05080916348482, 51.536470575438507],
        [-0.050654676656931, 51.536475202401519],
        [-0.050499056059484, 51.536472616254741],
        [-0.050358113605442, 51.536463979048634],
        [-0.050249025295688, 51.536452274095069],
        [-0.049918282947302, 51.5363973171361],
        [-0.049625504909304, 51.536331300099022],
        [-0.04955138350842, 51.536311183280382],
        [-0.049299509432479, 51.536199084099557],
        [-0.048901777802381, 51.535991035601597],
        [-0.048586412173889, 51.535778960392157],
        [-0.048514655524636, 51.535737300045277],
        [-0.048428451517979, 51.535696298556111],
        [-0.048310663107543, 51.535652073738582],
        [-0.048186611562541, 51.535619434949894],
        [-0.048079274339948, 51.535600563028304],
        [-0.047991725357278, 51.535591012879593],
        [-0.047853591082254, 51.535584217887987],
        [-0.047574768888905, 51.535529219020624],
        [-0.047327741932793, 51.535506222807527],
        [-0.047159464569923, 51.535496227450118],
        [-0.046923234316002, 51.535490496034228],
        [-0.045982588896846, 51.535603424894589],
        [-0.04492623698716, 51.535791754115508],
        [-0.044860664598157, 51.535807747146706],
        [-0.044788943439895, 51.535832630243689],
        [-0.044706596691747, 51.535869925809102],
        [-0.044643058645816, 51.535905736323187],
        [-0.044299885539807, 51.536141016845427],
        [-0.043970517111193, 51.536424187284297],
        [-0.043832411694178, 51.536483933203449],
        [-0.043729412381826, 51.536498402219003],
        [-0.043576697596246, 51.536461683502807],
        [-0.04346973737504, 51.536501265479309],
        [-0.042391367978547, 51.53700034839985],
        [-0.04143719238664, 51.5374610284737],
        [-0.041102663469163, 51.537762989244975],
        [-0.040734807778199, 51.538102161332944],
        [-0.04015545427595, 51.538698584107195],
        [-0.039111309830082, 51.539640644454892],
        [-0.038656262403541, 51.540095256280004],
        [-0.037949717274263, 51.540764180153253],
        [-0.037551136589115, 51.541145992929621],
        [-0.037533865051667, 51.541212249160573],
        [-0.037468331588662, 51.541260612081736],
        [-0.037378812896634, 51.541330155906223],
        [-0.037265519858909, 51.541348943389949],
        [-0.03717012037709, 51.54142108644136],
        [-0.037156686675016, 51.541431652775778],
        [-0.037762637578035, 51.541794299527361],
        [-0.036784969327328, 51.542462278151909],
        [-0.03587279155245, 51.543015340845933],
        [-0.035149715275507, 51.543362935857544],
        [-0.034537153525357, 51.543655724770716],
        [-0.034069970931654, 51.544055260931906],
        [-0.033884333738753, 51.544213117225006],
        [-0.033779346160231, 51.544306679078495],
        [-0.033653368242041, 51.544418773448825],
        [-0.033426406630153, 51.544598417832098],
        [-0.0333876574842, 51.544627443801744],
        [-0.033263026480742, 51.544674813689198],
        [-0.033173131085308, 51.544685896195404],
        [-0.033062509330791, 51.544675948166521],
        [-0.03292036835357, 51.544627702648384],
        [-0.031994875554938, 51.544083416086004],
        [-0.031513984278174, 51.543797476638559],
        [-0.03106500387585, 51.543540847060875],
        [-0.030950715689277, 51.543482275470275],
        [-0.030516684644819, 51.543380567303238],
        [-0.029925761574986, 51.543238453943047],
        [-0.029652126971199, 51.543129544205584],
        [-0.029474738153221, 51.543029444618732],
        [-0.029386185352479, 51.542875982232538],
        [-0.029155682944139, 51.542569958691566],
        [-0.029016209995269, 51.542293341181889],
        [-0.029006937743869, 51.542274300937237],
        [-0.02871744118683, 51.542332384787912],
        [-0.028386932816323, 51.542405066076178],
        [-0.027843225180883, 51.542538909166154],
        [-0.027377800550284, 51.54266327501545],
        [-0.027051066897354, 51.542748605675705],
        [-0.026506612670056, 51.542899515994648],
        [-0.025858126322728, 51.543121513238766],
        [-0.025762781043784, 51.543158576889304],
        [-0.025707631451141, 51.543199913985774],
        [-0.025659531788558, 51.543244966747451],
        [-0.025612682461135, 51.54336108208372],
        [-0.025542923007693, 51.543340124264795],
        [-0.025505566773929, 51.543270252487041],
        [-0.025348521414564, 51.543233437223265],
        [-0.023863466698726, 51.543324435052767],
        [-0.023070692636068, 51.543347947558111],
        [-0.023083545967517, 51.543384134579568],
        [-0.023009814849232, 51.5433882876086],
        [-0.022752943856465, 51.543392051742138],
        [-0.022553445162476, 51.543403077243021],
        [-0.022371629516992, 51.543405407901702],
        [-0.02235499788398, 51.543423112735091],
        [-0.022297390739247, 51.543487787590522],
        [-0.02145674423259, 51.543517676216354],
        [-0.020352056257004, 51.54358357009999],
        [-0.019893347931321, 51.543585720280007],
        [-0.01922812888627, 51.543594273828823],
        [-0.018555785381558, 51.54356763209146],
        [-0.017784325106222, 51.543465572340921],
        [-0.017421009782996, 51.543429757179311],
        [-0.017050489455451, 51.543393819099258],
        [-0.016823265729906, 51.543345914229171],
        [-0.016764913097769, 51.543394387110524],
        [-0.016571534095841, 51.543364139882492],
        [-0.016568153268176, 51.543309227785599],
        [-0.016540243834124, 51.543188254894979],
        [-0.016502051382131, 51.543071604435042],
        [-0.01645477784365, 51.542997964954402],
        [-0.016312288882095, 51.542825595198401],
        [-0.016092544041842, 51.54253951108322],
        [-0.016114253654761, 51.542438261687913],
        [-0.016195824417772, 51.542353312048618],
        [-0.016207900264298, 51.542340926600666],
        [-0.016342028591833, 51.542141760173891],
        [-0.016436532858059, 51.541759373529374],
        [-0.016515282244442, 51.541507113328244],
        [-0.016634947841973, 51.54137514663725],
        [-0.016787170920826, 51.541257219167356],
        [-0.017004622415892, 51.541197946882654],
        [-0.017233797054496, 51.541134376037085],
        [-0.017461178516834, 51.541078867794752],
        [-0.0176226227594, 51.541014151517849],
        [-0.017751664467216, 51.540931801528579],
        [-0.017801842670953, 51.540805853555788],
        [-0.017769431803553, 51.5405229377971],
        [-0.017811907925498, 51.540308732041623],
        [-0.017879533658652, 51.540179481798475],
        [-0.017945948619988, 51.540078088165686],
        [-0.018106696402408, 51.539929728150888],
        [-0.018310985667811, 51.539774909387013],
        [-0.018646525033378, 51.539586336738758],
        [-0.018810420980343, 51.539465006791161],
        [-0.018916325043504, 51.539350790616687],
        [-0.019028586335157, 51.5391233747538],
        [-0.019147789164139, 51.53876928012199],
        [-0.019234266410505, 51.538537831615429],
        [-0.019426986351926, 51.538283896810348],
        [-0.019496389048326, 51.538246400324965],
        [-0.019500867975499, 51.538242878897364],
        [-0.019508501901063, 51.53823311590488],
        [-0.019671727493948, 51.538127060901708],
        [-0.019767847073935, 51.538072030051175],
        [-0.019903496221528, 51.538003278195447],
        [-0.020004950057438, 51.53795822907091],
        [-0.02020271534663, 51.537886928264335],
        [-0.020558560436764, 51.537728368558042],
        [-0.020600037582183, 51.537702989862339],
        [-0.020825259684692, 51.537563807441934],
        [-0.02108993395588, 51.537346155137804],
        [-0.021245912570161, 51.537141056950809],
        [-0.021264142547615, 51.537019964156606],
        [-0.021242376286209, 51.536923376010435],
        [-0.021220569959091, 51.536860959121363],
        [-0.021175012286231, 51.536681237561318],
        [-0.021170383781574, 51.536521990180823],
        [-0.020975247027585, 51.536300177640882],
        [-0.020867806054039, 51.536217431416638],
        [-0.020598673346693, 51.536139150889944],
        [-0.020439476553847, 51.536086105818164],
        [-0.020142424466445, 51.535986670054939],
        [-0.019917773224277, 51.535813816942301],
        [-0.019704962736078, 51.535633969182889],
        [-0.019555552305293, 51.535455191429463],
        [-0.019346255818177, 51.53519446873716],
        [-0.019164064857582, 51.534940498201863],
        [-0.019082963941834, 51.534749384360914],
        [-0.019037062731707, 51.534611022103576],
        [-0.019031474497675, 51.534374421788591],
        [-0.019003331979295, 51.534225568263871],
        [-0.018963231057872, 51.534119677356323],
        [-0.01887628253387, 51.534030081209394],
        [-0.018668037946024, 51.533878185686184],
        [-0.018375996386516, 51.533696997061277],
        [-0.0181904957103, 51.533552678982105],
        [-0.018125978195603, 51.533477849423718],
        [-0.017987915554859, 51.533270484861141],
        [-0.017986787026431, 51.533263271693144],
        [-0.017972942849723, 51.533084084542736],
        [-0.018010917872015, 51.533006490364485],
        [-0.018041607321907, 51.532963844310579],
        [-0.018178346398454, 51.532770115408844],
        [-0.018237278881748, 51.532608344563265],
        [-0.018232504545631, 51.5324526914887],
        [-0.018197389383102, 51.532364869754105],
        [-0.018033349989169, 51.532224511],
        [-0.017778983606987, 51.531972915588725],
        [-0.0175465586359, 51.531581405445039],
        [-0.017452218684762, 51.531496179552462],
        [-0.017443925592511, 51.53148794602086],
        [-0.017184416270145, 51.531321692287257],
        [-0.016858947482448, 51.531147128720491],
        [-0.016472072203412, 51.530992208906632],
        [-0.015512364901824, 51.530648644522849],
        [-0.014958878470658, 51.530512483067845],
        [-0.014578821810963, 51.530399937681139],
        [-0.014280502300107, 51.530264494683735],
        [-0.014175271246741, 51.530164693494399],
        [-0.014083476207475, 51.530054328526013],
        [-0.014067361047173, 51.530027077785647],
        [-0.014048168978803, 51.530004271264929],
        [-0.013966140208356, 51.529934538401456],
        [-0.013647297328497, 51.52984011237556],
        [-0.01317462220097, 51.529702613050354],
        [-0.012675807518561, 51.529635710751506],
        [-0.011875077936759, 51.529549301191921],
        [-0.011178471836719, 51.529455659009365],
        [-0.010928586167542, 51.529400163785525],
        [-0.010786564297994, 51.529317720870836],
        [-0.010636221061164, 51.529194669774078],
        [-0.010568701569245, 51.52905683650372],
        [-0.01048719418303, 51.5288099549973],
        [-0.010431288118335, 51.528637247317761],
        [-0.01035363740029, 51.528533414089829],
        [-0.01021245107035, 51.52839882730369],
        [-0.010051705280437, 51.528316065827674],
        [-0.009434198525088, 51.527962968418059],
        [-0.008932969296517, 51.527720652509352],
        [-0.008726452281608, 51.527596645314368],
        [-0.008586165282213, 51.527474661471203],
        [-0.008458571951315, 51.527226995960675],
        [-0.008368660384536, 51.527007847324974],
        [-0.008229170917886, 51.526834618491726],
        [-0.008044368194283, 51.526642634663666],
        [-0.00776016712968, 51.526448962288242],
        [-0.00763693770738, 51.526332662559959],
        [-0.007524538277048, 51.526199460637564],
        [-0.007468421991778, 51.525998870609826],
        [-0.007505521816573, 51.525776483188594],
        [-0.007548978349246, 51.525639633883564],
        [-0.007693558364655, 51.525464934610923],
        [-0.00778967576634, 51.525376640720225],
        [-0.00782721907321, 51.525342207058749],
        [-0.007896839222623, 51.525200406412011],
        [-0.00798101371041, 51.524956336720201],
        [-0.008081995998431, 51.524128929515818],
        [-0.008111253338917, 51.523821877779142],
        [-0.00815321843845, 51.523586983025034],
        [-0.008143265674553, 51.523418651456979],
        [-0.008112733213795, 51.52332550865146],
        [-0.007856972755913, 51.523009119961507],
        [-0.007832338557113, 51.522979025807558],
        [-0.007812802992544, 51.522832113786805],
        [-0.007928360091769, 51.522562498414345],
        [-0.008042022987626, 51.522369288292829],
        [-0.008175702289613, 51.522278934208899],
        [-0.008237037015042, 51.522095626429717],
        [-0.00847329413746, 51.521636516653146],
        [-0.008503210544561, 51.521578572381316],
        [-0.00852412137179, 51.521561841393357],
        [-0.008673299170893, 51.521446570477508],
        [-0.008897799622907, 51.521091575007802],
        [-0.00904377031941, 51.52075233214476],
        [-0.009061897258003, 51.520535017656542],
        [-0.009038419308557, 51.520280127048217],
        [-0.008922835910129, 51.519889682340647],
        [-0.008849484896981, 51.519786820122071],
        [-0.008598979317247, 51.519647677294003],
        [-0.007928128527689, 51.519363807667013],
        [-0.007738689734679, 51.519278756808212],
        [-0.007553611918181, 51.519192880455556],
        [-0.007192610391502, 51.51900959193997],
        [-0.00697228280021, 51.518872756840189],
        [-0.006813459309373, 51.518746858466265],
        [-0.006734656037949, 51.518669980916727],
        [-0.006377464061263, 51.518300606535412],
        [-0.006029543993025, 51.517818081125661],
        [-0.005900066903202, 51.517614444224293],
        [-0.005820373111623, 51.517426041891461],
        [-0.00579711632091, 51.516935546424868],
        [-0.005783510621252, 51.516884056914229],
        [-0.005758265012623, 51.516835067281967],
        [-0.005726983604517, 51.516792269875921],
        [-0.005686903620745, 51.51675291991441],
        [-0.005621095136875, 51.516708636106664],
        [-0.005375552840004, 51.516588455147804],
        [-0.005312691576352, 51.516575695604118],
        [-0.005180697686157, 51.516561760210671],
        [-0.005068474914813, 51.516557153626962],
        [-0.004997744939374, 51.516559547598476],
        [-0.004855499584028, 51.516582307379181],
        [-0.004680350811591, 51.516632384473731],
        [-0.004606845114439, 51.516665306043045],
        [-0.004556462142685, 51.516696822439968],
        [-0.004478818854497, 51.516758450056791],
        [-0.004220316086299, 51.517033723343054],
        [-0.004131057719687, 51.517130224470677],
        [-0.00399928356083, 51.517342007343807],
        [-0.003802550082131, 51.517621927983285],
        [-0.003703875554355, 51.517702980999054],
        [-0.003649169906427, 51.517734423436366],
        [-0.003473190142175, 51.517803369202262],
        [-0.003252442537164, 51.517874250355675],
        [-0.002531775996039, 51.517972588787323],
        [-0.002429317685309, 51.517975340125389],
        [-0.002360261644012, 51.517972365430701],
        [-0.002294361475642, 51.517963149583714],
        [-0.002217253479522, 51.517946548659786],
        [-0.002081068492783, 51.517896567749325],
        [-0.001454059446657, 51.517567544805623],
        [-0.000662702189824, 51.517173667521185],
        [0.00057129360888, 51.516586087064169],
        [0.001711904348646, 51.516203321617645],
        [0.001953002948916, 51.516113776085909],
        [0.002310229818951, 51.515977284154594],
        [0.002545210361329, 51.515879748430876],
        [0.002665423055903, 51.515827336833432],
        [0.002983089152653, 51.515676230785353],
        [0.003177385543081, 51.515571295170027],
        [0.00361423497764, 51.515278765216969],
        [0.003808035982523, 51.515129772882034],
        [0.003897745166107, 51.515039212645178],
        [0.003999371247879, 51.514891794852304],
        [0.004047510999675, 51.514806441120221],
        [0.004112145131266, 51.514637173617807],
        [0.004089676641129, 51.514486480585191],
        [0.00405781667262, 51.514384508480155],
        [0.004024101945587, 51.514305949019246],
        [0.003980384943162, 51.514229358992424],
        [0.003806562727886, 51.513979634721913],
        [0.003610095904699, 51.513673643186962],
        [0.003495085785997, 51.513483164646651],
        [0.00328530939503, 51.513103659978263],
        [0.00276202081757, 51.512312248858102],
        [0.002481500667902, 51.511798161368411],
        [0.002353818789987, 51.511548546396583],
        [0.00230397451476, 51.511430694037095],
        [0.00225427033801, 51.511283163423215],
        [0.002233285526249, 51.511198990503097],
        [0.002222446359572, 51.511017523432315],
        [0.002258337939781, 51.510882919747544],
        [0.002306398143278, 51.510795769495076],
        [0.002382983794197, 51.510701837310812],
        [0.002453174786693, 51.51065927253542],
        [0.002502631530298, 51.510636845648811],
        [0.002589411807327, 51.510611083622663],
        [0.003069233396534, 51.510543537724246],
        [0.003285401068242, 51.510543442526654],
        [0.003539207582303, 51.510547200267588],
        [0.00371152177912, 51.510565838818067],
        [0.003868981182355, 51.510607212638114],
        [0.003937965697233, 51.510635709766142],
        [0.004002787829487, 51.510667875052064],
        [0.004079998229424, 51.510719612509831],
        [0.004258130245965, 51.510903616197034],
        [0.004319440860176, 51.510987099608975],
        [0.004380573804599, 51.511099362608007],
        [0.004430481833281, 51.511251385222849],
        [0.004524065759366, 51.511479099110673],
        [0.004619878433204, 51.511921699908875],
        [0.004664145417005, 51.512207809781628],
        [0.004624944624566, 51.512529518530641],
        [0.004615098808978, 51.512797668688854],
        [0.00468156072662, 51.513096888172818],
        [0.004754613075793, 51.513283586464574],
        [0.004821214983247, 51.513421834506389],
        [0.004877420523933, 51.513487419530833],
        [0.004917883144768, 51.513588345104331],
        [0.005076459595249, 51.513786170878859],
        [0.005252811979332, 51.513896463525263],
        [0.005477856626108, 51.514130921537152],
        [0.005558960995659, 51.514172699507824],
        [0.006106450515199, 51.514332398317464],
        [0.006275070429509, 51.51433221174748],
        [0.006404115470847, 51.514349788064521],
        [0.006647388028885, 51.51434292820035],
        [0.00690975662488, 51.51431146082475],
        [0.007103883317838, 51.514268570988669],
        [0.007292227415869, 51.51419250687789],
        [0.007362357964126, 51.514115768034493],
        [0.007432585197209, 51.514008452373922],
        [0.007543154656198, 51.513868072465861],
        [0.007633701438924, 51.513764005929119],
        [0.007847504634964, 51.513578693623607],
        [0.007887192476728, 51.51349797928183],
        [0.007896790686768, 51.513355730562964],
        [0.007990668181221, 51.513229124998738],
        [0.008029002831124, 51.512986565461389],
        [0.00798958752689, 51.512712963446752],
        [0.007855076671408, 51.512308797045677],
        [0.007690579103586, 51.512173125830294],
        [0.007640092168889, 51.512106544964723],
        [0.007572855503119, 51.512019567624279],
        [0.007405871082161, 51.511827284671519],
        [0.007274225762416, 51.511750402279546],
        [0.007192643706989, 51.511566549255079],
        [0.006913679665887, 51.511121689074727],
        [0.006634375476265, 51.510931327043863],
        [0.006211437124228, 51.510587848068468],
        [0.006176992231838, 51.510525488499752],
        [0.0061686264526, 51.510466279885236],
        [0.006108576451449, 51.510411552445824],
        [0.005999482684504, 51.510224572126482],
        [0.005935367536126, 51.510077289475291],
        [0.005931459773269, 51.509988328729797],
        [0.005995924141595, 51.509881112413524],
        [0.006141030441049, 51.509772516626114],
        [0.006239701405189, 51.509722268215555],
        [0.006482433923647, 51.509638080669077],
        [0.006775882573198, 51.509560218947961],
        [0.007249768381374, 51.509489160309791],
        [0.007649640364809, 51.509439150719118],
        [0.00768848161097, 51.509437586524079],
        [0.007823607163293, 51.509429877586165],
        [0.00805491592105, 51.509380953816432],
        [0.008454566145723, 51.509293175968644],
        [0.00884190407687, 51.509187622266495],
        [0.009050107978928, 51.509104920056494],
        [0.009205307373247, 51.509029420452542],
        [0.009411177071832, 51.508893700702977],
        [0.009589504222159, 51.508721582506105],
        [0.009664947745965, 51.508634859142539],
        [0.009734591449553, 51.508547335848952],
        [0.009814489363512, 51.508430860164594],
        [0.009863260747501, 51.508327507639997],
        [0.009863919118393, 51.508211490622834],
        [0.009815064407844, 51.508083732378623],
        [0.009648032671355, 51.50775926076291],
        [0.009525701110836, 51.507631862219242],
        [0.009346006955026, 51.507281528336556],
        [0.009178411378796, 51.506976849638022],
        [0.009050498503663, 51.506820769606243],
        [0.008768880480148, 51.506577395395645],
        [0.008278698973525, 51.506146047925427],
        [0.007597973806146, 51.505510229288447],
        [0.007320807707379, 51.505630080243392],
        [0.005965152994184, 51.506162262953858],
        [0.005174199875726, 51.506428484102102],
        [0.004146198654558, 51.506711340853862],
        [0.003954586585647, 51.506745190367283],
        [0.003871345691424, 51.506752907618264],
        [0.003609748451929, 51.506768168472156],
        [0.003156501347436, 51.506750731710767],
        [0.002697809985232, 51.50674058031904],
        [0.002181836036154, 51.506738599259293],
        [0.001364524437815, 51.506667119557711],
        [0.000954089543745, 51.50657430438816],
        [0.000647269800838, 51.506511194600073],
        [0.000143579699019, 51.506394787951237],
        [-0.000156628295358, 51.506318074281737],
        [-0.000918753100646, 51.506058589835689],
        [-0.001317546545659, 51.505869346624564],
        [-0.002000141714851, 51.505451127844786],
        [-0.002454195359076, 51.505151313020988],
        [-0.002662593934488, 51.50496601623442],
        [-0.00287506082637, 51.504819456895738],
        [-0.003049278010933, 51.504657857566997],
        [-0.003228442148039, 51.504481953923225],
        [-0.003362968744465, 51.504305290035639],
        [-0.003554434776682, 51.504111609984207],
        [-0.003717219715293, 51.503914743594869],
        [-0.004034303458475, 51.503616188139837],
        [-0.004326041090084, 51.503238064913148],
        [-0.004510494346339, 51.502940848138238],
        [-0.004562339641907, 51.502809537901015],
        [-0.004667599440439, 51.502510973325471],
        [-0.004821927177082, 51.502111626161764],
        [-0.004863115613482, 51.501960350573015],
        [-0.004937995493837, 51.501829432052531],
        [-0.005035413738427, 51.501677314463322],
        [-0.00508031952173, 51.501572863986596],
        [-0.005137096579597, 51.501460522018796],
        [-0.005175388829637, 51.501243550459165],
        [-0.005177124812502, 51.501071819731166],
        [-0.005177843301533, 51.501022372192082],
        [-0.005178142282101, 51.500949536538322],
        [-0.005179488618979, 51.50088571138398],
        [-0.005082692695715, 51.500726692812279],
        [-0.004994491876008, 51.500370880577044],
        [-0.004947026876278, 51.500138061803192],
        [-0.00460327541999, 51.499002731732695],
        [-0.004476680463511, 51.498635474431062],
        [-0.004376971696174, 51.498378385306637],
        [-0.004331214526438, 51.49827149288631],
        [-0.004163409832275, 51.497924217039639],
        [-0.004005476045242, 51.497614878230287],
        [-0.003658164690591, 51.497122461535398],
        [-0.002824153031473, 51.495668530103579],
        [-0.00246977736049, 51.495107644770947],
        [-0.002308864254042, 51.494899870121841],
        [-0.002210518870539, 51.494776793280117],
        [-0.002142233596031, 51.494691098554497],
        [-0.002111898962834, 51.494660006560395],
        [-0.002020084447267, 51.494552328402555],
        [-0.001600942749812, 51.494089256371517],
        [-0.001441059005387, 51.493858116979148],
        [-0.001213735355833, 51.493489138802893],
        [-0.001081648373058, 51.493314227416896],
        [-0.001024408235671, 51.493074945112404],
        [-0.000802257179317, 51.492554976856887],
        [-0.000676888840873, 51.492160757599628],
        [-0.000415335019697, 51.491389220247328],
        [-0.000449130044669, 51.490913183273335],
        [-0.000447145224568, 51.490662252998384],
        [-0.000475709826013, 51.490305729744598],
        [-0.000510166888501, 51.490077902620406],
        [-0.000580923550653, 51.489843500280941],
        [-0.000703961016968, 51.489533551322417],
        [-0.000941383136924, 51.489111345006627],
        [-0.001177778910586, 51.488712501748921],
        [-0.001476417062325, 51.488306625454143],
        [-0.001745551604878, 51.488015352252127],
        [-0.002175264545748, 51.487642283064588],
        [-0.002953226536017, 51.487144749817439],
        [-0.003410333690051, 51.486902536953757],
        [-0.004554821305068, 51.486323105196007],
        [-0.004744991530328, 51.486256198256385],
        [-0.00514300605924, 51.486080418439911],
        [-0.005381192874883, 51.485969363852355],
        [-0.005555371312876, 51.485905780655429],
        [-0.005650494118086, 51.485871427790521],
        [-0.005926637844539, 51.485781700914437],
        [-0.006244363172143, 51.485696277519693],
        [-0.00673617371969, 51.485582338289504],
        [-0.006966833694274, 51.48551161972059],
        [-0.007464642867517, 51.485359110794832],
        [-0.007958052599215, 51.485208323569388],
        [-0.010605945434713, 51.484732601577633],
        [-0.01083183964018, 51.484704959552325],
        [-0.011057694481307, 51.484678215695276],
        [-0.012785469525513, 51.484526757429528],
        [-0.012887116329249, 51.484507796887243],
        [-0.013192669265284, 51.48450308275293],
        [-0.013802564513152, 51.484521508944837],
        [-0.014557279426339, 51.484554974026587],
        [-0.014802227442518, 51.484552826544324],
        [-0.015134268139478, 51.484568339727339],
        [-0.015473700491807, 51.484579480725181],
        [-0.015662127189677, 51.484585367501758],
        [-0.015932978178628, 51.484616928982263],
        [-0.016362656008724, 51.484639486377787],
        [-0.016545985409505, 51.484663270882088],
        [-0.016586089960931, 51.484668445622894],
        [-0.016786573869687, 51.484695217732281],
        [-0.017428209767371, 51.484778909252285],
        [-0.017451277112584, 51.484778400010029],
        [-0.017650286537, 51.484772772017941],
        [-0.018031262870329, 51.484822377243404],
        [-0.01881382785844, 51.485044232808669],
        [-0.01896899597194, 51.48508642232084],
        [-0.019472934528942, 51.485223530758503],
        [-0.020020365363276, 51.485387450221424],
        [-0.021080967478207, 51.485774954188336],
        [-0.021391274338965, 51.485893498641097],
        [-0.021883948748488, 51.486091556768272],
        [-0.023018186974356, 51.486575607606888],
        [-0.023444083277545, 51.486786022169653],
        [-0.023517413467646, 51.486822329703124],
        [-0.023554098036574, 51.486840034146518],
        [-0.023824546049486, 51.486981281165882],
        [-0.024143275243713, 51.48717190159595],
        [-0.024399022710372, 51.487320093688169],
        [-0.024692974410653, 51.48748421635279],
        [-0.024843687844246, 51.487596465832063],
        [-0.025122200764823, 51.487784607561068],
        [-0.025981682805934, 51.488395294387487],
        [-0.02659857165018, 51.488853513137009],
        [-0.026797500953488, 51.489016930432328],
        [-0.027103857240779, 51.489294563308292],
        [-0.027285086224098, 51.489434300983206],
        [-0.027516907798649, 51.48970348463326],
        [-0.027846003061327, 51.490055237888782],
        [-0.028169592586306, 51.490501320623906],
        [-0.028386957373132, 51.49080533075206],
        [-0.029006996001558, 51.491625993780538],
        [-0.029333116023781, 51.492180926856918],
        [-0.029629743987434, 51.492685004452063],
        [-0.029769226435632, 51.492924754455508],
        [-0.029815077132205, 51.493030738999245],
        [-0.029947689447916, 51.493563534184055]
      ]
    ]
  }
}
