{
  "type": "Feature",
  "properties": {
    "name": "Waltham Forest",
    "level": 2,
    "londonBorough": true,
    "center": [-0.0134, 51.58]
  },
  "geometry": {
    "type": "Polygon",
    "coordinates": [
      [
        [0.019242061296818, 51.6082229705309],
        [0.019307638906913, 51.60807346493457],
        [0.019428204911486, 51.607796217974276],
        [0.019552797288204, 51.6076097265491],
        [0.019446397560787, 51.60765292309739],
        [0.019118817492777, 51.60778895112767],
        [0.019104832581862, 51.607766710283435],
        [0.01870680257367, 51.60716116283511],
        [0.018274197469222, 51.606524734605415],
        [0.017987311456959, 51.60604766573976],
        [0.018129785678907, 51.60600385020632],
        [0.018058924352749, 51.605969098339294],
        [0.017983144854862, 51.60588856888044],
        [0.017988575740784, 51.60581563568256],
        [0.017456290075554, 51.605373359289956],
        [0.017432285056854, 51.60535308899759],
        [0.017401392516994, 51.60530775788931],
        [0.017186730444259, 51.60505875619052],
        [0.017046213761914, 51.60485344274971],
        [0.01573915775892, 51.60305760025935],
        [0.014817172585362, 51.60177040786801],
        [0.014143656489158, 51.6009411627239],
        [0.01377027176618, 51.60036754901276],
        [0.013401189273692, 51.59989098010601],
        [0.013230601102308, 51.59959265526454],
        [0.012991192055837, 51.599207383379344],
        [0.012905000124279, 51.599054189433694],
        [0.01285691875193, 51.59839136212364],
        [0.012791498021782, 51.59769555958548],
        [0.01268487226723, 51.59691683264708],
        [0.012597223165061, 51.596403960390624],
        [0.012611880044217, 51.59591900914171],
        [0.012536675230873, 51.595360960481536],
        [0.012428250137837, 51.594802582133994],
        [0.012412232796475, 51.59466886737032],
        [0.012376427596922, 51.594512111205795],
        [0.012352985554212, 51.594406400737846],
        [0.012347319858709, 51.59434354983416],
        [0.012342527977299, 51.594300467620634],
        [0.012303969979577, 51.594114083119],
        [0.012188098669175, 51.59345241748932],
        [0.01217470369781, 51.593378008740466],
        [0.012134465072982, 51.592990219177985],
        [0.01208505557039, 51.59268891559702],
        [0.012090042592865, 51.592148375952604],
        [0.012198716954049, 51.59215730376498],
        [0.012191159363714, 51.592116966728994],
        [0.012264613838029, 51.592014990336736],
        [0.012248133021808, 51.59164208075687],
        [0.012280266971086, 51.59155250319707],
        [0.012275660289807, 51.59144826822569],
        [0.012452570391461, 51.59126987927462],
        [0.012390786172392, 51.59094990352281],
        [0.012390903223867, 51.590756560962],
        [0.012492118058692, 51.59036814416783],
        [0.012513458363953, 51.589805741637534],
        [0.012575442030459, 51.58931368347029],
        [0.012621929712574, 51.58899364939272],
        [0.01268073708938, 51.58862574327456],
        [0.012832276007609, 51.58761237727599],
        [0.01291899783599, 51.586961624829186],
        [0.013032720389243, 51.586007358753264],
        [0.013137607386359, 51.585408451375876],
        [0.013273437506917, 51.58456261591133],
        [0.013325298367088, 51.58410310387133],
        [0.013369010897066, 51.58378581457064],
        [0.014100144874526, 51.583410866448915],
        [0.014865957781381, 51.58339592138863],
        [0.015501957922924, 51.583383200991555],
        [0.01541379761103, 51.582956667484915],
        [0.015386230925432, 51.58272513189245],
        [0.015403683932958, 51.582532390528776],
        [0.015246799022402, 51.58250990560729],
        [0.015379035060276, 51.58220368473675],
        [0.015473317334393, 51.58205098976649],
        [0.01553063395249, 51.58197626599731],
        [0.015669934191122, 51.58186236506392],
        [0.015429379650918, 51.58177567159253],
        [0.015332597070315, 51.58174136340181],
        [0.015232890268523, 51.581706206090914],
        [0.015977028019881, 51.580126013839696],
        [0.016374143195132, 51.57931525193914],
        [0.016615353852943, 51.579188807423215],
        [0.017361532971148, 51.577591484183635],
        [0.017413250716093, 51.57745570590912],
        [0.017379762771845, 51.576503964365145],
        [0.017320580144563, 51.575884491762025],
        [0.017350890165677, 51.57539567190581],
        [0.01735623684831, 51.574929762715605],
        [0.017390465975919, 51.57459464906266],
        [0.017382348950073, 51.57441133932666],
        [0.017317504287586, 51.574250587145634],
        [0.017195932483417, 51.57411239242183],
        [0.016832852908519, 51.5736042562155],
        [0.016465047437128, 51.57311958090672],
        [0.016343184035828, 51.57290944941741],
        [0.01645923242886, 51.572890369203215],
        [0.016672781484269, 51.57285702351556],
        [0.017060635756575, 51.572751438083415],
        [0.017311128909955, 51.57267249306701],
        [0.017472096965821, 51.57259238903645],
        [0.017625147684198, 51.57246386079764],
        [0.017782851330983, 51.57231007301304],
        [0.017892481040095, 51.57217869404409],
        [0.018015336137593, 51.572020109660414],
        [0.018759525872276, 51.57230316543461],
        [0.018760967875721, 51.572303140625166],
        [0.018882724572029, 51.57234780736534],
        [0.0188986523197, 51.57225131230973],
        [0.018945531209759, 51.57174601985208],
        [0.019025190885257, 51.57087326441292],
        [0.019064308785472, 51.57032314223112],
        [0.019129642237863, 51.569843610565634],
        [0.019077781289394, 51.569813028822644],
        [0.018836086602305, 51.5698621507347],
        [0.018617970847804, 51.56995493033404],
        [0.018436101526896, 51.570051582310576],
        [0.018344764024944, 51.57010710921574],
        [0.018247667686947, 51.57013036167517],
        [0.018155304236007, 51.570130151838214],
        [0.017972267361627, 51.57010272502338],
        [0.017795157599787, 51.57007879304366],
        [0.017710093009425, 51.570047882434956],
        [0.017667649880258, 51.570001850670806],
        [0.017687855987992, 51.569936756352604],
        [0.017906444337968, 51.5694635825626],
        [0.018149647826706, 51.568894663142146],
        [0.018417844007553, 51.56830373090353],
        [0.018561957986163, 51.567843527212894],
        [0.018563280439525, 51.56784080667485],
        [0.018908378258056, 51.567194594370974],
        [0.018940434646982, 51.56713648998312],
        [0.018966683794146, 51.5670775862504],
        [0.018988567556928, 51.56701785836602],
        [0.019006085951469, 51.56695730633222],
        [0.019008491892846, 51.56694647378204],
        [0.019018801076817, 51.56688604579929],
        [0.019026186765064, 51.566824768859654],
        [0.019026363295918, 51.566763615973564],
        [0.019022174540001, 51.56670163894177],
        [0.019010816487696, 51.56664068453977],
        [0.019002253827508, 51.566610256958995],
        [0.01898264299548, 51.56655843719005],
        [0.018957304738937, 51.566507615234116],
        [0.018927680893566, 51.56645776627783],
        [0.018893731663826, 51.56640799174028],
        [0.018858380500969, 51.56635914057794],
        [0.018821627407238, 51.56631121278949],
        [0.018820026369649, 51.56630764328721],
        [0.018752805127916, 51.5662233699516],
        [0.018685902562529, 51.566146285195266],
        [0.018481807910096, 51.56600141816966],
        [0.01848036610575, 51.56600144297354],
        [0.018337654914787, 51.56590677764689],
        [0.018151849526419, 51.56581645045183],
        [0.017966840637344, 51.565744094516496],
        [0.017750510690051, 51.565681269554645],
        [0.0175091837538, 51.56564045632436],
        [0.017167170376052, 51.565606769239416],
        [0.016503706808657, 51.56561277818781],
        [0.015596829199627, 51.56559598732967],
        [0.014431223414713, 51.56560161705769],
        [0.014454435174675, 51.5652127373125],
        [0.014362511825725, 51.564699937574794],
        [0.014317131062767, 51.56439137048781],
        [0.014289600888161, 51.56389904741613],
        [0.014273472343811, 51.56376263644138],
        [0.014231147710647, 51.563425240425666],
        [0.014188502847801, 51.56298263618062],
        [0.014193345919409, 51.562243359315886],
        [0.014182062333449, 51.56179212324129],
        [0.014181704960704, 51.561784036013485],
        [0.014190247609302, 51.56132436618108],
        [0.014472775733049, 51.56033931920637],
        [0.014754661007995, 51.55943791382038],
        [0.015004256398731, 51.55943812369357],
        [0.015379759059588, 51.55941458797709],
        [0.015622316435098, 51.559386141013796],
        [0.015788389400244, 51.55935720914906],
        [0.015952782116008, 51.5593229103403],
        [0.016075487572395, 51.55929202544101],
        [0.016280334667406, 51.559226456056],
        [0.016597129430013, 51.55908252480434],
        [0.016786247035836, 51.55898754919712],
        [0.017131244061951, 51.558796369986084],
        [0.017747550501096, 51.558411678708715],
        [0.017880531177178, 51.55828709177566],
        [0.018027559168895, 51.55818654317839],
        [0.018130495037484, 51.55810024180264],
        [0.018131896811614, 51.5580993184265],
        [0.018248491933072, 51.55799569597517],
        [0.018647516188098, 51.55772174977732],
        [0.019029763446143, 51.557427407834396],
        [0.01973735573624, 51.55679203869617],
        [0.020066658911079, 51.55647522381615],
        [0.02034163497295, 51.55626725521523],
        [0.02131728721489, 51.55517133271031],
        [0.021232248412918, 51.555140424304994],
        [0.021532208190483, 51.554878066488996],
        [0.020076146241972, 51.55441034998861],
        [0.019338995833958, 51.55418203756849],
        [0.01937869656099, 51.55410131970221],
        [0.018582774580894, 51.553881208288615],
        [0.017932382869125, 51.55359204287591],
        [0.017930901686333, 51.553591169088754],
        [0.016944911340575, 51.55318277250629],
        [0.01672042677129, 51.55339076457658],
        [0.016254270735786, 51.553222521194485],
        [0.015970521517051, 51.553558326530876],
        [0.015699791970987, 51.55386243320908],
        [0.015622846176736, 51.553949185276736],
        [0.014573840864044, 51.55495459462475],
        [0.013926276657922, 51.55472920625263],
        [0.011621324039462, 51.55391714833417],
        [0.011110246010777, 51.55439802361915],
        [0.009622310222744, 51.55343343193055],
        [0.010821210897484, 51.552260033559165],
        [0.010330327832657, 51.551955502588086],
        [0.010097496864879, 51.55181111364587],
        [0.00964025824173, 51.55158244074739],
        [0.009508840808969, 51.55144800382071],
        [0.009451416212388, 51.551388736779906],
        [0.009508222228089, 51.55123758678595],
        [0.008151896488026, 51.5510638726469],
        [0.007691294665016, 51.5510204980203],
        [0.007562382373937, 51.55100831586897],
        [0.006819529729314, 51.550877143353745],
        [0.005779545005428, 51.55064763139894],
        [0.005503125742457, 51.550659551161964],
        [0.00559450898415, 51.550835143753154],
        [0.005713755462439, 51.55108669726131],
        [0.005760674580675, 51.5512351727447],
        [0.005791468112385, 51.551508921454015],
        [0.005805473800055, 51.55166335521194],
        [0.005804309138327, 51.551669669964554],
        [0.005734855358682, 51.5518615011356],
        [0.005254424007358, 51.55182654928521],
        [0.00523128308547, 51.55182514629395],
        [0.005175572576357, 51.55213274710104],
        [0.004945800818241, 51.552123185148396],
        [0.004983250933985, 51.55189233386838],
        [0.004977485453083, 51.55189243240142],
        [0.003842790705554, 51.551805706017745],
        [0.003810922648753, 51.55193394562381],
        [0.003798641357409, 51.55198271556946],
        [0.003560479154153, 51.55194631634063],
        [0.003227956988684, 51.55189624042202],
        [0.003177587020586, 51.551964545177654],
        [0.003081012871337, 51.55209748644281],
        [0.002492597707579, 51.55200141856364],
        [0.002099656861957, 51.55195506850418],
        [0.001274523342653, 51.55188821337837],
        [0.000325653411945, 51.55179558516113],
        [-0.000351289723747, 51.55171989698059],
        [-0.000951657521176, 51.551614123731774],
        [-0.001117627805119, 51.55157918267598],
        [-0.001602525517251, 51.551475035703426],
        [-0.002634519667298, 51.55119675305737],
        [-0.003662138040154, 51.55091928619575],
        [-0.003822303832495, 51.551148625523126],
        [-0.005065408971654, 51.550792080694684],
        [-0.005708141651748, 51.550574595912046],
        [-0.005991769316499, 51.55048769232141],
        [-0.006302741953013, 51.55040215201849],
        [-0.006990776675825, 51.55026996070259],
        [-0.008017316861574, 51.55004909107586],
        [-0.00838472983072, 51.549959108036795],
        [-0.008551894507234, 51.549929572365855],
        [-0.008676122728681, 51.54992538624336],
        [-0.008684652926853, 51.549928228817954],
        [-0.008752855311532, 51.54995186798814],
        [-0.008890372218647, 51.550304014649726],
        [-0.0090381478672, 51.55061946550873],
        [-0.009137243668202, 51.55089362332327],
        [-0.009168813391091, 51.55109559354127],
        [-0.009178537768388, 51.551269315948254],
        [-0.009164355865451, 51.55152806247213],
        [-0.009190837780736, 51.551681386229085],
        [-0.009228861136064, 51.551801633165404],
        [-0.009471862956872, 51.55221581938524],
        [-0.009778536451423, 51.55232803430009],
        [-0.009964339612322, 51.552400429235924],
        [-0.010230499438918, 51.55251555277001],
        [-0.010409449959262, 51.55257973741944],
        [-0.010473646650169, 51.552596113531166],
        [-0.010595225205855, 51.55261975748103],
        [-0.010715989755642, 51.55262899933043],
        [-0.010831459154115, 51.55262736014688],
        [-0.010889389856909, 51.552622047532296],
        [-0.011119336094232, 51.55254231472819],
        [-0.011820732049969, 51.55233568287447],
        [-0.012937563832644, 51.552095617217574],
        [-0.013148327760953, 51.55205872007187],
        [-0.013367700548748, 51.552022867588974],
        [-0.013636236830766, 51.551984250069125],
        [-0.014385237659314, 51.551876428364245],
        [-0.01569915143057, 51.551714310578596],
        [-0.016951306853945, 51.551579011293356],
        [-0.016967453886787, 51.55143989891481],
        [-0.016970458446708, 51.55140397929715],
        [-0.017137154305059, 51.5513852145896],
        [-0.017146184423042, 51.5514429198566],
        [-0.017167826416588, 51.55157547686374],
        [-0.017169966733894, 51.55159259897858],
        [-0.017189429449828, 51.55170893246497],
        [-0.01730706729768, 51.55238716410153],
        [-0.017504257253507, 51.553392271880924],
        [-0.01767582545869, 51.55372609851081],
        [-0.017799644697582, 51.55396379660212],
        [-0.017950462358184, 51.554210943262],
        [-0.018075611543357, 51.55408626188972],
        [-0.018471118694806, 51.55517565098686],
        [-0.018827502882211, 51.555339939285254],
        [-0.019159891606065, 51.555492130979886],
        [-0.020774883358187, 51.55623879411366],
        [-0.021933858510408, 51.55675742871938],
        [-0.022557264429551, 51.55705210333745],
        [-0.023033950869055, 51.557270563186876],
        [-0.023094184853067, 51.557278772207056],
        [-0.023553498910796, 51.557332372882826],
        [-0.023919813217823, 51.557368218757745],
        [-0.023968670751275, 51.557372638680796],
        [-0.023982505171903, 51.55761926848782],
        [-0.024071575703547, 51.55792741570293],
        [-0.024204130095997, 51.558297444680015],
        [-0.024278200583673, 51.55848573773979],
        [-0.024377557913437, 51.55865647138123],
        [-0.024447146828982, 51.5587484682277],
        [-0.024545413381729, 51.55887781747135],
        [-0.024656303737577, 51.55898219993852],
        [-0.024759167844979, 51.55907205904138],
        [-0.024949623349558, 51.5592380309978],
        [-0.025138950037476, 51.559396789567636],
        [-0.025534438496398, 51.559692107620734],
        [-0.025890887143443, 51.559922920124386],
        [-0.026200694514276, 51.560064819615235],
        [-0.026371905650996, 51.56014233816981],
        [-0.026506334458659, 51.56020305114396],
        [-0.026852695431183, 51.5603671459052],
        [-0.027531824697847, 51.56067621937796],
        [-0.027891126040922, 51.560808155292534],
        [-0.028127727366116, 51.560908352508534],
        [-0.028552028572935, 51.561071953519026],
        [-0.029170460780857, 51.561283776911694],
        [-0.029376511206733, 51.56132320815183],
        [-0.029589377606858, 51.561338473550315],
        [-0.029720222648512, 51.56134876419303],
        [-0.029756070928727, 51.56135386246648],
        [-0.029793399757892, 51.56135808633342],
        [-0.030048502989927, 51.56136416830857],
        [-0.030109248575211, 51.56136069192555],
        [-0.030117937610817, 51.561359938552506],
        [-0.030170071818782, 51.56135541830065],
        [-0.030230895049116, 51.56135014464406],
        [-0.030291757097153, 51.5613439723506],
        [-0.03030192665746, 51.56134234456178],
        [-0.030364269215572, 51.561335297828215],
        [-0.030425208884115, 51.56132732825455],
        [-0.030486226186301, 51.561317561438315],
        [-0.030545840590114, 51.56130687178467],
        [-0.030605493791405, 51.56129528349504],
        [-0.030665185786593, 51.561282796569316],
        [-0.030723474874256, 51.56126938680954],
        [-0.030781802749451, 51.56125507841492],
        [-0.030838766531669, 51.56123894858343],
        [-0.030872352575517, 51.561229620434865],
        [-0.030927913416781, 51.561212567757806],
        [-0.030983513034101, 51.561194616448326],
        [-0.031039151424116, 51.56117576650633],
        [-0.031093386888879, 51.56115599373849],
        [-0.031146219426838, 51.561135298146716],
        [-0.031197687849365, 51.56111278112716],
        [-0.0316909051918, 51.560916925055324],
        [-0.032177970016675, 51.56076322881691],
        [-0.032569738934562, 51.56067807467235],
        [-0.032874818680621, 51.56062923461803],
        [-0.03330798170858, 51.560621208858315],
        [-0.033516366240826, 51.560639989042016],
        [-0.033671021120343, 51.560666860968794],
        [-0.033877933172665, 51.56071978758678],
        [-0.034266870415344, 51.560867487827544],
        [-0.034728414924361, 51.561071257615495],
        [-0.034907907427875, 51.56115789485983],
        [-0.035026995718712, 51.56120665069892],
        [-0.035263335452645, 51.561279851323775],
        [-0.03601470177508, 51.56145429709076],
        [-0.036416522069211, 51.56150418681236],
        [-0.036608076008893, 51.56151188871808],
        [-0.036691888752152, 51.561508794930724],
        [-0.036814975994501, 51.56149826493446],
        [-0.036964439661712, 51.561478284296776],
        [-0.03708658812002, 51.561456047978034],
        [-0.037241073158507, 51.56141996438388],
        [-0.037683316440914, 51.56126819332651],
        [-0.037949585107006, 51.561215993195965],
        [-0.03813824407145, 51.561190371718254],
        [-0.03836715444877, 51.561168120679355],
        [-0.038485721980534, 51.56116200965199],
        [-0.038726486101562, 51.56116603451138],
        [-0.038837806420346, 51.561160701239785],
        [-0.038982954361125, 51.56117391837741],
        [-0.039109023741343, 51.56122818225988],
        [-0.03923374051202, 51.561313897360996],
        [-0.039375139832415, 51.561414279195084],
        [-0.039725275915897, 51.56162605920457],
        [-0.03991054716183, 51.56171278525895],
        [-0.040076523689061, 51.56177850582551],
        [-0.040191552365832, 51.56178762130019],
        [-0.040314523751954, 51.5617797834633],
        [-0.040476807905226, 51.561763609508006],
        [-0.040610412031634, 51.561743359357095],
        [-0.040741402980032, 51.561716770627406],
        [-0.041079113379108, 51.56161359953037],
        [-0.041714059197875, 51.56144254913022],
        [-0.041888415837147, 51.56141398514611],
        [-0.042192796464821, 51.56138129581814],
        [-0.042389641068997, 51.56136659516719],
        [-0.042539115947644, 51.56137988008547],
        [-0.042712058196404, 51.561417836197656],
        [-0.042793425556627, 51.56143807790355],
        [-0.043373607124191, 51.56160152731802],
        [-0.04373502165165, 51.561719061487864],
        [-0.044145450170173, 51.56173669498742],
        [-0.04436426861706, 51.56171426401372],
        [-0.044474417901422, 51.56170261108105],
        [-0.044740427428929, 51.56168995847932],
        [-0.045103965969965, 51.56175806475946],
        [-0.045354751848495, 51.56193220219611],
        [-0.045705469561297, 51.56223210082652],
        [-0.04572632512041, 51.5622504333035],
        [-0.046064187919179, 51.562311814117706],
        [-0.046568870605882, 51.562385863248],
        [-0.046580289046443, 51.56238875111717],
        [-0.046617504892638, 51.562395665496354],
        [-0.046656123987968, 51.56240350248016],
        [-0.046693262840014, 51.56241221406325],
        [-0.046728921450015, 51.56242180024703],
        [-0.046765983315939, 51.56243230903517],
        [-0.04680160345039, 51.56244279381106],
        [-0.046835743345886, 51.56245415318996],
        [-0.046871286502474, 51.5624664351729],
        [-0.046903907673257, 51.562479567760356],
        [-0.046913845904185, 51.562483330212004],
        [-0.046937970613494, 51.562492724337964],
        [-0.046960653582002, 51.56250209446031],
        [-0.046983336559905, 51.562511464578336],
        [-0.047005981044069, 51.562521733306085],
        [-0.047028625538493, 51.562532002029556],
        [-0.047051231540906, 51.56254316936279],
        [-0.047072395801867, 51.56255431269437],
        [-0.047092118320265, 51.56256543202507],
        [-0.047113244100519, 51.56257747396349],
        [-0.047132928138214, 51.56258949190156],
        [-0.047151170432163, 51.56260148583997],
        [-0.047167893981036, 51.56261525300756],
        [-0.047186059295, 51.562629044168894],
        [-0.04718742405062, 51.5626308653931],
        [-0.047204109121729, 51.562645531169814],
        [-0.047219352447463, 51.56266017294856],
        [-0.047234557284078, 51.56267571333956],
        [-0.047248320373917, 51.562691229733346],
        [-0.047260603217103, 51.562707620744575],
        [-0.047272886069, 51.562724011754575],
        [-0.047283727170967, 51.562740378768474],
        [-0.047294529782819, 51.562757644395546],
        [-0.047302487380849, 51.56277396341826],
        [-0.0473118482472, 51.56279120504914],
        [-0.047318325598835, 51.56280839869037],
        [-0.047324764457921, 51.56282649094543],
        [-0.047331241819105, 51.56284368458599],
        [-0.047332414101028, 51.5628499988793],
        [-0.047337334214271, 51.562869864367634],
        [-0.047339409301826, 51.56288878325314],
        [-0.047341445893836, 51.56290860075272],
        [-0.04734204072275, 51.56292839425802],
        [-0.047341193786689, 51.56294816376901],
        [-0.047340308352499, 51.56296883189407],
        [-0.047338058145159, 51.56298767879651],
        [-0.047332847406829, 51.56300827493841],
        [-0.047329116928807, 51.56302799646024],
        [-0.047322541408166, 51.5630467713788],
        [-0.047315927384133, 51.56306644491099],
        [-0.047311024609055, 51.56307985213866],
        [-0.047302968804866, 51.56309950167524],
        [-0.047299777279706, 51.56310664259842],
        [-0.04729350972118, 51.56311822860218],
        [-0.047282608858353, 51.56313693153323],
        [-0.047271707986398, 51.56315563446309],
        [-0.047259403832012, 51.56317341478244],
        [-0.047245619395675, 51.563192069718916],
        [-0.047231873447522, 51.563209826039554],
        [-0.047216724214477, 51.56322665974856],
        [-0.047200094695342, 51.5632443680734],
        [-0.047028224186275, 51.56341686211961],
        [-0.046853947889862, 51.563611797239474],
        [-0.046847988207803, 51.56361619430642],
        [-0.046823995435013, 51.56363737702606],
        [-0.046802886214308, 51.56365860774267],
        [-0.046781776973768, 51.5636798384552],
        [-0.0467620709924, 51.56370199177897],
        [-0.046742364991668, 51.563724145099144],
        [-0.046725504041166, 51.563747245033575],
        [-0.046717871475626, 51.563757009773504],
        [-0.046705566937995, 51.563774790029065],
        [-0.046693223879558, 51.56379346889684],
        [-0.046680919322151, 51.563811249149495],
        [-0.046670018035969, 51.56382995201712],
        [-0.046660558533811, 51.5638486788865],
        [-0.046651099023692, 51.56386740575496],
        [-0.046643081299932, 51.563886156625664],
        [-0.04663506356938, 51.56390490749569],
        [-0.046628449115024, 51.56392458098197],
        [-0.04662331496352, 51.563943379857506],
        [-0.046619584091545, 51.563963101349785],
        [-0.046617911218177, 51.5639684690279],
        [-0.046615275523313, 51.56399630204563],
        [-0.046615561934999, 51.5640232844566],
        [-0.046617290146083, 51.56405029087097],
        [-0.046620421646253, 51.56407821990225],
        [-0.046625033463894, 51.5641052743232],
        [-0.04663108708868, 51.56413235274726],
        [-0.046638582523195, 51.56415945517427],
        [-0.046643579484257, 51.56417752345863],
        [-0.046652516737331, 51.564204649887905],
        [-0.046662934318153, 51.5642309017059],
        [-0.046673351910593, 51.56425715352298],
        [-0.0466866531285, 51.56428345334461],
        [-0.046701396169161, 51.56430977716734],
        [-0.04672726696935, 51.56437945046117],
        [-0.046770307135076, 51.56441883490731],
        [-0.046800448081439, 51.564456206099344],
        [-0.046836796906086, 51.564517061243016],
        [-0.047483502217282, 51.565183381297274],
        [-0.047547516910067, 51.565238401800414],
        [-0.047666531698776, 51.56532311357815],
        [-0.048239083892776, 51.56566626233304],
        [-0.048306330216447, 51.56571324287488],
        [-0.048433652475411, 51.56580618532339],
        [-0.04856760739545, 51.565912726753645],
        [-0.048959536683877, 51.56622858786951],
        [-0.04905385248925, 51.566317383768016],
        [-0.049150187529025, 51.56639272434789],
        [-0.04985193785553, 51.56685311754734],
        [-0.050446827311774, 51.5672146115495],
        [-0.05068855170956, 51.56746682164634],
        [-0.050787929436546, 51.567538614369326],
        [-0.050852681651873, 51.56757655943416],
        [-0.051175481913802, 51.567721305565925],
        [-0.051934442622278, 51.56799199438833],
        [-0.052824905870319, 51.56839345379628],
        [-0.05315919857006, 51.56857345596891],
        [-0.053293902012282, 51.568662918443934],
        [-0.053384250881756, 51.56874355164998],
        [-0.053534657005397, 51.569005930968984],
        [-0.054175945283367, 51.57007318966302],
        [-0.054291893054262, 51.570196511519065],
        [-0.054439044357583, 51.57029876856417],
        [-0.054556083497552, 51.57036275754957],
        [-0.054679197901394, 51.570419653112026],
        [-0.054791582108593, 51.57045748635105],
        [-0.054980277991173, 51.57049928221146],
        [-0.055290295008066, 51.57053859226956],
        [-0.055576043526834, 51.57053793223227],
        [-0.055780502576331, 51.57054851416155],
        [-0.055869562324713, 51.57055808305372],
        [-0.056010289803644, 51.57060807500216],
        [-0.056172111174016, 51.57067100575775],
        [-0.056399178169221, 51.570794367703456],
        [-0.056621585059434, 51.57099318923724],
        [-0.056770647272673, 51.57135535892957],
        [-0.057106084838132, 51.57161090570676],
        [-0.057590274155564, 51.57189769003979],
        [-0.058225795670719, 51.5723245622794],
        [-0.058430836401902, 51.57252489136714],
        [-0.058450170090105, 51.57257916639704],
        [-0.058496379669918, 51.57271391954875],
        [-0.058532953859552, 51.57293933771875],
        [-0.058593801416282, 51.57320472456013],
        [-0.058742720289894, 51.57350304222104],
        [-0.058748029284603, 51.57351392107448],
        [-0.058864751224128, 51.57375505302839],
        [-0.059079360630928, 51.57406974416023],
        [-0.059372780587545, 51.57443160010782],
        [-0.059686040649797, 51.5749376636082],
        [-0.05974160998113, 51.57502221285676],
        [-0.060004514144604, 51.575423129595364],
        [-0.06008346830142, 51.57560248668908],
        [-0.060333838116541, 51.57616236290582],
        [-0.060690406157629, 51.57683819855258],
        [-0.060994676801648, 51.57742054596954],
        [-0.061184138252468, 51.577784276148364],
        [-0.061260227408107, 51.57792941345499],
        [-0.061486372228856, 51.57824518959288],
        [-0.061885971134269, 51.57869062454462],
        [-0.061899935111732, 51.57870164618417],
        [-0.061930671178299, 51.578725534337764],
        [-0.061959926768702, 51.57875029728326],
        [-0.061987701882145, 51.578775935021746],
        [-0.062015477026647, 51.57880157275386],
        [-0.062040329412646, 51.57882806146156],
        [-0.06206518182728, 51.57885455016414],
        [-0.062088553760348, 51.578881913662975],
        [-0.0621104834383, 51.578909253339326],
        [-0.06213093263101, 51.57893746781355],
        [-0.062149939563982, 51.578965658466814],
        [-0.062168908293293, 51.57899474773671],
        [-0.062184992473275, 51.579023789369444],
        [-0.06220107667333, 51.579052831000034],
        [-0.062214238090561, 51.5790827236146],
        [-0.062227399524582, 51.579112616227704],
        [-0.062237676394644, 51.57914246120638],
        [-0.062246702113905, 51.57916778926987],
        [-0.062254017973067, 51.579199383853414],
        [-0.062261295616502, 51.57923187705603],
        [-0.062267169200687, 51.57926344782239],
        [-0.062271562272014, 51.579295893391794],
        [-0.062273070756413, 51.57932829132873],
        [-0.06227457924234, 51.57936068926549],
        [-0.062273203133122, 51.57939303956983],
        [-0.062271827021334, 51.57942538987394],
        [-0.062267566306219, 51.579457692545404],
        [-0.062261863283054, 51.57948997140017],
        [-0.06225471794879, 51.57952222643802],
        [-0.062247572603807, 51.579554481475114],
        [-0.062237542639226, 51.579586688878265],
        [-0.06221171343994, 51.57965100841321],
        [-0.062154257705127, 51.57974627945388],
        [-0.062085339685572, 51.57983956267535],
        [-0.062007843951002, 51.57993090569614],
        [-0.06194545926876, 51.580006311718705],
        [-0.061931751987109, 51.58002317110099],
        [-0.061925638618066, 51.58003116339216],
        [-0.061875442203599, 51.58009148341063],
        [-0.061825207419435, 51.58015270202484],
        [-0.0617721260871, 51.58021297435127],
        [-0.061719082850195, 51.58027234803248],
        [-0.061663154818495, 51.58033167403984],
        [-0.061605822550191, 51.58039007757473],
        [-0.061545681953502, 51.58044663619067],
        [-0.061482656540771, 51.580503147121284],
        [-0.061424302166936, 51.58055164192649],
        [-0.061357064183539, 51.58060538544786],
        [-0.061286979612112, 51.58065818265241],
        [-0.061215490786467, 51.58071005736459],
        [-0.061141155365633, 51.58076098575133],
        [-0.061065453938165, 51.58081009301999],
        [-0.060986867660031, 51.580859152572884],
        [-0.060906953630373, 51.58090549238174],
        [-0.060825597091836, 51.58095180829969],
        [-0.060075548654565, 51.58134677212723],
        [-0.059761206756243, 51.58150883592993],
        [-0.059300698941471, 51.58174761581647],
        [-0.058499757837843, 51.582150720532994],
        [-0.058461451506453, 51.58216897103745],
        [-0.058306591952971, 51.58224644214567],
        [-0.058153097641013, 51.58232573414461],
        [-0.058144251761368, 51.582330084022445],
        [-0.058119194811781, 51.58234225890312],
        [-0.058094099537078, 51.58235533239517],
        [-0.058069042560294, 51.58236750726479],
        [-0.058043947257374, 51.582380580745756],
        [-0.058020294329783, 51.58239367809058],
        [-0.057996603074843, 51.582407674047296],
        [-0.057974315881671, 51.582422592485806],
        [-0.057947509926914, 51.58244193239306],
        [-0.05792210802577, 51.58246219478129],
        [-0.057899552570949, 51.58248340352231],
        [-0.05787699709497, 51.58250461225871],
        [-0.057855883991573, 51.58252584486195],
        [-0.057836174945592, 51.58254799994952],
        [-0.057816465880234, 51.58257015503353],
        [-0.0578042369992, 51.58258613915785],
        [-0.057785931979533, 51.58260921672504],
        [-0.057770511735151, 51.58263234203418],
        [-0.057665851379679, 51.58275110941209],
        [-0.057656507198314, 51.582767141267205],
        [-0.057608458753201, 51.58284458080568],
        [-0.05755900605874, 51.58292109783007],
        [-0.057546738667134, 51.58293798054124],
        [-0.05753127986261, 51.58296200443179],
        [-0.057515821041489, 51.58298602832003],
        [-0.057500323879388, 51.58301095082246],
        [-0.057483422615195, 51.58303495082992],
        [-0.057466559658029, 51.5830580522182],
        [-0.057448215947021, 51.5830820283436],
        [-0.057427064044872, 51.58310415947924],
        [-0.057405873795568, 51.58312718922715],
        [-0.057402835664907, 51.583130735938354],
        [-0.057375799083821, 51.58315546740421],
        [-0.05734732005915, 51.58318017498553],
        [-0.057315994502131, 51.583203936186585],
        [-0.057284668912313, 51.583227697378874],
        [-0.057253419948864, 51.58324966132974],
        [-0.057219247791307, 51.58327247612917],
        [-0.057195517499286, 51.583287370531075],
        [-0.057161421947325, 51.583308388080425],
        [-0.057125922277548, 51.58332848312257],
        [-0.057088980157355, 51.58334855427246],
        [-0.056925344714775, 51.58342857603772],
        [-0.056894440472569, 51.58344245234424],
        [-0.056819343419573, 51.58347717890072],
        [-0.05674561199671, 51.58351372652513],
        [-0.056673322881115, 51.58355029798812],
        [-0.056633380504393, 51.583573017064985],
        [-0.056546091775283, 51.58362282881645],
        [-0.056461611021635, 51.58367448551016],
        [-0.056379938242406, 51.58372798715211],
        [-0.056299631005012, 51.58378330985717],
        [-0.056223612523178, 51.58383960279628],
        [-0.056147517148279, 51.58389769291488],
        [-0.056075748891041, 51.58395585466302],
        [-0.056027903283911, 51.58399462913602],
        [-0.055963500346597, 51.584049315821204],
        [-0.055901943780439, 51.584104948876366],
        [-0.055841791148008, 51.58416150440933],
        [-0.055784523256194, 51.584218107704324],
        [-0.05572865930709, 51.58427563348284],
        [-0.055675603389411, 51.58433500426108],
        [-0.055624028146231, 51.58439350029751],
        [-0.0555935678434, 51.58443076414409],
        [-0.05557526094601, 51.584453841340036],
        [-0.055529340159019, 51.58451512877696],
        [-0.055484823337027, 51.58457733871044],
        [-0.055449344813939, 51.58463070588452],
        [-0.05541055923937, 51.58469391000823],
        [-0.055374658479644, 51.584757161922724],
        [-0.055340161712872, 51.584821336342706],
        [-0.055308549779253, 51.58488555855795],
        [-0.055279784319975, 51.5849507271859],
        [-0.055253903716752, 51.585015943613776],
        [-0.055252192646008, 51.58502221001423],
        [-0.055232043478473, 51.585088420667624],
        [-0.055209009300425, 51.58515458350661],
        [-0.055183090099409, 51.585220698529334],
        [-0.055155728341845, 51.585286789639305],
        [-0.055124115808639, 51.58535101179395],
        [-0.055091022325979, 51.58541610864692],
        [-0.055081638296064, 51.58543303888967],
        [-0.055051928550331, 51.58548650155023],
        [-0.055019295383047, 51.58554081500224],
        [-0.054986738891442, 51.58559333121446],
        [-0.054949854853221, 51.58564577569193],
        [-0.054911528237054, 51.585698196247805],
        [-0.054871797418055, 51.58574969426602],
        [-0.054861162642354, 51.58576210750627],
        [-0.054829219899166, 51.585800245835365],
        [-0.054797277101841, 51.58583838415498],
        [-0.054762487638331, 51.58587557602944],
        [-0.054727698117448, 51.58591276789277],
        [-0.054690061924144, 51.58594901330755],
        [-0.054652464055115, 51.58598436009493],
        [-0.054611981124113, 51.58601965904455],
        [-0.054601499756032, 51.586028477801506],
        [-0.05455965101607, 51.5860619555905],
        [-0.054516359710399, 51.586095409450145],
        [-0.054470221719464, 51.58612791685012],
        [-0.054424122051903, 51.58615952561677],
        [-0.054376618203782, 51.58619021183477],
        [-0.054327671783874, 51.5862208741167],
        [-0.053906556548105, 51.58648186823746],
        [-0.053286047894387, 51.58684836279163],
        [-0.053159860509835, 51.58692989982151],
        [-0.052759158086912, 51.587185833002955],
        [-0.05275771554998, 51.58718580906734],
        [-0.052723248361593, 51.58718164015413],
        [-0.052714132046655, 51.587192279896804],
        [-0.052701976953368, 51.587206466219136],
        [-0.052695899403853, 51.58721355937979],
        [-0.052670492477223, 51.58723382056312],
        [-0.05264223887594, 51.58725313525332],
        [-0.052612657991055, 51.587269730159385],
        [-0.052580153577404, 51.587287175795254],
        [-0.052547725994863, 51.587302824195454],
        [-0.052513817420538, 51.58731934726094],
        [-0.0524827939046, 51.587335918194455],
        [-0.052451693506258, 51.58735428634569],
        [-0.052424882280041, 51.58737362492088],
        [-0.052405399039658, 51.58739038735074],
        [-0.052384434809888, 51.587408024449964],
        [-0.052364913107984, 51.587425685485755],
        [-0.052345352958675, 51.58744424513113],
        [-0.052325792793305, 51.587462804773025],
        [-0.052309117703685, 51.58748141229393],
        [-0.052290961620499, 51.58750089448382],
        [-0.052275729049496, 51.58751952594104],
        [-0.052260419597936, 51.587539954622045],
        [-0.052246591115072, 51.58755950862992],
        [-0.052232724185577, 51.58757996124893],
        [-0.052221742342626, 51.58760046175082],
        [-0.052210760489564, 51.58762096225152],
        [-0.052201259612551, 51.587640588080724],
        [-0.052193124407687, 51.58766203507757],
        [-0.052186470182731, 51.58768260740359],
        [-0.052179777515735, 51.587704078342014],
        [-0.052174527395688, 51.58772557322291],
        [-0.052170719824622, 51.58774709204646],
        [-0.052168354804568, 51.58776863481285],
        [-0.052165989782002, 51.58779017757908],
        [-0.052165067313171, 51.58781174428829],
        [-0.052165587400123, 51.58783333494054],
        [-0.052167550044906, 51.58785494953582],
        [-0.052169551127503, 51.58787566551815],
        [-0.052174398893381, 51.587897327999336],
        [-0.052179246663599, 51.5879189904803],
        [-0.052184094438158, 51.587940652961024],
        [-0.052191865775036, 51.58796146471436],
        [-0.052199637118777, 51.58798227646717],
        [-0.052208851031724, 51.58800311216215],
        [-0.05221950751588, 51.588023971798904],
        [-0.052230164009569, 51.588044831434765],
        [-0.052243744076526, 51.58806484034126],
        [-0.052257324155225, 51.588084849246265],
        [-0.052426842775305, 51.58827290825786],
        [-0.052437922166219, 51.58828388313314],
        [-0.052556044529745, 51.58839105568408],
        [-0.052630083105967, 51.58851638087314],
        [-0.052694659618437, 51.58866043327009],
        [-0.052743228744927, 51.588706201702955],
        [-0.053009950346534, 51.589018170717345],
        [-0.053232667476617, 51.589346494892574],
        [-0.053377482367375, 51.589606082679445],
        [-0.05348283162498, 51.58991087745975],
        [-0.05347388555632, 51.59018769819251],
        [-0.053479212091672, 51.590468352642944],
        [-0.05340727556318, 51.59083405359361],
        [-0.053313228886421, 51.591075291204966],
        [-0.053168094137149, 51.59136334152884],
        [-0.052937940617593, 51.591748898715174],
        [-0.052532902941948, 51.59244269412187],
        [-0.052524024325307, 51.59265027357392],
        [-0.052518350938669, 51.59268165318429],
        [-0.052410283382629, 51.593216712171795],
        [-0.052360730152799, 51.59373385785412],
        [-0.05235688364993, 51.59375627527054],
        [-0.052347940090115, 51.59379659309957],
        [-0.052337553766272, 51.593836886984526],
        [-0.052324281926091, 51.59387713298186],
        [-0.05230956731176, 51.59391735503387],
        [-0.052294852670514, 51.59395757708351],
        [-0.052275848188049, 51.593996828687494],
        [-0.052256843671981, 51.594036080287836],
        [-0.052252092537713, 51.59404589318736],
        [-0.052231798998784, 51.594081526390966],
        [-0.05221154387141, 51.59411626097858],
        [-0.052188403198375, 51.59415094767244],
        [-0.052165300934475, 51.594184735749245],
        [-0.052140755876563, 51.594218499875495],
        [-0.052134677274789, 51.59422559298832],
        [-0.052113325261282, 51.59425221610434],
        [-0.052084490290343, 51.59428500976811],
        [-0.052037611624485, 51.59433458968827],
        [-0.051987885775764, 51.59438322308162],
        [-0.05193390842251, 51.59442998738464],
        [-0.051878526641653, 51.59447582910081],
        [-0.051853076764049, 51.59449698864889],
        [-0.051796290503101, 51.594541907763215],
        [-0.051736657042655, 51.5945858803358],
        [-0.051677023466665, 51.59462985287657],
        [-0.051671098558072, 51.59463335151732],
        [-0.051554947334633, 51.59471595273392],
        [-0.051441604322347, 51.594800398961496],
        [-0.05142967750287, 51.59480919344072],
        [-0.051411825725725, 51.59482148654576],
        [-0.051393935477814, 51.59483467825935],
        [-0.051376083680983, 51.59484697135869],
        [-0.051358231874491, 51.594859264455216],
        [-0.051341822837508, 51.59487158150443],
        [-0.05132393254952, 51.594884773206815],
        [-0.051308927811082, 51.5948980128183],
        [-0.05129248028348, 51.594911228471574],
        [-0.051278879844363, 51.59492539064644],
        [-0.051265279396707, 51.59493955281959],
        [-0.051251525084188, 51.59495730943623],
        [-0.051236058727526, 51.594981332373216],
        [-0.051221996672822, 51.59500627787623],
        [-0.051210820170609, 51.595031271291724],
        [-0.051201086440678, 51.59505628866329],
        [-0.051192757019969, 51.59508222860251],
        [-0.051184466054999, 51.5951072699297],
        [-0.051182792474606, 51.595112637639524],
        [-0.051175905819814, 51.59513860153467],
        [-0.051169057622774, 51.59516366681802],
        [-0.051165056529849, 51.59518967862766],
        [-0.051161055431954, 51.595215690437],
        [-0.051159939910567, 51.59524175016188],
        [-0.051158824387499, 51.59526780988662],
        [-0.051159151655143, 51.59529389356916],
        [-0.051108426259635, 51.59570310921121],
        [-0.051087592499335, 51.59575132274556],
        [-0.051041481004612, 51.59585037375527],
        [-0.050991117806005, 51.595947555640606],
        [-0.050939311571337, 51.59604471353969],
        [-0.050881772307454, 51.596140876954856],
        [-0.050821347151758, 51.596236992413026],
        [-0.050756670212802, 51.59633123872473],
        [-0.05072433164127, 51.596378361865625],
        [-0.050684471044119, 51.596432554062254],
        [-0.050646053180423, 51.5964867702085],
        [-0.050604749560944, 51.59654093841049],
        [-0.050562079968589, 51.596593285409405],
        [-0.050516524607543, 51.596645584458855],
        [-0.050468121950039, 51.59669693694473],
        [-0.050356733973032, 51.596802996612126],
        [-0.050298385019178, 51.5968505868025],
        [-0.050189170377726, 51.59693959667054],
        [-0.050014507006858, 51.597073380782554],
        [-0.049939824088456, 51.59713149040894],
        [-0.049762312032413, 51.597264327568695],
        [-0.049580585865207, 51.597394396682176],
        [-0.048814730974761, 51.59794729506737],
        [-0.047814693225554, 51.598674344992574],
        [-0.046938042654837, 51.59938545482168],
        [-0.046468785232592, 51.59978860233319],
        [-0.04612775558179, 51.60013093524147],
        [-0.045768595157014, 51.60049184953453],
        [-0.044812038129274, 51.601448007657545],
        [-0.044053216595317, 51.602237495271176],
        [-0.043540373374088, 51.602813460094765],
        [-0.043141219867088, 51.60333106851623],
        [-0.042709138309622, 51.60394254771537],
        [-0.042236033119106, 51.604601001305404],
        [-0.042226678841751, 51.60461703177073],
        [-0.042153480750815, 51.60474080650948],
        [-0.042074548561077, 51.604863586300326],
        [-0.041992807075794, 51.604984520674094],
        [-0.04190673586269, 51.60510538275946],
        [-0.041814969117821, 51.605224351261235],
        [-0.041764524266752, 51.60528915488027],
        [-0.041718756578607, 51.605345943266],
        [-0.041671507002592, 51.60540360615889],
        [-0.041621448429822, 51.60545942366496],
        [-0.041569946624872, 51.60551521706874],
        [-0.041538249221956, 51.605547061163534],
        [-0.041497545072675, 51.6055868482091],
        [-0.041456840851651, 51.60562663523949],
        [-0.041447834131778, 51.60563457819535],
        [-0.041414732119151, 51.60566549956932],
        [-0.041371180200319, 51.6057043398014],
        [-0.041326262441306, 51.60574135872544],
        [-0.04127986281684, 51.605779252152814],
        [-0.041233540468337, 51.605815348352294],
        [-0.041184331809232, 51.605851396364535],
        [-0.041132314190717, 51.6058855989775],
        [-0.041080296493925, 51.60591980156638],
        [-0.041044733266528, 51.60594079001351],
        [-0.041026951640536, 51.60595128423288],
        [-0.040989906560069, 51.60597314718091],
        [-0.040933675335604, 51.60600458163052],
        [-0.040874635153968, 51.606034170668465],
        [-0.040815594895827, 51.606063759675756],
        [-0.040766927245973, 51.60608722704954],
        [-0.040755188808723, 51.60609152735515],
        [-0.040694782648272, 51.606119295002564],
        [-0.040631567538145, 51.606145217228466],
        [-0.040568391046931, 51.6061702408156],
        [-0.038671688378851, 51.606885838491564],
        [-0.037944970750752, 51.6071605534218],
        [-0.03645519742444, 51.60771475751319],
        [-0.036393537218649, 51.60773800573929],
        [-0.036189213249703, 51.60782091534031],
        [-0.035983212662566, 51.607909192034725],
        [-0.0358315398836, 51.6079767955144],
        [-0.035780020069794, 51.607999313862116],
        [-0.035765277949232, 51.60800626115774],
        [-0.035694570013087, 51.608038350108934],
        [-0.035623900768411, 51.6080695404154],
        [-0.035553192635307, 51.60810162927898],
        [-0.035483927588852, 51.60813374225358],
        [-0.035413219258305, 51.60816583103041],
        [-0.035343915219949, 51.60819884252071],
        [-0.035277497459043, 51.60823190228362],
        [-0.035211002003799, 51.608266759209066],
        [-0.035145910837415, 51.60830253885519],
        [-0.03508366715114, 51.60833926538411],
        [-0.035022750148708, 51.608378711840885],
        [-0.034993032606552, 51.60839799783714],
        [-0.034858604840425, 51.60850095953053],
        [-0.034732641619307, 51.60860855904901],
        [-0.034610968598244, 51.60871712952168],
        [-0.034600439243641, 51.60872684496371],
        [-0.034561441065772, 51.60876036345332],
        [-0.034520960810725, 51.6087947563625],
        [-0.034481962515446, 51.60882827482409],
        [-0.034442925347301, 51.608862691872055],
        [-0.03440392693564, 51.60889621030613],
        [-0.034366332859627, 51.60893065149535],
        [-0.03433014312007, 51.608966015441084],
        [-0.034295396536138, 51.60900140354459],
        [-0.034262054292212, 51.60903771440718],
        [-0.034230155209111, 51.60907404943006],
        [-0.034202508081271, 51.60911225415621],
        [-0.034201026045299, 51.60911312858529],
        [-0.034176381764749, 51.60914868584648],
        [-0.034153141841814, 51.60918516587331],
        [-0.034131383921847, 51.609220771466866],
        [-0.034110991543062, 51.60925819842767],
        [-0.034092081174083, 51.60929475095679],
        [-0.034074575173593, 51.60933222625474],
        [-0.0340585123673, 51.6093697257223],
        [-0.034045335983712, 51.609407273533044],
        [-0.03403212075357, 51.60944571994165],
        [-0.034021830779313, 51.60948331609501],
        [-0.034020115781871, 51.609489582120425],
        [-0.034012945191302, 51.60952183502021],
        [-0.034005502817183, 51.60956037811781],
        [-0.034003593690619, 51.609571137141806],
        [-0.033998727162968, 51.609616917383725],
        [-0.033995265032282, 51.609663620398386],
        [-0.033996132596841, 51.60971039593348],
        [-0.033997109930596, 51.60972120330423],
        [-0.033998443397916, 51.609757195641855],
        [-0.034003679502559, 51.609803145097274],
        [-0.034010320030492, 51.60985001732549],
        [-0.034019885876655, 51.60989603930021],
        [-0.03403233822479, 51.60994210962055],
        [-0.034044790596914, 51.609988179939485],
        [-0.034060129482783, 51.61003429860297],
        [-0.034076950468895, 51.61007954283742],
        [-0.034095253558787, 51.61012391264231],
        [-0.034114961109089, 51.61016920521646],
        [-0.034137594021809, 51.61021364753175],
        [-0.034161709052326, 51.61025721541486],
        [-0.034187228559343, 51.61030170606444],
        [-0.034215712268316, 51.61034444785142],
        [-0.034244196029909, 51.61038718963174],
        [-0.034277009616958, 51.610430003916726],
        [-0.034309862084874, 51.610471919593095],
        [-0.03434419669219, 51.6105129608304],
        [-0.034381456702646, 51.61055315179658],
        [-0.034874424823545, 51.61107757549962],
        [-0.034945004993232, 51.61114889860836],
        [-0.03502510626256, 51.61123386980814],
        [-0.035102282449786, 51.61131969123424],
        [-0.03517505144888, 51.61140723733276],
        [-0.035244934140268, 51.61149473507016],
        [-0.035311814101819, 51.61158488025201],
        [-0.035375807728518, 51.61167497708263],
        [-0.035389425902592, 51.61169408925926],
        [-0.035409794984877, 51.6117241054217],
        [-0.035431607394205, 51.61175414573739],
        [-0.035453419831913, 51.611784186049206],
        [-0.035473750196621, 51.61181510080119],
        [-0.035494119386962, 51.61184511694956],
        [-0.035513006501085, 51.61187600753911],
        [-0.035530450334839, 51.61190687397021],
        [-0.035547894191764, 51.61193774039886],
        [-0.035560969351982, 51.611969432959945],
        [-0.035574044529858, 51.612001125519576],
        [-0.03557521625879, 51.612007439876386],
        [-0.035586537771705, 51.61204629708171],
        [-0.035596415991845, 51.61208513013119],
        [-0.035603368806303, 51.612124813470736],
        [-0.035607435004421, 51.612164448500536],
        [-0.035610057893662, 51.6122040593754],
        [-0.035609832950708, 51.61224272334056],
        [-0.035609569209679, 51.61228228590569],
        [-0.035606418829735, 51.61232180016123],
        [-0.03560182512338, 51.612361290261624],
        [-0.035601281964295, 51.61237387066468],
        [-0.035595283722613, 51.61241243800938],
        [-0.035586360026707, 51.61245185564371],
        [-0.035577436314426, 51.61249127327693],
        [-0.035565664733085, 51.612529743998415],
        [-0.035552449804456, 51.612568190562826],
        [-0.035537791524913, 51.61260661296966],
        [-0.03552664066067, 51.61263070608359],
        [-0.035486832674998, 51.612716367794306],
        [-0.035451509739518, 51.612798507558836],
        [-0.035449872402415, 51.61280297640242],
        [-0.035417241994736, 51.61288965746788],
        [-0.035405664174729, 51.61292363516817],
        [-0.035390462419965, 51.612974637952114],
        [-0.035386954906824, 51.6129889672371],
        [-0.035376742772926, 51.613024766291076],
        [-0.035361540948962, 51.61307576906977],
        [-0.035343491204513, 51.613125824929405],
        [-0.035319512821443, 51.61317937855135],
        [-0.035281612943473, 51.61325428113517],
        [-0.035239421692062, 51.613328212626136],
        [-0.035194343595319, 51.6134020957794],
        [-0.035172700799546, 51.61343500572964],
        [-0.035124774580681, 51.613507941932],
        [-0.035074000298198, 51.6135799311893],
        [-0.035018934581557, 51.613650949335415],
        [-0.034620271056627, 51.61408580636046],
        [-0.033998950559007, 51.6148262747874],
        [-0.033412523581614, 51.61556102982429],
        [-0.033374767735912, 51.61559906498701],
        [-0.0329330846798, 51.61605927382601],
        [-0.032907264056444, 51.6160885163545],
        [-0.032810182418341, 51.61619569858896],
        [-0.03271598720306, 51.616302929119556],
        [-0.032621752677276, 51.61641105816601],
        [-0.032523265078099, 51.616517317352475],
        [-0.032420524388511, 51.616621706668184],
        [-0.032310721417699, 51.616722380513025],
        [-0.032093179432677, 51.61690937451162],
        [-0.031867091479304, 51.617093527076946],
        [-0.0317040770281, 51.617222084145546],
        [-0.031621925484136, 51.617284553293],
        [-0.03146951950042, 51.61740159768986],
        [-0.031229341750125, 51.61757741951159],
        [-0.030286549080724, 51.61820007017933],
        [-0.029793536240461, 51.61857667510079],
        [-0.029463348062996, 51.61882921726476],
        [-0.028671300510712, 51.61950564280899],
        [-0.027962639990182, 51.62012411352223],
        [-0.027810957252431, 51.62025735187308],
        [-0.027450551076082, 51.62057322746773],
        [-0.027338035157118, 51.62066935489082],
        [-0.027031774277967, 51.6209357811433],
        [-0.026995919900925, 51.620963055249156],
        [-0.026275156213381, 51.62152645827587],
        [-0.026124126753318, 51.621644418221514],
        [-0.026000603094438, 51.62176104202054],
        [-0.025956865205549, 51.6217369260262],
        [-0.025574662991772, 51.622055127155114],
        [-0.02534208548533, 51.62235426209957],
        [-0.025247313506061, 51.62250733874033],
        [-0.025126165095257, 51.62276878074205],
        [-0.024976336906403, 51.62312506052509],
        [-0.024772739200527, 51.62352180084953],
        [-0.024686936257762, 51.62373437840784],
        [-0.024591066227881, 51.623912615021695],
        [-0.024452898707706, 51.624133303706714],
        [-0.024282304992313, 51.62436873372631],
        [-0.024050799989725, 51.62464270520461],
        [-0.023817810450519, 51.624884278267814],
        [-0.023525000003921, 51.625172503911394],
        [-0.023363492207123, 51.625331649402796],
        [-0.023181650889115, 51.62555969446031],
        [-0.02294814409306, 51.62581294735093],
        [-0.022428474912386, 51.62646694085934],
        [-0.019891213099995, 51.62968934518378],
        [-0.018693253305912, 51.63118436777078],
        [-0.017819117103608, 51.6322765872432],
        [-0.017046936221065, 51.633250023080066],
        [-0.016835400173437, 51.63352791479539],
        [-0.016651774080155, 51.633762214453625],
        [-0.015977221036873, 51.634583521069],
        [-0.01543720335798, 51.63526861382811],
        [-0.015266480707295, 51.63550492796622],
        [-0.014997868088957, 51.63593112678847],
        [-0.014848157938555, 51.63624872799473],
        [-0.014862473102928, 51.63645040178559],
        [-0.014793714853044, 51.636734300997496],
        [-0.014791996082321, 51.63674056667522],
        [-0.014589525746413, 51.63700871594397],
        [-0.013986434547471, 51.63811088607515],
        [-0.013514543888035, 51.639186497153766],
        [-0.013343977676651, 51.63961704884892],
        [-0.013277561224663, 51.63984703184119],
        [-0.013168074251745, 51.640566376344616],
        [-0.013164203866602, 51.64058879205779],
        [-0.012720814413533, 51.643523628239855],
        [-0.01228601961403, 51.64622750063258],
        [-0.012039070862106, 51.64622242038183],
        [-0.012033243956318, 51.64625649313956],
        [-0.011663088553853, 51.646391407091244],
        [-0.011541868184548, 51.64641992860298],
        [-0.011123548588931, 51.646400253761364],
        [-0.010777999004402, 51.64636922087802],
        [-0.010402601412106, 51.64629361803128],
        [-0.010202185986165, 51.646513235203216],
        [-0.009240373301948, 51.6465266062984],
        [-0.009008260957355, 51.64651277875351],
        [-0.008845675893233, 51.64649563363356],
        [-0.008618763301385, 51.64646211003743],
        [-0.008362779375596, 51.646399316922],
        [-0.00800331327245, 51.64632307737236],
        [-0.007626411079882, 51.646215966390855],
        [-0.007370114745447, 51.646160359775934],
        [-0.007748120116049, 51.645846642063205],
        [-0.00801393368018, 51.645520228764255],
        [-0.007938538599199, 51.64545959918128],
        [-0.007972454069217, 51.645279425673834],
        [-0.00799027186256, 51.645235664803465],
        [-0.008019565549856, 51.64519389712918],
        [-0.008247270193303, 51.64497834354872],
        [-0.008346965234324, 51.64468238350782],
        [-0.008472185394832, 51.644496564665204],
        [-0.008300193605991, 51.644496344898684],
        [-0.008310695588258, 51.644289695887714],
        [-0.008306689469205, 51.64415024440134],
        [-0.008283893665871, 51.64394482901666],
        [-0.008284705875338, 51.64376139607719],
        [-0.008297860998854, 51.6436591048964],
        [-0.00821774187296, 51.64360738780664],
        [-0.008163961650702, 51.6435812964689],
        [-0.008037192444939, 51.64353867955546],
        [-0.007931221221804, 51.64351619885837],
        [-0.00730715976839, 51.64344266126504],
        [-0.006683272026937, 51.64333225408375],
        [-0.006252916723765, 51.6433240475708],
        [-0.006050639078735, 51.64332241092809],
        [-0.005802682007896, 51.643340680794545],
        [-0.005660354193604, 51.64335624821092],
        [-0.005519273390499, 51.6433763328842],
        [-0.004585758590471, 51.64353672373931],
        [-0.004450839263891, 51.64331771157702],
        [-0.004421014180088, 51.643239869212664],
        [-0.004395348550864, 51.64319896675575],
        [-0.004366399853398, 51.64316700098063],
        [-0.004235215768919, 51.643060458189446],
        [-0.004099155092128, 51.64286750441488],
        [-0.004010424346255, 51.64271582133778],
        [-0.003681582580344, 51.6428316290149],
        [-0.002947748933023, 51.643118599078825],
        [-0.002156648559769, 51.643392899899695],
        [-0.001847165508702, 51.64349554315542],
        [-0.001109386733316, 51.6436745247481],
        [-0.000881132167705, 51.64370480992004],
        [-0.000521030948585, 51.64370946885243],
        [-0.000313288953335, 51.643634890047785],
        [-0.000482602200405, 51.643531662218315],
        [-0.000406746097051, 51.64348181083708],
        [-0.00037049960422, 51.64345151826917],
        [-0.000310193560741, 51.64337675267335],
        [-0.000294483337521, 51.64333961585708],
        [-0.000279463934212, 51.64325393132093],
        [7.2479077028e-5, 51.642646338258224],
        [0.000177439633525, 51.64243682344257],
        [0.00034919007345, 51.64223426383027],
        [0.000460101505118, 51.64212716183876],
        [0.000578391780836, 51.64202353100298],
        [0.000798173696685, 51.64186151773964],
        [0.000908212268951, 51.64180029193373],
        [0.001040902905749, 51.64176116119771],
        [0.001230214562099, 51.64176063219612],
        [0.001432207633552, 51.641752692706376],
        [0.001629748796596, 51.64167648575702],
        [0.00208083894195, 51.64164721230243],
        [0.002525321916599, 51.64166481081944],
        [0.002782234092542, 51.64165683150989],
        [0.002947526963863, 51.64163602670397],
        [0.002987904394931, 51.64160116634047],
        [0.0031830713407, 51.641602332790065],
        [0.003470037328849, 51.64165318971134],
        [0.003506968236977, 51.64154015319501],
        [0.004284548382806, 51.641540370044034],
        [0.005050597219969, 51.64157405094499],
        [0.005453436066666, 51.64159774506934],
        [0.005838452296662, 51.6416433243264],
        [0.006116693092348, 51.641660152334644],
        [0.006383475878843, 51.641646600969736],
        [0.006526571950995, 51.64164685320692],
        [0.006594410274705, 51.641644794536646],
        [0.007017064361857, 51.641593506813344],
        [0.007383854098031, 51.64158633678351],
        [0.008396249361146, 51.64147100416716],
        [0.008947751468751, 51.64142469924989],
        [0.009663253826947, 51.64145921494919],
        [0.009768680712232, 51.64145741026744],
        [0.009872345492321, 51.64144844164692],
        [0.010015851827542, 51.64142530206884],
        [0.010734282481299, 51.64136264196351],
        [0.011026553452107, 51.64130458017497],
        [0.011145189268996, 51.641274671202844],
        [0.011431854002222, 51.64118792838547],
        [0.01148770034452, 51.64117618056606],
        [0.011566773052459, 51.641166732523644],
        [0.011711232114995, 51.64116515657189],
        [0.012153843377231, 51.64114048585542],
        [0.012444416234799, 51.64110942716355],
        [0.012780048723962, 51.641051516956644],
        [0.013454659609825, 51.64088078190612],
        [0.013964068444503, 51.64083067895151],
        [0.014135766595575, 51.64082413648099],
        [0.014421586269513, 51.64071851650584],
        [0.014602885711338, 51.640667745264025],
        [0.014844879826361, 51.64061683138301],
        [0.015107729194252, 51.64057994707443],
        [0.015806506661019, 51.64043306339817],
        [0.016369271038781, 51.64034786224182],
        [0.01677745948324, 51.64029678764276],
        [0.017394243944821, 51.640256515432945],
        [0.01809690287894, 51.64026242424576],
        [0.019325740281122, 51.640335716255734],
        [0.020053251171874, 51.6404454992145],
        [0.021805820037252, 51.6409207112869],
        [0.021807264213346, 51.64092068641671],
        [0.022693156164664, 51.64111405378553],
        [0.022703509933355, 51.641086897817814],
        [0.022838774551767, 51.640554008073224],
        [0.022980892574474, 51.64004527985088],
        [0.022938603125963, 51.639517247712966],
        [0.02295391484869, 51.638724741811465],
        [0.023030761988383, 51.637918585908395],
        [0.02305646174112, 51.63771671029214],
        [0.023930584534779, 51.63754967019313],
        [0.024683473200332, 51.63745125917786],
        [0.024895310185211, 51.63743771384749],
        [0.024979715327055, 51.63735352667102],
        [0.025132871548386, 51.63728793708385],
        [0.024998669248471, 51.637130184821125],
        [0.024910954543979, 51.63701029850669],
        [0.024853241941259, 51.63691507377275],
        [0.024809970016858, 51.63681959995012],
        [0.02478105863256, 51.63672207992885],
        [0.024761975471266, 51.636618095618225],
        [0.024693131073781, 51.63633781651397],
        [0.024686164045534, 51.63621383964454],
        [0.024686100243366, 51.63605017654955],
        [0.02470512232983, 51.635958124596435],
        [0.024738624495934, 51.635866722159086],
        [0.024782554785317, 51.63578233388645],
        [0.024937889012814, 51.63553865466549],
        [0.024969259860918, 51.635496747880566],
        [0.02519807567287, 51.63524820378439],
        [0.025415014103917, 51.63502504324703],
        [0.02564305923472, 51.63482417199923],
        [0.025712390592568, 51.63456399050022],
        [0.025546710279883, 51.634380703624586],
        [0.025395239062601, 51.63409465639949],
        [0.024987341419562, 51.63346951729509],
        [0.02459608844163, 51.63295829502305],
        [0.024446152097981, 51.63267401861842],
        [0.02430335717169, 51.63238782037054],
        [0.024047090578226, 51.63182480957755],
        [0.023846537435201, 51.631279722084614],
        [0.023816912017166, 51.63116602751146],
        [0.023872986668565, 51.63112729211171],
        [0.023808156658544, 51.63093686857886],
        [0.02386471101334, 51.63090891596316],
        [0.023900247442235, 51.63089571374783],
        [0.023864002869495, 51.630795622113475],
        [0.023725081117851, 51.630726076689406],
        [0.022481308621828, 51.62979160392394],
        [0.022134328898917, 51.629429786262804],
        [0.021792728611824, 51.62883137103006],
        [0.021563348523298, 51.62893693708141],
        [0.0213475265591, 51.62902248562606],
        [0.021332569286746, 51.629011052864826],
        [0.021268169219932, 51.62896000497884],
        [0.021382240645585, 51.628893294510846],
        [0.021349763919872, 51.62884529399059],
        [0.02132197235035, 51.62883767923674],
        [0.021275131880397, 51.6288240976854],
        [0.021182563504756, 51.62885446765077],
        [0.021025537453749, 51.62893001073063],
        [0.020961451300437, 51.62891852446453],
        [0.020945062475677, 51.628842369988014],
        [0.020889126153064, 51.62878667991823],
        [0.020895079346827, 51.6286930549831],
        [0.020956461546141, 51.62857869222345],
        [0.021059147972612, 51.62848340192045],
        [0.021119439227901, 51.628409524298235],
        [0.021117042834531, 51.62835561029194],
        [0.021093149565436, 51.628305663410956],
        [0.020982737600807, 51.62832465012673],
        [0.020788958196258, 51.62828841884032],
        [0.020669364376951, 51.62829587301129],
        [0.020637567656286, 51.628263147916385],
        [0.020672630095203, 51.62820679061481],
        [0.020669635288425, 51.628139398085935],
        [0.020556128167801, 51.62799117636387],
        [0.020562315211077, 51.627935316098196],
        [0.020548615339241, 51.62785461900651],
        [0.020466226779276, 51.62772384666415],
        [0.02046395099684, 51.62767262833154],
        [0.020534947377611, 51.627612055565194],
        [0.020551686243377, 51.62753353231597],
        [0.020594452476006, 51.62745546032154],
        [0.020591937002503, 51.62739885058732],
        [0.020563434108572, 51.62734268816035],
        [0.020521252447856, 51.627303847001535],
        [0.020476582628563, 51.62727404119791],
        [0.020412139632519, 51.627254467496265],
        [0.020291384165787, 51.62726823607451],
        [0.020234765378124, 51.627229643277055],
        [0.019922039773513, 51.62702010292524],
        [0.019922166337844, 51.626990425350634],
        [0.019917675474777, 51.62698690560678],
        [0.019921933674561, 51.62695266066701],
        [0.019923151568405, 51.626882497862795],
        [0.019923404700237, 51.62682314271216],
        [0.019921608569823, 51.62678270716668],
        [0.020138966359785, 51.62660181375627],
        [0.020138527261934, 51.62659192951279],
        [0.020137609149057, 51.626571262458164],
        [0.020135892680098, 51.62653262405149],
        [0.020102181586516, 51.626456767539196],
        [0.020068942875632, 51.62642406710654],
        [0.020062556284484, 51.626280296279766],
        [0.020065856338724, 51.6262244857083],
        [0.019928724282904, 51.626129725942064],
        [0.019800121445932, 51.62609686782873],
        [0.019762472282099, 51.62606244468776],
        [0.0197879609687, 51.62595319633131],
        [0.019792132435747, 51.6259495275389],
        [0.019789125300235, 51.62594688151585],
        [0.019795226325017, 51.62592159741354],
        [0.019604885502949, 51.625799875881626],
        [0.019459412754208, 51.62571245310809],
        [0.019408019995383, 51.625628807286716],
        [0.019448417859899, 51.62556246674088],
        [0.019442704577026, 51.625466344785856],
        [0.019474320431228, 51.62539745754173],
        [0.019476217393731, 51.62534257037617],
        [0.019419177237342, 51.62522934630915],
        [0.019121504517033, 51.62503303373684],
        [0.01926817543318, 51.62495227569357],
        [0.019263086350805, 51.62493527739587],
        [0.019244565362759, 51.624908618346026],
        [0.019139224765384, 51.62487895639897],
        [0.019022135489897, 51.6248450001578],
        [0.019009444272754, 51.624754393722874],
        [0.01900024937282, 51.62428693944255],
        [0.018833135622285, 51.624167514954],
        [0.018619834830732, 51.6241792764122],
        [0.018584070546074, 51.624154712287464],
        [0.018581438220654, 51.624095406744615],
        [0.018614051595892, 51.62404898393419],
        [0.018742456063811, 51.62404497728418],
        [0.018800982689148, 51.6239639370998],
        [0.018749680690983, 51.62384971476686],
        [0.018771948954741, 51.62379807428878],
        [0.018811700322006, 51.62374973015268],
        [0.018895119568806, 51.62370872827436],
        [0.019005705684905, 51.62375898306657],
        [0.019046813106659, 51.623741190187694],
        [0.019055729266668, 51.6236816860141],
        [0.019042584530617, 51.62364594191164],
        [0.018958542432793, 51.623607820188624],
        [0.018904450041664, 51.62359346319136],
        [0.018864993407926, 51.62358335073227],
        [0.018785194981348, 51.62357573056408],
        [0.01866357125421, 51.62356972886121],
        [0.018547642302903, 51.62356183059736],
        [0.018461152199209, 51.62353364241845],
        [0.018464613636839, 51.62348142612427],
        [0.018572701826091, 51.62341032487959],
        [0.018690281210811, 51.62339031783582],
        [0.018748998819834, 51.62334614382699],
        [0.018808960499475, 51.62329745211821],
        [0.018829306177089, 51.62323505362956],
        [0.018808784129201, 51.623195839357194],
        [0.018749404174583, 51.6231599911107],
        [0.018626194058529, 51.62308567329215],
        [0.018555655927247, 51.62292861742884],
        [0.018497249484407, 51.62284958808467],
        [0.01846177343086, 51.62279894057849],
        [0.018387160687365, 51.62274536898323],
        [0.018282511640328, 51.62269860856039],
        [0.018255490071945, 51.62267569252934],
        [0.018193910033157, 51.62262279599117],
        [0.018060716729378, 51.62255134699121],
        [0.017906914845686, 51.62247125956552],
        [0.017690967843377, 51.62235806846119],
        [0.017570281473469, 51.62230798604921],
        [0.017456437235575, 51.62231443897246],
        [0.017433539099641, 51.62231932878489],
        [0.017341490581956, 51.62239375036551],
        [0.017247696961604, 51.622396261482066],
        [0.017158601663366, 51.622374411909966],
        [0.017075798880851, 51.62236414445574],
        [0.017026079173084, 51.62235061072024],
        [0.017014371046028, 51.62234721488054],
        [0.017021150645707, 51.622337206585904],
        [0.017088866778109, 51.62223532647902],
        [0.01710317001167, 51.62213436416767],
        [0.017107669091565, 51.62210551070507],
        [0.017088920384851, 51.62204108653216],
        [0.017065871894127, 51.622010008666834],
        [0.017029831224632, 51.62197915404237],
        [0.016985368230453, 51.62195383965349],
        [0.016945634500543, 51.62193743653609],
        [0.016555737031955, 51.62184341868976],
        [0.016265548088113, 51.621815131055925],
        [0.01619017312943, 51.62177685850404],
        [0.016235041771731, 51.62164839367043],
        [0.016232443023682, 51.62162235992064],
        [0.016221541374987, 51.62160456207538],
        [0.016117434242674, 51.62150473440825],
        [0.016114029307414, 51.62149310257768],
        [0.016133163755979, 51.62146849405966],
        [0.016157385680273, 51.62146088399752],
        [0.016202016643225, 51.6214574196598],
        [0.016260246714351, 51.62143483737111],
        [0.016286798039914, 51.62141459770451],
        [0.016288867676569, 51.62133093146303],
        [0.016243409893864, 51.621283152515495],
        [0.016144022821272, 51.62122460951654],
        [0.016007541713167, 51.621176595310224],
        [0.015997397003709, 51.62117587028429],
        [0.015984653722799, 51.62114911149843],
        [0.01582440860783, 51.62092345276794],
        [0.015815189785715, 51.62091102151468],
        [0.015663458140864, 51.62091003005381],
        [0.015592057454935, 51.62086359558833],
        [0.015531996100244, 51.62084484327637],
        [0.015491417586591, 51.6208419429993],
        [0.015247607559072, 51.62088209916194],
        [0.015244043644141, 51.62086687301734],
        [0.015236278815066, 51.62082204358865],
        [0.015124430058812, 51.620743030818666],
        [0.015033069899172, 51.620669961017654],
        [0.014832778648413, 51.620551100442874],
        [0.014715446401061, 51.62044610302397],
        [0.014628685971791, 51.62041162191621],
        [0.014489549784244, 51.620401420227765],
        [0.014440270740183, 51.62039776964955],
        [0.014351958610769, 51.620328244036564],
        [0.014314716359854, 51.62030280473786],
        [0.014444109301977, 51.62019087520264],
        [0.014557384090532, 51.62007382661437],
        [0.014647044630106, 51.61994549289236],
        [0.014709259483807, 51.61975198456595],
        [0.014720234766059, 51.619543169080416],
        [0.014676654068785, 51.61940723034602],
        [0.014499714756467, 51.61890218809886],
        [0.014334043426864, 51.61887985207504],
        [0.014199162860877, 51.618867778531985],
        [0.013990494405264, 51.618885747028834],
        [0.012637729571118, 51.61906721813059],
        [0.012237353413651, 51.619094765136005],
        [0.011827242710841, 51.61909819774152],
        [0.011451577051006, 51.619096542400804],
        [0.011195933118757, 51.61906495261971],
        [0.010871518374581, 51.619046230717046],
        [0.010680859285385, 51.61894878023572],
        [0.01048760300435, 51.61902133300411],
        [0.010374903727647, 51.619086211024246],
        [0.010329784213237, 51.6191112636286],
        [0.010227520530728, 51.61915078366016],
        [0.010211920061711, 51.61915734560337],
        [0.01020255818432, 51.61910894619614],
        [0.010122226939859, 51.619056366599494],
        [0.010113407148734, 51.61905292061665],
        [0.010003171499988, 51.61907549113665],
        [0.00992522287056, 51.619076825863736],
        [0.009902126979204, 51.619077221328496],
        [0.009882751872497, 51.61909643741904],
        [0.009834452998111, 51.619147622642444],
        [0.009724336080485, 51.61917288862749],
        [0.009648465970718, 51.619188575650334],
        [0.009458137257876, 51.619163957130105],
        [0.009025485132861, 51.619180355373494],
        [0.008678455773025, 51.61907478680933],
        [0.009002318932633, 51.618982915952664],
        [0.00909639866559, 51.618954328117646],
        [0.010614675461751, 51.61852996209812],
        [0.013523897528654, 51.61774360483844],
        [0.014703300843105, 51.61739963594224],
        [0.015274395522019, 51.61721537688464],
        [0.015797444415456, 51.61705532075868],
        [0.016042019491993, 51.616935116433154],
        [0.016132685879392, 51.616894891196644],
        [0.016252100965428, 51.61685147430698],
        [0.020561524149193, 51.61289348429024],
        [0.021047914062526, 51.6124624597949],
        [0.021233009472906, 51.61227222718892],
        [0.021264448152513, 51.61223211851241],
        [0.021317342265511, 51.61215477082384],
        [0.021365553214294, 51.612037037210726],
        [0.0213798964498, 51.611872226229146],
        [0.021374746599727, 51.61175631080491],
        [0.021352769078175, 51.611586729772284],
        [0.02130825876735, 51.61143012636569],
        [0.021178816169353, 51.61118236205345],
        [0.021374982150738, 51.611143912911736],
        [0.021191447226849, 51.6107514005506],
        [0.021049451092236, 51.61054611733007],
        [0.020835283868637, 51.61060196175461],
        [0.020612456875933, 51.61026767742485],
        [0.020687443509234, 51.610167468239425],
        [0.020423219785981, 51.6097790415576],
        [0.020368113002434, 51.60970894884504],
        [0.020186337290736, 51.609778622654055],
        [0.019851549255744, 51.60910184851257],
        [0.019682017407123, 51.60892671299081],
        [0.019640619159388, 51.608872570674606],
        [0.019532132749386, 51.608738649579145],
        [0.019572182207015, 51.608729867160214],
        [0.0196566105424, 51.60871222778346],
        [0.019624397315493, 51.60863724450289],
        [0.019587256524625, 51.608548857147156],
        [0.019505400748323, 51.60836411940967],
        [0.019476281218677, 51.60826120589261],
        [0.019408054783002, 51.60825338719556],
        [0.019238250236222, 51.608234726435406],
        [0.019242061296818, 51.6082229705309]
      ]
    ]
  }
}
