{
  "type": "Feature",
  "properties": {
    "name": "Waltham Forest",
    "level": 2,
    "londonBorough": true
  },
  "geometry": {
    "type": "Polygon",
    "coordinates": [
      [
        [0.019242061296818, 51.6082229705309],
        [0.019428204911486, 51.607796217974276],
        [0.019552797288204, 51.6076097265491],
        [0.019446397560787, 51.60765292309739],
        [0.019118817492777, 51.60778895112767],
        [0.017987311456959, 51.60604766573976],
        [0.018129785678907, 51.60600385020632],
        [0.017401392516994, 51.60530775788931],
        [0.017186730444259, 51.60505875619052],
        [0.012991192055837, 51.599207383379344],
        [0.012905000124279, 51.599054189433694],
        [0.012597223165061, 51.596403960390624],
        [0.012611880044217, 51.59591900914171],
        [0.012134465072982, 51.592990219177985],
        [0.01208505557039, 51.59268891559702],
        [0.012275660289807, 51.59144826822569],
        [0.012452570391461, 51.59126987927462],
        [0.012390786172392, 51.59094990352281],
        [0.012390903223867, 51.590756560962],
        [0.013325298367088, 51.58410310387133],
        [0.013369010897066, 51.58378581457064],
        [0.014100144874526, 51.583410866448915],
        [0.014865957781381, 51.58339592138863],
        [0.015501957922924, 51.583383200991555],
        [0.015403683932958, 51.582532390528776],
        [0.015246799022402, 51.58250990560729],
        [0.01553063395249, 51.58197626599731],
        [0.015669934191122, 51.58186236506392],
        [0.015332597070315, 51.58174136340181],
        [0.015232890268523, 51.581706206090914],
        [0.017361532971148, 51.577591484183635],
        [0.017413250716093, 51.57745570590912],
        [0.017390465975919, 51.57459464906266],
        [0.017382348950073, 51.57441133932666],
        [0.016465047437128, 51.57311958090672],
        [0.016343184035828, 51.57290944941741],
        [0.017060635756575, 51.572751438083415],
        [0.017311128909955, 51.57267249306701],
        [0.017892481040095, 51.57217869404409],
        [0.018015336137593, 51.572020109660414],
        [0.018760967875721, 51.572303140625166],
        [0.018882724572029, 51.57234780736534],
        [0.019064308785472, 51.57032314223112],
        [0.019129642237863, 51.569843610565634],
        [0.018344764024944, 51.57010710921574],
        [0.018247667686947, 51.57013036167517],
        [0.017710093009425, 51.570047882434956],
        [0.017667649880258, 51.570001850670806],
        [0.018966683794146, 51.5670775862504],
        [0.018988567556928, 51.56701785836602],
        [0.019022174540001, 51.56670163894177],
        [0.019010816487696, 51.56664068453977],
        [0.018820026369649, 51.56630764328721],
        [0.018752805127916, 51.5662233699516],
        [0.017966840637344, 51.565744094516496],
        [0.017750510690051, 51.565681269554645],
        [0.015596829199627, 51.56559598732967],
        [0.014431223414713, 51.56560161705769],
        [0.014181704960704, 51.561784036013485],
        [0.014190247609302, 51.56132436618108],
        [0.014472775733049, 51.56033931920637],
        [0.014754661007995, 51.55943791382038],
        [0.015952782116008, 51.5593229103403],
        [0.016075487572395, 51.55929202544101],
        [0.017131244061951, 51.558796369986084],
        [0.017747550501096, 51.558411678708715],
        [0.020066658911079, 51.55647522381615],
        [0.02034163497295, 51.55626725521523],
        [0.021232248412918, 51.555140424304994],
        [0.021532208190483, 51.554878066488996],
        [0.017930901686333, 51.553591169088754],
        [0.016944911340575, 51.55318277250629],
        [0.01672042677129, 51.55339076457658],
        [0.016254270735786, 51.553222521194485],
        [0.015622846176736, 51.553949185276736],
        [0.014573840864044, 51.55495459462475],
        [0.011621324039462, 51.55391714833417],
        [0.011110246010777, 51.55439802361915],
        [0.009622310222744, 51.55343343193055],
        [0.010821210897484, 51.552260033559165],
        [0.009451416212388, 51.551388736779906],
        [0.009508222228089, 51.55123758678595],
        [0.006819529729314, 51.550877143353745],
        [0.005779545005428, 51.55064763139894],
        [0.005503125742457, 51.550659551161964],
        [0.005804309138327, 51.551669669964554],
        [0.005734855358682, 51.5518615011356],
        [0.00523128308547, 51.55182514629395],
        [0.005175572576357, 51.55213274710104],
        [0.004945800818241, 51.552123185148396],
        [0.004977485453083, 51.55189243240142],
        [0.003842790705554, 51.551805706017745],
        [0.003810922648753, 51.55193394562381],
        [0.003798641357409, 51.55198271556946],
        [0.003177587020586, 51.551964545177654],
        [0.003081012871337, 51.55209748644281],
        [0.000325653411945, 51.55179558516113],
        [-0.000351289723747, 51.55171989698059],
        [-0.003662138040154, 51.55091928619575],
        [-0.003822303832495, 51.551148625523126],
        [-0.005991769316499, 51.55048769232141],
        [-0.006302741953013, 51.55040215201849],
        [-0.008551894507234, 51.549929572365855],
        [-0.008676122728681, 51.54992538624336],
        [-0.0090381478672, 51.55061946550873],
        [-0.009137243668202, 51.55089362332327],
        [-0.009228861136064, 51.551801633165404],
        [-0.009471862956872, 51.55221581938524],
        [-0.010473646650169, 51.552596113531166],
        [-0.010595225205855, 51.55261975748103],
        [-0.011820732049969, 51.55233568287447],
        [-0.012937563832644, 51.552095617217574],
        [-0.01569915143057, 51.551714310578596],
        [-0.016951306853945, 51.551579011293356],
        [-0.016970458446708, 51.55140397929715],
        [-0.017137154305059, 51.5513852145896],
        [-0.01730706729768, 51.55238716410153],
        [-0.017504257253507, 51.553392271880924],
        [-0.017799644697582, 51.55396379660212],
        [-0.017950462358184, 51.554210943262],
        [-0.018075611543357, 51.55408626188972],
        [-0.018471118694806, 51.55517565098686],
        [-0.022557264429551, 51.55705210333745],
        [-0.023033950869055, 51.557270563186876],
        [-0.023919813217823, 51.557368218757745],
        [-0.023968670751275, 51.557372638680796],
        [-0.024204130095997, 51.558297444680015],
        [-0.024278200583673, 51.55848573773979],
        [-0.024759167844979, 51.55907205904138],
        [-0.024949623349558, 51.5592380309978],
        [-0.025534438496398, 51.559692107620734],
        [-0.025890887143443, 51.559922920124386],
        [-0.028127727366116, 51.560908352508534],
        [-0.028552028572935, 51.561071953519026],
        [-0.029170460780857, 51.561283776911694],
        [-0.029376511206733, 51.56132320815183],
        [-0.030230895049116, 51.56135014464406],
        [-0.030291757097153, 51.5613439723506],
        [-0.032874818680621, 51.56062923461803],
        [-0.03330798170858, 51.560621208858315],
        [-0.03601470177508, 51.56145429709076],
        [-0.036416522069211, 51.56150418681236],
        [-0.038726486101562, 51.56116603451138],
        [-0.038837806420346, 51.561160701239785],
        [-0.03991054716183, 51.56171278525895],
        [-0.040076523689061, 51.56177850582551],
        [-0.042192796464821, 51.56138129581814],
        [-0.042389641068997, 51.56136659516719],
        [-0.043373607124191, 51.56160152731802],
        [-0.04373502165165, 51.561719061487864],
        [-0.044474417901422, 51.56170261108105],
        [-0.044740427428929, 51.56168995847932],
        [-0.045103965969965, 51.56175806475946],
        [-0.045705469561297, 51.56223210082652],
        [-0.04572632512041, 51.5622504333035],
        [-0.047113244100519, 51.56257747396349],
        [-0.047132928138214, 51.56258949190156],
        [-0.047315927384133, 51.56306644491099],
        [-0.047311024609055, 51.56307985213866],
        [-0.046619584091545, 51.563963101349785],
        [-0.046617911218177, 51.5639684690279],
        [-0.046836796906086, 51.564517061243016],
        [-0.047483502217282, 51.565183381297274],
        [-0.05068855170956, 51.56746682164634],
        [-0.050787929436546, 51.567538614369326],
        [-0.05315919857006, 51.56857345596891],
        [-0.053293902012282, 51.568662918443934],
        [-0.054291893054262, 51.570196511519065],
        [-0.054439044357583, 51.57029876856417],
        [-0.056010289803644, 51.57060807500216],
        [-0.056172111174016, 51.57067100575775],
        [-0.056621585059434, 51.57099318923724],
        [-0.056770647272673, 51.57135535892957],
        [-0.058225795670719, 51.5723245622794],
        [-0.058430836401902, 51.57252489136714],
        [-0.058748029284603, 51.57351392107448],
        [-0.058864751224128, 51.57375505302839],
        [-0.05974160998113, 51.57502221285676],
        [-0.060004514144604, 51.575423129595364],
        [-0.061184138252468, 51.577784276148364],
        [-0.061260227408107, 51.57792941345499],
        [-0.0621104834383, 51.578909253339326],
        [-0.06213093263101, 51.57893746781355],
        [-0.062273070756413, 51.57932829132873],
        [-0.06227457924234, 51.57936068926549],
        [-0.06221171343994, 51.57965100841321],
        [-0.062154257705127, 51.57974627945388],
        [-0.061482656540771, 51.580503147121284],
        [-0.061424302166936, 51.58055164192649],
        [-0.057974315881671, 51.582422592485806],
        [-0.057947509926914, 51.58244193239306],
        [-0.057375799083821, 51.58315546740421],
        [-0.05734732005915, 51.58318017498553],
        [-0.055784523256194, 51.584218107704324],
        [-0.05572865930709, 51.58427563348284],
        [-0.054690061924144, 51.58594901330755],
        [-0.054652464055115, 51.58598436009493],
        [-0.052260419597936, 51.587539954622045],
        [-0.052246591115072, 51.58755950862992],
        [-0.052199637118777, 51.58798227646717],
        [-0.052208851031724, 51.58800311216215],
        [-0.053009950346534, 51.589018170717345],
        [-0.053232667476617, 51.589346494892574],
        [-0.05347388555632, 51.59018769819251],
        [-0.053479212091672, 51.590468352642944],
        [-0.052937940617593, 51.591748898715174],
        [-0.052532902941948, 51.59244269412187],
        [-0.05230956731176, 51.59391735503387],
        [-0.052294852670514, 51.59395757708351],
        [-0.051265279396707, 51.59493955281959],
        [-0.051251525084188, 51.59495730943623],
        [-0.051108426259635, 51.59570310921121],
        [-0.051087592499335, 51.59575132274556],
        [-0.050516524607543, 51.596645584458855],
        [-0.050468121950039, 51.59669693694473],
        [-0.046938042654837, 51.59938545482168],
        [-0.046468785232592, 51.59978860233319],
        [-0.044053216595317, 51.602237495271176],
        [-0.043540373374088, 51.602813460094765],
        [-0.04127986281684, 51.605779252152814],
        [-0.041233540468337, 51.605815348352294],
        [-0.035483927588852, 51.60813374225358],
        [-0.035413219258305, 51.60816583103041],
        [-0.034262054292212, 51.60903771440718],
        [-0.034230155209111, 51.60907404943006],
        [-0.034005502817183, 51.60956037811781],
        [-0.034003593690619, 51.609571137141806],
        [-0.034095253558787, 51.61012391264231],
        [-0.034114961109089, 51.61016920521646],
        [-0.035586537771705, 51.61204629708171],
        [-0.035596415991845, 51.61208513013119],
        [-0.035239421692062, 51.613328212626136],
        [-0.035194343595319, 51.6134020957794],
        [-0.032420524388511, 51.616621706668184],
        [-0.032310721417699, 51.616722380513025],
        [-0.029793536240461, 51.61857667510079],
        [-0.029463348062996, 51.61882921726476],
        [-0.025956865205549, 51.6217369260262],
        [-0.025574662991772, 51.622055127155114],
        [-0.024452898707706, 51.624133303706714],
        [-0.024282304992313, 51.62436873372631],
        [-0.023181650889115, 51.62555969446031],
        [-0.02294814409306, 51.62581294735093],
        [-0.015977221036873, 51.634583521069],
        [-0.01543720335798, 51.63526861382811],
        [-0.015266480707295, 51.63550492796622],
        [-0.014997868088957, 51.63593112678847],
        [-0.014793714853044, 51.636734300997496],
        [-0.014791996082321, 51.63674056667522],
        [-0.013514543888035, 51.639186497153766],
        [-0.013343977676651, 51.63961704884892],
        [-0.012720814413533, 51.643523628239855],
        [-0.01228601961403, 51.64622750063258],
        [-0.011663088553853, 51.646391407091244],
        [-0.011541868184548, 51.64641992860298],
        [-0.010777999004402, 51.64636922087802],
        [-0.010402601412106, 51.64629361803128],
        [-0.010202185986165, 51.646513235203216],
        [-0.009240373301948, 51.6465266062984],
        [-0.007626411079882, 51.646215966390855],
        [-0.007370114745447, 51.646160359775934],
        [-0.007748120116049, 51.645846642063205],
        [-0.00801393368018, 51.645520228764255],
        [-0.007938538599199, 51.64545959918128],
        [-0.007972454069217, 51.645279425673834],
        [-0.008346965234324, 51.64468238350782],
        [-0.008472185394832, 51.644496564665204],
        [-0.008300193605991, 51.644496344898684],
        [-0.008297860998854, 51.6436591048964],
        [-0.00821774187296, 51.64360738780664],
        [-0.00730715976839, 51.64344266126504],
        [-0.006683272026937, 51.64333225408375],
        [-0.005519273390499, 51.6433763328842],
        [-0.004585758590471, 51.64353672373931],
        [-0.004099155092128, 51.64286750441488],
        [-0.004010424346255, 51.64271582133778],
        [-0.000881132167705, 51.64370480992004],
        [-0.000521030948585, 51.64370946885243],
        [-0.000313288953335, 51.643634890047785],
        [-0.000482602200405, 51.643531662218315],
        [0.000072479077028, 51.642646338258224],
        [0.000177439633525, 51.64243682344257],
        [0.000908212268951, 51.64180029193373],
        [0.001040902905749, 51.64176116119771],
        [0.003470037328849, 51.64165318971134],
        [0.003506968236977, 51.64154015319501],
        [0.005838452296662, 51.6416433243264],
        [0.006116693092348, 51.641660152334644],
        [0.009768680712232, 51.64145741026744],
        [0.009872345492321, 51.64144844164692],
        [0.01677745948324, 51.64029678764276],
        [0.017394243944821, 51.640256515432945],
        [0.01809690287894, 51.64026242424576],
        [0.019325740281122, 51.640335716255734],
        [0.021807264213346, 51.64092068641671],
        [0.022693156164664, 51.64111405378553],
        [0.022838774551767, 51.640554008073224],
        [0.022980892574474, 51.64004527985088],
        [0.023030761988383, 51.637918585908395],
        [0.02305646174112, 51.63771671029214],
        [0.024979715327055, 51.63735352667102],
        [0.025132871548386, 51.63728793708385],
        [0.024853241941259, 51.63691507377275],
        [0.024809970016858, 51.63681959995012],
        [0.024686100243366, 51.63605017654955],
        [0.02470512232983, 51.635958124596435],
        [0.02564305923472, 51.63482417199923],
        [0.025712390592568, 51.63456399050022],
        [0.024446152097981, 51.63267401861842],
        [0.02430335717169, 51.63238782037054],
        [0.024047090578226, 51.63182480957755],
        [0.023846537435201, 51.631279722084614],
        [0.023900247442235, 51.63089571374783],
        [0.023864002869495, 51.630795622113475],
        [0.022134328898917, 51.629429786262804],
        [0.021792728611824, 51.62883137103006],
        [0.021563348523298, 51.62893693708141],
        [0.0213475265591, 51.62902248562606],
        [0.021382240645585, 51.628893294510846],
        [0.021349763919872, 51.62884529399059],
        [0.021025537453749, 51.62893001073063],
        [0.020961451300437, 51.62891852446453],
        [0.020889126153064, 51.62878667991823],
        [0.020895079346827, 51.6286930549831],
        [0.021119439227901, 51.628409524298235],
        [0.021117042834531, 51.62835561029194],
        [0.020669364376951, 51.62829587301129],
        [0.020637567656286, 51.628263147916385],
        [0.020548615339241, 51.62785461900651],
        [0.020466226779276, 51.62772384666415],
        [0.020594452476006, 51.62745546032154],
        [0.020591937002503, 51.62739885058732],
        [0.020234765378124, 51.627229643277055],
        [0.019922039773513, 51.62702010292524],
        [0.019921608569823, 51.62678270716668],
        [0.020138966359785, 51.62660181375627],
        [0.020062556284484, 51.626280296279766],
        [0.020065856338724, 51.6262244857083],
        [0.019604885502949, 51.625799875881626],
        [0.019459412754208, 51.62571245310809],
        [0.019474320431228, 51.62539745754173],
        [0.019476217393731, 51.62534257037617],
        [0.019009444272754, 51.624754393722874],
        [0.01900024937282, 51.62428693944255],
        [0.018619834830732, 51.6241792764122],
        [0.018584070546074, 51.624154712287464],
        [0.018742456063811, 51.62404497728418],
        [0.018800982689148, 51.6239639370998],
        [0.018771948954741, 51.62379807428878],
        [0.018811700322006, 51.62374973015268],
        [0.019005705684905, 51.62375898306657],
        [0.019046813106659, 51.623741190187694],
        [0.018547642302903, 51.62356183059736],
        [0.018461152199209, 51.62353364241845],
        [0.018829306177089, 51.62323505362956],
        [0.018808784129201, 51.623195839357194],
        [0.017906914845686, 51.62247125956552],
        [0.017690967843377, 51.62235806846119],
        [0.017026079173084, 51.62235061072024],
        [0.017014371046028, 51.62234721488054],
        [0.017029831224632, 51.62197915404237],
        [0.016985368230453, 51.62195383965349],
        [0.016265548088113, 51.621815131055925],
        [0.01619017312943, 51.62177685850404],
        [0.016117434242674, 51.62150473440825],
        [0.016114029307414, 51.62149310257768],
        [0.016286798039914, 51.62141459770451],
        [0.016288867676569, 51.62133093146303],
        [0.01582440860783, 51.62092345276794],
        [0.015815189785715, 51.62091102151468],
        [0.015491417586591, 51.6208419429993],
        [0.015247607559072, 51.62088209916194],
        [0.014351958610769, 51.620328244036564],
        [0.014314716359854, 51.62030280473786],
        [0.014557384090532, 51.62007382661437],
        [0.014647044630106, 51.61994549289236],
        [0.014676654068785, 51.61940723034602],
        [0.014499714756467, 51.61890218809886],
        [0.012637729571118, 51.61906721813059],
        [0.012237353413651, 51.619094765136005],
        [0.010871518374581, 51.619046230717046],
        [0.010680859285385, 51.61894878023572],
        [0.010227520530728, 51.61915078366016],
        [0.010211920061711, 51.61915734560337],
        [0.010122226939859, 51.619056366599494],
        [0.010113407148734, 51.61905292061665],
        [0.009025485132861, 51.619180355373494],
        [0.008678455773025, 51.61907478680933],
        [0.016132685879392, 51.616894891196644],
        [0.016252100965428, 51.61685147430698],
        [0.020561524149193, 51.61289348429024],
        [0.021047914062526, 51.6124624597949],
        [0.021317342265511, 51.61215477082384],
        [0.021365553214294, 51.612037037210726],
        [0.021178816169353, 51.61118236205345],
        [0.021374982150738, 51.611143912911736],
        [0.021049451092236, 51.61054611733007],
        [0.020835283868637, 51.61060196175461],
        [0.020368113002434, 51.60970894884504],
        [0.020186337290736, 51.609778622654055],
        [0.019640619159388, 51.608872570674606],
        [0.019532132749386, 51.608738649579145],
        [0.019572182207015, 51.608729867160214],
        [0.0196566105424, 51.60871222778346],
        [0.019505400748323, 51.60836411940967],
        [0.019476281218677, 51.60826120589261],
        [0.019242061296818, 51.6082229705309]
      ]
    ]
  }
}
