{
  "type": "Feature",
  "properties": {
    "name": "Wandsworth",
    "level": 2,
    "londonBorough": true,
    "center": [-0.196, 51.452]
  },
  "geometry": {
    "type": "Polygon",
    "coordinates": [
      [
        [-0.130661715350124, 51.48019918346527],
        [-0.13085363936411, 51.47994325719635],
        [-0.130985017003572, 51.47975920531068],
        [-0.131168505379426, 51.47960386078325],
        [-0.131344839900512, 51.47948257370634],
        [-0.131412285319389, 51.479418002822214],
        [-0.131544363811049, 51.47925194661292],
        [-0.131611654813629, 51.47915589918133],
        [-0.131736191389547, 51.478927673890325],
        [-0.131829512485281, 51.47872323105138],
        [-0.131877057539436, 51.478616977041625],
        [-0.131969503284158, 51.478469173298436],
        [-0.131988131886521, 51.47843619758824],
        [-0.131989571056696, 51.478436220516],
        [-0.131992596266594, 51.47843267168548],
        [-0.13206138270364, 51.47844096156713],
        [-0.132107164589983, 51.47837784368494],
        [-0.132275018172365, 51.478146710838004],
        [-0.132632189568792, 51.47765241303259],
        [-0.133094744364861, 51.477010515523915],
        [-0.13331924728615, 51.47669665229156],
        [-0.133645963024223, 51.4762423330997],
        [-0.133833637367545, 51.47594856556861],
        [-0.133883392728794, 51.4758585325407],
        [-0.13388338592933, 51.47568227814031],
        [-0.133980272632271, 51.475637058749335],
        [-0.134057186524254, 51.475551954144144],
        [-0.134111617229322, 51.475276748557896],
        [-0.134243984958673, 51.47517364189427],
        [-0.134520286050021, 51.474895671603704],
        [-0.13452781132051, 51.474887698021355],
        [-0.134710774020643, 51.474956254551145],
        [-0.134952873075291, 51.474704716846475],
        [-0.134857776004942, 51.47467083091588],
        [-0.134872789694789, 51.47465578237838],
        [-0.135230530363994, 51.47428738169665],
        [-0.134706443001701, 51.47407401485598],
        [-0.134533886989235, 51.47399753055043],
        [-0.134461742872983, 51.47396580797916],
        [-0.134449112393275, 51.47392244269325],
        [-0.13447917618759, 51.473891447041474],
        [-0.134537213955726, 51.473880680102475],
        [-0.134501989721358, 51.47379109325507],
        [-0.134494198793997, 51.47377028639186],
        [-0.134486306953396, 51.47364606338927],
        [-0.134557725903976, 51.47344846392322],
        [-0.13472195606462, 51.47330539709548],
        [-0.134747528353565, 51.47331389722261],
        [-0.134798746271387, 51.47332910011299],
        [-0.135071651141444, 51.47309873511289],
        [-0.13523886636794, 51.472953017278435],
        [-0.135348723664405, 51.47287203279171],
        [-0.135596530872241, 51.47276266711741],
        [-0.135704372047336, 51.47273110936694],
        [-0.135787127398132, 51.47271444003286],
        [-0.135909881425594, 51.472705600620834],
        [-0.136080048916128, 51.472699313337856],
        [-0.136258557315699, 51.47270035244546],
        [-0.1362755322284, 51.47270781632335],
        [-0.136293946140359, 51.47271530307198],
        [-0.136310921064456, 51.47272276694484],
        [-0.136327859369411, 51.47273112948989],
        [-0.136343358686098, 51.47273946916001],
        [-0.136358858008454, 51.472747808828146],
        [-0.136374320712638, 51.47275704716887],
        [-0.136388307804132, 51.472767161310244],
        [-0.13649255955418, 51.47282367294302],
        [-0.136660918276174, 51.47293246092131],
        [-0.136917994560667, 51.473090318994764],
        [-0.137492509235017, 51.472595862849005],
        [-0.137848980058288, 51.47229307983469],
        [-0.138042816918038, 51.472129795719276],
        [-0.138349148274193, 51.47196200270731],
        [-0.138515971190213, 51.47189630786437],
        [-0.138678635487293, 51.47186202074868],
        [-0.138726877961404, 51.47191494346835],
        [-0.138746573059931, 51.471997088465095],
        [-0.139066242884926, 51.47189065477942],
        [-0.139159689984328, 51.47185886541163],
        [-0.139209432265005, 51.47187494221533],
        [-0.139270380912116, 51.47186331989037],
        [-0.139448933286802, 51.47179241433404],
        [-0.139502065392219, 51.471795955213594],
        [-0.139599669505944, 51.47173275748323],
        [-0.139578523738515, 51.47172163088061],
        [-0.139455929677538, 51.47165583836502],
        [-0.139316188808102, 51.47151603456966],
        [-0.13974124998426, 51.47136720796227],
        [-0.139866864266202, 51.47132333880481],
        [-0.140342596099961, 51.47159256890582],
        [-0.140981294181852, 51.47128885695529],
        [-0.141784358850975, 51.47090861209099],
        [-0.141495664741038, 51.47067832298113],
        [-0.141583936269723, 51.47063206155691],
        [-0.142676823234557, 51.470063963207025],
        [-0.143100362719462, 51.47051940065731],
        [-0.143240689183696, 51.4704676676051],
        [-0.146114507430001, 51.4693342181239],
        [-0.147298378502524, 51.468863736051006],
        [-0.149429063182049, 51.46801521531423],
        [-0.150345255043648, 51.46768255988802],
        [-0.150618665268571, 51.46761493240354],
        [-0.150643177046084, 51.467400396896764],
        [-0.150641433333967, 51.46726548101439],
        [-0.150565665609958, 51.46632636192932],
        [-0.150470343120773, 51.465977745422535],
        [-0.151231398464975, 51.46588453570707],
        [-0.15099177822887, 51.464226125709466],
        [-0.150982533588039, 51.46395620303409],
        [-0.150967222678186, 51.46383636047837],
        [-0.150793090837385, 51.463051261050104],
        [-0.150731734931645, 51.462859650918595],
        [-0.150660512162377, 51.46269845982889],
        [-0.150535688088426, 51.462474374441996],
        [-0.150462395569886, 51.46236440818882],
        [-0.150384751034772, 51.46225527248392],
        [-0.150054804830779, 51.46187058038749],
        [-0.149930428224155, 51.46170675155787],
        [-0.149785251134786, 51.461487739664015],
        [-0.14970259725066, 51.461324569012014],
        [-0.149693435408094, 51.461301942997515],
        [-0.149671268335892, 51.461244939969305],
        [-0.149390425407792, 51.45936195942041],
        [-0.14929904623245, 51.45909433684159],
        [-0.149217177190282, 51.45887632345362],
        [-0.148964323670383, 51.458437090955314],
        [-0.14866458047716, 51.45791168795343],
        [-0.148365680503126, 51.4573656144983],
        [-0.1483407489411, 51.457305869728025],
        [-0.148333386826421, 51.457203238091736],
        [-0.148153859617815, 51.456410854255736],
        [-0.148080091569236, 51.45595736237028],
        [-0.147976900225588, 51.455128415071265],
        [-0.147969899448491, 51.454945755129415],
        [-0.148001614485682, 51.454873416266516],
        [-0.147957981528807, 51.45474233456929],
        [-0.147780632132119, 51.45386095762806],
        [-0.14765108314586, 51.45297224223092],
        [-0.147631018549592, 51.45297012667592],
        [-0.147377972478052, 51.45296343025104],
        [-0.147729947537102, 51.45233951128483],
        [-0.14735990258133, 51.45223654401133],
        [-0.146569730204874, 51.45202351931394],
        [-0.144621432966386, 51.45147922349089],
        [-0.143768603389588, 51.451214829545926],
        [-0.143612246914673, 51.451166491461336],
        [-0.143147381163118, 51.45109528176038],
        [-0.142322593777829, 51.45099138946952],
        [-0.142327893642894, 51.450967193459455],
        [-0.142372569636549, 51.4507529784923],
        [-0.142443697499609, 51.45056076487019],
        [-0.142583701209146, 51.450338168450955],
        [-0.142820891563815, 51.45006135751048],
        [-0.142953258731776, 51.44992047225175],
        [-0.143073571918647, 51.44979288479409],
        [-0.143360131537587, 51.44950516441848],
        [-0.143617226643806, 51.44930510415818],
        [-0.144068705322594, 51.449031683935985],
        [-0.144647564783158, 51.448704524053205],
        [-0.144795179005385, 51.44854229583474],
        [-0.144937041246084, 51.44823789346695],
        [-0.145174900704768, 51.44765983658113],
        [-0.14528333312506, 51.447327927052356],
        [-0.145440371508603, 51.44686189750392],
        [-0.145566167203883, 51.44631444015208],
        [-0.145586428646476, 51.445991926566634],
        [-0.145589177492679, 51.445959596713834],
        [-0.145678561625104, 51.445884573628305],
        [-0.145696438416253, 51.44586956900257],
        [-0.145687936764537, 51.445830766365994],
        [-0.145603448824181, 51.44539418830034],
        [-0.145406915870432, 51.444917169364224],
        [-0.145146017523951, 51.444466109374304],
        [-0.144854886766486, 51.44408651107166],
        [-0.144749671494076, 51.44391308729401],
        [-0.14459414275847, 51.44370289666497],
        [-0.144467104639226, 51.44346438048659],
        [-0.144337791877761, 51.44324651112344],
        [-0.144003503792157, 51.44265400198397],
        [-0.143823577253656, 51.442300441594],
        [-0.143620703765543, 51.441838606272064],
        [-0.143271173291691, 51.44179979773069],
        [-0.142768629354553, 51.441772952071915],
        [-0.142358646053342, 51.44177005264748],
        [-0.141615478736955, 51.441751078910784],
        [-0.140804287098626, 51.44174181268779],
        [-0.139041709725031, 51.44170305256654],
        [-0.137885102703355, 51.44169547596518],
        [-0.137370303719866, 51.44172236809761],
        [-0.137351499763034, 51.44172476708334],
        [-0.136751100437758, 51.441804251919145],
        [-0.136416843405934, 51.44188526737879],
        [-0.136395467237308, 51.441915502408776],
        [-0.136023234612075, 51.4420103011742],
        [-0.135980020580781, 51.442011412520515],
        [-0.13590398804685, 51.44200570713161],
        [-0.13594182343031, 51.441783292065836],
        [-0.13610416917476, 51.44154217386615],
        [-0.136424198289647, 51.44113899764768],
        [-0.136688323011264, 51.440730435615095],
        [-0.13680748327699, 51.44059564203523],
        [-0.137011376378092, 51.440252667203836],
        [-0.137046996613985, 51.44026132667124],
        [-0.137048544292444, 51.440258653485046],
        [-0.137371856723198, 51.440340228625644],
        [-0.137433202552898, 51.44021170980953],
        [-0.137477182614045, 51.44019172562553],
        [-0.137497594536012, 51.44014978468353],
        [-0.137518298888917, 51.44010065429551],
        [-0.137487821294638, 51.440036322494606],
        [-0.137475939809274, 51.44001005513362],
        [-0.137286263006958, 51.43986226009277],
        [-0.137301837169006, 51.43979776077641],
        [-0.137259758709688, 51.43977101353156],
        [-0.137259856408429, 51.43973324611437],
        [-0.137303312180106, 51.43969077213511],
        [-0.137381450099779, 51.439397056114764],
        [-0.137383436452721, 51.43938359876006],
        [-0.137401253018301, 51.439087125658716],
        [-0.137504138619644, 51.438821679880384],
        [-0.137683683793296, 51.43858173203705],
        [-0.137815435259579, 51.438420159642995],
        [-0.138003154717178, 51.43826217395509],
        [-0.138306806160945, 51.43804847659418],
        [-0.138508950916007, 51.43792489114392],
        [-0.138981917529901, 51.43775794459272],
        [-0.139119161752626, 51.43770886561731],
        [-0.139325251304613, 51.43759433401185],
        [-0.139381205892295, 51.43756284880954],
        [-0.139737107356059, 51.43730231631139],
        [-0.139912562597919, 51.43702093417087],
        [-0.139972896844513, 51.436881606838],
        [-0.13987734275051, 51.436258700927944],
        [-0.139805040504971, 51.43587806520459],
        [-0.139759018779161, 51.435665109128514],
        [-0.139697582984854, 51.43544201651322],
        [-0.139648057136466, 51.43531533386707],
        [-0.139489586085677, 51.43517882862971],
        [-0.139110196227099, 51.43481400065304],
        [-0.138228735286585, 51.43405901147363],
        [-0.137857541307514, 51.43377614228385],
        [-0.13759893761905, 51.43380260849618],
        [-0.136931859080991, 51.433932292197504],
        [-0.136686145778211, 51.433924789333325],
        [-0.136522532002402, 51.433914994174515],
        [-0.136455555334039, 51.43382849944352],
        [-0.136150212824829, 51.4328470457023],
        [-0.135869649826856, 51.43196400464465],
        [-0.135594002585134, 51.43120783694699],
        [-0.13536494597287, 51.43065024744897],
        [-0.135264140022571, 51.430334801047174],
        [-0.135332054586857, 51.4302567463944],
        [-0.135379387563568, 51.43026019718902],
        [-0.135495508671563, 51.43027013780896],
        [-0.135930911225672, 51.4303175299898],
        [-0.136707674207731, 51.4303901314778],
        [-0.137223186494734, 51.430448684215925],
        [-0.137711822961932, 51.43049601651334],
        [-0.138398493692724, 51.43055548487348],
        [-0.138387002786461, 51.43048426064215],
        [-0.13838234798662, 51.43045720884063],
        [-0.138382421044807, 51.43045541147631],
        [-0.138385695618036, 51.430339458642656],
        [-0.138364584876253, 51.42997402281401],
        [-0.138394180574048, 51.42956442920957],
        [-0.138411066533108, 51.429078196395324],
        [-0.138437191086983, 51.42875397754255],
        [-0.138489371762971, 51.42831956319897],
        [-0.138541335295583, 51.42799665393154],
        [-0.13876445049066, 51.42682486081432],
        [-0.138871874287119, 51.42609276818251],
        [-0.138926371544725, 51.425282498371985],
        [-0.138932881014705, 51.424768223281234],
        [-0.138922116545187, 51.42457291226461],
        [-0.138866464372442, 51.42381844602932],
        [-0.138825075644002, 51.42363343982679],
        [-0.138530550085806, 51.422669248431305],
        [-0.138516564243792, 51.42262406312902],
        [-0.138302019109402, 51.42202804074692],
        [-0.137851888833411, 51.421106338626764],
        [-0.138171661387461, 51.42084703539695],
        [-0.138519068729201, 51.42058007685623],
        [-0.139046720055436, 51.42019547810123],
        [-0.13950985662858, 51.41987639838346],
        [-0.140405452554709, 51.4192494371946],
        [-0.140671405720548, 51.41911067385186],
        [-0.140884556660743, 51.41899715097047],
        [-0.140996308166101, 51.418936874433655],
        [-0.141175196333774, 51.41885248324815],
        [-0.141390854887946, 51.41874799186315],
        [-0.141576855196321, 51.41866551138617],
        [-0.141822330740504, 51.41857048465669],
        [-0.142024285573823, 51.41848465937903],
        [-0.142665167016961, 51.418250218012574],
        [-0.142792068845697, 51.41820636662198],
        [-0.143111460080722, 51.41809722103388],
        [-0.143512884035536, 51.417986676269415],
        [-0.143746943973042, 51.417924737457774],
        [-0.144002962869213, 51.41785325403756],
        [-0.14448023056349, 51.417752000421295],
        [-0.144505846747164, 51.41775870082781],
        [-0.14469647650834, 51.41781027897845],
        [-0.145005382041766, 51.417888908305365],
        [-0.145285798414022, 51.418031832915744],
        [-0.145294276604767, 51.41803556413997],
        [-0.145598782539574, 51.41815189131481],
        [-0.145778444976314, 51.41822577573082],
        [-0.145851583916315, 51.41826650043733],
        [-0.145882549732381, 51.41828317706875],
        [-0.145996061253481, 51.41835691385846],
        [-0.146053353984035, 51.41839828702095],
        [-0.146272064885528, 51.418573505830594],
        [-0.146474802200629, 51.41871699738587],
        [-0.146813596118778, 51.41891030096845],
        [-0.146918248929686, 51.41895422108492],
        [-0.147039948116271, 51.41896783567685],
        [-0.147440849820414, 51.41897687118649],
        [-0.147599099785795, 51.41897577547771],
        [-0.147669948233967, 51.41900207461925],
        [-0.1478962702225, 51.41913154821612],
        [-0.14818860663601, 51.41933580399523],
        [-0.148655029352166, 51.41957428330331],
        [-0.149227820276971, 51.419814440488516],
        [-0.149341210465944, 51.41985579859783],
        [-0.149548594538792, 51.41992022298869],
        [-0.149793749464402, 51.41997535140523],
        [-0.149923568331101, 51.420001680836194],
        [-0.150135665093294, 51.42005628668328],
        [-0.150284242531064, 51.42008111326687],
        [-0.150428231663051, 51.42007709085428],
        [-0.150547545584446, 51.42004300322612],
        [-0.150773563214924, 51.41996653527824],
        [-0.151000908641479, 51.41989278563272],
        [-0.151161904684805, 51.41985935497096],
        [-0.151327598296954, 51.41985207679521],
        [-0.151909732537628, 51.42003931165928],
        [-0.153295140676427, 51.42045862332112],
        [-0.155364671738851, 51.421105409942584],
        [-0.155759200993004, 51.42123751541378],
        [-0.156170385122312, 51.42131322807698],
        [-0.156841315529465, 51.42151082770006],
        [-0.157545050940568, 51.421751204436205],
        [-0.15818795257272, 51.42200231131538],
        [-0.158791082896797, 51.42224109943561],
        [-0.159289221552829, 51.4224440636024],
        [-0.159592102822229, 51.42256662326008],
        [-0.15967833937922, 51.42242499487114],
        [-0.15970065239459, 51.42244243118828],
        [-0.159698971996277, 51.42259168213606],
        [-0.159882813244175, 51.422634136117395],
        [-0.159918524629301, 51.42228218646693],
        [-0.160022193624737, 51.42231528815843],
        [-0.160019902604563, 51.422264893573306],
        [-0.160043701825684, 51.42220951301296],
        [-0.159913834534226, 51.422184093377105],
        [-0.160037166181957, 51.421978300316894],
        [-0.15996526550594, 51.421942100343216],
        [-0.159973030107851, 51.42192783406681],
        [-0.160083116513899, 51.421836938431056],
        [-0.160361782447981, 51.42191774996276],
        [-0.160361223229772, 51.42182421803507],
        [-0.160995153724097, 51.42093760338331],
        [-0.161181918314269, 51.42062039679137],
        [-0.161555913461909, 51.419938329177974],
        [-0.161599152422698, 51.419864368750005],
        [-0.161671128301833, 51.41986279995321],
        [-0.16271913591098, 51.419910707734346],
        [-0.163543314253404, 51.4199452072165],
        [-0.164139850994162, 51.41998962419795],
        [-0.164552082643545, 51.420039245281],
        [-0.165093605985435, 51.42009268769977],
        [-0.165052563281491, 51.420183769724424],
        [-0.164880655212514, 51.42016668996351],
        [-0.164833425549196, 51.4203404070299],
        [-0.165072816433924, 51.42039631235163],
        [-0.166181027583196, 51.420521568758524],
        [-0.166529339539396, 51.420551298216566],
        [-0.16673686058934, 51.42057702595248],
        [-0.167032672586687, 51.42062481716496],
        [-0.167138572207941, 51.42060219329485],
        [-0.167563209784085, 51.420701457059],
        [-0.16759673655395, 51.42072626127296],
        [-0.1684249959575, 51.42091096657349],
        [-0.168448030785933, 51.42098236811081],
        [-0.169189516517215, 51.4212151711927],
        [-0.169630624584612, 51.42137043880447],
        [-0.170633774349261, 51.42171433074197],
        [-0.171017251723153, 51.42187229055984],
        [-0.171068821975965, 51.42191356200927],
        [-0.17137417906071, 51.42208289119633],
        [-0.171584521349777, 51.422218363992016],
        [-0.172100586167418, 51.422514176753914],
        [-0.172230500601194, 51.42257465469428],
        [-0.172416045698207, 51.422646791077476],
        [-0.17283993293626, 51.42283774828166],
        [-0.1733470215135, 51.42307046734183],
        [-0.173597153219031, 51.423182276559174],
        [-0.173722840150063, 51.42302416690569],
        [-0.173771033208111, 51.42304200376905],
        [-0.174630355397519, 51.42335124652942],
        [-0.174606138297851, 51.42338144417957],
        [-0.174692893263832, 51.423406176046235],
        [-0.174823529798139, 51.423448677129855],
        [-0.17514309589888, 51.423550773146594],
        [-0.175586400306151, 51.42368806704678],
        [-0.175828267808793, 51.4237547798447],
        [-0.17651498412599, 51.42392013838615],
        [-0.177470632423334, 51.424122947613114],
        [-0.178000299313039, 51.42422290705968],
        [-0.178798782498541, 51.424327041407146],
        [-0.179073783789316, 51.424356493433464],
        [-0.180823961449979, 51.42454643714618],
        [-0.181939849837949, 51.42473551006287],
        [-0.183232373058242, 51.42554869767789],
        [-0.183945763375209, 51.426203622046735],
        [-0.184092707457732, 51.426379455509554],
        [-0.184347432723069, 51.42695712813147],
        [-0.184552634285519, 51.42762305955161],
        [-0.184564695279561, 51.428589048923286],
        [-0.184540518449883, 51.429126430379334],
        [-0.184523821685061, 51.42947508361326],
        [-0.184296095157833, 51.43050210497733],
        [-0.184197862816206, 51.43091154377297],
        [-0.184154046934877, 51.4312184109293],
        [-0.184248308182173, 51.431272028089985],
        [-0.184256756412, 51.43127665524753],
        [-0.184338149569137, 51.43132827447942],
        [-0.184407030835334, 51.43136890876336],
        [-0.184393332685606, 51.431460420802416],
        [-0.184379909102671, 51.43161758285594],
        [-0.184419633745879, 51.43174049713641],
        [-0.184580226282845, 51.43193542553115],
        [-0.184736791874084, 51.432123097272225],
        [-0.184912642153073, 51.43225980977957],
        [-0.185288382912287, 51.43250752772274],
        [-0.185430718005681, 51.43269138114739],
        [-0.185761584197635, 51.43316411624607],
        [-0.186424427517779, 51.43295585446248],
        [-0.186573708026163, 51.43296445887727],
        [-0.187289298342904, 51.432986318688386],
        [-0.187301091020807, 51.43290646722944],
        [-0.187419442176093, 51.43209716801598],
        [-0.187453948380959, 51.432097701611994],
        [-0.188243455871768, 51.43210541131362],
        [-0.188332616801005, 51.43206991991157],
        [-0.188358369979638, 51.43210988524048],
        [-0.189254176313293, 51.4318305697035],
        [-0.189244573981113, 51.43181873102941],
        [-0.189088914702506, 51.43160769873499],
        [-0.189119569294145, 51.431596482001254],
        [-0.189796770974843, 51.43135155361138],
        [-0.189957811489572, 51.43153569036604],
        [-0.190224376065075, 51.43177990789175],
        [-0.190342430051307, 51.43188694357953],
        [-0.190408902862327, 51.43198868654216],
        [-0.190449105664453, 51.43209991572837],
        [-0.1904731026425, 51.43222078653525],
        [-0.190542664170789, 51.43239002131448],
        [-0.190667944386532, 51.43256910870098],
        [-0.190844861367148, 51.43278856021788],
        [-0.19106212697748, 51.433042805877896],
        [-0.191144010973576, 51.43326438727915],
        [-0.191159525185129, 51.43330869023978],
        [-0.191168791261434, 51.433365486363044],
        [-0.191176797041442, 51.43341776675632],
        [-0.191185122311325, 51.43346195877447],
        [-0.191183311961915, 51.43350779289528],
        [-0.191145450217484, 51.43362860818438],
        [-0.191132083952605, 51.43363919298873],
        [-0.191118717681524, 51.43364977779148],
        [-0.191103913593731, 51.433660340403975],
        [-0.191074305397612, 51.433681465623074],
        [-0.191059536789041, 51.43369112952155],
        [-0.191046134985902, 51.433702613023755],
        [-0.191032768676314, 51.43371319781622],
        [-0.190951168376469, 51.43377578563866],
        [-0.190866727724717, 51.43383743031017],
        [-0.190780884532774, 51.43389815401729],
        [-0.190779375704027, 51.433899929240546],
        [-0.190639533207757, 51.43408931221901],
        [-0.190373386992312, 51.43459867881148],
        [-0.190265971761373, 51.43480474857124],
        [-0.190184543437441, 51.43500852170285],
        [-0.190068852917762, 51.43527831067812],
        [-0.189886923910882, 51.43580426384927],
        [-0.189760096448199, 51.43617369792203],
        [-0.18964349094369, 51.436575662927744],
        [-0.189442104642379, 51.43733871835751],
        [-0.18935006655145, 51.4376286555397],
        [-0.189267428148274, 51.43811747333361],
        [-0.189215892918534, 51.438547420655496],
        [-0.189547849077588, 51.4385579437013],
        [-0.189728267409008, 51.43861648395172],
        [-0.189935010943298, 51.43877344927031],
        [-0.190271281551927, 51.438856876563854],
        [-0.190535211106758, 51.43891400706723],
        [-0.190667362757996, 51.43891964396803],
        [-0.190646023610783, 51.43894988927039],
        [-0.190530237839288, 51.43911266572541],
        [-0.190465046627784, 51.43930589853134],
        [-0.190461637874003, 51.43931933473977],
        [-0.190420326946278, 51.43930880520571],
        [-0.190313543549197, 51.439280179040175],
        [-0.190292026386014, 51.439314917806925],
        [-0.190210413471069, 51.439450344606115],
        [-0.189963320296092, 51.43973159336618],
        [-0.189941073353975, 51.43982117537249],
        [-0.189886636504766, 51.44003345827736],
        [-0.189802592364439, 51.440048347044154],
        [-0.189759132264061, 51.440055769197606],
        [-0.189945957563393, 51.440425550312746],
        [-0.1900708437792, 51.44079707252228],
        [-0.190063240706728, 51.440989395724785],
        [-0.190036658719701, 51.44118861992091],
        [-0.190030317602307, 51.441312619211324],
        [-0.190026018503672, 51.441421362693156],
        [-0.190039740844254, 51.44147463061977],
        [-0.190078888090259, 51.44146714176597],
        [-0.190091972698092, 51.44146374677195],
        [-0.190393752319354, 51.44140096171323],
        [-0.192522471021165, 51.441095684357414],
        [-0.192864261925476, 51.44103980468345],
        [-0.193416128505981, 51.440947594600175],
        [-0.194458303158597, 51.440755024477504],
        [-0.194548134753934, 51.44073932225733],
        [-0.194610492411914, 51.44083650291752],
        [-0.196452946637613, 51.44045480482186],
        [-0.196705619247588, 51.44035977411567],
        [-0.197170587344838, 51.44028149690642],
        [-0.198517367729872, 51.44002613109249],
        [-0.201605930189563, 51.43945846618489],
        [-0.202733867668096, 51.43924195940367],
        [-0.203000363481339, 51.439197485374365],
        [-0.203681721155169, 51.43906764500316],
        [-0.204255712363368, 51.43896043580988],
        [-0.204285339010967, 51.43901214713401],
        [-0.204557830703422, 51.43896146665059],
        [-0.205439313225384, 51.438791517009015],
        [-0.205889765801532, 51.43871568088581],
        [-0.20668252634851, 51.43864328187516],
        [-0.207289091089155, 51.43851227636165],
        [-0.207476243592845, 51.4384728735069],
        [-0.207876497275679, 51.43842953451048],
        [-0.208042602860279, 51.438413189568934],
        [-0.20831708379668, 51.438385012126254],
        [-0.208685384176854, 51.43834927525377],
        [-0.209128845153574, 51.43830479375093],
        [-0.209938290025014, 51.43821014633781],
        [-0.210387957059467, 51.4381540645614],
        [-0.210997028231019, 51.43806894011488],
        [-0.211683853643067, 51.43794543161986],
        [-0.212119522508571, 51.437879237879514],
        [-0.212229509230928, 51.43786293031698],
        [-0.21254582565506, 51.43783178402563],
        [-0.212779020487607, 51.43782904493408],
        [-0.212969041472403, 51.437826546451475],
        [-0.213151662222256, 51.43782933037365],
        [-0.2132459362521, 51.43784695395618],
        [-0.213781032571261, 51.43785061277884],
        [-0.214249421145317, 51.43783077161926],
        [-0.215108302190487, 51.43779619237579],
        [-0.215551156744733, 51.43776696468591],
        [-0.215707226761825, 51.43774955687895],
        [-0.215734688052046, 51.43774637787205],
        [-0.215920931325898, 51.43791467511818],
        [-0.215950078062322, 51.43794209630446],
        [-0.215990413413153, 51.437977781040225],
        [-0.216033659775292, 51.43801261081122],
        [-0.216076941217316, 51.43804654184689],
        [-0.216123133674719, 51.438079617913544],
        [-0.21616932619873, 51.43811269396246],
        [-0.216176340986578, 51.438117296974454],
        [-0.216238106191727, 51.438156904742485],
        [-0.216531466120821, 51.43834571524675],
        [-0.216885255767033, 51.43849767563636],
        [-0.217134313195701, 51.438568008603404],
        [-0.217331705443703, 51.43859798823007],
        [-0.21739445199986, 51.438612431232016],
        [-0.21745726857228, 51.43862507675992],
        [-0.217521558154458, 51.43863684540024],
        [-0.217585917741444, 51.43864681656469],
        [-0.217650277357291, 51.43865678769405],
        [-0.217714706967941, 51.43866496134729],
        [-0.217780574591334, 51.43867315682836],
        [-0.217846512200001, 51.43867955483149],
        [-0.217912519786226, 51.438684155356455],
        [-0.217978527386627, 51.43868875584439],
        [-0.218044604954269, 51.43869155885394],
        [-0.218069050779063, 51.438691930467556],
        [-0.218135163332847, 51.43869383470544],
        [-0.218201345839969, 51.438693941464614],
        [-0.218267563320485, 51.438693149465635],
        [-0.218333850741343, 51.43869055998762],
        [-0.218401576145473, 51.43868799232744],
        [-0.218466495499823, 51.438683583477115],
        [-0.218532887799151, 51.43867829772361],
        [-0.218597912025832, 51.43867119263748],
        [-0.218815887529437, 51.43865292293164],
        [-0.219158228992793, 51.43861855722469],
        [-0.219598802206905, 51.43853712292128],
        [-0.219704369236845, 51.43852343897738],
        [-0.220438184490988, 51.4384491525236],
        [-0.221130950243197, 51.438505529355744],
        [-0.223239681710099, 51.43874343965389],
        [-0.224276852285428, 51.43886077116547],
        [-0.224507809133131, 51.438581904540754],
        [-0.224798127973564, 51.438664536374965],
        [-0.225130672350556, 51.438734318058415],
        [-0.225505885020525, 51.438742696351206],
        [-0.225893218372344, 51.43869820104471],
        [-0.226982096424866, 51.43859507529239],
        [-0.227638424524587, 51.438515075496426],
        [-0.228809538186828, 51.438405982144374],
        [-0.22929109958215, 51.43834311583312],
        [-0.230098860441408, 51.43825369942042],
        [-0.230463455663467, 51.43820165171912],
        [-0.23090725762154, 51.438184969831774],
        [-0.231074237354006, 51.438182993493506],
        [-0.231323410514449, 51.438139093058204],
        [-0.231656095118794, 51.438019116351],
        [-0.232210557864878, 51.43785662170418],
        [-0.233167930516504, 51.437543728400435],
        [-0.235158986738207, 51.43691547042919],
        [-0.236076891014475, 51.43665501508456],
        [-0.236899154782427, 51.436411998375256],
        [-0.237613150430778, 51.43617813919446],
        [-0.238478777256078, 51.43592946866836],
        [-0.239201384958015, 51.43569572929308],
        [-0.239814380659821, 51.43550620136704],
        [-0.240507837169469, 51.43528190800331],
        [-0.24071162917444, 51.43522022076672],
        [-0.241195558051046, 51.435094393769916],
        [-0.241717628639979, 51.43494935340922],
        [-0.242260919298208, 51.434813621443936],
        [-0.242766959778345, 51.434673731559755],
        [-0.243235843545568, 51.4345647563979],
        [-0.243729686031262, 51.434442664572096],
        [-0.244100066195249, 51.434351094319034],
        [-0.245016638329908, 51.43408515392834],
        [-0.245968217004416, 51.4338440100011],
        [-0.246407234080366, 51.43372558279598],
        [-0.247456709489157, 51.43348229434973],
        [-0.248235956786543, 51.43327002918053],
        [-0.248774173592565, 51.43315307560801],
        [-0.249689870955969, 51.43290866780835],
        [-0.250276627086317, 51.43276365616545],
        [-0.250648727786026, 51.432663997764664],
        [-0.250792617227957, 51.432625678844815],
        [-0.250914595840544, 51.43259602530072],
        [-0.251084056775743, 51.432566180840155],
        [-0.251065495043669, 51.432637843865955],
        [-0.251036514182739, 51.43283164938074],
        [-0.25103959321213, 51.43320308541277],
        [-0.251026252842926, 51.43343938900374],
        [-0.251037302051544, 51.43352678107118],
        [-0.251093421365781, 51.43379019924946],
        [-0.251214138901911, 51.43409504737014],
        [-0.251254495181667, 51.434168488642456],
        [-0.251299336807753, 51.43423750056584],
        [-0.251411652467508, 51.43434798524163],
        [-0.251474572642578, 51.43439568478994],
        [-0.251615135348227, 51.43448231088097],
        [-0.251670114839252, 51.43451190689471],
        [-0.251785825580732, 51.434571184625376],
        [-0.25198948501703, 51.43466324751549],
        [-0.252099822328279, 51.43471255305811],
        [-0.252609436159732, 51.43496834375889],
        [-0.252726415723498, 51.43503213570356],
        [-0.252843772794974, 51.435086041415296],
        [-0.252935179276137, 51.43514135873658],
        [-0.253024462355839, 51.43521462932092],
        [-0.253110458489892, 51.43529864183956],
        [-0.253256809186784, 51.43545998984365],
        [-0.253321886898821, 51.435564373211314],
        [-0.253399527337072, 51.43571660392304],
        [-0.253456077494687, 51.435893699312054],
        [-0.253449050436283, 51.436077940644495],
        [-0.253451194110956, 51.436361235991036],
        [-0.25347354117249, 51.436567496943496],
        [-0.253512156724051, 51.43664900468217],
        [-0.253556661341024, 51.43672700315045],
        [-0.253609965235816, 51.4368006364498],
        [-0.253738074423236, 51.43695002177842],
        [-0.253814112122316, 51.43703118763472],
        [-0.254034901187409, 51.4372404043542],
        [-0.254090535362038, 51.43729069166405],
        [-0.253273440688351, 51.43762652823432],
        [-0.252043069284948, 51.43812165910783],
        [-0.251151576756319, 51.43848334906365],
        [-0.249062880567792, 51.439336130956605],
        [-0.247936239318244, 51.43978780595172],
        [-0.245945703530221, 51.44059164187969],
        [-0.24502603393177, 51.44097264746773],
        [-0.244454370493815, 51.4412086834836],
        [-0.243774765186853, 51.441482666604784],
        [-0.243203226958068, 51.441715101445794],
        [-0.242729209273479, 51.44191842096763],
        [-0.242455639232062, 51.44222276219809],
        [-0.241963643307139, 51.44274414334064],
        [-0.241659436254898, 51.44309658272101],
        [-0.241629258043997, 51.443132999277275],
        [-0.242046863977096, 51.44361226754689],
        [-0.242560573181246, 51.44417480668715],
        [-0.243028962406206, 51.44471867925213],
        [-0.244244620890521, 51.44607767239664],
        [-0.244500011067892, 51.44636026413117],
        [-0.245047756773496, 51.446899921020595],
        [-0.245524746329623, 51.44737107270799],
        [-0.246009927722195, 51.44785403515499],
        [-0.246684085800723, 51.448513376826384],
        [-0.247076158287182, 51.448910412785104],
        [-0.247245130305364, 51.449082897052286],
        [-0.247286662941216, 51.449125782646774],
        [-0.247326309920813, 51.44918033025531],
        [-0.249285098688763, 51.450118737660034],
        [-0.252448381158529, 51.45166587781622],
        [-0.254988854191339, 51.45290601195788],
        [-0.259113038630901, 51.45493217787489],
        [-0.259080248469464, 51.45526441186353],
        [-0.25901851820223, 51.45563848062103],
        [-0.258954696202633, 51.455991835619194],
        [-0.258731644597948, 51.456482208832675],
        [-0.258529034256096, 51.45692702372321],
        [-0.258525951842075, 51.456932373410446],
        [-0.258340838315033, 51.45733338483229],
        [-0.258150512707962, 51.45768216228576],
        [-0.257702269508496, 51.458340044262314],
        [-0.257317480471196, 51.458805529975464],
        [-0.257246545169929, 51.4589672389827],
        [-0.257155708558087, 51.45916012569498],
        [-0.25715348583316, 51.45933184850358],
        [-0.25704925418531, 51.45949845789489],
        [-0.256984755596341, 51.45960450922013],
        [-0.256867573969643, 51.45973315762579],
        [-0.256825510364062, 51.45977929298496],
        [-0.256809857138582, 51.45985010062627],
        [-0.256808007553775, 51.45986086406928],
        [-0.258043409102856, 51.4602685987811],
        [-0.258020494107128, 51.46030332887547],
        [-0.258021932806757, 51.46030335025127],
        [-0.257905610610449, 51.46048506790129],
        [-0.257534440327114, 51.461008308293145],
        [-0.257519128925922, 51.46103236035232],
        [-0.257089237485867, 51.46166083752299],
        [-0.25660099652525, 51.46238466470507],
        [-0.256020315311036, 51.463040570772016],
        [-0.25553626062714, 51.463465007267516],
        [-0.253931872694229, 51.46465150903038],
        [-0.253554061460659, 51.4648940736104],
        [-0.25291550027974, 51.46521638169073],
        [-0.251828104149273, 51.465228050269054],
        [-0.251065995089932, 51.465204095323],
        [-0.249448541199054, 51.46507204798024],
        [-0.249046215634703, 51.465051652516195],
        [-0.248641901086193, 51.46504561388513],
        [-0.248137515027019, 51.465058761326766],
        [-0.245048305033298, 51.46523827382037],
        [-0.243976055609902, 51.46523031285257],
        [-0.24301495384855, 51.465177246905036],
        [-0.241502527349974, 51.465047562810255],
        [-0.23557399690684, 51.46441265300027],
        [-0.235233050659094, 51.464368854046604],
        [-0.234896733610716, 51.46431703056528],
        [-0.234563607115443, 51.46425716093273],
        [-0.233314197476594, 51.463991048354735],
        [-0.233340777355623, 51.4642720139746],
        [-0.23340721507124, 51.46445286445626],
        [-0.23347950086679, 51.46492965528329],
        [-0.233567965185163, 51.46532305979877],
        [-0.233580167176154, 51.46537989618983],
        [-0.233649514319061, 51.46570916606213],
        [-0.233647162272097, 51.466031061011556],
        [-0.233649623543715, 51.46604188905305],
        [-0.233566807353306, 51.46613596156074],
        [-0.233414802159025, 51.46626945766625],
        [-0.233277307962175, 51.466362706123796],
        [-0.23283060138264, 51.46663384149918],
        [-0.233327199283009, 51.46756844854604],
        [-0.233392117327785, 51.46771420540049],
        [-0.233415793099126, 51.467846751377834],
        [-0.233447471465012, 51.46814487929219],
        [-0.233390163376366, 51.468398502624865],
        [-0.233226936827829, 51.46882228604197],
        [-0.233100637850981, 51.469184577693994],
        [-0.233014759067465, 51.46969315626214],
        [-0.232969887817507, 51.47007196202061],
        [-0.232950420312353, 51.47035223349756],
        [-0.232890999327903, 51.47077218525051],
        [-0.232895306697643, 51.471256943891355],
        [-0.232946863379862, 51.47167407186155],
        [-0.232947989892946, 51.471682182053804],
        [-0.233025037665255, 51.47203584764051],
        [-0.233009551351576, 51.47210125923027],
        [-0.232986020992867, 51.47215126241112],
        [-0.23294936546266, 51.47220556401832],
        [-0.232748301235795, 51.47241565507351],
        [-0.232740754162923, 51.47249917120742],
        [-0.232730020841232, 51.472516095109114],
        [-0.232695428930749, 51.47255424131128],
        [-0.232615357581467, 51.47261418314841],
        [-0.232108774874807, 51.472793589482094],
        [-0.2317227560024, 51.4727967611561],
        [-0.231492449063679, 51.47283195533113],
        [-0.231107938472603, 51.47283334923837],
        [-0.230968800350605, 51.47281955992969],
        [-0.230803397774803, 51.472777497533826],
        [-0.230745230336786, 51.47275503794938],
        [-0.230678845790025, 51.47272166338829],
        [-0.230382053242735, 51.47254003301606],
        [-0.229986711485161, 51.47237489918928],
        [-0.229687580363627, 51.47221661212576],
        [-0.229582690906546, 51.47217366311009],
        [-0.229455833168035, 51.47214027398901],
        [-0.229291003592767, 51.47212069924722],
        [-0.229221929235589, 51.47211965609992],
        [-0.229080450016068, 51.47212920958606],
        [-0.228766702513565, 51.47212536978864],
        [-0.228529351746666, 51.47197071070782],
        [-0.228395474225184, 51.47193271814216],
        [-0.228357037863288, 51.4719213464349],
        [-0.228124040918841, 51.47187735963639],
        [-0.227802208444651, 51.471710631420166],
        [-0.227072334797208, 51.471446909292965],
        [-0.226783951358179, 51.471383198136294],
        [-0.226342081379592, 51.47130457515215],
        [-0.2257391031349, 51.47118484510297],
        [-0.225572751204284, 51.47109330230271],
        [-0.224337888029074, 51.470856990335186],
        [-0.223728187815769, 51.470762326995164],
        [-0.223636091685926, 51.47076093178042],
        [-0.22356663560355, 51.47076977122445],
        [-0.223508482058699, 51.470784177356784],
        [-0.223461665950556, 51.47080325147582],
        [-0.223420396351842, 51.47082780509966],
        [-0.223380181682065, 51.470862266413775],
        [-0.223351374261824, 51.47089959830339],
        [-0.223338116570938, 51.470944359781996],
        [-0.223333779785298, 51.47101893159349],
        [-0.223339516067918, 51.471093656035954],
        [-0.223385350525262, 51.471248121810525],
        [-0.223442255553947, 51.47130293885676],
        [-0.223534403134124, 51.47137717402141],
        [-0.223541074598901, 51.47139076380687],
        [-0.22354195506954, 51.47140516510184],
        [-0.22352795657799, 51.4714319304306],
        [-0.223425137903238, 51.471521196569896],
        [-0.223237563296861, 51.47164245047036],
        [-0.222996142535032, 51.47174130609951],
        [-0.222485445954681, 51.472025820591725],
        [-0.221733868922298, 51.47235793703317],
        [-0.220562093725049, 51.471350987841205],
        [-0.21894691594395, 51.47001086505701],
        [-0.218825015185027, 51.469924484009866],
        [-0.218515438958226, 51.46970306203338],
        [-0.21846215858604, 51.469666282571275],
        [-0.218163292215683, 51.469465705069474],
        [-0.21780535830832, 51.46922915830227],
        [-0.217074621790468, 51.4687684247807],
        [-0.216386438763907, 51.46836138958061],
        [-0.215991953944828, 51.46813956833554],
        [-0.215788817102981, 51.46803216450128],
        [-0.215369455900905, 51.46782075354686],
        [-0.214389137615423, 51.467411057960746],
        [-0.21337588290603, 51.46703412437992],
        [-0.212687123257098, 51.46679072155595],
        [-0.211639502803767, 51.46644652111595],
        [-0.209838164291918, 51.46597480246265],
        [-0.206944382579138, 51.46520309045708],
        [-0.206154017467751, 51.46498237465905],
        [-0.205603679575022, 51.464845360504164],
        [-0.205331195560395, 51.46478183942316],
        [-0.204832828369808, 51.464677990124216],
        [-0.204193814667625, 51.46456299203818],
        [-0.203869079207436, 51.46451035745832],
        [-0.203217712906876, 51.46441674679344],
        [-0.202558767002911, 51.464332908046764],
        [-0.201962564739474, 51.4642644158262],
        [-0.201961125958836, 51.46426439376143],
        [-0.20102250671833, 51.464153775741934],
        [-0.199709234262464, 51.46408865527009],
        [-0.198866974654951, 51.46401726803378],
        [-0.198409527174338, 51.46408128056801],
        [-0.198162576806935, 51.4641008661704],
        [-0.197477862956493, 51.464086744343604],
        [-0.196683263772524, 51.464011577859644],
        [-0.195189087908, 51.46389776226117],
        [-0.19485486920361, 51.46390340796868],
        [-0.193237543873918, 51.46399180141105],
        [-0.193189922638906, 51.46399466455215],
        [-0.19184480273779, 51.46415287872705],
        [-0.191511203583847, 51.46417920725437],
        [-0.191257376059099, 51.46419057897722],
        [-0.190722152187339, 51.464255160179505],
        [-0.190508680791885, 51.46426535453672],
        [-0.190407469064735, 51.464276381965774],
        [-0.190169697142782, 51.464318573706976],
        [-0.189053335022239, 51.46458909639652],
        [-0.1886935792484, 51.46469414708487],
        [-0.187831972418214, 51.46496589588537],
        [-0.187391296667958, 51.465114654455746],
        [-0.186362492983577, 51.46549981106379],
        [-0.186282040136195, 51.46553183885911],
        [-0.18552271489268, 51.465837526082005],
        [-0.185047445280213, 51.46605947921113],
        [-0.184235793449299, 51.46655858662229],
        [-0.183891373708322, 51.46678435998538],
        [-0.18355544092035, 51.46701386084091],
        [-0.183404287798619, 51.46712212702272],
        [-0.182978091174709, 51.46744914542083],
        [-0.182894337124717, 51.46752788086826],
        [-0.182020771451139, 51.468569161872686],
        [-0.181701693332693, 51.46895359018557],
        [-0.181531280663086, 51.4691838535906],
        [-0.180982487003035, 51.470058406367926],
        [-0.180382797672582, 51.4710535657523],
        [-0.180321464337325, 51.47136465433712],
        [-0.180287741207158, 51.471452257655606],
        [-0.180240378989759, 51.47152076499174],
        [-0.179625516727521, 51.47271531890354],
        [-0.17952424425807, 51.47287201489545],
        [-0.179437926000214, 51.472978584890946],
        [-0.179273406015833, 51.47313250010812],
        [-0.179218801743641, 51.473165823753575],
        [-0.179161541701577, 51.473229680694175],
        [-0.179017353072585, 51.47341538509868],
        [-0.178877395442686, 51.47371176301357],
        [-0.178775610754498, 51.4740258194668],
        [-0.178721049848695, 51.474455713574706],
        [-0.178655640097295, 51.474615663612376],
        [-0.178481703424763, 51.4750419047122],
        [-0.178356392847722, 51.47540415488487],
        [-0.178170057257864, 51.47574387472286],
        [-0.178136870523247, 51.475853967028584],
        [-0.178124811893039, 51.47601204794205],
        [-0.178121074244045, 51.47603357190484],
        [-0.178107526936789, 51.476120588809984],
        [-0.178078005827307, 51.47621095451712],
        [-0.178032045285583, 51.47631635204932],
        [-0.178002517171271, 51.47637074756645],
        [-0.177735748352564, 51.47663278046631],
        [-0.177668091817594, 51.476740538431486],
        [-0.177645364763971, 51.47680493132442],
        [-0.17763447327261, 51.47686141489597],
        [-0.177636547028373, 51.476990040089014],
        [-0.177627244326157, 51.477078921404186],
        [-0.177631323914821, 51.47715721968588],
        [-0.177650482186841, 51.477254636595134],
        [-0.177680323655131, 51.47733693225703],
        [-0.177728731235947, 51.47742311345173],
        [-0.177815681013755, 51.47755395690167],
        [-0.177484677958864, 51.47780150222906],
        [-0.177460827036454, 51.47782181429411],
        [-0.177191209950346, 51.478118872493916],
        [-0.177036994701125, 51.47830262008317],
        [-0.176150469187859, 51.47919078330695],
        [-0.175885004661892, 51.47945553007448],
        [-0.175253067449236, 51.4799897447644],
        [-0.174948401578203, 51.480190032542026],
        [-0.174243093467737, 51.48054145108469],
        [-0.173940716841051, 51.480684219827566],
        [-0.173370461857486, 51.48093522159913],
        [-0.172545015288149, 51.48119303482964],
        [-0.171418246048699, 51.48153067340705],
        [-0.170928097465971, 51.48168669265397],
        [-0.170780101802059, 51.48171405936019],
        [-0.170681869465702, 51.481721519439155],
        [-0.170512067456006, 51.481717971060235],
        [-0.17027188396946, 51.48174569727973],
        [-0.170118813993132, 51.48175589819248],
        [-0.170034758686153, 51.481768974476694],
        [-0.16996495249371, 51.48178587008951],
        [-0.169667376074778, 51.481880143225375],
        [-0.169531505220907, 51.48192838040878],
        [-0.169391963912476, 51.48196037360377],
        [-0.169164768328017, 51.48198740107277],
        [-0.168780435408707, 51.48201826899782],
        [-0.168544171278668, 51.482055944667266],
        [-0.168313195921303, 51.48210539275054],
        [-0.168084989469254, 51.482193551467496],
        [-0.16798643158393, 51.48220909747546],
        [-0.167698530464295, 51.48224146842779],
        [-0.166792721840236, 51.48238288139958],
        [-0.166782574504031, 51.48238452126308],
        [-0.166387584819516, 51.482429602793175],
        [-0.164823844306135, 51.482636247777094],
        [-0.164512011095709, 51.48265474759476],
        [-0.164049264600582, 51.482665488313245],
        [-0.163587257074192, 51.48280123484268],
        [-0.163437525450559, 51.48283575914847],
        [-0.163286570918486, 51.48286486859537],
        [-0.163101216586853, 51.48288984196839],
        [-0.162574269823084, 51.48292115321292],
        [-0.161514610572883, 51.4830196483054],
        [-0.160656107239411, 51.48305834165526],
        [-0.160569312962319, 51.48306777120329],
        [-0.160347828269661, 51.48309577047299],
        [-0.1589193018986, 51.48330535742303],
        [-0.158595612862686, 51.48336771877389],
        [-0.158249264427865, 51.48338476070042],
        [-0.157978802840167, 51.48341288549798],
        [-0.157847025435051, 51.483430598926965],
        [-0.155531258986543, 51.48374760208204],
        [-0.154775707048047, 51.48384002847566],
        [-0.154149525440171, 51.48390301269135],
        [-0.15392921837185, 51.483937313182054],
        [-0.15376785223781, 51.483974339784304],
        [-0.153486474167665, 51.484022965195194],
        [-0.153368252020178, 51.48406156988473],
        [-0.153267737744522, 51.48408966229748],
        [-0.153166110758757, 51.48410964382053],
        [-0.153044477798681, 51.484125713134944],
        [-0.152819319295413, 51.484137453802965],
        [-0.150270129905701, 51.48452621339698],
        [-0.149843876983426, 51.48455995514554],
        [-0.149384626923242, 51.48459047683166],
        [-0.148856577273213, 51.48461271661054],
        [-0.147758132807996, 51.48463583733253],
        [-0.147255024996661, 51.484646773576806],
        [-0.146188519212891, 51.4846281192903],
        [-0.145170571460119, 51.4845841450214],
        [-0.144921068586728, 51.484556817531384],
        [-0.144789485141267, 51.48453405295486],
        [-0.14458968745451, 51.48448862680318],
        [-0.144276471867244, 51.48443421142627],
        [-0.144160320816393, 51.48442158216098],
        [-0.14345494159711, 51.484377143896495],
        [-0.143364772531489, 51.48436312669116],
        [-0.14292990709676, 51.48428969567707],
        [-0.142538589096756, 51.484207960314386],
        [-0.141695482483223, 51.484079497522046],
        [-0.141062160560648, 51.48396334709981],
        [-0.140745928091382, 51.48391247142895],
        [-0.140531085801657, 51.483882986354345],
        [-0.140356106808241, 51.483864924144086],
        [-0.140077348705092, 51.48384881264546],
        [-0.138989751597674, 51.48381806786255],
        [-0.138939411101119, 51.48381636965406],
        [-0.138566108422154, 51.48382303386456],
        [-0.138303305833152, 51.483839544602894],
        [-0.138110396959823, 51.48383738095571],
        [-0.13779289902241, 51.4838530220701],
        [-0.137376573303153, 51.48389047316539],
        [-0.137143520140016, 51.48391914417564],
        [-0.136665275425945, 51.483991579262245],
        [-0.135147288888003, 51.48427229526307],
        [-0.133061831505188, 51.48465816365446],
        [-0.132880001835031, 51.48470202983996],
        [-0.132791025664795, 51.48472938923091],
        [-0.132627209721, 51.48479062772249],
        [-0.132392460193874, 51.484860628063295],
        [-0.132293297655707, 51.484890522607536],
        [-0.130708694566541, 51.48549565087358],
        [-0.130371122537605, 51.48561436634932],
        [-0.129987671860629, 51.48572785294791],
        [-0.129967000059371, 51.48570504189365],
        [-0.129777010324769, 51.48577215381362],
        [-0.129583699941534, 51.48585000352952],
        [-0.12952646001353, 51.485876068164075],
        [-0.129491215607516, 51.48589259182363],
        [-0.129411192433982, 51.48584185623616],
        [-0.129236306334808, 51.48571586823858],
        [-0.129079655113622, 51.485601861238464],
        [-0.128585816436217, 51.48517492770047],
        [-0.128455592582456, 51.485048752015736],
        [-0.128368297285601, 51.48496462715674],
        [-0.128171704061491, 51.484735775856855],
        [-0.12803588848075, 51.48474619733934],
        [-0.127727197931799, 51.484722384572876],
        [-0.127052310449992, 51.48460189759278],
        [-0.126531845747361, 51.484509053195424],
        [-0.1263636592726, 51.484465899424876],
        [-0.12687346905968, 51.48386974410003],
        [-0.127049008311458, 51.48362795035862],
        [-0.127161028029149, 51.48335456713771],
        [-0.127279817037196, 51.4828807577505],
        [-0.127405689476393, 51.482409759113466],
        [-0.127496434935096, 51.48202272948851],
        [-0.127989830008966, 51.48186154732321],
        [-0.128635444083084, 51.48164074383393],
        [-0.129168095770197, 51.48147029143355],
        [-0.129458995294863, 51.481365223077916],
        [-0.129947501750722, 51.48118237259886],
        [-0.130188952926883, 51.48066645294166],
        [-0.130219948802146, 51.4806480628241],
        [-0.130311350028685, 51.48059646415264],
        [-0.130348249762365, 51.48057457111466],
        [-0.130352787985289, 51.480569247938334],
        [-0.130370536593845, 51.48055784060475],
        [-0.130441335263595, 51.48044656241007],
        [-0.130567841091314, 51.480240851158506],
        [-0.13058329902545, 51.48021501917097],
        [-0.1306448917327, 51.48022319517787],
        [-0.130661715350124, 51.48019918346527]
      ]
    ]
  }
}
