{
  "type": "Feature",
  "properties": {
    "name": "Wandsworth",
    "level": 2,
    "londonBorough": true,
    "center": [-0.196, 51.452]
  },
  "geometry": {
    "type": "Polygon",
    "coordinates": [
      [
        [-0.130661715350124, 51.48019918346527],
        [-0.131412285319389, 51.479418002822214],
        [-0.131544363811049, 51.47925194661292],
        [-0.134057186524254, 51.475551954144144],
        [-0.134111617229322, 51.475276748557896],
        [-0.13452781132051, 51.474887698021355],
        [-0.134710774020643, 51.474956254551145],
        [-0.134872789694789, 51.47465578237838],
        [-0.135230530363994, 51.47428738169665],
        [-0.134533886989235, 51.47399753055043],
        [-0.134461742872983, 51.47396580797916],
        [-0.134557725903976, 51.47344846392322],
        [-0.13472195606462, 51.47330539709548],
        [-0.135704372047336, 51.47273110936694],
        [-0.135787127398132, 51.47271444003286],
        [-0.136080048916128, 51.472699313337856],
        [-0.136258557315699, 51.47270035244546],
        [-0.136660918276174, 51.47293246092131],
        [-0.136917994560667, 51.473090318994764],
        [-0.137848980058288, 51.47229307983469],
        [-0.138042816918038, 51.472129795719276],
        [-0.138349148274193, 51.47196200270731],
        [-0.138515971190213, 51.47189630786437],
        [-0.138726877961404, 51.47191494346835],
        [-0.138746573059931, 51.471997088465095],
        [-0.139448933286802, 51.47179241433404],
        [-0.139502065392219, 51.471795955213594],
        [-0.139599669505944, 51.47173275748323],
        [-0.139455929677538, 51.47165583836502],
        [-0.139316188808102, 51.47151603456966],
        [-0.139866864266202, 51.47132333880481],
        [-0.140342596099961, 51.47159256890582],
        [-0.140981294181852, 51.47128885695529],
        [-0.141784358850975, 51.47090861209099],
        [-0.141583936269723, 51.47063206155691],
        [-0.142676823234557, 51.470063963207025],
        [-0.143100362719462, 51.47051940065731],
        [-0.150345255043648, 51.46768255988802],
        [-0.150618665268571, 51.46761493240354],
        [-0.150470343120773, 51.465977745422535],
        [-0.151231398464975, 51.46588453570707],
        [-0.150967222678186, 51.46383636047837],
        [-0.150793090837385, 51.463051261050104],
        [-0.149693435408094, 51.461301942997515],
        [-0.149671268335892, 51.461244939969305],
        [-0.149390425407792, 51.45936195942041],
        [-0.148365680503126, 51.4573656144983],
        [-0.1483407489411, 51.457305869728025],
        [-0.147780632132119, 51.45386095762806],
        [-0.14765108314586, 51.45297224223092],
        [-0.147377972478052, 51.45296343025104],
        [-0.147729947537102, 51.45233951128483],
        [-0.143147381163118, 51.45109528176038],
        [-0.142322593777829, 51.45099138946952],
        [-0.142372569636549, 51.4507529784923],
        [-0.142443697499609, 51.45056076487019],
        [-0.143073571918647, 51.44979288479409],
        [-0.143360131537587, 51.44950516441848],
        [-0.144647564783158, 51.448704524053205],
        [-0.144795179005385, 51.44854229583474],
        [-0.145678561625104, 51.445884573628305],
        [-0.145696438416253, 51.44586956900257],
        [-0.145603448824181, 51.44539418830034],
        [-0.145406915870432, 51.444917169364224],
        [-0.143823577253656, 51.442300441594],
        [-0.143620703765543, 51.441838606272064],
        [-0.139041709725031, 51.44170305256654],
        [-0.137885102703355, 51.44169547596518],
        [-0.135980020580781, 51.442011412520515],
        [-0.13590398804685, 51.44200570713161],
        [-0.13680748327699, 51.44059564203523],
        [-0.137011376378092, 51.440252667203836],
        [-0.137048544292444, 51.440258653485046],
        [-0.137371856723198, 51.440340228625644],
        [-0.137433202552898, 51.44021170980953],
        [-0.137477182614045, 51.44019172562553],
        [-0.137259758709688, 51.43977101353156],
        [-0.137259856408429, 51.43973324611437],
        [-0.137504138619644, 51.438821679880384],
        [-0.137683683793296, 51.43858173203705],
        [-0.138306806160945, 51.43804847659418],
        [-0.138508950916007, 51.43792489114392],
        [-0.139325251304613, 51.43759433401185],
        [-0.139381205892295, 51.43756284880954],
        [-0.139912562597919, 51.43702093417087],
        [-0.139972896844513, 51.436881606838],
        [-0.139759018779161, 51.435665109128514],
        [-0.139697582984854, 51.43544201651322],
        [-0.139489586085677, 51.43517882862971],
        [-0.139110196227099, 51.43481400065304],
        [-0.138228735286585, 51.43405901147363],
        [-0.137857541307514, 51.43377614228385],
        [-0.136522532002402, 51.433914994174515],
        [-0.136455555334039, 51.43382849944352],
        [-0.13536494597287, 51.43065024744897],
        [-0.135264140022571, 51.430334801047174],
        [-0.137711822961932, 51.43049601651334],
        [-0.138398493692724, 51.43055548487348],
        [-0.138411066533108, 51.429078196395324],
        [-0.138437191086983, 51.42875397754255],
        [-0.138926371544725, 51.425282498371985],
        [-0.138932881014705, 51.424768223281234],
        [-0.138866464372442, 51.42381844602932],
        [-0.138825075644002, 51.42363343982679],
        [-0.138302019109402, 51.42202804074692],
        [-0.137851888833411, 51.421106338626764],
        [-0.13950985662858, 51.41987639838346],
        [-0.140405452554709, 51.4192494371946],
        [-0.141822330740504, 51.41857048465669],
        [-0.142024285573823, 51.41848465937903],
        [-0.143746943973042, 51.417924737457774],
        [-0.144002962869213, 51.41785325403756],
        [-0.14469647650834, 51.41781027897845],
        [-0.145005382041766, 51.417888908305365],
        [-0.146474802200629, 51.41871699738587],
        [-0.146813596118778, 51.41891030096845],
        [-0.147599099785795, 51.41897577547771],
        [-0.147669948233967, 51.41900207461925],
        [-0.149341210465944, 51.41985579859783],
        [-0.149548594538792, 51.41992022298869],
        [-0.150284242531064, 51.42008111326687],
        [-0.150428231663051, 51.42007709085428],
        [-0.151161904684805, 51.41985935497096],
        [-0.151327598296954, 51.41985207679521],
        [-0.156170385122312, 51.42131322807698],
        [-0.156841315529465, 51.42151082770006],
        [-0.159592102822229, 51.42256662326008],
        [-0.15967833937922, 51.42242499487114],
        [-0.159698971996277, 51.42259168213606],
        [-0.159882813244175, 51.422634136117395],
        [-0.160019902604563, 51.422264893573306],
        [-0.160043701825684, 51.42220951301296],
        [-0.159913834534226, 51.422184093377105],
        [-0.15996526550594, 51.421942100343216],
        [-0.159973030107851, 51.42192783406681],
        [-0.160083116513899, 51.421836938431056],
        [-0.160361782447981, 51.42191774996276],
        [-0.161555913461909, 51.419938329177974],
        [-0.161599152422698, 51.419864368750005],
        [-0.163543314253404, 51.4199452072165],
        [-0.164139850994162, 51.41998962419795],
        [-0.164552082643545, 51.420039245281],
        [-0.165093605985435, 51.42009268769977],
        [-0.164833425549196, 51.4203404070299],
        [-0.165072816433924, 51.42039631235163],
        [-0.16759673655395, 51.42072626127296],
        [-0.1684249959575, 51.42091096657349],
        [-0.170633774349261, 51.42171433074197],
        [-0.171017251723153, 51.42187229055984],
        [-0.1733470215135, 51.42307046734183],
        [-0.173597153219031, 51.423182276559174],
        [-0.173722840150063, 51.42302416690569],
        [-0.17651498412599, 51.42392013838615],
        [-0.177470632423334, 51.424122947613114],
        [-0.180823961449979, 51.42454643714618],
        [-0.181939849837949, 51.42473551006287],
        [-0.183232373058242, 51.42554869767789],
        [-0.184092707457732, 51.426379455509554],
        [-0.184347432723069, 51.42695712813147],
        [-0.184552634285519, 51.42762305955161],
        [-0.184564695279561, 51.428589048923286],
        [-0.184197862816206, 51.43091154377297],
        [-0.184154046934877, 51.4312184109293],
        [-0.184338149569137, 51.43132827447942],
        [-0.184407030835334, 51.43136890876336],
        [-0.184580226282845, 51.43193542553115],
        [-0.184736791874084, 51.432123097272225],
        [-0.185430718005681, 51.43269138114739],
        [-0.185761584197635, 51.43316411624607],
        [-0.186573708026163, 51.43296445887727],
        [-0.187289298342904, 51.432986318688386],
        [-0.187301091020807, 51.43290646722944],
        [-0.187419442176093, 51.43209716801598],
        [-0.188332616801005, 51.43206991991157],
        [-0.188358369979638, 51.43210988524048],
        [-0.189254176313293, 51.4318305697035],
        [-0.189119569294145, 51.431596482001254],
        [-0.189796770974843, 51.43135155361138],
        [-0.190224376065075, 51.43177990789175],
        [-0.190342430051307, 51.43188694357953],
        [-0.190844861367148, 51.43278856021788],
        [-0.19106212697748, 51.433042805877896],
        [-0.191183311961915, 51.43350779289528],
        [-0.191145450217484, 51.43362860818438],
        [-0.190780884532774, 51.43389815401729],
        [-0.190779375704027, 51.433899929240546],
        [-0.190373386992312, 51.43459867881148],
        [-0.190265971761373, 51.43480474857124],
        [-0.18935006655145, 51.4376286555397],
        [-0.189267428148274, 51.43811747333361],
        [-0.189215892918534, 51.438547420655496],
        [-0.190535211106758, 51.43891400706723],
        [-0.190667362757996, 51.43891964396803],
        [-0.189802592364439, 51.440048347044154],
        [-0.189759132264061, 51.440055769197606],
        [-0.189945957563393, 51.440425550312746],
        [-0.1900708437792, 51.44079707252228],
        [-0.190026018503672, 51.441421362693156],
        [-0.190039740844254, 51.44147463061977],
        [-0.194548134753934, 51.44073932225733],
        [-0.194610492411914, 51.44083650291752],
        [-0.203681721155169, 51.43906764500316],
        [-0.204255712363368, 51.43896043580988],
        [-0.212229509230928, 51.43786293031698],
        [-0.21254582565506, 51.43783178402563],
        [-0.215707226761825, 51.43774955687895],
        [-0.215734688052046, 51.43774637787205],
        [-0.216238106191727, 51.438156904742485],
        [-0.216531466120821, 51.43834571524675],
        [-0.217780574591334, 51.43867315682836],
        [-0.217846512200001, 51.43867955483149],
        [-0.219704369236845, 51.43852343897738],
        [-0.220438184490988, 51.4384491525236],
        [-0.223239681710099, 51.43874343965389],
        [-0.224276852285428, 51.43886077116547],
        [-0.224507809133131, 51.438581904540754],
        [-0.225130672350556, 51.438734318058415],
        [-0.225505885020525, 51.438742696351206],
        [-0.23090725762154, 51.438184969831774],
        [-0.231074237354006, 51.438182993493506],
        [-0.240507837169469, 51.43528190800331],
        [-0.24071162917444, 51.43522022076672],
        [-0.250914595840544, 51.43259602530072],
        [-0.251084056775743, 51.432566180840155],
        [-0.25103959321213, 51.43320308541277],
        [-0.251026252842926, 51.43343938900374],
        [-0.251214138901911, 51.43409504737014],
        [-0.251254495181667, 51.434168488642456],
        [-0.253110458489892, 51.43529864183956],
        [-0.253256809186784, 51.43545998984365],
        [-0.253399527337072, 51.43571660392304],
        [-0.253456077494687, 51.435893699312054],
        [-0.253451194110956, 51.436361235991036],
        [-0.25347354117249, 51.436567496943496],
        [-0.254034901187409, 51.4372404043542],
        [-0.254090535362038, 51.43729069166405],
        [-0.243203226958068, 51.441715101445794],
        [-0.242729209273479, 51.44191842096763],
        [-0.241659436254898, 51.44309658272101],
        [-0.241629258043997, 51.443132999277275],
        [-0.244244620890521, 51.44607767239664],
        [-0.244500011067892, 51.44636026413117],
        [-0.247286662941216, 51.449125782646774],
        [-0.247326309920813, 51.44918033025531],
        [-0.254988854191339, 51.45290601195788],
        [-0.259113038630901, 51.45493217787489],
        [-0.25901851820223, 51.45563848062103],
        [-0.258954696202633, 51.455991835619194],
        [-0.258525951842075, 51.456932373410446],
        [-0.258340838315033, 51.45733338483229],
        [-0.257702269508496, 51.458340044262314],
        [-0.257317480471196, 51.458805529975464],
        [-0.256808007553775, 51.45986086406928],
        [-0.258043409102856, 51.4602685987811],
        [-0.25660099652525, 51.46238466470507],
        [-0.256020315311036, 51.463040570772016],
        [-0.253554061460659, 51.4648940736104],
        [-0.25291550027974, 51.46521638169073],
        [-0.249046215634703, 51.465051652516195],
        [-0.248641901086193, 51.46504561388513],
        [-0.245048305033298, 51.46523827382037],
        [-0.243976055609902, 51.46523031285257],
        [-0.234563607115443, 51.46425716093273],
        [-0.233314197476594, 51.463991048354735],
        [-0.233647162272097, 51.466031061011556],
        [-0.233649623543715, 51.46604188905305],
        [-0.233277307962175, 51.466362706123796],
        [-0.23283060138264, 51.46663384149918],
        [-0.233415793099126, 51.467846751377834],
        [-0.233447471465012, 51.46814487929219],
        [-0.233100637850981, 51.469184577693994],
        [-0.233014759067465, 51.46969315626214],
        [-0.232947989892946, 51.471682182053804],
        [-0.233025037665255, 51.47203584764051],
        [-0.232615357581467, 51.47261418314841],
        [-0.232108774874807, 51.472793589482094],
        [-0.231107938472603, 51.47283334923837],
        [-0.230968800350605, 51.47281955992969],
        [-0.229687580363627, 51.47221661212576],
        [-0.229582690906546, 51.47217366311009],
        [-0.229080450016068, 51.47212920958606],
        [-0.228766702513565, 51.47212536978864],
        [-0.227802208444651, 51.471710631420166],
        [-0.227072334797208, 51.471446909292965],
        [-0.224337888029074, 51.470856990335186],
        [-0.223728187815769, 51.470762326995164],
        [-0.223351374261824, 51.47089959830339],
        [-0.223338116570938, 51.470944359781996],
        [-0.22354195506954, 51.47140516510184],
        [-0.22352795657799, 51.4714319304306],
        [-0.222485445954681, 51.472025820591725],
        [-0.221733868922298, 51.47235793703317],
        [-0.220562093725049, 51.471350987841205],
        [-0.21894691594395, 51.47001086505701],
        [-0.215788817102981, 51.46803216450128],
        [-0.215369455900905, 51.46782075354686],
        [-0.212687123257098, 51.46679072155595],
        [-0.211639502803767, 51.46644652111595],
        [-0.205603679575022, 51.464845360504164],
        [-0.205331195560395, 51.46478183942316],
        [-0.201961125958836, 51.46426439376143],
        [-0.20102250671833, 51.464153775741934],
        [-0.196683263772524, 51.464011577859644],
        [-0.195189087908, 51.46389776226117],
        [-0.193237543873918, 51.46399180141105],
        [-0.193189922638906, 51.46399466455215],
        [-0.190508680791885, 51.46426535453672],
        [-0.190407469064735, 51.464276381965774],
        [-0.1886935792484, 51.46469414708487],
        [-0.187831972418214, 51.46496589588537],
        [-0.18552271489268, 51.465837526082005],
        [-0.185047445280213, 51.46605947921113],
        [-0.183404287798619, 51.46712212702272],
        [-0.182978091174709, 51.46744914542083],
        [-0.181701693332693, 51.46895359018557],
        [-0.181531280663086, 51.4691838535906],
        [-0.180982487003035, 51.470058406367926],
        [-0.180382797672582, 51.4710535657523],
        [-0.180240378989759, 51.47152076499174],
        [-0.179625516727521, 51.47271531890354],
        [-0.179161541701577, 51.473229680694175],
        [-0.179017353072585, 51.47341538509868],
        [-0.178107526936789, 51.476120588809984],
        [-0.178078005827307, 51.47621095451712],
        [-0.177668091817594, 51.476740538431486],
        [-0.177645364763971, 51.47680493132442],
        [-0.177728731235947, 51.47742311345173],
        [-0.177815681013755, 51.47755395690167],
        [-0.175253067449236, 51.4799897447644],
        [-0.174948401578203, 51.480190032542026],
        [-0.173940716841051, 51.480684219827566],
        [-0.173370461857486, 51.48093522159913],
        [-0.171418246048699, 51.48153067340705],
        [-0.170928097465971, 51.48168669265397],
        [-0.163437525450559, 51.48283575914847],
        [-0.163286570918486, 51.48286486859537],
        [-0.160656107239411, 51.48305834165526],
        [-0.160569312962319, 51.48306777120329],
        [-0.149843876983426, 51.48455995514554],
        [-0.149384626923242, 51.48459047683166],
        [-0.146188519212891, 51.4846281192903],
        [-0.145170571460119, 51.4845841450214],
        [-0.140531085801657, 51.483882986354345],
        [-0.140356106808241, 51.483864924144086],
        [-0.13779289902241, 51.4838530220701],
        [-0.137376573303153, 51.48389047316539],
        [-0.133061831505188, 51.48465816365446],
        [-0.132880001835031, 51.48470202983996],
        [-0.12952646001353, 51.485876068164075],
        [-0.129491215607516, 51.48589259182363],
        [-0.128368297285601, 51.48496462715674],
        [-0.128171704061491, 51.484735775856855],
        [-0.126531845747361, 51.484509053195424],
        [-0.1263636592726, 51.484465899424876],
        [-0.12687346905968, 51.48386974410003],
        [-0.127049008311458, 51.48362795035862],
        [-0.127405689476393, 51.482409759113466],
        [-0.127496434935096, 51.48202272948851],
        [-0.129458995294863, 51.481365223077916],
        [-0.129947501750722, 51.48118237259886],
        [-0.130188952926883, 51.48066645294166],
        [-0.130661715350124, 51.48019918346527]
      ]
    ]
  }
}
