{
  "type": "Feature",
  "properties": {
    "name": "Westminster",
    "level": 2,
    "londonBorough": true
  },
  "geometry": {
    "type": "Polygon",
    "coordinates": [
      [
        [-0.122826043980215, 51.49453674109927],
        [-0.122924385591666, 51.494071601748544],
        [-0.123009214597131, 51.493689876762986],
        [-0.123806123801818, 51.492244936328404],
        [-0.123875443128066, 51.49210036597951],
        [-0.123948847313978, 51.491400121017016],
        [-0.123972874985046, 51.49130608357742],
        [-0.124189355072507, 51.490980419076784],
        [-0.12455996688775, 51.490444095733075],
        [-0.126615520521382, 51.488160470010435],
        [-0.126764768666104, 51.48799829048338],
        [-0.129583699941534, 51.48585000352952],
        [-0.129777010324769, 51.48577215381362],
        [-0.132791025664795, 51.48472938923091],
        [-0.132880001835031, 51.48470202983996],
        [-0.137376573303153, 51.48389047316539],
        [-0.13779289902241, 51.4838530220701],
        [-0.140077348705092, 51.48384881264546],
        [-0.140356106808241, 51.483864924144086],
        [-0.144921068586728, 51.484556817531384],
        [-0.145170571460119, 51.4845841450214],
        [-0.149384626923242, 51.48459047683166],
        [-0.149843876983426, 51.48455995514554],
        [-0.150119236762621, 51.485977026598384],
        [-0.150195225488876, 51.486092430505494],
        [-0.154917457683127, 51.48903454421769],
        [-0.155873887258504, 51.489606226052345],
        [-0.155196294452555, 51.49004879144041],
        [-0.155821066522154, 51.49145066060545],
        [-0.154817960436755, 51.49196274225347],
        [-0.156008901871484, 51.493221543388344],
        [-0.155015220429941, 51.49385607322232],
        [-0.156013733707651, 51.49449406034218],
        [-0.155636591194195, 51.49487930391027],
        [-0.155319399041975, 51.49506405697932],
        [-0.155633048717721, 51.4955024294392],
        [-0.155678397059357, 51.495628138575064],
        [-0.156047583827299, 51.49751068136898],
        [-0.1560964963243, 51.49776234147134],
        [-0.157239692983487, 51.498566255581245],
        [-0.157874142364644, 51.49901775512513],
        [-0.158502506538488, 51.50151495017867],
        [-0.15846862542109, 51.50224820632422],
        [-0.160781508805135, 51.50170358531511],
        [-0.160888577133232, 51.501656704867585],
        [-0.162857634744476, 51.50013006556737],
        [-0.165505721015219, 51.498696748289355],
        [-0.165803680918363, 51.4992418578711],
        [-0.167643829079478, 51.49830033294511],
        [-0.168202273715061, 51.49899698284881],
        [-0.168414542452028, 51.499020980927526],
        [-0.169643922510673, 51.49890258941216],
        [-0.171499552769604, 51.49868783942511],
        [-0.173566946169616, 51.49822097159061],
        [-0.179570784406172, 51.49777836846867],
        [-0.179749298590097, 51.498685783130306],
        [-0.180336082308999, 51.50146097590211],
        [-0.183080978559071, 51.50156647991334],
        [-0.184259202691047, 51.50179335266162],
        [-0.186883414238961, 51.50777167685651],
        [-0.187933515567751, 51.51017900045938],
        [-0.191722984912479, 51.50993983519386],
        [-0.192143741166405, 51.50986808706885],
        [-0.192984737818292, 51.511813524673784],
        [-0.193655368698242, 51.5116916657704],
        [-0.194064975201054, 51.511756424194004],
        [-0.19436728380838, 51.51271247942113],
        [-0.195072585586659, 51.515031695469084],
        [-0.195767374323923, 51.51495605750516],
        [-0.199207744084053, 51.51455121257058],
        [-0.199944524355674, 51.51684660080047],
        [-0.200747479510419, 51.51797667991804],
        [-0.201488114023965, 51.51779919740163],
        [-0.202970231622411, 51.51947292339265],
        [-0.203209563858849, 51.51976434744273],
        [-0.203715446244487, 51.520571522189904],
        [-0.203766766634327, 51.520622665666664],
        [-0.203109010426976, 51.520817618708406],
        [-0.202669052523024, 51.52089900399162],
        [-0.201244487448296, 51.520836701323766],
        [-0.200767980305398, 51.520821300031194],
        [-0.200772336885489, 51.520710759989164],
        [-0.200633972516262, 51.5207104360446],
        [-0.201488212351831, 51.52193121988175],
        [-0.201528006925649, 51.52198218761231],
        [-0.201625533226678, 51.52261674959618],
        [-0.201639340024831, 51.522741955973466],
        [-0.203558392226987, 51.52331720161501],
        [-0.20388148373968, 51.52345883403259],
        [-0.206178232544332, 51.52594261433227],
        [-0.206507855254889, 51.52606545510879],
        [-0.209994017361357, 51.52664386074143],
        [-0.210277982453008, 51.5266814654535],
        [-0.212698407312407, 51.52686674355754],
        [-0.213315684932376, 51.52689682950083],
        [-0.215071168721704, 51.526759892451096],
        [-0.21557297465917, 51.526719867159365],
        [-0.215889918251782, 51.52768417736562],
        [-0.215815104107892, 51.527827817164315],
        [-0.216028870217723, 51.5279281862027],
        [-0.216088485085936, 51.528874194103935],
        [-0.215947749407414, 51.52956087164605],
        [-0.215883650986658, 51.52972535694744],
        [-0.21517805271801, 51.530072521035464],
        [-0.215129449295246, 51.53017249640819],
        [-0.215324772905222, 51.531076506443235],
        [-0.215360443692773, 51.53119664799956],
        [-0.215268822931188, 51.53136431120498],
        [-0.215207285604, 51.53138945292347],
        [-0.213632574350466, 51.53169190822715],
        [-0.213267773255212, 51.53176638491489],
        [-0.211402440964485, 51.53190521814388],
        [-0.211051413294902, 51.531959215438924],
        [-0.207946864067642, 51.53277690006286],
        [-0.2076481587635, 51.53281999636708],
        [-0.203073162163393, 51.532896583539404],
        [-0.202992186171557, 51.53290253707461],
        [-0.201877939937844, 51.5325662327804],
        [-0.201689319437521, 51.532559744505654],
        [-0.201297262731081, 51.53204476331264],
        [-0.201108017737223, 51.53190787453686],
        [-0.198595165487101, 51.530661632630355],
        [-0.198298074497744, 51.53044484902798],
        [-0.197975213715317, 51.53007749540483],
        [-0.19794044131968, 51.529935780272396],
        [-0.197995408774149, 51.52872624501322],
        [-0.198074730640385, 51.52861595748034],
        [-0.197950423123025, 51.52836855486224],
        [-0.197798791538443, 51.527900417986324],
        [-0.197129437587928, 51.52794768409052],
        [-0.197021449862963, 51.52794422589222],
        [-0.196846636741683, 51.527734713173956],
        [-0.196568703845233, 51.52765400501623],
        [-0.192664635563048, 51.53246151880587],
        [-0.192558519914229, 51.53262894139819],
        [-0.192374031767065, 51.5332097068681],
        [-0.19238233837042, 51.53325479696453],
        [-0.192983097913678, 51.534067974682],
        [-0.191483479647746, 51.53628937321688],
        [-0.191082141442696, 51.53593787661386],
        [-0.190825345946856, 51.5357594637365],
        [-0.189059100256866, 51.53477631737198],
        [-0.188773542701423, 51.53452371801902],
        [-0.187841006980905, 51.53498681412852],
        [-0.187751178645322, 51.535033985567175],
        [-0.184643115130296, 51.53795343065335],
        [-0.184468131442965, 51.5380748182082],
        [-0.182749165388024, 51.53876579874556],
        [-0.181600618608292, 51.539145466917816],
        [-0.17908892743151, 51.53975216483964],
        [-0.1790381646383, 51.5397594701016],
        [-0.17579072700396, 51.53961459835277],
        [-0.173921606363296, 51.5394767109903],
        [-0.174152753575615, 51.53827712118036],
        [-0.174035397169031, 51.53803879360647],
        [-0.173510929309229, 51.537632264351465],
        [-0.171981214700189, 51.53838268660228],
        [-0.170890201845994, 51.53779286283425],
        [-0.169542844528661, 51.53859735351523],
        [-0.168450231153, 51.538119887442136],
        [-0.168206047837759, 51.537988382245445],
        [-0.166582851000042, 51.53690011880866],
        [-0.16496103269152, 51.5357794810238],
        [-0.161919824860317, 51.53685862362289],
        [-0.160486792729507, 51.53728128805469],
        [-0.159445287891836, 51.53636210996301],
        [-0.159438119051927, 51.53636109824242],
        [-0.155221407305357, 51.537265150419415],
        [-0.154994642056579, 51.53731014350234],
        [-0.153416411380064, 51.537470556235505],
        [-0.152732394033306, 51.53751913753774],
        [-0.149922788550015, 51.5312053144994],
        [-0.147195800277715, 51.525041094455496],
        [-0.145815556417239, 51.52527017511212],
        [-0.145198509863265, 51.523994277779984],
        [-0.144646603223188, 51.52406018704925],
        [-0.144154773160521, 51.52399575392754],
        [-0.14417896074512, 51.524641797180315],
        [-0.143989668241953, 51.52468826086965],
        [-0.143496428348124, 51.52462290346974],
        [-0.143520960328007, 51.52394885514543],
        [-0.143521201026796, 51.523907493508474],
        [-0.143093141571841, 51.5238701434053],
        [-0.142901101577155, 51.523877894132625],
        [-0.138035844472321, 51.51981529044183],
        [-0.137033114923813, 51.51888483110645],
        [-0.136321904687525, 51.51914690495322],
        [-0.135851753997768, 51.51869430485261],
        [-0.135258244352406, 51.51893306381861],
        [-0.134342758756117, 51.51802105365181],
        [-0.134473967168683, 51.517949402021486],
        [-0.134070378665236, 51.517561699970074],
        [-0.133867142567299, 51.51759713442254],
        [-0.133622524750878, 51.51772812989723],
        [-0.132568887975116, 51.51716461490213],
        [-0.132474733043332, 51.516717986521314],
        [-0.131076847626931, 51.51703024236792],
        [-0.130831772468763, 51.517101874190615],
        [-0.130427355228175, 51.51659454568553],
        [-0.130369430412779, 51.51649560397441],
        [-0.130471522838313, 51.516079079396484],
        [-0.130438373652641, 51.5159382677941],
        [-0.12968963053036, 51.514126028936666],
        [-0.129361421065789, 51.51348322521096],
        [-0.128997359486297, 51.51343425410005],
        [-0.128869465937068, 51.51338994900345],
        [-0.127452366236373, 51.51266142004408],
        [-0.127352768240246, 51.51266522538443],
        [-0.123379982352871, 51.51479050792589],
        [-0.122894150005695, 51.51514423310345],
        [-0.12209818704959, 51.5146279103305],
        [-0.121843355226266, 51.51486662816295],
        [-0.120346854951985, 51.51459805829444],
        [-0.119493133842036, 51.51450523930522],
        [-0.118853587415603, 51.51467123718655],
        [-0.11870043044911, 51.51471554181714],
        [-0.118657798744664, 51.514840753415925],
        [-0.118623919743247, 51.5149634076376],
        [-0.117276431626579, 51.51538062097143],
        [-0.114718323634117, 51.5160400486933],
        [-0.114685944792849, 51.51598647229866],
        [-0.11385925141735, 51.51482033821313],
        [-0.111687690363291, 51.51533304230092],
        [-0.111606772509664, 51.515338034298594],
        [-0.111137713382533, 51.51396001846497],
        [-0.111101484583058, 51.51382544617066],
        [-0.11133204834792, 51.513791390476506],
        [-0.111980678347953, 51.513684930502286],
        [-0.11185827256066, 51.51347343386252],
        [-0.111738617847793, 51.51319543657775],
        [-0.11233754429199, 51.51303601773227],
        [-0.112213940965334, 51.51288834920102],
        [-0.112347426014599, 51.51279697522094],
        [-0.112414865619708, 51.51276928447261],
        [-0.112200554258422, 51.512514943324646],
        [-0.112058312949978, 51.512330105197435],
        [-0.112167118462635, 51.512277901334656],
        [-0.112157557053046, 51.512265157877145],
        [-0.111567167470097, 51.51173048900769],
        [-0.111530446690773, 51.51164267009539],
        [-0.111574364261374, 51.5107549139975],
        [-0.111463803135594, 51.50976934943755],
        [-0.114958755783622, 51.50930850299922],
        [-0.115297458140635, 51.509237509718794],
        [-0.11763965302505, 51.50845770279693],
        [-0.11780490323131, 51.50839920564179],
        [-0.118727481383814, 51.50779711973129],
        [-0.119240371425589, 51.50741506947735],
        [-0.120672745464919, 51.505874228190486],
        [-0.120803577556639, 51.50567129469926],
        [-0.121334624163582, 51.50369065258327],
        [-0.121431564534986, 51.50319042157173],
        [-0.122140225091186, 51.49899056225477],
        [-0.12226033449597, 51.49824160772121],
        [-0.122395591074816, 51.496492923976945],
        [-0.122433323514274, 51.49620576647416],
        [-0.122826043980215, 51.49453674109927]
      ]
    ]
  }
}
