{
  "type": "Feature",
  "properties": {
    "name": "Westminster",
    "level": 2,
    "londonBorough": true,
    "center": [-0.156, 51.511]
  },
  "geometry": {
    "type": "Polygon",
    "coordinates": [
      [
        [-0.122826043980215, 51.49453674109927],
        [-0.122882819624582, 51.49424179492343],
        [-0.122924385591666, 51.494071601748544],
        [-0.123009214597131, 51.493689876762986],
        [-0.123084297242947, 51.4935103281736],
        [-0.123184738729147, 51.49327453230101],
        [-0.123253323295323, 51.493112864709865],
        [-0.123372588733924, 51.49287467216115],
        [-0.123461695616977, 51.492704340306084],
        [-0.123524668304525, 51.49260912765457],
        [-0.123594838757787, 51.49251403014131],
        [-0.123726874400152, 51.49238575073371],
        [-0.123806123801818, 51.492244936328404],
        [-0.123875443128066, 51.49210036597951],
        [-0.123940110451798, 51.49192874350049],
        [-0.123953727797203, 51.49177249089309],
        [-0.123946745951653, 51.491521486900645],
        [-0.123948847313978, 51.491400121017016],
        [-0.123972874985046, 51.49130608357742],
        [-0.124030307692428, 51.49120538648908],
        [-0.124189355072507, 51.490980419076784],
        [-0.12455996688775, 51.490444095733075],
        [-0.124699300675958, 51.4902781632228],
        [-0.124846126085978, 51.490105156299684],
        [-0.12502609472925, 51.48989670890556],
        [-0.125487857878908, 51.489385220699724],
        [-0.12626841542937, 51.4885461004467],
        [-0.126615520521382, 51.488160470010435],
        [-0.126764768666104, 51.48799829048338],
        [-0.127144313236142, 51.48766443427772],
        [-0.127166752047314, 51.48764410977276],
        [-0.12723997346849, 51.48757963351571],
        [-0.127393244741831, 51.48745978246864],
        [-0.127527471048139, 51.48734772041374],
        [-0.1277435571625, 51.4872063905413],
        [-0.127904280714238, 51.48708036302937],
        [-0.128198486363671, 51.486825174747004],
        [-0.128417884071189, 51.4866380344662],
        [-0.128846791362542, 51.48632924057028],
        [-0.12913623208645, 51.486119835970165],
        [-0.129308499974687, 51.48599309148505],
        [-0.129491215607516, 51.48589259182363],
        [-0.12952646001353, 51.485876068164075],
        [-0.129583699941534, 51.48585000352952],
        [-0.129777010324769, 51.48577215381362],
        [-0.129967000059371, 51.48570504189365],
        [-0.129987671860629, 51.48572785294791],
        [-0.130371122537605, 51.48561436634932],
        [-0.130708694566541, 51.48549565087358],
        [-0.132293297655707, 51.484890522607536],
        [-0.132392460193874, 51.484860628063295],
        [-0.132627209721, 51.48479062772249],
        [-0.132791025664795, 51.48472938923091],
        [-0.132880001835031, 51.48470202983996],
        [-0.133061831505188, 51.48465816365446],
        [-0.135147288888003, 51.48427229526307],
        [-0.136665275425945, 51.483991579262245],
        [-0.137143520140016, 51.48391914417564],
        [-0.137376573303153, 51.48389047316539],
        [-0.13779289902241, 51.4838530220701],
        [-0.138110396959823, 51.48383738095571],
        [-0.138303305833152, 51.483839544602894],
        [-0.138566108422154, 51.48382303386456],
        [-0.138939411101119, 51.48381636965406],
        [-0.138989751597674, 51.48381806786255],
        [-0.140077348705092, 51.48384881264546],
        [-0.140356106808241, 51.483864924144086],
        [-0.140531085801657, 51.483882986354345],
        [-0.140745928091382, 51.48391247142895],
        [-0.141062160560648, 51.48396334709981],
        [-0.141695482483223, 51.484079497522046],
        [-0.142538589096756, 51.484207960314386],
        [-0.14292990709676, 51.48428969567707],
        [-0.143364772531489, 51.48436312669116],
        [-0.14345494159711, 51.484377143896495],
        [-0.144160320816393, 51.48442158216098],
        [-0.144276471867244, 51.48443421142627],
        [-0.14458968745451, 51.48448862680318],
        [-0.144789485141267, 51.48453405295486],
        [-0.144921068586728, 51.484556817531384],
        [-0.145170571460119, 51.4845841450214],
        [-0.146188519212891, 51.4846281192903],
        [-0.147255024996661, 51.484646773576806],
        [-0.147758132807996, 51.48463583733253],
        [-0.148856577273213, 51.48461271661054],
        [-0.149384626923242, 51.48459047683166],
        [-0.149843876983426, 51.48455995514554],
        [-0.150003790792139, 51.48548421297736],
        [-0.15008652464825, 51.485895577742866],
        [-0.150119236762621, 51.485977026598384],
        [-0.150195225488876, 51.486092430505494],
        [-0.150366710862066, 51.48623272128642],
        [-0.151413790333243, 51.486875112730196],
        [-0.151724786434338, 51.48705626855681],
        [-0.153485610135063, 51.48818019790227],
        [-0.154917457683127, 51.48903454421769],
        [-0.155873887258504, 51.489606226052345],
        [-0.155196294452555, 51.49004879144041],
        [-0.15546112079708, 51.49044682973219],
        [-0.155568803417033, 51.4906697394711],
        [-0.155654748263852, 51.49089590422382],
        [-0.155701811019961, 51.49105041649338],
        [-0.155821066522154, 51.49145066060545],
        [-0.154817960436755, 51.49196274225347],
        [-0.155989544527351, 51.493201455469226],
        [-0.156008901871484, 51.493221543388344],
        [-0.155015220429941, 51.49385607322232],
        [-0.156013733707651, 51.49449406034218],
        [-0.155938789240209, 51.49463766137255],
        [-0.155847340592457, 51.49472614847983],
        [-0.155781781150783, 51.49477997184688],
        [-0.155636591194195, 51.49487930391027],
        [-0.155319399041975, 51.49506405697932],
        [-0.155547472267631, 51.495338319022736],
        [-0.155633048717721, 51.4955024294392],
        [-0.155678397059357, 51.495628138575064],
        [-0.156047583827299, 51.49751068136898],
        [-0.1560964963243, 51.49776234147134],
        [-0.157239692983487, 51.498566255581245],
        [-0.157874142364644, 51.49901775512513],
        [-0.158436489145052, 51.5010795756774],
        [-0.158500569189168, 51.50120557767142],
        [-0.158517114465937, 51.50125979248064],
        [-0.158525771932817, 51.501330969189226],
        [-0.158525318999339, 51.50141369310023],
        [-0.158502506538488, 51.50151495017867],
        [-0.15846862542109, 51.50224820632422],
        [-0.158477192615514, 51.502250139347616],
        [-0.158600348400388, 51.50223318883301],
        [-0.159173298585307, 51.50210279958374],
        [-0.160588833184212, 51.501765309520515],
        [-0.160781508805135, 51.50170358531511],
        [-0.160888577133232, 51.501656704867585],
        [-0.161023835858289, 51.501589583615754],
        [-0.161187610237715, 51.5014941333135],
        [-0.161344329028402, 51.501394975169845],
        [-0.161570140276647, 51.5012258591762],
        [-0.162367045578269, 51.50047038920892],
        [-0.162598969407924, 51.50029237453637],
        [-0.162857634744476, 51.50013006556737],
        [-0.165505721015219, 51.498696748289355],
        [-0.165803680918363, 51.4992418578711],
        [-0.167643829079478, 51.49830033294511],
        [-0.167928904509375, 51.49852060662371],
        [-0.168051202577291, 51.49888401540466],
        [-0.168202273715061, 51.49899698284881],
        [-0.168414542452028, 51.499020980927526],
        [-0.169643922510673, 51.49890258941216],
        [-0.171499552769604, 51.49868783942511],
        [-0.171800980024058, 51.49860800929505],
        [-0.171805440577608, 51.49853254190216],
        [-0.172472152565904, 51.49846919483352],
        [-0.172482443212448, 51.49839201977253],
        [-0.173559429279366, 51.49830088768329],
        [-0.173566946169616, 51.49822097159061],
        [-0.179570784406172, 51.49777836846867],
        [-0.179749298590097, 51.498685783130306],
        [-0.180336082308999, 51.50146097590211],
        [-0.180931267843866, 51.50142164970285],
        [-0.18137473172232, 51.50142942649051],
        [-0.181657459663401, 51.50142122088485],
        [-0.182061258708554, 51.501448163536196],
        [-0.182408757715777, 51.50147782926165],
        [-0.182615429318555, 51.50149811777022],
        [-0.183080978559071, 51.50156647991334],
        [-0.184259202691047, 51.50179335266162],
        [-0.184409344376091, 51.50211221211291],
        [-0.185621680701772, 51.50489076253895],
        [-0.186883414238961, 51.50777167685651],
        [-0.187933515567751, 51.51017900045938],
        [-0.188562697224446, 51.5101572458482],
        [-0.189720228681057, 51.510076200439435],
        [-0.190937355230979, 51.510018543973715],
        [-0.191722984912479, 51.50993983519386],
        [-0.192143741166405, 51.50986808706885],
        [-0.192984737818292, 51.511813524673784],
        [-0.193655368698242, 51.5116916657704],
        [-0.194064975201054, 51.511756424194004],
        [-0.19436728380838, 51.51271247942113],
        [-0.195072585586659, 51.515031695469084],
        [-0.195767374323923, 51.51495605750516],
        [-0.199207744084053, 51.51455121257058],
        [-0.199893991924037, 51.5167756843088],
        [-0.199895396925342, 51.51677660511456],
        [-0.199944524355674, 51.51684660080047],
        [-0.200747479510419, 51.51797667991804],
        [-0.201488114023965, 51.51779919740163],
        [-0.202379404320592, 51.51884698968047],
        [-0.202970231622411, 51.51947292339265],
        [-0.203209563858849, 51.51976434744273],
        [-0.203278998841307, 51.51986792470338],
        [-0.203303610236607, 51.51993844261472],
        [-0.203353257659245, 51.520068694010774],
        [-0.203419192133976, 51.52026124257991],
        [-0.203453614307606, 51.52030223571215],
        [-0.203580309651449, 51.52045255113398],
        [-0.203715446244487, 51.520571522189904],
        [-0.203766766634327, 51.520622665666664],
        [-0.20372586525668, 51.52063642720468],
        [-0.203498167585925, 51.520708476474404],
        [-0.203109010426976, 51.520817618708406],
        [-0.202669052523024, 51.52089900399162],
        [-0.202225570910231, 51.5208868123916],
        [-0.201768144138014, 51.52086271517457],
        [-0.201546616060849, 51.52085122568396],
        [-0.201244487448296, 51.520836701323766],
        [-0.200767980305398, 51.520821300031194],
        [-0.200772336885489, 51.520710759989164],
        [-0.200633972516262, 51.5207104360446],
        [-0.200636405084639, 51.520795002186965],
        [-0.201132001503872, 51.52145995001685],
        [-0.201488212351831, 51.52193121988175],
        [-0.201528006925649, 51.52198218761231],
        [-0.201531503340203, 51.52203979274414],
        [-0.201555445041195, 51.52234680152493],
        [-0.201625533226678, 51.52261674959618],
        [-0.201639340024831, 51.522741955973466],
        [-0.202584140309998, 51.52301901583087],
        [-0.20269397205731, 51.52304857525205],
        [-0.202803733184473, 51.523079931971964],
        [-0.203017917890122, 51.523131772425835],
        [-0.203558392226987, 51.52331720161501],
        [-0.20388148373968, 51.52345883403259],
        [-0.204075970353419, 51.52360838830061],
        [-0.204365276524172, 51.52383942629045],
        [-0.204537051887685, 51.524053377526315],
        [-0.205044300591009, 51.52471758707286],
        [-0.205190255880763, 51.52492844446283],
        [-0.205490017880216, 51.52529722350745],
        [-0.205691210963923, 51.52553320477021],
        [-0.205902251472693, 51.52573876206566],
        [-0.206178232544332, 51.52594261433227],
        [-0.206507855254889, 51.52606545510879],
        [-0.206724657258905, 51.52612452261191],
        [-0.206976002173606, 51.52618501695288],
        [-0.207319872638587, 51.52623883161652],
        [-0.207341413103632, 51.52624095928462],
        [-0.207607455457216, 51.52625761404569],
        [-0.207831399009488, 51.52628171819911],
        [-0.208069750208125, 51.52630604201364],
        [-0.208236558540978, 51.52631668320899],
        [-0.208837684441601, 51.52642747778403],
        [-0.209223899944732, 51.52650441443693],
        [-0.20957852604199, 51.52657816994236],
        [-0.209994017361357, 51.52664386074143],
        [-0.210277982453008, 51.5266814654535],
        [-0.211261133761019, 51.52675581115111],
        [-0.211962392485197, 51.52681326277845],
        [-0.212698407312407, 51.52686674355754],
        [-0.213315684932376, 51.52689682950083],
        [-0.213753396782864, 51.526873820554236],
        [-0.214599512466115, 51.526803072206135],
        [-0.215071168721704, 51.526759892451096],
        [-0.21557297465917, 51.526719867159365],
        [-0.215674918634752, 51.52691475453822],
        [-0.215832914644038, 51.52726156672079],
        [-0.215887841577056, 51.52740538131773],
        [-0.215923159453285, 51.52749764096516],
        [-0.215923898588293, 51.527589374707055],
        [-0.215906820840842, 51.52765745723002],
        [-0.215889918251782, 51.52768417736562],
        [-0.215815104107892, 51.527827817164315],
        [-0.216028870217723, 51.5279281862027],
        [-0.216088485085936, 51.528874194103935],
        [-0.216076399244335, 51.529072742349044],
        [-0.216040381071072, 51.52925653879967],
        [-0.215947749407414, 51.52956087164605],
        [-0.215883650986658, 51.52972535694744],
        [-0.21584724316426, 51.52973469486209],
        [-0.215687132900408, 51.529773624657366],
        [-0.215562200297094, 51.52979780226726],
        [-0.215471004732752, 51.529844074725546],
        [-0.215375943270982, 51.52987859818224],
        [-0.215314091724209, 51.52991182833025],
        [-0.215264996958177, 51.529950647968384],
        [-0.215228729279404, 51.52999325970226],
        [-0.21517805271801, 51.530072521035464],
        [-0.215129449295246, 51.53017249640819],
        [-0.21510446197206, 51.53025844325166],
        [-0.215097011072009, 51.53033836223516],
        [-0.215103441903488, 51.53039511219636],
        [-0.2151675072074, 51.53056334557206],
        [-0.215292300292379, 51.53098518920218],
        [-0.215324772905222, 51.531076506443235],
        [-0.215360443692773, 51.53119664799956],
        [-0.215362763113185, 51.53124793995081],
        [-0.21535098981495, 51.53129092435039],
        [-0.215328111011824, 51.53132294892067],
        [-0.2153056890815, 51.53134329032052],
        [-0.215268822931188, 51.53136431120498],
        [-0.215207285604, 51.53138945292347],
        [-0.214694742680059, 51.531518338246435],
        [-0.214185783127628, 51.53159242226286],
        [-0.214046576328185, 51.53161278402642],
        [-0.213820070421748, 51.53165339818532],
        [-0.213632574350466, 51.53169190822715],
        [-0.213267773255212, 51.53176638491489],
        [-0.213062670467405, 51.531775850205825],
        [-0.212817081152712, 51.53178829530572],
        [-0.212662551080732, 51.531794933386365],
        [-0.212258214263098, 51.53181125321192],
        [-0.211735088070211, 51.53184194721119],
        [-0.211402440964485, 51.53190521814388],
        [-0.211051413294902, 51.531959215438924],
        [-0.210841736141912, 51.53201177062067],
        [-0.210185037977519, 51.532213074588626],
        [-0.210101741825979, 51.532241478628656],
        [-0.209687123562973, 51.532372735489574],
        [-0.209335732774603, 51.532472583386294],
        [-0.20895865048811, 51.532565743312766],
        [-0.208681979414602, 51.532635256613254],
        [-0.207946864067642, 51.53277690006286],
        [-0.2076481587635, 51.53281999636708],
        [-0.207336032000236, 51.53283770808493],
        [-0.207105233565356, 51.53284047563721],
        [-0.206797676536177, 51.532851961080894],
        [-0.206608559483616, 51.532858062507785],
        [-0.206259525311514, 51.532897688148026],
        [-0.205869091757199, 51.5329267879589],
        [-0.205530779246921, 51.53295038907967],
        [-0.205309925472301, 51.53295690218413],
        [-0.204604002745688, 51.532942503476484],
        [-0.204057185898968, 51.53291524932665],
        [-0.203598408879857, 51.5328857438635],
        [-0.203265550835947, 51.53288064627062],
        [-0.203073162163393, 51.532896583539404],
        [-0.202992186171557, 51.53290253707461],
        [-0.202849719876606, 51.532858989555756],
        [-0.202601898560606, 51.532781455016774],
        [-0.202291738988171, 51.53267598744083],
        [-0.202035203214304, 51.53260011662893],
        [-0.201877939937844, 51.5325662327804],
        [-0.201689319437521, 51.532559744505654],
        [-0.20155019610237, 51.53239484908881],
        [-0.201476034323709, 51.53230109027467],
        [-0.201434553559004, 51.532219522606894],
        [-0.201399604527131, 51.5321551406498],
        [-0.201297262731081, 51.53204476331264],
        [-0.201108017737223, 51.53190787453686],
        [-0.201007590766119, 51.53185867470386],
        [-0.200903053872754, 51.53180401630459],
        [-0.200675142779474, 51.53169710801433],
        [-0.200449015939153, 51.53161810312584],
        [-0.199843606571031, 51.53135882532917],
        [-0.199562919149088, 51.53123761633283],
        [-0.199412077224764, 51.531150772436526],
        [-0.199330881713298, 51.5310892769449],
        [-0.199329476290063, 51.53108835613034],
        [-0.199174631834133, 51.53099335730872],
        [-0.199018298421993, 51.53093610356566],
        [-0.198858564989348, 51.53085541712563],
        [-0.198767284629267, 51.53079376639154],
        [-0.198685913256212, 51.53073676394937],
        [-0.198595165487101, 51.530661632630355],
        [-0.198298074497744, 51.53044484902798],
        [-0.198215902142354, 51.53037164759582],
        [-0.197993717795952, 51.53012004402025],
        [-0.197975213715317, 51.53007749540483],
        [-0.19794044131968, 51.529935780272396],
        [-0.197925769544436, 51.52961362629188],
        [-0.198002728245856, 51.52916159057447],
        [-0.198001798248131, 51.52911211798041],
        [-0.197972385299089, 51.52901724574456],
        [-0.197954491648359, 51.52884971185521],
        [-0.197973534200469, 51.52876907260146],
        [-0.197995408774149, 51.52872624501322],
        [-0.198074730640385, 51.52861595748034],
        [-0.197950423123025, 51.52836855486224],
        [-0.197798791538443, 51.527900417986324],
        [-0.197500812539051, 51.52785267604078],
        [-0.19724980354457, 51.52792975060518],
        [-0.197182995058458, 51.52794221250786],
        [-0.197129437587928, 51.52794768409052],
        [-0.197021449862963, 51.52794422589222],
        [-0.196931355118115, 51.527925755505066],
        [-0.196846201338131, 51.527855204946526],
        [-0.196846636741683, 51.527734713173956],
        [-0.196568703845233, 51.52765400501623],
        [-0.19656253495678, 51.52770067077762],
        [-0.196527976668412, 51.52773610917075],
        [-0.196413135301231, 51.52790609880813],
        [-0.195696346548525, 51.52875205384415],
        [-0.19428351904783, 51.53046405362184],
        [-0.193516716951625, 51.531369474812756],
        [-0.193138596612444, 51.5318159701862],
        [-0.192892465391737, 51.53213320831873],
        [-0.192664635563048, 51.53246151880587],
        [-0.192558519914229, 51.53262894139819],
        [-0.192411058914996, 51.53289374421156],
        [-0.192384959299968, 51.53300664654861],
        [-0.192374031767065, 51.5332097068681],
        [-0.19238233837042, 51.53325479696453],
        [-0.192407900769218, 51.533301052191106],
        [-0.192769822395812, 51.53366452663494],
        [-0.193035258375225, 51.53398874560626],
        [-0.192983097913678, 51.534067974682],
        [-0.191483479647746, 51.53628937321688],
        [-0.191427690365262, 51.53624175258066],
        [-0.191284464566217, 51.53610825514486],
        [-0.191082141442696, 51.53593787661386],
        [-0.190825345946856, 51.5357594637365],
        [-0.190406129708375, 51.53553178440809],
        [-0.189835632423168, 51.535264900411384],
        [-0.189669601714536, 51.53519759296154],
        [-0.189556532058063, 51.53514009503811],
        [-0.189425549858758, 51.53506163797756],
        [-0.189324722101614, 51.53498634392225],
        [-0.189216140316286, 51.53488844903578],
        [-0.189059100256866, 51.53477631737198],
        [-0.188773542701423, 51.53452371801902],
        [-0.188583289289135, 51.534594518319466],
        [-0.187978039958797, 51.5348765255616],
        [-0.187901765365522, 51.534945488282226],
        [-0.187841006980905, 51.53498681412852],
        [-0.187751178645322, 51.535033985567175],
        [-0.185490725090955, 51.53716262121164],
        [-0.185393338612545, 51.537254636075446],
        [-0.184701427304239, 51.53790127768543],
        [-0.184643115130296, 51.53795343065335],
        [-0.184468131442965, 51.5380748182082],
        [-0.184224296099302, 51.53818704667233],
        [-0.184078587124921, 51.538261226918024],
        [-0.183873480710009, 51.538378550351496],
        [-0.182749165388024, 51.53876579874556],
        [-0.181600618608292, 51.539145466917816],
        [-0.180419910428493, 51.539499446314075],
        [-0.18018094743778, 51.53956138443499],
        [-0.180036948444975, 51.53959242258925],
        [-0.179752154876304, 51.539646454906276],
        [-0.179312871736875, 51.539705282974275],
        [-0.17908892743151, 51.53975216483964],
        [-0.1790381646383, 51.5397594701016],
        [-0.178764604962484, 51.53978489863703],
        [-0.178571061350608, 51.53979268478307],
        [-0.178379245898949, 51.539793303502506],
        [-0.178353305339676, 51.53979290070846],
        [-0.178298541938746, 51.53979205034662],
        [-0.17579072700396, 51.53961459835277],
        [-0.173921606363296, 51.5394767109903],
        [-0.174152753575615, 51.53827712118036],
        [-0.174141435739656, 51.53819961010213],
        [-0.174123058813156, 51.53815436191629],
        [-0.1740947022231, 51.53810626067143],
        [-0.174035397169031, 51.53803879360647],
        [-0.173510929309229, 51.537632264351465],
        [-0.171981214700189, 51.53838268660228],
        [-0.170890201845994, 51.53779286283425],
        [-0.169542844528661, 51.53859735351523],
        [-0.169435988241869, 51.53856511189626],
        [-0.169261113541649, 51.53850303293861],
        [-0.169044088559286, 51.53841331855546],
        [-0.168450231153, 51.538119887442136],
        [-0.168206047837759, 51.537988382245445],
        [-0.168044149072909, 51.53789053429246],
        [-0.166582851000042, 51.53690011880866],
        [-0.16496103269152, 51.5357794810238],
        [-0.163792702742069, 51.536218915282916],
        [-0.163619117963257, 51.536304324136026],
        [-0.163390194870883, 51.53640325430099],
        [-0.161919824860317, 51.53685862362289],
        [-0.160486792729507, 51.53728128805469],
        [-0.159445287891836, 51.53636210996301],
        [-0.159438119051927, 51.53636109824242],
        [-0.158631462931722, 51.536519296058735],
        [-0.157579551554377, 51.53675187115445],
        [-0.155849399042461, 51.537104167467625],
        [-0.155481933739531, 51.53720540056109],
        [-0.155221407305357, 51.537265150419415],
        [-0.154994642056579, 51.53731014350234],
        [-0.154746515105458, 51.537348505424326],
        [-0.154423235191557, 51.53739108000417],
        [-0.154181307836729, 51.53741874731861],
        [-0.153928069991719, 51.537440840675245],
        [-0.153416411380064, 51.537470556235505],
        [-0.152732394033306, 51.53751913753774],
        [-0.151481133932415, 51.53462723530311],
        [-0.150885255784694, 51.53332023132262],
        [-0.149922788550015, 51.5312053144994],
        [-0.147195800277715, 51.525041094455496],
        [-0.145815556417239, 51.52527017511212],
        [-0.145198509863265, 51.523994277779984],
        [-0.144852940372011, 51.5240553573239],
        [-0.144708440229025, 51.52406386287278],
        [-0.144646603223188, 51.52406018704925],
        [-0.144154773160521, 51.52399575392754],
        [-0.14417896074512, 51.524641797180315],
        [-0.143989668241953, 51.52468826086965],
        [-0.143496428348124, 51.52462290346974],
        [-0.1434146841201, 51.52454157653343],
        [-0.143513495147304, 51.52402607239374],
        [-0.143520960328007, 51.52394885514543],
        [-0.143521201026796, 51.523907493508474],
        [-0.143311931693976, 51.52387810301735],
        [-0.143093141571841, 51.5238701434053],
        [-0.142901101577155, 51.523877894132625],
        [-0.141415920770927, 51.52264847789322],
        [-0.140473884049104, 51.5218880697328],
        [-0.139803991570019, 51.52134778989124],
        [-0.139179844925524, 51.52081722431912],
        [-0.138736858154396, 51.520439704847426],
        [-0.138344025039842, 51.52014031516235],
        [-0.138255583090987, 51.52008225866794],
        [-0.138206815269874, 51.520041018349374],
        [-0.138170828648098, 51.520004477137284],
        [-0.138035844472321, 51.51981529044183],
        [-0.137033114923813, 51.51888483110645],
        [-0.136321904687525, 51.51914690495322],
        [-0.135851753997768, 51.51869430485261],
        [-0.135258244352406, 51.51893306381861],
        [-0.134342758756117, 51.51802105365181],
        [-0.134473967168683, 51.517949402021486],
        [-0.134070378665236, 51.517561699970074],
        [-0.13401335014741, 51.51754640471206],
        [-0.133977340046267, 51.51754583182665],
        [-0.133942513237378, 51.51755157251144],
        [-0.133910273380099, 51.517564548350244],
        [-0.133867142567299, 51.51759713442254],
        [-0.133622524750878, 51.51772812989723],
        [-0.133004664281194, 51.51736399189782],
        [-0.132568887975116, 51.51716461490213],
        [-0.132474733043332, 51.516717986521314],
        [-0.131586284502279, 51.51694393725054],
        [-0.131162749978557, 51.517009129823464],
        [-0.131114775857415, 51.51701915644406],
        [-0.131076847626931, 51.51703024236792],
        [-0.130831772468763, 51.517101874190615],
        [-0.130427355228175, 51.51659454568553],
        [-0.130369430412779, 51.51649560397441],
        [-0.130372857941218, 51.51644709903517],
        [-0.130466071618792, 51.516177010911896],
        [-0.130471522838313, 51.516079079396484],
        [-0.130438373652641, 51.5159382677941],
        [-0.129852505620714, 51.51447753573691],
        [-0.12968963053036, 51.514126028936666],
        [-0.129361421065789, 51.51348322521096],
        [-0.129120154958393, 51.51346229120044],
        [-0.129008697537972, 51.51343893122618],
        [-0.128997359486297, 51.51343425410005],
        [-0.128869465937068, 51.51338994900345],
        [-0.128364384549707, 51.5131247041118],
        [-0.128272867315577, 51.51307198630756],
        [-0.127989005346188, 51.51285972872772],
        [-0.127714162398714, 51.51270876356141],
        [-0.127602630720743, 51.51265212871494],
        [-0.127452366236373, 51.51266142004408],
        [-0.127352768240246, 51.51266522538443],
        [-0.127278689228137, 51.51267932987875],
        [-0.127177948611168, 51.5127109936469],
        [-0.127042947654925, 51.51287519956708],
        [-0.126944462926313, 51.51295725728784],
        [-0.126867284201405, 51.51301177837499],
        [-0.126668723014768, 51.513144394190924],
        [-0.126198215254296, 51.51337158309342],
        [-0.125262095600273, 51.513776574668434],
        [-0.124492921628362, 51.51415185542546],
        [-0.123977227314299, 51.514461044157464],
        [-0.123584838509995, 51.51471555047905],
        [-0.123379982352871, 51.51479050792589],
        [-0.122894150005695, 51.51514423310345],
        [-0.12209818704959, 51.5146279103305],
        [-0.121843355226266, 51.51486662816295],
        [-0.121316205519871, 51.51478804398793],
        [-0.120346854951985, 51.51459805829444],
        [-0.119493133842036, 51.51450523930522],
        [-0.119321661324444, 51.514539359302],
        [-0.118853587415603, 51.51467123718655],
        [-0.11870043044911, 51.51471554181714],
        [-0.118657798744664, 51.514840753415925],
        [-0.118623919743247, 51.5149634076376],
        [-0.11840546614525, 51.515018354766326],
        [-0.11837924427208, 51.51502512812582],
        [-0.117617181060159, 51.515226023138815],
        [-0.117276431626579, 51.51538062097143],
        [-0.114718323634117, 51.5160400486933],
        [-0.114685944792849, 51.51598647229866],
        [-0.11385925141735, 51.51482033821313],
        [-0.112307924167555, 51.515146988922666],
        [-0.112325190607479, 51.51521740859854],
        [-0.111707863905411, 51.51529829619225],
        [-0.111687690363291, 51.51533304230092],
        [-0.111606772509664, 51.515338034298594],
        [-0.111575875300895, 51.515283581615684],
        [-0.111552439902293, 51.51522295428924],
        [-0.111410184131691, 51.514794417477425],
        [-0.111137713382533, 51.51396001846497],
        [-0.111101484583058, 51.51382544617066],
        [-0.11133204834792, 51.513791390476506],
        [-0.111980678347953, 51.513684930502286],
        [-0.11185827256066, 51.51347343386252],
        [-0.111738617847793, 51.51319543657775],
        [-0.11233754429199, 51.51303601773227],
        [-0.112213940965334, 51.51288834920102],
        [-0.112374893395717, 51.5128297904306],
        [-0.112347426014599, 51.51279697522094],
        [-0.112414865619708, 51.51276928447261],
        [-0.112200554258422, 51.512514943324646],
        [-0.112058312949978, 51.512330105197435],
        [-0.112188973132893, 51.51230702923471],
        [-0.112167118462635, 51.512277901334656],
        [-0.112157557053046, 51.512265157877145],
        [-0.111887424519605, 51.511966753400024],
        [-0.111770684204657, 51.512001743429174],
        [-0.111710724647554, 51.511953117630874],
        [-0.111567167470097, 51.51173048900769],
        [-0.111530446690773, 51.51164267009539],
        [-0.111557419476236, 51.51144346995446],
        [-0.111574180927742, 51.511316944984344],
        [-0.111586694733863, 51.5109097842772],
        [-0.111574364261374, 51.5107549139975],
        [-0.111463803135594, 51.50976934943755],
        [-0.112049103384543, 51.50972931366755],
        [-0.1127234024089, 51.50966283025944],
        [-0.113911961647931, 51.50949670364765],
        [-0.114580834966581, 51.50938695813396],
        [-0.114958755783622, 51.50930850299922],
        [-0.115297458140635, 51.509237509718794],
        [-0.115565296712761, 51.50917257092338],
        [-0.115813269422967, 51.50910011833825],
        [-0.116316561371023, 51.508951732582304],
        [-0.116893787632318, 51.50872269968727],
        [-0.117458301937084, 51.50852223605955],
        [-0.11763965302505, 51.50845770279693],
        [-0.11780490323131, 51.50839920564179],
        [-0.118062549836712, 51.50826665357201],
        [-0.118340434201627, 51.508097556224435],
        [-0.118727481383814, 51.50779711973129],
        [-0.119240371425589, 51.50741506947735],
        [-0.119662233052084, 51.507038751642085],
        [-0.119987086508864, 51.50667346686359],
        [-0.120465440403486, 51.506114603927095],
        [-0.120548931737061, 51.50601162846927],
        [-0.120672745464919, 51.505874228190486],
        [-0.120803577556639, 51.50567129469926],
        [-0.120906277403915, 51.505381581939496],
        [-0.121052253329626, 51.50502062210063],
        [-0.12110879138208, 51.50483718081139],
        [-0.121215040590861, 51.50435598350812],
        [-0.121274798968435, 51.50395407496227],
        [-0.121334624163582, 51.50369065258327],
        [-0.121431564534986, 51.50319042157173],
        [-0.121759232692674, 51.50124878410073],
        [-0.122073688341747, 51.499417542053465],
        [-0.122140225091186, 51.49899056225477],
        [-0.12226033449597, 51.49824160772121],
        [-0.122337760236284, 51.49768980567578],
        [-0.122388899654839, 51.497111504289215],
        [-0.122395591074816, 51.496492923976945],
        [-0.122433323514274, 51.49620576647416],
        [-0.12250136369552, 51.49588222471814],
        [-0.122704480689929, 51.49500600488446],
        [-0.122791749200355, 51.49474032307061],
        [-0.122826043980215, 51.49453674109927]
      ]
    ]
  }
}
