{
  "type": "Feature",
  "properties": { "name": "Chelmsford", "level": 1 },
  "geometry": {
    "type": "Polygon",
    "coordinates": [
      [
        [0.341505788853183, 51.723235742354156],
        [0.344968472414706, 51.728114540948177],
        [0.346997879635873, 51.729411250547351],
        [0.347564517176474, 51.731263248895829],
        [0.345007993848676, 51.73522799963515],
        [0.346051215078512, 51.741861878297854],
        [0.344124546327911, 51.749358994290162],
        [0.341370453020075, 51.750845567836166],
        [0.341087086035648, 51.752005892914326],
        [0.342522425694288, 51.758126576108673],
        [0.344132380093531, 51.760000946140785],
        [0.34494083266124, 51.766205144862617],
        [0.348155338287174, 51.768575308528099],
        [0.348203474251429, 51.772936758613355],
        [0.344436402645101, 51.774034453711934],
        [0.340490015645449, 51.774107721537057],
        [0.335237204064234, 51.775915453547427],
        [0.333667130329664, 51.778807245347046],
        [0.33229184459149, 51.779239221630206],
        [0.335064269617177, 51.783739909099864],
        [0.334926470344735, 51.785703970390983],
        [0.340795478093139, 51.786534164475363],
        [0.340671397007641, 51.788030335977055],
        [0.338041198860281, 51.789295812816903],
        [0.337903804361255, 51.791405551675922],
        [0.340553958114484, 51.794471499402206],
        [0.346793066147325, 51.793495476196448],
        [0.350130969561818, 51.794015111523336],
        [0.354712316901413, 51.793486368598948],
        [0.36258994488951, 51.794900224801083],
        [0.362276127587912, 51.795666423966665],
        [0.359485072727279, 51.796264751298182],
        [0.35901790614719, 51.79812304645521],
        [0.361703381430027, 51.798388362543427],
        [0.360433220537203, 51.800117111489463],
        [0.361542786846919, 51.801143383785522],
        [0.364731082068375, 51.799649429889321],
        [0.368381362521555, 51.799142482281439],
        [0.374502207446935, 51.800827444891851],
        [0.382759899145961, 51.799812314038611],
        [0.381448055784873, 51.798204004885257],
        [0.378476951355158, 51.798824417581628],
        [0.378290421783721, 51.797981068332206],
        [0.38413804220219, 51.797067634728769],
        [0.38471638649937, 51.798792417643483],
        [0.386805156770214, 51.798493724751303],
        [0.387981939345355, 51.799710833471522],
        [0.388305884139302, 51.803534298446102],
        [0.389874879680962, 51.803881006478569],
        [0.389978897308777, 51.805079434391253],
        [0.39144572174745, 51.805056795281203],
        [0.394057711771174, 51.807098955704049],
        [0.398849796232098, 51.807490468504149],
        [0.40000282789189, 51.812754721201067],
        [0.403551266743545, 51.812856681801804],
        [0.404143454763884, 51.811498343499181],
        [0.403244916646101, 51.811353047270003],
        [0.402276172977149, 51.807705567399843],
        [0.404587659095248, 51.807415498353379],
        [0.407041375542536, 51.808406650453307],
        [0.406840327048579, 51.810405381324401],
        [0.404924168562751, 51.812482377938721],
        [0.407805995558675, 51.813279503706617],
        [0.408048825378158, 51.812799707258392],
        [0.413025429642988, 51.813209349096113],
        [0.414294626564459, 51.814234553810451],
        [0.414641224435089, 51.816049387251063],
        [0.41079314104391, 51.819607698174408],
        [0.410711895407251, 51.821890848180153],
        [0.407060677647796, 51.825400026430373],
        [0.406323596222963, 51.828724475682897],
        [0.406382573072597, 51.83089233754653],
        [0.410633555521151, 51.832353817669102],
        [0.411047604105965, 51.833366013269604],
        [0.410481420115902, 51.834451365882877],
        [0.406535766047986, 51.835480036191655],
        [0.409957331822173, 51.836570026960395],
        [0.403492818150796, 51.840268900584292],
        [0.404291290742108, 51.842748079395847],
        [0.406602490428415, 51.843970581968854],
        [0.407961787343626, 51.846180163248455],
        [0.411716088777637, 51.84579206965649],
        [0.411118431701227, 51.844932922990814],
        [0.411956788877971, 51.843722382649794],
        [0.412782141422821, 51.845608328914267],
        [0.413893056141739, 51.845557650402405],
        [0.415030325356687, 51.853537900335937],
        [0.413143549488956, 51.85665127347135],
        [0.418273177091883, 51.857223056128802],
        [0.420040316092419, 51.855106665592267],
        [0.424002913885617, 51.854150947483348],
        [0.424247413874211, 51.846921071569483],
        [0.422550468622493, 51.844955140965183],
        [0.425649297036426, 51.843289631221872],
        [0.428014469948281, 51.838355003108035],
        [0.431445043271006, 51.836096148367965],
        [0.431031694374975, 51.831818700307124],
        [0.434512484369863, 51.831040734850077],
        [0.439428058030117, 51.832454142966156],
        [0.441079827214563, 51.830467505706032],
        [0.44565214396468, 51.828865272770891],
        [0.449665252460652, 51.830175619633231],
        [0.451346861965858, 51.833958950382041],
        [0.453026059064111, 51.83462177528002],
        [0.459313991563696, 51.835414883752414],
        [0.461876451036696, 51.834596858171025],
        [0.467087159696826, 51.839579417591409],
        [0.475168322913906, 51.84046623913671],
        [0.486393796797976, 51.839919129385052],
        [0.486770278585032, 51.842640523261842],
        [0.492490418723789, 51.84326851377886],
        [0.506786579041304, 51.848146326582103],
        [0.512898283623205, 51.848278462504943],
        [0.517681841662295, 51.849198633651774],
        [0.519233779452138, 51.850440597163434],
        [0.524914338303742, 51.849245888719949],
        [0.520337953951629, 51.844006736248907],
        [0.523732070636092, 51.840080432841589],
        [0.529840895232364, 51.83639960377694],
        [0.530127238225607, 51.832652347576612],
        [0.528744180556102, 51.831076851326223],
        [0.530174244449146, 51.829633278645616],
        [0.530163726801621, 51.823180110139198],
        [0.525513630946363, 51.822162271271218],
        [0.524439052619156, 51.823343653599103],
        [0.522512232842773, 51.822156569342788],
        [0.525706697545015, 51.821462962547322],
        [0.523708120341023, 51.820522949246673],
        [0.524034668308126, 51.819693076559467],
        [0.532553256001432, 51.81592523184537],
        [0.532709665460115, 51.812479324450862],
        [0.534156711418075, 51.81091122367144],
        [0.529846229977034, 51.810133550468038],
        [0.528386458266721, 51.810699146924094],
        [0.527526912146986, 51.809261659727525],
        [0.524732753250816, 51.809677834975709],
        [0.523763620398056, 51.80342060679628],
        [0.528266452468009, 51.800261698763016],
        [0.529041465173139, 51.797134325857826],
        [0.531183979515184, 51.795145700346488],
        [0.536127068200084, 51.792180236792909],
        [0.541878300118975, 51.79044532249771],
        [0.545410370872413, 51.784873190891417],
        [0.558371853945649, 51.775390853653576],
        [0.562555690654559, 51.767255316384478],
        [0.565168017250934, 51.764783650260306],
        [0.56624009717013, 51.764826788553712],
        [0.566487738298059, 51.758666457442331],
        [0.570915102293183, 51.754384233272084],
        [0.572071892327446, 51.751893881142649],
        [0.578435494619801, 51.752805689942335],
        [0.584500266987273, 51.751144478705321],
        [0.589545032344209, 51.753998448861431],
        [0.59066941456471, 51.755870328127941],
        [0.59333871011102, 51.755441814450158],
        [0.591667403115013, 51.751308541058172],
        [0.591778521866507, 51.745658345688874],
        [0.5951307110546, 51.734054106969793],
        [0.591177277708579, 51.733382356690491],
        [0.589101943237158, 51.731814733497217],
        [0.589471149057774, 51.730166227564453],
        [0.59116298441976, 51.728196268459286],
        [0.595339982580706, 51.725776591143514],
        [0.60408186437874, 51.724937378930612],
        [0.611125664777662, 51.722780887673693],
        [0.602047259045143, 51.711675120211908],
        [0.60183788719963, 51.710221947459708],
        [0.603759349747259, 51.705063976173562],
        [0.602962894802267, 51.702915148017134],
        [0.604536868612508, 51.700381909183648],
        [0.610335188290714, 51.700564326625162],
        [0.612575410643319, 51.69875181582573],
        [0.611157858873131, 51.696377634031677],
        [0.612229591305911, 51.694934650471325],
        [0.610878114779347, 51.694233551753094],
        [0.610521357673991, 51.691178358301933],
        [0.61053495359682, 51.689755312011272],
        [0.612354615159677, 51.690020613945755],
        [0.612826787651674, 51.68947590394616],
        [0.611275391959419, 51.689421382816889],
        [0.612177167244015, 51.685532392982211],
        [0.611124908102372, 51.684092583783723],
        [0.609131656031999, 51.684200748224789],
        [0.608809318753962, 51.681941591429052],
        [0.6161147724185, 51.678620572692871],
        [0.619738356636404, 51.675334539992932],
        [0.619488767361302, 51.670409049182368],
        [0.623295044666628, 51.665619622947354],
        [0.623266134808381, 51.662341283205734],
        [0.626398629774022, 51.658070427631799],
        [0.628415898297316, 51.645981311331326],
        [0.627522298194184, 51.644827679490625],
        [0.629133943037225, 51.642876891510731],
        [0.628684733875429, 51.63950992586873],
        [0.640455760040754, 51.638760945862984],
        [0.64897985925808, 51.636592997552661],
        [0.64450054865658, 51.632315105138424],
        [0.642778979540399, 51.631861045069009],
        [0.637527941116384, 51.632444137790358],
        [0.632149571229861, 51.631704218210814],
        [0.628463915653478, 51.632419062109918],
        [0.622043452715125, 51.632274895966901],
        [0.607038998844013, 51.629008213697517],
        [0.604440847213597, 51.629916676955119],
        [0.597893767055533, 51.629976352690825],
        [0.595950320935205, 51.631573412864711],
        [0.59187038765158, 51.630629351493489],
        [0.587962036561687, 51.630868489584294],
        [0.587327338888447, 51.630025416746712],
        [0.588685157467441, 51.628518763464683],
        [0.586520436374777, 51.626993554353085],
        [0.585884589939827, 51.625315915065109],
        [0.586795306098647, 51.62334248458297],
        [0.578455852432009, 51.625002723687821],
        [0.575159329262309, 51.624021086850966],
        [0.574160930043794, 51.622949400049841],
        [0.568543744023613, 51.622085910869394],
        [0.566242498637671, 51.622552648389451],
        [0.563737960386991, 51.621336632528113],
        [0.564182347540292, 51.619916768340779],
        [0.562227051251848, 51.617727331130318],
        [0.554287267040022, 51.616623370909011],
        [0.554153047846741, 51.61742310083163],
        [0.552176981231111, 51.617813236579664],
        [0.544289924918402, 51.61793144349727],
        [0.543593520371472, 51.618369225757853],
        [0.544774248338454, 51.619590099380282],
        [0.542265916817312, 51.620825286491772],
        [0.538620961374244, 51.620466219015604],
        [0.537551831022555, 51.619611596683818],
        [0.536172695545914, 51.620321303164488],
        [0.531850407938418, 51.619446058422426],
        [0.529040033005728, 51.620244107263936],
        [0.520795056170729, 51.618787426192121],
        [0.520232934959519, 51.625405950766783],
        [0.515527221401532, 51.624419625902931],
        [0.51465358134114, 51.62696275414487],
        [0.504793368769447, 51.624368622464772],
        [0.504801656184396, 51.62171274248341],
        [0.481436862708903, 51.625554573912389],
        [0.465799525126969, 51.623464097404039],
        [0.460796577226189, 51.623579897317477],
        [0.44680043410423, 51.626665801679643],
        [0.445483289200458, 51.630464976362198],
        [0.44619277744483, 51.630625557462231],
        [0.442866075212921, 51.636994531701127],
        [0.443397997118136, 51.638904391020191],
        [0.446967325445406, 51.641577434764677],
        [0.445825288203623, 51.64348079937966],
        [0.441928554739514, 51.644184253115561],
        [0.442908305236758, 51.646652261417131],
        [0.439798524399771, 51.647102742892713],
        [0.433782216116281, 51.649507385087468],
        [0.412199633745732, 51.649851245940205],
        [0.410196822866367, 51.651202672499274],
        [0.402300867494831, 51.650992209860668],
        [0.401956885792573, 51.652552347140976],
        [0.399234413567304, 51.653808590266017],
        [0.397034167046116, 51.653648495994787],
        [0.402734403848829, 51.659652627194838],
        [0.401780443228427, 51.661628131705072],
        [0.400223793808559, 51.662243614573754],
        [0.402818466057492, 51.663400101648357],
        [0.407411527979943, 51.668423943290989],
        [0.408956157779584, 51.669487612145872],
        [0.411439828773686, 51.6697675702328],
        [0.412533717195075, 51.670892609220218],
        [0.407399431957772, 51.672804694832763],
        [0.404870486045248, 51.678688492090849],
        [0.397799714008647, 51.679456312426424],
        [0.401471640360115, 51.682417309493054],
        [0.396678362532906, 51.684409166679899],
        [0.396865465938984, 51.686526794533059],
        [0.395693051394225, 51.686161323192884],
        [0.394309869815074, 51.687750716809596],
        [0.392804502262526, 51.687820970243301],
        [0.392855862257513, 51.690550192835993],
        [0.391721980748022, 51.691657845294621],
        [0.389543199743009, 51.690978265795813],
        [0.38180147695769, 51.693641880670718],
        [0.380461787052667, 51.694419057211924],
        [0.38047949367826, 51.697375581608505],
        [0.377944316788603, 51.697932346211005],
        [0.37749185520977, 51.69871490036531],
        [0.368919590614979, 51.692832283856433],
        [0.362860066809583, 51.691704344407128],
        [0.360525176837464, 51.690379879271148],
        [0.346496197749582, 51.693997407664881],
        [0.343874602931676, 51.698402323381799],
        [0.338859675483419, 51.701508625350996],
        [0.339173188578536, 51.706772210144457],
        [0.336948504272078, 51.709300328318925],
        [0.333587757648474, 51.717968820612754],
        [0.33351235541248, 51.718725718420224],
        [0.338776872918909, 51.720805380719327],
        [0.341505788853183, 51.723235742354156]
      ]
    ]
  }
}
