{
  "type": "Feature",
  "properties": {
    "name": "Colchester",
    "level": 1
  },
  "geometry": {
    "type": "Polygon",
    "coordinates": [
      [
        [0.9504286919329926, 51.770122366935546],
        [0.9487896514880159, 51.77106380431875],
        [0.945381927168315, 51.77071489368496],
        [0.9458236905804756, 51.7712875157437],
        [0.9443703450897891, 51.77158747070711],
        [0.9424406132480365, 51.77071575436498],
        [0.9386208484131562, 51.77098494975728],
        [0.9371919509647436, 51.770211242509],
        [0.9335843625219264, 51.77118098221781],
        [0.9294957666203372, 51.77077036618015],
        [0.9270840991253434, 51.771652514618474],
        [0.9098641928471034, 51.7705180978073],
        [0.904094336199747, 51.76570621927289],
        [0.9024300669248237, 51.76572486703749],
        [0.8932549973648644, 51.76939849972108],
        [0.8792376463665851, 51.779989408223194],
        [0.8698212274635095, 51.78171724413189],
        [0.8592092854665522, 51.78477479795674],
        [0.8545665371331641, 51.78377157762342],
        [0.8516209800324877, 51.78426940361577],
        [0.8479143766606226, 51.78226379118739],
        [0.846711201121307, 51.78240716835619],
        [0.8428795974063299, 51.78043680550788],
        [0.8442468842764321, 51.778823533431385],
        [0.8368445322745304, 51.77952952792432],
        [0.8344640118161814, 51.78267808526057],
        [0.8256396088396507, 51.7835192905955],
        [0.8196008488327079, 51.78613309894374],
        [0.8161299660484167, 51.78635394070581],
        [0.8163106488859335, 51.78753136464281],
        [0.8039010336019303, 51.789696111190295],
        [0.8057022775926131, 51.791939273402924],
        [0.8159007481010344, 51.78923827429137],
        [0.8166477295847671, 51.79103167408417],
        [0.8080832776097198, 51.79330967231676],
        [0.8118264804602419, 51.799110033254685],
        [0.8089958235084804, 51.7998225685801],
        [0.8089266102004745, 51.800412400386264],
        [0.8011186420331391, 51.801472947053426],
        [0.7979014133242922, 51.80398233615799],
        [0.7947657021533787, 51.80425121088259],
        [0.7906044434758607, 51.80684669437061],
        [0.7790615738348731, 51.81155400323447],
        [0.7703429402740429, 51.805901505758285],
        [0.768594487906002, 51.805849177579624],
        [0.7633726523951976, 51.8032308758732],
        [0.7602983440418729, 51.80298745625169],
        [0.7542024299744162, 51.80096036404511],
        [0.7464670994972081, 51.79944344111701],
        [0.742834554224259, 51.800200989248594],
        [0.7376208127785446, 51.79854186672721],
        [0.7338269712495571, 51.798408948507216],
        [0.7336109421627723, 51.79932140841941],
        [0.7268291582152402, 51.79748513197086],
        [0.7225982709118175, 51.797270259806],
        [0.721540781537419, 51.79649794110403],
        [0.7181431992350097, 51.797354504637745],
        [0.7190085601192928, 51.80515332652925],
        [0.7173293549129837, 51.80694946844911],
        [0.7133022948323806, 51.808450869962215],
        [0.7150276266066303, 51.810507377119464],
        [0.7216360552949211, 51.80999659377973],
        [0.7105389676398481, 51.817184220056674],
        [0.7088830692551606, 51.81911549330053],
        [0.7177591663594779, 51.82561333366379],
        [0.7162349749169259, 51.82756234785327],
        [0.7213043638687751, 51.83022673775713],
        [0.7181019318696927, 51.83318409614872],
        [0.7141559098748322, 51.83351269616777],
        [0.7118765257314726, 51.834521293004514],
        [0.7157476864366004, 51.83716769460843],
        [0.7278018771545625, 51.839479585040685],
        [0.7331646905415704, 51.84196849208194],
        [0.7343008490238125, 51.841957360457364],
        [0.7351427170737369, 51.84058877300334],
        [0.7350363055909276, 51.8377322599723],
        [0.738159636874739, 51.837789954655264],
        [0.7395456319817265, 51.8400060047909],
        [0.7415619328296819, 51.83966671506435],
        [0.7414287374180881, 51.84144061554665],
        [0.7381353579521687, 51.8421496034271],
        [0.7387498577830923, 51.84304002131683],
        [0.7400979728260187, 51.842836833812655],
        [0.7387057551373096, 51.843198432563014],
        [0.7389806308642102, 51.844736188621745],
        [0.7363496047158413, 51.84727242815308],
        [0.7345502942679373, 51.84712543355534],
        [0.7331161939202113, 51.84845202502416],
        [0.7361940969166483, 51.84932833002796],
        [0.7370787613156361, 51.84835264350911],
        [0.7411256710925002, 51.84966491753857],
        [0.742251858538421, 51.851134249975544],
        [0.7503162106222099, 51.85359172279213],
        [0.745206667142432, 51.85637497191485],
        [0.7482658393646985, 51.85771725997322],
        [0.7476103460941097, 51.85844845148079],
        [0.7487268737963315, 51.859085164658694],
        [0.7473193196187664, 51.86008394904282],
        [0.7458455966430526, 51.85973525822679],
        [0.7528979253279244, 51.86312182781211],
        [0.7494136298493512, 51.86620083917854],
        [0.7461586212747365, 51.86759083304098],
        [0.7471942618937109, 51.868589184758676],
        [0.7365785952894749, 51.87166872062813],
        [0.7304328807971829, 51.86754245865416],
        [0.7260726971150557, 51.86986227379941],
        [0.7221789911195958, 51.86935352414406],
        [0.7193863763975865, 51.87059895997799],
        [0.7186759899882328, 51.86990131887147],
        [0.7163771569164553, 51.87124228478231],
        [0.7174169968950662, 51.8721994272937],
        [0.7220940441087131, 51.872973494352145],
        [0.7234711254571691, 51.87390658941931],
        [0.7226249205445863, 51.87589211882597],
        [0.7199789914265411, 51.87560261104524],
        [0.7181609049011153, 51.87793164178333],
        [0.7227313376443744, 51.8787827968313],
        [0.7118407927493487, 51.88653482377124],
        [0.7131727359295419, 51.886956464504195],
        [0.7124984778763657, 51.892917460754695],
        [0.7102792940787861, 51.894323903601205],
        [0.710526492494299, 51.89526699471821],
        [0.7046944402476156, 51.896860856191005],
        [0.6999304592748771, 51.89971504347336],
        [0.6994452949839576, 51.903309078641826],
        [0.7047922615613785, 51.903569356702356],
        [0.7054324568205899, 51.904810987565725],
        [0.7069864933729062, 51.90521859999248],
        [0.7108809014098249, 51.90421789600471],
        [0.7111032506413707, 51.902719893527525],
        [0.7127765411763227, 51.902211866319966],
        [0.7150656399653742, 51.904947855112944],
        [0.7205587512770347, 51.904542141149456],
        [0.7206473823290349, 51.903627275664256],
        [0.722576509472944, 51.90357634332682],
        [0.7234245465339839, 51.90557749659823],
        [0.7252897132427153, 51.905141291041176],
        [0.7261994176949234, 51.90582977867781],
        [0.728984148751625, 51.90804229899626],
        [0.7272276232868677, 51.90912086033315],
        [0.7239081560812928, 51.90840277200167],
        [0.7221971950287652, 51.91016458820376],
        [0.7241545166794056, 51.91256813821049],
        [0.7266766051095211, 51.912889219207415],
        [0.7300868576170492, 51.91583995042031],
        [0.7314399416831153, 51.91884376506464],
        [0.7304146228712687, 51.923300341999415],
        [0.7348171759194327, 51.92439598052712],
        [0.7367345790499085, 51.92937232723539],
        [0.7401116715484778, 51.931627471432755],
        [0.7414371585583259, 51.93413538990861],
        [0.7402427529620085, 51.939983647309695],
        [0.7468892031206081, 51.94535951822917],
        [0.7457459066813843, 51.94582057722313],
        [0.7457544001808446, 51.94834118693824],
        [0.748512605237742, 51.95165375782959],
        [0.7476538413208421, 51.95212887181219],
        [0.7494589193370287, 51.95467856309741],
        [0.7560169603032982, 51.95317346301812],
        [0.7640090913883814, 51.95430891547603],
        [0.7676719182594143, 51.957627677225034],
        [0.7684765516640424, 51.96189674382674],
        [0.7707201678573241, 51.962962703665404],
        [0.7715592912263345, 51.96242942776888],
        [0.769826114154398, 51.96187398009632],
        [0.7731218629313701, 51.960150590730585],
        [0.777543250267735, 51.95987364411845],
        [0.7777568980092631, 51.96090372910155],
        [0.7815722641214476, 51.963463031576396],
        [0.7822570255697803, 51.96506923465428],
        [0.7814372650444301, 51.966501459037374],
        [0.7827553041175144, 51.96763583070133],
        [0.7849411058633274, 51.96754815183964],
        [0.7863160394352479, 51.9664768804159],
        [0.7856642375992787, 51.96402005251545],
        [0.7871284715590491, 51.96312292482558],
        [0.79592688290912, 51.963697531119536],
        [0.7990426852543114, 51.96323495007382],
        [0.799702360218243, 51.962350501865544],
        [0.8079848768435093, 51.961728672059],
        [0.810472480471509, 51.96067642068164],
        [0.8141260033004216, 51.962272662247585],
        [0.8141120231516069, 51.96572014959594],
        [0.8152489836662522, 51.967041958855184],
        [0.8183143537577163, 51.968233952671184],
        [0.8246175891284391, 51.968537895062745],
        [0.8304680923946597, 51.96632435061873],
        [0.8334363919193544, 51.96604157391692],
        [0.8401793609776586, 51.9633797586153],
        [0.8420583460609475, 51.961807312248695],
        [0.8502081057621147, 51.96075492192798],
        [0.8538525486606665, 51.9624832646006],
        [0.8582994682744791, 51.96295361087831],
        [0.8594450044351633, 51.96418486192644],
        [0.8588691756240056, 51.965499303976024],
        [0.8630620542647017, 51.96825907989174],
        [0.8706433420670929, 51.96918957557096],
        [0.87316946333476, 51.968550546731876],
        [0.8726817346869631, 51.96716307131501],
        [0.8799738014749235, 51.96644432659243],
        [0.8865341077238417, 51.968433031589214],
        [0.8896565001235252, 51.973374767545224],
        [0.8907507275921249, 51.97279659316468],
        [0.8927866974210703, 51.97338779975921],
        [0.8956609921842806, 51.97212007591446],
        [0.9002707709584801, 51.97351117073448],
        [0.9076412251465255, 51.97295876141258],
        [0.9170124699517349, 51.97395536134556],
        [0.920697337178697, 51.97481548220727],
        [0.9225334540171014, 51.97617648879481],
        [0.9251376619533519, 51.97618193685637],
        [0.9276730451925433, 51.97231911111604],
        [0.9293062490979026, 51.97143936844371],
        [0.9372320848124766, 51.972619622361584],
        [0.9395417419284178, 51.972355098504565],
        [0.939929688700245, 51.971408275536135],
        [0.9428800143570572, 51.970677998004206],
        [0.9512532373655294, 51.972701411513476],
        [0.9531016621054325, 51.97403735767252],
        [0.9531460385050446, 51.97517663353529],
        [0.955904481268701, 51.97633050985628],
        [0.9625587343401588, 51.97715247832011],
        [0.9653995650759272, 51.9745663084294],
        [0.9641328184696423, 51.973643099136545],
        [0.9648169084758077, 51.971984527855774],
        [0.9715488300120104, 51.96932348445854],
        [0.9714683306913098, 51.96698536925064],
        [0.9681935175976394, 51.96409651990057],
        [0.9709520302196226, 51.962395453939656],
        [0.9738605878256681, 51.96236964555156],
        [0.9758162727793801, 51.96125625054716],
        [0.9824472526648796, 51.962106444537675],
        [0.989052738427933, 51.9613668295615],
        [0.9924647539197212, 51.9617531712493],
        [0.9952057488625854, 51.96334096850625],
        [0.9986797612041384, 51.96395489307409],
        [1.0043642344165993, 51.962222494971535],
        [1.0054264975198994, 51.960626860846595],
        [1.004913476229258, 51.95948696820756],
        [1.006675576132339, 51.957626118279705],
        [1.0115313821199816, 51.955057430835375],
        [1.0161611344657668, 51.95537323290926],
        [1.0186662872722925, 51.95320714301255],
        [1.023681871813193, 51.9549751343109],
        [1.0251902330403535, 51.9539425480252],
        [1.0268034535355246, 51.95405664860668],
        [1.0231166817800992, 51.94887029615956],
        [1.0227906032815763, 51.946446757849905],
        [1.018460381353198, 51.9430161928681],
        [1.005853396676092, 51.93670429708377],
        [1.0057497699147047, 51.935589920605615],
        [1.0016514519424211, 51.93553088099191],
        [0.9994397704457972, 51.936619776345715],
        [0.9854972960292151, 51.9397247237283],
        [0.9777550913971849, 51.94021594385429],
        [0.9714757006437361, 51.94012109819194],
        [0.9576029389705034, 51.937298621657355],
        [0.951008591671012, 51.934593452994335],
        [0.9491966477285833, 51.935006732602105],
        [0.9390586177070798, 51.926575306229516],
        [0.9378180187682631, 51.92237119391079],
        [0.9352529699040116, 51.92249458804225],
        [0.9343384332414986, 51.921051443868016],
        [0.931171943717455, 51.91971209893017],
        [0.9341155598543769, 51.916520614413066],
        [0.9310956596917678, 51.914122659724896],
        [0.9314802746023623, 51.91321820766535],
        [0.9378704954002186, 51.91304347569119],
        [0.9412906779155775, 51.91117185547471],
        [0.9479730301272816, 51.9100008603865],
        [0.9441086940999986, 51.90621329217326],
        [0.9490620950302953, 51.90478600553247],
        [0.9548518462236792, 51.90467485821121],
        [0.957112914394992, 51.90363681543748],
        [0.9487791930732716, 51.89674105464336],
        [0.9530682043731841, 51.89169678899372],
        [0.9595752332482059, 51.89221852236011],
        [0.962589629457439, 51.891396139359415],
        [0.9626088689582337, 51.89071662872651],
        [0.9592972219294136, 51.88630855292771],
        [0.9580906464813171, 51.88110546632332],
        [0.9528235984430338, 51.88029891016152],
        [0.9578936774165409, 51.87737622677947],
        [0.9601090606130391, 51.87741131094587],
        [0.9756602486838347, 51.87356246738618],
        [0.9782912399728407, 51.87215038221653],
        [0.9793333303738143, 51.86815682482517],
        [0.9739487133448829, 51.86044518845861],
        [0.9756538684955705, 51.8595188511922],
        [0.9780744185170012, 51.85403250373843],
        [0.9649803447205828, 51.851321801579104],
        [0.9693850153144878, 51.849027830721994],
        [0.9773590252939462, 51.848126412728455],
        [0.9796428478624445, 51.846647522883245],
        [0.9817013656958647, 51.83770044311798],
        [0.979099342246304, 51.82885804632769],
        [0.9865525348038112, 51.81626187794348],
        [0.9915861504869046, 51.81084725102194],
        [1.0096600117671248, 51.800733465037226],
        [1.0056294321294352, 51.800265524569475],
        [1.0091733634469533, 51.79564997685185],
        [1.0075766228521628, 51.79432468524172],
        [1.0064932132520785, 51.7889641576418],
        [1.0038651118012436, 51.78719392472654],
        [1.0040140482574633, 51.78522404593074],
        [1.0030502198168354, 51.78512277210111],
        [1.0038222968647836, 51.78369188783013],
        [1.003506763267506, 51.7823697541733],
        [1.002921322092086, 51.7834666888378],
        [1.0025019505982296, 51.78239274091839],
        [1.004529916275791, 51.78009241204314],
        [1.0035718051551716, 51.779071818077675],
        [0.9997782845846772, 51.77908690270308],
        [1.001069047225903, 51.77941908902659],
        [0.9999870402517435, 51.779741725551844],
        [1.0035393605466378, 51.780154616817335],
        [1.0017777015351557, 51.781094538937644],
        [1.0004730997142512, 51.78042364270695],
        [0.9994288481709888, 51.78100973059444],
        [1.0003108676483892, 51.78285074731513],
        [0.9992187040909316, 51.78168873997941],
        [0.9978550656329342, 51.78259775361291],
        [0.9980203064307285, 51.780979129644685],
        [0.9990440279301481, 51.78154749787731],
        [0.9992943667227296, 51.78046903214775],
        [0.9979522076832437, 51.78012734509414],
        [0.9967985104475289, 51.780725196165214],
        [0.9975261236819951, 51.780239848904465],
        [0.9962647006599729, 51.779125304460266],
        [0.9953079292283941, 51.77978467315248],
        [0.9924449525521001, 51.779488884938786],
        [0.9914158853428222, 51.780612349283864],
        [0.9920248226681313, 51.7810933054304],
        [0.9907527036842403, 51.78064812149145],
        [0.9914504637710325, 51.78010511215616],
        [0.9891427923418872, 51.78072956775021],
        [0.987622559912681, 51.78019352894068],
        [0.991899662379716, 51.779684450398356],
        [0.9897415978232236, 51.77842718172989],
        [0.9925124592396825, 51.778471753508214],
        [0.9932863260472874, 51.779210224346116],
        [0.9944964106685948, 51.77758116781572],
        [0.9948925509199266, 51.775113033142524],
        [0.9938823806654262, 51.77818322091078],
        [0.9922802704818733, 51.77765832310796],
        [0.9871441480380758, 51.77797880631576],
        [0.9848018371363811, 51.776540859242026],
        [0.9864365522084133, 51.77549829244223],
        [0.9854883346318277, 51.7751905195462],
        [0.9844451144615681, 51.77533214921471],
        [0.9849217050348383, 51.777412019929855],
        [0.9786444701625727, 51.77821620970972],
        [0.9753652072652268, 51.777275806937986],
        [0.9769555569367292, 51.77659065590383],
        [0.9725717100618039, 51.77562869631088],
        [0.9717172618683177, 51.77606223317127],
        [0.9683838673069459, 51.77457977790926],
        [0.9676216899214601, 51.771273103520194],
        [0.9657556830990158, 51.77014203270928],
        [0.9612318344213568, 51.771566562926886],
        [0.9627598791504954, 51.77024011372936],
        [0.9574688518447779, 51.770265514680325],
        [0.9575098847608513, 51.771491242345014],
        [0.959618260425934, 51.771609924914884],
        [0.9585511308476394, 51.77218363148621],
        [0.9570541200574844, 51.7715269992891],
        [0.9573198884375753, 51.77007140027076],
        [0.9531989337251164, 51.770521335402414],
        [0.950850965258435, 51.76939585098036],
        [0.9504286919329926, 51.770122366935546]
      ]
    ]
  }
}
