{
  "type": "Feature",
  "properties": { "name": "Colchester", "level": 1 },
  "geometry": {
    "type": "Polygon",
    "coordinates": [
      [
        [0.9504286919329926, 51.770122366935546],
        [0.9487896514880159, 51.77106380431875],
        [0.945381927168315, 51.770714893684961],
        [0.9458236905804756, 51.771287515743701],
        [0.9443703450897891, 51.771587470707111],
        [0.9424406132480365, 51.770715754364979],
        [0.9386208484131562, 51.770984949757278],
        [0.9371919509647436, 51.770211242508999],
        [0.9335843625219265, 51.771180982217807],
        [0.9294957666203372, 51.770770366180152],
        [0.9270840991253434, 51.771652514618474],
        [0.9098641928471034, 51.770518097807297],
        [0.904094336199747, 51.765706219272893],
        [0.9024300669248238, 51.765724867037491],
        [0.8932549973648644, 51.769398499721078],
        [0.8792376463665851, 51.779989408223194],
        [0.8698212274635095, 51.78171724413189],
        [0.8592092854665522, 51.784774797956743],
        [0.8545665371331641, 51.783771577623419],
        [0.8516209800324877, 51.784269403615767],
        [0.8479143766606226, 51.78226379118739],
        [0.846711201121307, 51.782407168356187],
        [0.8428795974063299, 51.780436805507883],
        [0.8442468842764321, 51.778823533431385],
        [0.8368445322745304, 51.779529527924318],
        [0.8344640118161814, 51.782678085260571],
        [0.8256396088396507, 51.7835192905955],
        [0.8196008488327079, 51.786133098943743],
        [0.8161299660484167, 51.786353940705808],
        [0.8163106488859335, 51.78753136464281],
        [0.8039010336019303, 51.789696111190295],
        [0.8057022775926132, 51.791939273402924],
        [0.8159007481010344, 51.789238274291371],
        [0.8166477295847671, 51.791031674084167],
        [0.8080832776097198, 51.793309672316759],
        [0.8118264804602419, 51.799110033254685],
        [0.8089958235084804, 51.799822568580097],
        [0.8089266102004745, 51.800412400386264],
        [0.8011186420331391, 51.801472947053426],
        [0.7979014133242922, 51.803982336157993],
        [0.7947657021533787, 51.80425121088259],
        [0.7906044434758607, 51.806846694370613],
        [0.7790615738348731, 51.81155400323447],
        [0.7703429402740429, 51.805901505758285],
        [0.768594487906002, 51.805849177579624],
        [0.7633726523951976, 51.803230875873197],
        [0.7602983440418729, 51.802987456251692],
        [0.7542024299744162, 51.80096036404511],
        [0.7464670994972081, 51.799443441117013],
        [0.742834554224259, 51.800200989248594],
        [0.7376208127785446, 51.798541866727213],
        [0.7338269712495571, 51.798408948507216],
        [0.7336109421627723, 51.799321408419409],
        [0.7268291582152402, 51.797485131970859],
        [0.7225982709118175, 51.797270259805998],
        [0.721540781537419, 51.796497941104029],
        [0.7181431992350097, 51.797354504637745],
        [0.7190085601192928, 51.805153326529251],
        [0.7173293549129837, 51.806949468449112],
        [0.7133022948323806, 51.808450869962215],
        [0.7150276266066303, 51.810507377119464],
        [0.7216360552949211, 51.809996593779729],
        [0.7105389676398481, 51.817184220056674],
        [0.7088830692551607, 51.819115493300529],
        [0.7177591663594779, 51.825613333663789],
        [0.7162349749169259, 51.827562347853267],
        [0.7213043638687751, 51.83022673775713],
        [0.7181019318696927, 51.83318409614872],
        [0.7141559098748322, 51.833512696167773],
        [0.7118765257314726, 51.834521293004514],
        [0.7157476864366004, 51.837167694608432],
        [0.7278018771545625, 51.839479585040685],
        [0.7331646905415704, 51.841968492081939],
        [0.7343008490238125, 51.841957360457364],
        [0.7351427170737369, 51.84058877300334],
        [0.7350363055909276, 51.837732259972299],
        [0.738159636874739, 51.837789954655264],
        [0.7395456319817265, 51.840006004790901],
        [0.7415619328296819, 51.839666715064347],
        [0.7414287374180881, 51.841440615546652],
        [0.7381353579521687, 51.842149603427103],
        [0.7387498577830923, 51.843040021316831],
        [0.7400979728260188, 51.842836833812655],
        [0.7387057551373096, 51.843198432563014],
        [0.7389806308642102, 51.844736188621745],
        [0.7363496047158413, 51.847272428153083],
        [0.7345502942679373, 51.847125433555341],
        [0.7331161939202113, 51.848452025024159],
        [0.7361940969166483, 51.849328330027959],
        [0.7370787613156361, 51.848352643509109],
        [0.7411256710925002, 51.849664917538568],
        [0.742251858538421, 51.851134249975544],
        [0.7503162106222099, 51.853591722792132],
        [0.745206667142432, 51.856374971914853],
        [0.7482658393646985, 51.857717259973221],
        [0.7476103460941097, 51.85844845148079],
        [0.7487268737963315, 51.859085164658694],
        [0.7473193196187664, 51.860083949042817],
        [0.7458455966430526, 51.859735258226792],
        [0.7528979253279244, 51.863121827812108],
        [0.7494136298493512, 51.866200839178539],
        [0.7461586212747365, 51.867590833040978],
        [0.7471942618937109, 51.868589184758676],
        [0.7365785952894749, 51.871668720628129],
        [0.7304328807971829, 51.867542458654157],
        [0.7260726971150557, 51.869862273799413],
        [0.7221789911195958, 51.86935352414406],
        [0.7193863763975865, 51.87059895997799],
        [0.7186759899882328, 51.86990131887147],
        [0.7163771569164553, 51.871242284782312],
        [0.7174169968950662, 51.872199427293701],
        [0.7220940441087131, 51.872973494352145],
        [0.7234711254571691, 51.873906589419313],
        [0.7226249205445863, 51.875892118825973],
        [0.7199789914265411, 51.875602611045238],
        [0.7181609049011153, 51.877931641783327],
        [0.7227313376443744, 51.878782796831302],
        [0.7118407927493488, 51.886534823771242],
        [0.7131727359295419, 51.886956464504195],
        [0.7124984778763657, 51.892917460754695],
        [0.7102792940787861, 51.894323903601205],
        [0.710526492494299, 51.895266994718213],
        [0.7046944402476156, 51.896860856191005],
        [0.6999304592748771, 51.899715043473357],
        [0.6994452949839576, 51.903309078641826],
        [0.7047922615613785, 51.903569356702356],
        [0.7054324568205899, 51.904810987565725],
        [0.7069864933729062, 51.90521859999248],
        [0.7108809014098249, 51.90421789600471],
        [0.7111032506413707, 51.902719893527525],
        [0.7127765411763227, 51.902211866319966],
        [0.7150656399653742, 51.904947855112944],
        [0.7205587512770347, 51.904542141149456],
        [0.7206473823290349, 51.903627275664256],
        [0.7225765094729441, 51.903576343326819],
        [0.7234245465339839, 51.905577496598227],
        [0.7252897132427153, 51.905141291041176],
        [0.7261994176949234, 51.905829778677813],
        [0.728984148751625, 51.908042298996257],
        [0.7272276232868677, 51.909120860333147],
        [0.7239081560812928, 51.908402772001672],
        [0.7221971950287652, 51.910164588203763],
        [0.7241545166794056, 51.912568138210489],
        [0.7266766051095212, 51.912889219207415],
        [0.7300868576170492, 51.915839950420313],
        [0.7314399416831153, 51.918843765064643],
        [0.7304146228712687, 51.923300341999415],
        [0.7348171759194327, 51.924395980527123],
        [0.7367345790499085, 51.929372327235392],
        [0.7401116715484778, 51.931627471432755],
        [0.7414371585583259, 51.934135389908612],
        [0.7402427529620085, 51.939983647309695],
        [0.7468892031206081, 51.945359518229168],
        [0.7457459066813843, 51.945820577223131],
        [0.7457544001808446, 51.948341186938237],
        [0.748512605237742, 51.95165375782959],
        [0.7476538413208421, 51.952128871812192],
        [0.7494589193370287, 51.95467856309741],
        [0.7560169603032982, 51.953173463018118],
        [0.7640090913883814, 51.954308915476027],
        [0.7676719182594143, 51.957627677225034],
        [0.7684765516640424, 51.961896743826742],
        [0.7707201678573241, 51.962962703665404],
        [0.7715592912263345, 51.962429427768882],
        [0.7698261141543979, 51.961873980096321],
        [0.7731218629313701, 51.960150590730585],
        [0.777543250267735, 51.959873644118453],
        [0.7777568980092631, 51.960903729101553],
        [0.7815722641214477, 51.963463031576396],
        [0.7822570255697803, 51.96506923465428],
        [0.7814372650444301, 51.966501459037374],
        [0.7827553041175144, 51.967635830701333],
        [0.7849411058633274, 51.967548151839637],
        [0.7863160394352479, 51.966476880415897],
        [0.7856642375992787, 51.964020052515451],
        [0.7871284715590491, 51.963122924825583],
        [0.79592688290912, 51.963697531119536],
        [0.7990426852543114, 51.963234950073819],
        [0.799702360218243, 51.962350501865544],
        [0.8079848768435093, 51.961728672059003],
        [0.810472480471509, 51.960676420681637],
        [0.8141260033004216, 51.962272662247585],
        [0.8141120231516069, 51.965720149595938],
        [0.8152489836662522, 51.967041958855184],
        [0.8183143537577163, 51.968233952671184],
        [0.8246175891284391, 51.968537895062745],
        [0.8304680923946597, 51.966324350618727],
        [0.8334363919193544, 51.966041573916918],
        [0.8401793609776586, 51.963379758615297],
        [0.8420583460609475, 51.961807312248695],
        [0.8502081057621147, 51.960754921927979],
        [0.8538525486606665, 51.9624832646006],
        [0.8582994682744791, 51.962953610878309],
        [0.8594450044351633, 51.964184861926441],
        [0.8588691756240056, 51.965499303976024],
        [0.8630620542647017, 51.968259079891737],
        [0.8706433420670929, 51.969189575570958],
        [0.87316946333476, 51.968550546731876],
        [0.8726817346869631, 51.967163071315007],
        [0.8799738014749235, 51.966444326592431],
        [0.8865341077238417, 51.968433031589214],
        [0.8896565001235252, 51.973374767545224],
        [0.8907507275921249, 51.972796593164681],
        [0.8927866974210703, 51.973387799759209],
        [0.8956609921842806, 51.972120075914461],
        [0.9002707709584801, 51.973511170734483],
        [0.9076412251465255, 51.972958761412578],
        [0.9170124699517349, 51.97395536134556],
        [0.920697337178697, 51.974815482207269],
        [0.9225334540171014, 51.976176488794813],
        [0.9251376619533519, 51.976181936856371],
        [0.9276730451925433, 51.972319111116043],
        [0.9293062490979026, 51.971439368443711],
        [0.9372320848124766, 51.972619622361584],
        [0.9395417419284178, 51.972355098504565],
        [0.939929688700245, 51.971408275536135],
        [0.9428800143570572, 51.970677998004206],
        [0.9512532373655294, 51.972701411513476],
        [0.9531016621054325, 51.974037357672522],
        [0.9531460385050447, 51.975176633535291],
        [0.955904481268701, 51.976330509856282],
        [0.9625587343401588, 51.977152478320107],
        [0.9653995650759272, 51.974566308429402],
        [0.9641328184696423, 51.973643099136545],
        [0.9648169084758077, 51.971984527855774],
        [0.9715488300120104, 51.969323484458542],
        [0.9714683306913098, 51.966985369250636],
        [0.9681935175976394, 51.964096519900572],
        [0.9709520302196226, 51.962395453939656],
        [0.9738605878256681, 51.962369645551561],
        [0.9758162727793801, 51.961256250547159],
        [0.9824472526648796, 51.962106444537675],
        [0.989052738427933, 51.961366829561499],
        [0.9924647539197212, 51.961753171249299],
        [0.9952057488625854, 51.963340968506252],
        [0.9986797612041384, 51.963954893074089],
        [1.0043642344165993, 51.962222494971535],
        [1.0054264975198994, 51.960626860846595],
        [1.004913476229258, 51.959486968207557],
        [1.0066755761323389, 51.957626118279705],
        [1.0115313821199816, 51.955057430835375],
        [1.0161611344657668, 51.95537323290926],
        [1.0186662872722925, 51.953207143012548],
        [1.023681871813193, 51.954975134310899],
        [1.0251902330403535, 51.953942548025204],
        [1.0268034535355246, 51.954056648606681],
        [1.0231166817800992, 51.948870296159562],
        [1.0227906032815763, 51.946446757849905],
        [1.0184603813531981, 51.9430161928681],
        [1.0058533966760921, 51.936704297083772],
        [1.0057497699147047, 51.935589920605615],
        [1.0016514519424211, 51.935530880991912],
        [0.9994397704457972, 51.936619776345715],
        [0.9854972960292151, 51.939724723728297],
        [0.9777550913971849, 51.940215943854291],
        [0.9714757006437361, 51.940121098191938],
        [0.9576029389705034, 51.937298621657355],
        [0.951008591671012, 51.934593452994335],
        [0.9491966477285833, 51.935006732602105],
        [0.9390586177070798, 51.926575306229516],
        [0.9378180187682631, 51.922371193910791],
        [0.9352529699040116, 51.922494588042248],
        [0.9343384332414986, 51.921051443868016],
        [0.931171943717455, 51.919712098930169],
        [0.9341155598543769, 51.916520614413066],
        [0.9310956596917678, 51.914122659724896],
        [0.9314802746023623, 51.913218207665352],
        [0.9378704954002186, 51.91304347569119],
        [0.9412906779155775, 51.911171855474713],
        [0.9479730301272816, 51.910000860386504],
        [0.9441086940999987, 51.906213292173263],
        [0.9490620950302953, 51.904786005532472],
        [0.9548518462236793, 51.904674858211209],
        [0.957112914394992, 51.90363681543748],
        [0.9487791930732716, 51.896741054643357],
        [0.9530682043731841, 51.89169678899372],
        [0.9595752332482059, 51.89221852236011],
        [0.962589629457439, 51.891396139359415],
        [0.9626088689582337, 51.890716628726508],
        [0.9592972219294136, 51.886308552927709],
        [0.9580906464813171, 51.881105466323319],
        [0.9528235984430338, 51.880298910161521],
        [0.9578936774165409, 51.877376226779468],
        [0.9601090606130391, 51.877411310945867],
        [0.9756602486838347, 51.873562467386179],
        [0.9782912399728407, 51.872150382216532],
        [0.9793333303738143, 51.868156824825171],
        [0.9739487133448829, 51.860445188458613],
        [0.9756538684955705, 51.859518851192199],
        [0.9780744185170012, 51.854032503738431],
        [0.9649803447205828, 51.851321801579104],
        [0.9693850153144878, 51.849027830721994],
        [0.9773590252939463, 51.848126412728455],
        [0.9796428478624445, 51.846647522883245],
        [0.9817013656958648, 51.837700443117981],
        [0.979099342246304, 51.828858046327689],
        [0.9865525348038112, 51.816261877943482],
        [0.9915861504869046, 51.81084725102194],
        [1.0096600117671248, 51.800733465037226],
        [1.0056294321294352, 51.800265524569475],
        [1.0091733634469533, 51.795649976851848],
        [1.0075766228521628, 51.794324685241719],
        [1.0064932132520785, 51.7889641576418],
        [1.0038651118012436, 51.787193924726537],
        [1.0040140482574633, 51.78522404593074],
        [1.0030502198168354, 51.785122772101111],
        [1.0038222968647836, 51.78369188783013],
        [1.0035067632675061, 51.782369754173303],
        [1.0029213220920861, 51.783466688837798],
        [1.0025019505982296, 51.78239274091839],
        [1.004529916275791, 51.780092412043139],
        [1.0035718051551716, 51.779071818077675],
        [0.9997782845846772, 51.779086902703078],
        [1.001069047225903, 51.77941908902659],
        [0.9999870402517435, 51.779741725551844],
        [1.0035393605466378, 51.780154616817335],
        [1.0017777015351557, 51.781094538937644],
        [1.0004730997142512, 51.78042364270695],
        [0.9994288481709888, 51.781009730594441],
        [1.0003108676483892, 51.78285074731513],
        [0.9992187040909316, 51.781688739979408],
        [0.9978550656329343, 51.782597753612912],
        [0.9980203064307285, 51.780979129644685],
        [0.9990440279301481, 51.781547497877312],
        [0.9992943667227296, 51.780469032147749],
        [0.9979522076832437, 51.780127345094137],
        [0.9967985104475289, 51.780725196165214],
        [0.9975261236819951, 51.780239848904465],
        [0.9962647006599729, 51.779125304460266],
        [0.9953079292283941, 51.779784673152477],
        [0.9924449525521001, 51.779488884938786],
        [0.9914158853428222, 51.780612349283864],
        [0.9920248226681313, 51.781093305430403],
        [0.9907527036842403, 51.780648121491453],
        [0.9914504637710325, 51.780105112156157],
        [0.9891427923418872, 51.780729567750207],
        [0.987622559912681, 51.780193528940679],
        [0.9918996623797161, 51.779684450398356],
        [0.9897415978232236, 51.778427181729889],
        [0.9925124592396825, 51.778471753508214],
        [0.9932863260472874, 51.779210224346116],
        [0.9944964106685948, 51.777581167815718],
        [0.9948925509199266, 51.775113033142524],
        [0.9938823806654262, 51.778183220910783],
        [0.9922802704818733, 51.777658323107957],
        [0.9871441480380758, 51.777978806315758],
        [0.9848018371363811, 51.776540859242026],
        [0.9864365522084133, 51.775498292442229],
        [0.9854883346318277, 51.7751905195462],
        [0.9844451144615681, 51.775332149214712],
        [0.9849217050348383, 51.777412019929855],
        [0.9786444701625727, 51.778216209709718],
        [0.9753652072652268, 51.777275806937986],
        [0.9769555569367292, 51.776590655903831],
        [0.9725717100618039, 51.775628696310882],
        [0.9717172618683178, 51.776062233171267],
        [0.9683838673069459, 51.77457977790926],
        [0.9676216899214601, 51.771273103520194],
        [0.9657556830990158, 51.77014203270928],
        [0.9612318344213569, 51.771566562926886],
        [0.9627598791504954, 51.770240113729358],
        [0.9574688518447779, 51.770265514680325],
        [0.9575098847608513, 51.771491242345014],
        [0.959618260425934, 51.771609924914884],
        [0.9585511308476394, 51.772183631486207],
        [0.9570541200574844, 51.771526999289101],
        [0.9573198884375753, 51.770071400270758],
        [0.9531989337251164, 51.770521335402414],
        [0.950850965258435, 51.769395850980359],
        [0.9504286919329926, 51.770122366935546]
      ]
    ]
  }
}
