{
  "type": "Feature",
  "properties": {
    "name": "Central London",
    "level": 1
  },
  "geometry": {
    "type": "Polygon",
    "coordinates": [
      [
        [-0.060004514144596, 51.57542312959537],
        [-0.059079360630905, 51.57406974416026],
        [-0.058864751224103, 51.57375505302839],
        [-0.058450170090097, 51.572579166397034],
        [-0.058430836401894, 51.57252489136716],
        [-0.057106084838146, 51.57161090570675],
        [-0.056770647272662, 51.57135535892958],
        [-0.056621585059439, 51.57099318923725],
        [-0.056399178169226, 51.57079436770349],
        [-0.056010289803643, 51.570608075002184],
        [-0.055869562324715, 51.57055808305374],
        [-0.054556083497544, 51.570362757549596],
        [-0.054439044357572, 51.57029876856419],
        [-0.053384250881742, 51.56874355164997],
        [-0.053293902012255, 51.56866291844391],
        [-0.050852681651857, 51.5675765594342],
        [-0.050787929436528, 51.567538614369326],
        [-0.047547516910049, 51.56523840180041],
        [-0.047483502217278, 51.56518338129728],
        [-0.04662503346388, 51.56410527432324],
        [-0.046620421646248, 51.56407821990224],
        [-0.04669322387955, 51.563793468896854],
        [-0.046705566937993, 51.563774790029065],
        [-0.047322541408171, 51.563046771378815],
        [-0.047329116928774, 51.56302799646024],
        [-0.047302487380852, 51.56277396341828],
        [-0.047294529782816, 51.56275764439556],
        [-0.047051231540916, 51.56254316936278],
        [-0.04702862553848, 51.562532002029556],
        [-0.04606418791917, 51.56231181411772],
        [-0.045726325120406, 51.5622504333035],
        [-0.045354751848483, 51.56193220219613],
        [-0.045103965969966, 51.56175806475948],
        [-0.044145450170153, 51.56173669498743],
        [-0.043735021651642, 51.5617190614879],
        [-0.042712058196392, 51.56141783619766],
        [-0.042539115947642, 51.561379880085475],
        [-0.040314523751939, 51.5617797834633],
        [-0.040191552365828, 51.561787621300184],
        [-0.038982954361123, 51.561173918377435],
        [-0.03883780642035, 51.5611607012398],
        [-0.036608076008904, 51.56151188871808],
        [-0.036416522069211, 51.56150418681238],
        [-0.036014701775048, 51.56145429709077],
        [-0.035263335452636, 51.5612798513238],
        [-0.033516366240816, 51.56063998904204],
        [-0.033307981708579, 51.560621208858336],
        [-0.032569738934565, 51.56067807467237],
        [-0.032177970016675, 51.56076322881693],
        [-0.030545840590108, 51.561306871784694],
        [-0.030486226186309, 51.561317561438315],
        [-0.029376511206714, 51.56132320815185],
        [-0.029170460780822, 51.561283776911736],
        [-0.025890887143413, 51.55992292012441],
        [-0.025534438496415, 51.55969210762074],
        [-0.024447146828962, 51.5587484682277],
        [-0.024377557913406, 51.55865647138123],
        [-0.023982505171889, 51.55761926848781],
        [-0.023968670751262, 51.5573726386808],
        [-0.023094184853066, 51.557278772207056],
        [-0.023033950869035, 51.55727056318687],
        [-0.018827502882188, 51.555339939285254],
        [-0.018471118694801, 51.55517565098683],
        [-0.01807561154336, 51.55408626188972],
        [-0.017950462358196, 51.554210943262014],
        [-0.017675825458683, 51.553726098510815],
        [-0.0175042572535, 51.55339227188093],
        [-0.017169966733888, 51.55159259897858],
        [-0.01716782641657, 51.55157547686372],
        [-0.018082364549392, 51.55157474345226],
        [-0.018995692610698, 51.55160185952865],
        [-0.018887995248013, 51.55142468526986],
        [-0.018844298254031, 51.55130164802621],
        [-0.018948721922084, 51.55065774276672],
        [-0.018941921131527, 51.550482272234085],
        [-0.017508558940061, 51.54765326631456],
        [-0.0174587914933, 51.54753731993903],
        [-0.01662082647501, 51.544319988637994],
        [-0.016527213443109, 51.543885861283705],
        [-0.016568153268177, 51.54330922778561],
        [-0.016540243834117, 51.543188254895014],
        [-0.016312288882073, 51.54282559519841],
        [-0.016092544041841, 51.54253951108322],
        [-0.016515282244431, 51.54150711332824],
        [-0.016634947841979, 51.54137514663727],
        [-0.017622622759381, 51.541014151517864],
        [-0.017751664467219, 51.540931801528565],
        [-0.017811907925499, 51.540308732041645],
        [-0.017879533658659, 51.54017948179849],
        [-0.01881042098036, 51.5394650067912],
        [-0.018916325043492, 51.539350790616716],
        [-0.019234266410493, 51.53853783161544],
        [-0.019426986351915, 51.53828389681036],
        [-0.020825259684678, 51.537563807441934],
        [-0.021089933955868, 51.537346155137804],
        [-0.021245912570162, 51.5371410569508],
        [-0.021264142547608, 51.53701996415662],
        [-0.021175012286213, 51.536681237561325],
        [-0.021170383781565, 51.53652199018082],
        [-0.020975247027598, 51.5363001776409],
        [-0.020867806054038, 51.536217431416645],
        [-0.020439476553834, 51.53608610581818],
        [-0.02014242446641, 51.53598667005496],
        [-0.019555552305273, 51.53545519142946],
        [-0.019346255818156, 51.53519446873716],
        [-0.019003331979282, 51.53422556826387],
        [-0.018963231057874, 51.53411967735632],
        [-0.018125978195592, 51.53347784942374],
        [-0.017987915554845, 51.53327048486112],
        [-0.018237278881748, 51.53260834456328],
        [-0.018232504545629, 51.5324526914887],
        [-0.017452218684734, 51.53149617955249],
        [-0.017443925592512, 51.53148794602086],
        [-0.016858947482436, 51.531147128720484],
        [-0.0164720722034, 51.53099220890665],
        [-0.014958878470649, 51.53051248306787],
        [-0.014578821810951, 51.53039993768116],
        [-0.014048168978809, 51.53000427126496],
        [-0.013966140208325, 51.52993453840147],
        [-0.011178471836716, 51.5294556590094],
        [-0.010928586167533, 51.52940016378553],
        [-0.010786564297988, 51.52931772087085],
        [-0.010636221061169, 51.52919466977409],
        [-0.010353637400284, 51.52853341408983],
        [-0.010212451070343, 51.52839882730372],
        [-0.008932969296499, 51.527720652509345],
        [-0.008726452281595, 51.527596645314375],
        [-0.008368660384513, 51.52700784732501],
        [-0.00822917091787, 51.526834618491755],
        [-0.007636937707371, 51.52633266255998],
        [-0.007524538277031, 51.52619946063756],
        [-0.007505521816559, 51.5257764831886],
        [-0.007548978349238, 51.525639633883586],
        [-0.007896839222612, 51.52520040641201],
        [-0.007981013710415, 51.52495633672023],
        [-0.008111253338883, 51.52382187777918],
        [-0.008153218438442, 51.52358698302503],
        [-0.007832338557112, 51.52297902580758],
        [-0.007812802992523, 51.52283211378681],
        [-0.008673299170895, 51.52144657047748],
        [-0.008897799622895, 51.52109157500782],
        [-0.009061897258, 51.52053501765656],
        [-0.00903841930855, 51.52028012704823],
        [-0.008922835910121, 51.51988968234067],
        [-0.008849484896958, 51.51978682012208],
        [-0.006734656037933, 51.518669980916734],
        [-0.00637746406126, 51.51830060653541],
        [-0.006029543993029, 51.517818081125675],
        [-0.005900066903187, 51.517614444224314],
        [-0.005726983604515, 51.51679226987593],
        [-0.005686903620738, 51.516752919914424],
        [-0.004855499584032, 51.51658230737919],
        [-0.00468035081158, 51.5166323844737],
        [-0.003802550082127, 51.517621927983306],
        [-0.003703875554352, 51.51770298099908],
        [-0.002429317685292, 51.51797534012542],
        [-0.002360261644009, 51.5179723654307],
        [-0.000662702189804, 51.5171736675212],
        [0.000571293608907, 51.51658608706417],
        [0.00317738554308, 51.515571295170034],
        [0.003614234977636, 51.515278765217],
        [0.004112145131297, 51.514637173617835],
        [0.00408967664115, 51.51448648058519],
        [0.00235381879, 51.51154854639659],
        [0.002303974514757, 51.51143069403709],
        [0.002233285526253, 51.51119899050312],
        [0.00222244635957, 51.51101752343233],
        [0.0025026315303, 51.510636845648825],
        [0.002589411807329, 51.51061108362269],
        [0.003285401068239, 51.51054344252669],
        [0.003539207582319, 51.51054720026758],
        [0.004079998229431, 51.51071961250984],
        [0.004258130245962, 51.51090361619706],
        [0.004524065759371, 51.51147909911068],
        [0.004619878433203, 51.5119216999089],
        [0.004615098808989, 51.512797668688876],
        [0.004681560726615, 51.51309688817281],
        [0.005252811979334, 51.513896463525285],
        [0.005477856626111, 51.51413092153716],
        [0.005558960995676, 51.51417269950784],
        [0.006106450515199, 51.514332398317485],
        [0.007103883317864, 51.51426857098868],
        [0.007292227415876, 51.514192506877905],
        [0.007633701438951, 51.51376400592913],
        [0.007847504634959, 51.51357869362361],
        [0.00802900283113, 51.51298656546142],
        [0.007989587526907, 51.51271296344676],
        [0.007855076671403, 51.51230879704569],
        [0.006634375476277, 51.51093132704388],
        [0.006211437124244, 51.51058784806847],
        [0.005935367536147, 51.51007728947526],
        [0.005931459773278, 51.509988328729804],
        [0.006239701405208, 51.509722268215576],
        [0.00648243392366, 51.50963808066909],
        [0.008841904076878, 51.50918762226653],
        [0.009050107978956, 51.50910492005652],
        [0.009863260747508, 51.508327507640026],
        [0.009863919118395, 51.50821149062284],
        [0.009346006955043, 51.50728152833656],
        [0.009178411378817, 51.50697684963806],
        [0.00827869897354, 51.50614604792544],
        [0.007597973806166, 51.50551022928846],
        [0.005174199875736, 51.5064284841021],
        [0.004146198654571, 51.50671134085387],
        [0.002181836036136, 51.50673859925931],
        [0.001364524437804, 51.50666711955773],
        [-0.000918753100627, 51.5060585898357],
        [-0.001317546545664, 51.50586934662458],
        [-0.002662593934465, 51.504966016234434],
        [-0.00287506082637, 51.504819456895724],
        [-0.004034303458473, 51.50361618813984],
        [-0.004326041090081, 51.50323806491314],
        [-0.005080319521733, 51.50157286398662],
        [-0.005137096579565, 51.50146052201881],
        [-0.005178142282117, 51.500949536538315],
        [-0.005179488618952, 51.50088571138398],
        [-0.004947026876272, 51.500138061803206],
        [-0.004603275419984, 51.499002731732716],
        [-0.003658164690577, 51.49712246153543],
        [-0.00282415303147, 51.49566853010357],
        [-0.00121373535584, 51.4934891388029],
        [-0.001081648373043, 51.49331422741689],
        [-0.000676888840866, 51.492160757599635],
        [-0.000415335019702, 51.49138922024734],
        [-0.000449130044641, 51.49091318327333],
        [-0.000447145224556, 51.490662252998405],
        [-0.000580923550671, 51.489843500280976],
        [-0.000703961016969, 51.489533551322424],
        [-0.001476417062319, 51.48830662545416],
        [-0.00174555160487, 51.488015352252134],
        [-0.002175264545732, 51.487642283064595],
        [-0.002953226536017, 51.48714474981742],
        [-0.00555537131286, 51.485905780655436],
        [-0.005650494118065, 51.48587142779055],
        [-0.007464642867502, 51.48535911079484],
        [-0.007958052599209, 51.48520832356941],
        [-0.010605945434719, 51.48473260157763],
        [-0.012785469525496, 51.48452675742952],
        [-0.012887116329223, 51.48450779688727],
        [-0.015932978178642, 51.48461692898227],
        [-0.016362656008701, 51.484639486377795],
        [-0.017650286536991, 51.48477277201794],
        [-0.018031262870294, 51.48482237724344],
        [-0.018968995971936, 51.48508642232086],
        [-0.019472934528928, 51.485223530758496],
        [-0.021883948748458, 51.48609155676829],
        [-0.023018186974345, 51.48657560760689],
        [-0.024399022710369, 51.48732009368816],
        [-0.024692974410672, 51.48748421635278],
        [-0.025981682805917, 51.4883952943875],
        [-0.026598571650173, 51.48885351313701],
        [-0.027516907798646, 51.48970348463324],
        [-0.027846003061332, 51.4900552378888],
        [-0.028386957373123, 51.49080533075205],
        [-0.029006996001556, 51.49162599378056],
        [-0.029815077132195, 51.49303073899927],
        [-0.029947689447916, 51.493563534184105],
        [-0.032910879974975, 51.4929307359648],
        [-0.0332477548693, 51.4928689416006],
        [-0.033304047027207, 51.49300027930534],
        [-0.03523867920262, 51.49263343623385],
        [-0.037315037950445, 51.492219474015215],
        [-0.037917373769232, 51.49231588356087],
        [-0.037954299900741, 51.492328191868545],
        [-0.039223025921345, 51.49294202924988],
        [-0.039255865628137, 51.492948873219305],
        [-0.040370215355147, 51.49282991320052],
        [-0.040553023974252, 51.49279969522259],
        [-0.040563331996484, 51.49279447187575],
        [-0.040070366798995, 51.49216304268064],
        [-0.041055669756823, 51.49182789416771],
        [-0.040343734268685, 51.49106241425661],
        [-0.042508026044792, 51.490240664430836],
        [-0.042225838788101, 51.49003541723606],
        [-0.042740688297314, 51.49002153033876],
        [-0.044498765237576, 51.49010661650458],
        [-0.044737027071112, 51.490362383843696],
        [-0.044758114671731, 51.49044187078732],
        [-0.045521777481343, 51.49023518112789],
        [-0.045831727565576, 51.49016211083124],
        [-0.046164390445741, 51.49036639175233],
        [-0.046567348136625, 51.4903416309601],
        [-0.046566096741964, 51.49047200351071],
        [-0.046567412988907, 51.4907445026666],
        [-0.047595726963948, 51.490445986660056],
        [-0.047550009764375, 51.49036968722611],
        [-0.051151635190099, 51.48955011982267],
        [-0.051466098439691, 51.48943844133938],
        [-0.05195868867435, 51.48913548026726],
        [-0.050169544032563, 51.48836115257731],
        [-0.050108722753847, 51.48833496179612],
        [-0.050464349746748, 51.48793350802866],
        [-0.050644194079772, 51.48787085163443],
        [-0.051750260254574, 51.487807400936354],
        [-0.052119802596144, 51.48782253290256],
        [-0.05262208636851, 51.48756199555636],
        [-0.052631143898192, 51.48755225406954],
        [-0.052889820578206, 51.48763388647312],
        [-0.053977464865547, 51.48793521020366],
        [-0.053515385752084, 51.48721802110892],
        [-0.053406129434858, 51.48707772069093],
        [-0.053030505763648, 51.48686735137323],
        [-0.052994192317548, 51.486840669744794],
        [-0.052880513466593, 51.48660137627751],
        [-0.052844323165046, 51.48647038195236],
        [-0.052946418334689, 51.48610247951867],
        [-0.052949151636199, 51.48600450505912],
        [-0.053079687684274, 51.48598329164363],
        [-0.053181245411003, 51.4859660932853],
        [-0.053140162531542, 51.48584850677945],
        [-0.053560134491847, 51.48579522821386],
        [-0.053551847128743, 51.485516318612895],
        [-0.053423086379539, 51.485292962027664],
        [-0.053169099442929, 51.48516914311971],
        [-0.05309732502517, 51.48516345509382],
        [-0.053013659894568, 51.484388698175486],
        [-0.053117977840063, 51.48437424351593],
        [-0.052984704654402, 51.48358067748613],
        [-0.052982362001663, 51.48356804887686],
        [-0.052832640116064, 51.483566461922706],
        [-0.052800907629615, 51.483466116546246],
        [-0.052921491768246, 51.48340786821037],
        [-0.052978656403907, 51.48338453728796],
        [-0.052955926168032, 51.48280233536702],
        [-0.052959661996469, 51.48274844149625],
        [-0.052818693071559, 51.48274430205716],
        [-0.052811428155027, 51.482644362984644],
        [-0.052942666604377, 51.482640247470336],
        [-0.053168202837338, 51.4810307106239],
        [-0.053156651080602, 51.481031418086744],
        [-0.053489378549682, 51.48048928958749],
        [-0.053514303572875, 51.48047891218199],
        [-0.053356766819606, 51.48035669454354],
        [-0.05335883314362, 51.48030816851885],
        [-0.053413176971474, 51.4803171641201],
        [-0.05357340678008, 51.48034230573236],
        [-0.05347020545827, 51.48016163870164],
        [-0.05347811962253, 51.4800772391399],
        [-0.053947278072192, 51.47920554522823],
        [-0.054328519794642, 51.47860576727543],
        [-0.052699249892264, 51.47800858516332],
        [-0.052763032069983, 51.47383974779136],
        [-0.052756998416973, 51.4729331870585],
        [-0.051801467790713, 51.47008012676958],
        [-0.051687078404247, 51.46975718760521],
        [-0.052151296089086, 51.46933774917335],
        [-0.052281831165921, 51.4692140204238],
        [-0.050994494565012, 51.467730418406695],
        [-0.05088139597639, 51.46758015907372],
        [-0.05112823887298, 51.46746376075677],
        [-0.051326567884987, 51.467370835792345],
        [-0.051000238704401, 51.467122609123045],
        [-0.050575133169512, 51.466793603582616],
        [-0.050822240602843, 51.46667091544327],
        [-0.050888438759535, 51.46663784384685],
        [-0.04862911890358, 51.466072390386074],
        [-0.048206076819803, 51.46589808447073],
        [-0.048540155645669, 51.46562667124984],
        [-0.047330498487744, 51.465026501950724],
        [-0.047037526740479, 51.46490831413749],
        [-0.045999078740264, 51.463974656314704],
        [-0.04572036085611, 51.46352307406335],
        [-0.045346334654734, 51.4626067786661],
        [-0.045236826076481, 51.462204778169344],
        [-0.045114118293029, 51.4605957384781],
        [-0.045123242645951, 51.46028114645255],
        [-0.045303469116895, 51.45909531780207],
        [-0.045335714805843, 51.458980748993504],
        [-0.046103175810989, 51.4571221634033],
        [-0.04616035149926, 51.45696304639519],
        [-0.044995779054543, 51.45666126027722],
        [-0.044632325130362, 51.45657696201661],
        [-0.041825105453377, 51.45503731590023],
        [-0.041648633568746, 51.454990303729105],
        [-0.042445650644335, 51.453889419850455],
        [-0.04298934003796, 51.453191671179724],
        [-0.045000608135494, 51.451292699085236],
        [-0.045124222873184, 51.45122911386512],
        [-0.045196428953122, 51.45105496026551],
        [-0.04517888591253, 51.45096024433248],
        [-0.045875218419686, 51.450191287639065],
        [-0.046150745829622, 51.449873042330076],
        [-0.0487217226784, 51.45013079223871],
        [-0.049086624269047, 51.450112585472176],
        [-0.053644965103893, 51.44871805421706],
        [-0.053787802523114, 51.44870963456525],
        [-0.0565434194716, 51.4499396905926],
        [-0.057561283652492, 51.4503387507421],
        [-0.05861892246294, 51.44956311622207],
        [-0.058687481177106, 51.44950759768685],
        [-0.061383542309745, 51.4481385652157],
        [-0.061826917004531, 51.44779608134286],
        [-0.063083889534979, 51.446183785596794],
        [-0.06324468265955, 51.44585281363036],
        [-0.063639978983724, 51.44480899808819],
        [-0.063713333436943, 51.44453773130656],
        [-0.063665496201236, 51.44335530146141],
        [-0.063733590475628, 51.44286812310765],
        [-0.063870376978117, 51.44252596242192],
        [-0.06408274631224, 51.44209782077731],
        [-0.064611675183249, 51.441533720693066],
        [-0.06502616928522, 51.44115747506959],
        [-0.06428003312743, 51.44090325212579],
        [-0.064053529763112, 51.44084915228651],
        [-0.063706837534379, 51.437989143585575],
        [-0.063700718773821, 51.43792969069031],
        [-0.063457402295793, 51.437627113314846],
        [-0.063456737638827, 51.43754077241151],
        [-0.064420283090098, 51.43704140618252],
        [-0.064467172554952, 51.436987325015636],
        [-0.066144279105628, 51.434309103985164],
        [-0.066708747471561, 51.433922737044895],
        [-0.069021580253977, 51.43284576831074],
        [-0.069529130353926, 51.43268236844013],
        [-0.070392956601782, 51.4324969549891],
        [-0.070695285854395, 51.432457867666685],
        [-0.072076853707373, 51.43248150018241],
        [-0.072215929846785, 51.43245860818007],
        [-0.072861704111266, 51.4320870382292],
        [-0.073586072204488, 51.431351653071054],
        [-0.074893542555614, 51.42974905442688],
        [-0.075048385505808, 51.42917966205746],
        [-0.075093302076034, 51.42879551226288],
        [-0.074490709094639, 51.42762825352218],
        [-0.074327048790605, 51.42744930772123],
        [-0.073930389305734, 51.42620899104141],
        [-0.073935607101077, 51.426153322027524],
        [-0.074981150866329, 51.425679497986955],
        [-0.074996356371167, 51.42565996378789],
        [-0.078325135494093, 51.42058065692339],
        [-0.078335912830546, 51.420563747497255],
        [-0.078589454521496, 51.41986827197314],
        [-0.078548602385836, 51.41984781824732],
        [-0.079714625584204, 51.41968617621742],
        [-0.080092059401826, 51.4196716767314],
        [-0.081742864228782, 51.419748168478456],
        [-0.082345959730502, 51.41977152739286],
        [-0.086185309603571, 51.41927494095155],
        [-0.086425645579172, 51.419305843494975],
        [-0.088010880946324, 51.41985059501866],
        [-0.088190342221345, 51.41992726278186],
        [-0.089367367752481, 51.42081155459166],
        [-0.089584119814851, 51.420959870375654],
        [-0.091101399938751, 51.421584405841905],
        [-0.091394790374948, 51.421723175215405],
        [-0.092140653914498, 51.422221823818894],
        [-0.092307749671937, 51.42235403851557],
        [-0.093644202906111, 51.42276336954173],
        [-0.093918910365723, 51.42279841270573],
        [-0.097809890029956, 51.42258555380033],
        [-0.098108100752194, 51.42257420665285],
        [-0.105987299924616, 51.42257680528101],
        [-0.106054894578993, 51.422576998357265],
        [-0.109211983105161, 51.42313695902948],
        [-0.109373669112947, 51.42315755271205],
        [-0.112052865175329, 51.423204338564716],
        [-0.112685545060433, 51.42324420423656],
        [-0.1132950217702, 51.4227648163494],
        [-0.113822711316366, 51.422454969696005],
        [-0.114872068195858, 51.42124705234506],
        [-0.114854233030966, 51.42122608234404],
        [-0.115593953435409, 51.420656153106236],
        [-0.115715067981181, 51.42057896497564],
        [-0.117746273526553, 51.41980046639654],
        [-0.117782794609211, 51.41982173605683],
        [-0.119507053116586, 51.41898611978201],
        [-0.119846627558151, 51.41880721839233],
        [-0.120795615199652, 51.417059877302506],
        [-0.120771661382057, 51.41704780274616],
        [-0.122494289986037, 51.41519504687254],
        [-0.122480944573805, 51.41502936807867],
        [-0.122582836411453, 51.41503459746937],
        [-0.122993315171955, 51.41505466150798],
        [-0.123122690829496, 51.41491554875237],
        [-0.123405617607163, 51.4147141475647],
        [-0.123915214552342, 51.414631480626234],
        [-0.124074295382087, 51.414609746964445],
        [-0.124393814725543, 51.414006057903926],
        [-0.12445866993146, 51.41400259952438],
        [-0.124508928732976, 51.41347733310619],
        [-0.124467501465623, 51.41336516109967],
        [-0.124497901659762, 51.41336025201864],
        [-0.124936474546874, 51.41329083231478],
        [-0.125676903427693, 51.41276761335515],
        [-0.125785997992631, 51.41263177038829],
        [-0.126230387956378, 51.412912253453314],
        [-0.126259832331379, 51.41293070955463],
        [-0.12778018815804, 51.41225358057546],
        [-0.127888115798441, 51.412005308781296],
        [-0.13210129157336, 51.41229285778402],
        [-0.13271449994992, 51.41234849252849],
        [-0.133203882144428, 51.41247858920528],
        [-0.133572357745319, 51.41257618327584],
        [-0.133354186950782, 51.412883854254126],
        [-0.133577910368114, 51.41293417931026],
        [-0.133768811531125, 51.412625174406855],
        [-0.133803282283561, 51.41255558063637],
        [-0.134096115799296, 51.41101440618528],
        [-0.134099941186919, 51.41099108618939],
        [-0.13754275934957, 51.411656452777805],
        [-0.138101981272041, 51.41180202710481],
        [-0.142046325334359, 51.413117302234184],
        [-0.142582218222892, 51.41334251961407],
        [-0.144575272318396, 51.41245684153956],
        [-0.144623042552286, 51.41241353389802],
        [-0.147530585170232, 51.41273740208913],
        [-0.148090361577824, 51.41287034751525],
        [-0.147329583126519, 51.41358312963779],
        [-0.147083333676624, 51.413804951705586],
        [-0.1451849780761, 51.41490889370431],
        [-0.144347477601427, 51.41534796549527],
        [-0.144667499538376, 51.41557784815809],
        [-0.14500941030041, 51.4157999830084],
        [-0.143048747849077, 51.417125022723575],
        [-0.143260310674607, 51.41726326422496],
        [-0.138171661387448, 51.42084703539696],
        [-0.137851888833419, 51.42110633862674],
        [-0.138866464372444, 51.42381844602932],
        [-0.138922116545171, 51.42457291226462],
        [-0.1389263715447, 51.42528249837203],
        [-0.138871874287116, 51.42609276818252],
        [-0.138489371762974, 51.42831956319899],
        [-0.138437191086979, 51.42875397754257],
        [-0.138387002786431, 51.43048426064217],
        [-0.138398493692739, 51.43055548487348],
        [-0.135332054586856, 51.4302567463944],
        [-0.135264140022576, 51.43033480104717],
        [-0.136455555334025, 51.433828499443514],
        [-0.136522532002406, 51.43391499417453],
        [-0.13759893761902, 51.43380260849617],
        [-0.137857541307482, 51.43377614228384],
        [-0.139489586085684, 51.43517882862972],
        [-0.139648057136447, 51.435315333867095],
        [-0.139877342750512, 51.43625870092795],
        [-0.139972896844512, 51.43688160683802],
        [-0.139737107356054, 51.43730231631139],
        [-0.139381205892295, 51.437562848809534],
        [-0.138003154717177, 51.43826217395512],
        [-0.137815435259558, 51.438420159642995],
        [-0.137683683793288, 51.43858173203707],
        [-0.137504138619645, 51.438821679880405],
        [-0.137303312180088, 51.4396907721351],
        [-0.137259856408408, 51.43973324611438],
        [-0.137497594536002, 51.44014978468355],
        [-0.137477182614042, 51.440191725625525],
        [-0.137433202552901, 51.44021170980954],
        [-0.137371856723198, 51.44034022862564],
        [-0.137046996613959, 51.440261326671255],
        [-0.137011376378079, 51.44025266720384],
        [-0.135941823430306, 51.44178329206584],
        [-0.135903988046857, 51.4420057071316],
        [-0.137370303719857, 51.441722368097636],
        [-0.137885102703327, 51.441695475965176],
        [-0.143271173291672, 51.441799797730695],
        [-0.143620703765527, 51.44183860627207],
        [-0.145146017523952, 51.444466109374304],
        [-0.145406915870421, 51.44491716936422],
        [-0.145687936764537, 51.445830766365994],
        [-0.145696438416237, 51.44586956900256],
        [-0.144937041246083, 51.44823789346697],
        [-0.144795179005384, 51.44854229583474],
        [-0.143617226643792, 51.44930510415818],
        [-0.143360131537569, 51.4495051644185],
        [-0.142820891563818, 51.45006135751049],
        [-0.142583701209151, 51.45033816845097],
        [-0.142327893642887, 51.45096719345945],
        [-0.142322593777821, 51.450991389469564],
        [-0.14314738116311, 51.45109528176038],
        [-0.143612246914668, 51.45116649146136],
        [-0.14735990258132, 51.45223654401134],
        [-0.147729947537085, 51.452339511284855],
        [-0.147377972478021, 51.45296343025107],
        [-0.147631018549594, 51.45297012667596],
        [-0.147651083145864, 51.45297224223095],
        [-0.148333386826417, 51.45720323809177],
        [-0.14834074894107, 51.457305869728046],
        [-0.148964323670395, 51.45843709095531],
        [-0.149217177190279, 51.45887632345362],
        [-0.149390425407784, 51.45936195942042],
        [-0.149671268335893, 51.461244939969326],
        [-0.150535688088425, 51.46247437444204],
        [-0.15066051216238, 51.462698459828886],
        [-0.150991778228854, 51.46422612570946],
        [-0.151231398464975, 51.46588453570708],
        [-0.150470343120748, 51.46597774542257],
        [-0.15064317704607, 51.46740039689677],
        [-0.15061866526857, 51.467614932403535],
        [-0.143100362719464, 51.47051940065732],
        [-0.142676823234539, 51.470063963207046],
        [-0.14149566474104, 51.47067832298114],
        [-0.14178435885097, 51.470908612091016],
        [-0.140981294181846, 51.471288856955304],
        [-0.140342596099971, 51.47159256890582],
        [-0.139741249984265, 51.47136720796227],
        [-0.139316188808103, 51.471516034569675],
        [-0.139599669505931, 51.47173275748325],
        [-0.139502065392203, 51.47179595521359],
        [-0.139066242884909, 51.47189065477945],
        [-0.138746573059912, 51.47199708846513],
        [-0.138515971190197, 51.4718963078644],
        [-0.138349148274163, 51.4719620027073],
        [-0.137492509235004, 51.472595862849],
        [-0.136917994560653, 51.47309031899477],
        [-0.136275532228391, 51.47270781632337],
        [-0.13625855731567, 51.47270035244547],
        [-0.135909881425575, 51.47270560062088],
        [-0.135787127398128, 51.472714440032874],
        [-0.134747528353571, 51.473313897222624],
        [-0.13472195606462, 51.473305397095494],
        [-0.134479176187588, 51.47389144704148],
        [-0.134449112393269, 51.47392244269325],
        [-0.134706443001696, 51.47407401485598],
        [-0.135230530363986, 51.474287381696655],
        [-0.134857776004939, 51.4746708309159],
        [-0.134952873075291, 51.47470471684647],
        [-0.134243984958666, 51.47517364189429],
        [-0.134111617229288, 51.475276748557924],
        [-0.133833637367543, 51.47594856556861],
        [-0.133645963024228, 51.476242333099705],
        [-0.13198957105668, 51.478436220516016],
        [-0.131988131886511, 51.478436197588245],
        [-0.131611654813633, 51.47915589918132],
        [-0.131544363811054, 51.479251946612926],
        [-0.130188952926861, 51.48066645294168],
        [-0.129947501750717, 51.48118237259886],
        [-0.127989830008965, 51.48186154732322],
        [-0.127496434935081, 51.48202272948854],
        [-0.127279817037162, 51.482880757750515],
        [-0.127161028029127, 51.48335456713774],
        [-0.126873469059685, 51.48386974410003],
        [-0.126363659272596, 51.4844658994249],
        [-0.128035888480747, 51.48474619733935],
        [-0.12817170406149, 51.48473577585688],
        [-0.129411192433968, 51.48584185623618],
        [-0.12949121560751, 51.48589259182366],
        [-0.132791025664761, 51.48472938923094],
        [-0.132880001835005, 51.48470202983995],
        [-0.137376573303147, 51.483890473165395],
        [-0.137792899022407, 51.48385302207009],
        [-0.140077348705099, 51.483848812645455],
        [-0.140356106808235, 51.48386492414411],
        [-0.144921068586722, 51.48455681753138],
        [-0.145170571460087, 51.48458414502141],
        [-0.149843876983421, 51.48455995514555],
        [-0.150270129905674, 51.48452621339701],
        [-0.158919301898592, 51.483305357423035],
        [-0.160347828269666, 51.48309577047299],
        [-0.163101216586834, 51.482889841968415],
        [-0.163286570918481, 51.482864868595385],
        [-0.170780101802042, 51.48171405936021],
        [-0.170928097465958, 51.481686692654],
        [-0.174243093467713, 51.4805414510847],
        [-0.174948401578188, 51.48019003254202],
        [-0.175253067449253, 51.47998974476442],
        [-0.175885004661864, 51.479455530074496],
        [-0.177484677958856, 51.47780150222908],
        [-0.177815681013733, 51.47755395690166],
        [-0.179682604981549, 51.47782844993562],
        [-0.180210286943119, 51.477849230111445],
        [-0.182238662628898, 51.47728718676792],
        [-0.182424734691352, 51.4772433101492],
        [-0.183739269935833, 51.47735810056358],
        [-0.183880867493481, 51.477418745072306],
        [-0.185374744737335, 51.47860280573198],
        [-0.18563239261781, 51.47878754200864],
        [-0.186236906711804, 51.47959452922731],
        [-0.186364291058579, 51.479723293815255],
        [-0.186549937140952, 51.47987184356249],
        [-0.186729839669629, 51.47976581641993],
        [-0.187589523731852, 51.48045804097112],
        [-0.188194980374439, 51.48087925399127],
        [-0.194316660966606, 51.48636108016248],
        [-0.194494361774997, 51.48649330806213],
        [-0.195324313560276, 51.48699617389398],
        [-0.195987877304242, 51.4873723779157],
        [-0.196448165026968, 51.487205903153374],
        [-0.198222001978714, 51.48806407612344],
        [-0.198298944073425, 51.4881219108917],
        [-0.201774454214684, 51.49112838447658],
        [-0.202387033198755, 51.49166833172984],
        [-0.202308196536645, 51.491694999887386],
        [-0.201835316098095, 51.49185141288022],
        [-0.203131385795556, 51.493290289800505],
        [-0.203027895202586, 51.493321076927074],
        [-0.204865362739253, 51.49454881237909],
        [-0.204783811671373, 51.494607813516566],
        [-0.206590854145519, 51.49547535710644],
        [-0.206719227641896, 51.49554476359461],
        [-0.207388486815895, 51.49614849755865],
        [-0.208001399858427, 51.49602207854839],
        [-0.21005175062362, 51.497926518026794],
        [-0.21027006175982, 51.498127683685766],
        [-0.213062620158475, 51.499847357565635],
        [-0.214133059861848, 51.50077010066166],
        [-0.215075143986509, 51.502250209894996],
        [-0.214966513084998, 51.50230161196561],
        [-0.216342136818198, 51.503676801747524],
        [-0.21637553829778, 51.50367011576847],
        [-0.217748305058486, 51.5057484529387],
        [-0.217990725824651, 51.50614600490789],
        [-0.21718093487461, 51.50629286437317],
        [-0.216388174623612, 51.50644627196497],
        [-0.216243211557419, 51.50635774002799],
        [-0.215963408558685, 51.506401144161565],
        [-0.216056880846254, 51.50659050774462],
        [-0.216227388403705, 51.50694740284028],
        [-0.216155256119391, 51.50746606824202],
        [-0.216144544303932, 51.507518960658395],
        [-0.215397351914953, 51.50761190617835],
        [-0.215202896032838, 51.507646715445404],
        [-0.215611845054529, 51.50853959139616],
        [-0.215817065708049, 51.509114631826264],
        [-0.216091970117281, 51.50916017849408],
        [-0.216430733059083, 51.509120368306824],
        [-0.216612979236043, 51.50932456988537],
        [-0.216841767000616, 51.509444050703046],
        [-0.216994953119865, 51.51013430007059],
        [-0.217209701739335, 51.51039205004605],
        [-0.218053287292992, 51.51023041638664],
        [-0.217888647731003, 51.5097594096436],
        [-0.218844524661144, 51.50963724465441],
        [-0.219286490792476, 51.50957471386857],
        [-0.219882097194795, 51.51107919473054],
        [-0.219937084742266, 51.51118434134091],
        [-0.222402191815537, 51.515273709257045],
        [-0.222604014295082, 51.515642758845864],
        [-0.224464245749213, 51.517655556943275],
        [-0.22474741872645, 51.51797187949719],
        [-0.226722746987286, 51.519772362696706],
        [-0.228301541991191, 51.521097419606285],
        [-0.22807712005575, 51.521197442315156],
        [-0.228070910956127, 51.52135741319591],
        [-0.226820412120736, 51.52193381344855],
        [-0.226729383306412, 51.521976500131224],
        [-0.226733484078278, 51.5223533435855],
        [-0.226619861978085, 51.524795759073875],
        [-0.227195157901401, 51.524792764758864],
        [-0.22739196544869, 51.52596115298706],
        [-0.227416850496596, 51.52624838631018],
        [-0.227377666729205, 51.52770276294582],
        [-0.227412120132983, 51.527892123735384],
        [-0.227588331095542, 51.52832911862717],
        [-0.227740026095048, 51.52854363085597],
        [-0.228365673241036, 51.52921312249327],
        [-0.228727694430184, 51.52987773114076],
        [-0.22850309139132, 51.53035273446443],
        [-0.227590893351253, 51.53015641034677],
        [-0.227588011597722, 51.53015636680677],
        [-0.227680517201308, 51.52992755935383],
        [-0.22768522372153, 51.52991773883602],
        [-0.225463193299749, 51.530037917004144],
        [-0.22544656431778, 51.53016895432065],
        [-0.224600755848621, 51.53008241901378],
        [-0.224296689719288, 51.530041847212914],
        [-0.221903771933106, 51.529367141396435],
        [-0.221526610259739, 51.52927869395472],
        [-0.21871236685364, 51.52879986302549],
        [-0.218260258354501, 51.528711166172506],
        [-0.216391884341169, 51.52808298012906],
        [-0.216028870217714, 51.527928186202715],
        [-0.216088485085916, 51.52887419410396],
        [-0.215947749407408, 51.529560871646034],
        [-0.215883650986633, 51.52972535694746],
        [-0.215375943270975, 51.529878598182265],
        [-0.215314091724181, 51.52991182833024],
        [-0.215129449295226, 51.5301724964082],
        [-0.215104461972042, 51.53025844325167],
        [-0.215324772905223, 51.53107650644325],
        [-0.215360443692745, 51.53119664799955],
        [-0.215268822931184, 51.53136431120498],
        [-0.215207285603984, 51.53138945292349],
        [-0.213632574350473, 51.53169190822715],
        [-0.213267773255198, 51.5317663849149],
        [-0.21140244096448, 51.53190521814392],
        [-0.211051413294892, 51.53195921543892],
        [-0.207946864067625, 51.53277690006287],
        [-0.207648158763493, 51.532819996367074],
        [-0.203073162163375, 51.53289658353944],
        [-0.202992186171549, 51.53290253707463],
        [-0.201877939937856, 51.5325662327804],
        [-0.20168931943752, 51.532559744505676],
        [-0.201297262731076, 51.532044763312655],
        [-0.201108017737193, 51.53190787453686],
        [-0.198595165487102, 51.53066163263037],
        [-0.198298074497748, 51.530444849028],
        [-0.197975213715316, 51.530077495404846],
        [-0.197940441319659, 51.5299357802724],
        [-0.197995408774118, 51.52872624501323],
        [-0.198074730640393, 51.52861595748031],
        [-0.197950423123024, 51.52836855486225],
        [-0.19779879153845, 51.52790041798633],
        [-0.197129437587934, 51.527947684090535],
        [-0.197021449862958, 51.52794422589223],
        [-0.196846636741686, 51.527734713173984],
        [-0.19656870384523, 51.527654005016245],
        [-0.192664635563046, 51.53246151880586],
        [-0.192558519914213, 51.53262894139818],
        [-0.192374031767047, 51.5332097068681],
        [-0.19238233837041, 51.533254796964535],
        [-0.19298309791366, 51.53406797468199],
        [-0.191483479647737, 51.53628937321688],
        [-0.195442148843349, 51.53973777455819],
        [-0.196391405070743, 51.54060305370386],
        [-0.199405860993963, 51.54303684059567],
        [-0.201228955139573, 51.544603405571195],
        [-0.206336765713297, 51.549417896284425],
        [-0.206813705172661, 51.549833440759265],
        [-0.211430129001444, 51.55330392197867],
        [-0.211729924998282, 51.553530603185],
        [-0.213462362732281, 51.555149543131996],
        [-0.213501320597128, 51.555186105772584],
        [-0.210844587553254, 51.5564630064122],
        [-0.210031115481925, 51.55675364222975],
        [-0.208856320321007, 51.55573935988778],
        [-0.208845104699951, 51.555731095542036],
        [-0.205992234342426, 51.556415892382134],
        [-0.205966107122593, 51.55641998908533],
        [-0.205837383047993, 51.5554387513311],
        [-0.205815225390845, 51.55530532536909],
        [-0.199991565131794, 51.55618730550321],
        [-0.19941000141656, 51.5561927700859],
        [-0.199673634308741, 51.5569323921476],
        [-0.1996602198865, 51.55697984592986],
        [-0.199498052077558, 51.557250725878085],
        [-0.199126196502153, 51.55771711902204],
        [-0.198580301698502, 51.55809721001286],
        [-0.198533228638328, 51.55815673623655],
        [-0.198500061296427, 51.558448479307785],
        [-0.198479123530099, 51.55875929412121],
        [-0.198229591651074, 51.55894070563075],
        [-0.197984631747102, 51.559115892166396],
        [-0.197623228514659, 51.558879237132835],
        [-0.196817748355807, 51.559183393231464],
        [-0.196680231290031, 51.55923163715145],
        [-0.196932063978421, 51.55986767147775],
        [-0.196944542480035, 51.559880452559185],
        [-0.196918670119441, 51.56060753833272],
        [-0.196919578747511, 51.560621040860894],
        [-0.196649268085996, 51.56067084103952],
        [-0.196594625165934, 51.56073924252681],
        [-0.195077738812588, 51.56046323319074],
        [-0.194851962599216, 51.56048134170528],
        [-0.194568978529783, 51.56070539429124],
        [-0.194481775751607, 51.56075800677321],
        [-0.193852733253171, 51.5608679243877],
        [-0.193788777132687, 51.560843559718414],
        [-0.192980477080541, 51.561180918110644],
        [-0.192319961895785, 51.56153853257854],
        [-0.190960062400151, 51.56170551516721],
        [-0.19076636550781, 51.56182392587438],
        [-0.190371184010445, 51.56276562897524],
        [-0.190144565736692, 51.563495012856926],
        [-0.18993518783189, 51.56480736839585],
        [-0.189900317461084, 51.56495880169546],
        [-0.189311198131018, 51.56547846436618],
        [-0.189252091496264, 51.56551352179564],
        [-0.189149618708975, 51.56555060767745],
        [-0.188701216822691, 51.56557875722207],
        [-0.188384777770111, 51.565771704551025],
        [-0.188414965178662, 51.56581083783611],
        [-0.187277670298882, 51.566181744975474],
        [-0.187192855692348, 51.566210109566796],
        [-0.187016767787882, 51.566465470379256],
        [-0.186220317456405, 51.56690008352624],
        [-0.186167546889479, 51.56692084954612],
        [-0.184008106256532, 51.567413504324044],
        [-0.183811365964056, 51.5674985847671],
        [-0.18348178994636, 51.567766851685256],
        [-0.183718876740643, 51.5679728502269],
        [-0.180833771046279, 51.569436180914536],
        [-0.180974564410592, 51.56966856850636],
        [-0.178588933372557, 51.56996697930511],
        [-0.178538064885476, 51.56997608134587],
        [-0.178101293015197, 51.570253460216534],
        [-0.178078315803424, 51.57043115268923],
        [-0.176953769559033, 51.570189777049244],
        [-0.176514277084418, 51.57006604735792],
        [-0.174887838984381, 51.56942208566289],
        [-0.174406861550954, 51.56925364002925],
        [-0.173995600690081, 51.569614130622305],
        [-0.173851505394108, 51.56971709922957],
        [-0.173853497239964, 51.56991945900777],
        [-0.173730919520393, 51.56991755136318],
        [-0.173743523209863, 51.570431212979145],
        [-0.17365181885519, 51.570775093493246],
        [-0.173307565001899, 51.571263417249355],
        [-0.173295523585974, 51.57127581914811],
        [-0.171285248062191, 51.572429705410215],
        [-0.17100856611297, 51.57252790657296],
        [-0.169946937383182, 51.572767638208006],
        [-0.169913442448497, 51.572775208995715],
        [-0.167372989231225, 51.572970263427095],
        [-0.167107121644076, 51.57297870039839],
        [-0.164387240449341, 51.572504550992754],
        [-0.164300782956731, 51.57250140006008],
        [-0.160485166420505, 51.57279055410405],
        [-0.16045498967154, 51.57278738333332],
        [-0.159813561906153, 51.57259028451479],
        [-0.158862744708766, 51.57219319315124],
        [-0.151177288655173, 51.57161644278431],
        [-0.150350712265373, 51.571573741862196],
        [-0.14916270859022, 51.57108560585551],
        [-0.148067496075521, 51.57080035227514],
        [-0.144602652285655, 51.570130537084545],
        [-0.144417122127483, 51.57007994355201],
        [-0.142412312034105, 51.56927757288648],
        [-0.14241583843384, 51.569120261237174],
        [-0.140915836968554, 51.56935099167442],
        [-0.140706165745502, 51.56939712797919],
        [-0.138856869628792, 51.57033629604177],
        [-0.138677202859891, 51.570460239532224],
        [-0.135258147812411, 51.571884311988576],
        [-0.135190559786249, 51.57191381218625],
        [-0.133396077739628, 51.572883441136554],
        [-0.133112109070679, 51.57301650795443],
        [-0.131612080481113, 51.57348991556242],
        [-0.131389701255472, 51.573563709555266],
        [-0.128755296516613, 51.57393268427856],
        [-0.127496470596518, 51.57415360119334],
        [-0.125105585761681, 51.574074060140326],
        [-0.124880937965095, 51.574097447949875],
        [-0.123822878160389, 51.574629074994874],
        [-0.123775321558755, 51.57466248591211],
        [-0.119568283301556, 51.5755078785215],
        [-0.119539401741591, 51.57550831495046],
        [-0.119140318257433, 51.574897626707035],
        [-0.118890210280793, 51.574733552106125],
        [-0.119487393791215, 51.57442569030165],
        [-0.11956701517872, 51.57438470173409],
        [-0.117800067555731, 51.57418821492646],
        [-0.117585262765486, 51.574147900276145],
        [-0.115818784943952, 51.57282373753236],
        [-0.115585284469398, 51.57257269555582],
        [-0.116127823047593, 51.57219023512527],
        [-0.11574902128544, 51.57203307990117],
        [-0.115405642936191, 51.57189177952928],
        [-0.115601493005449, 51.571622453430685],
        [-0.115606005112748, 51.57161802966228],
        [-0.115199520362593, 51.57143255143899],
        [-0.1151427288555, 51.57141005733025],
        [-0.115159494007183, 51.57083031320446],
        [-0.115166036047747, 51.57067215105075],
        [-0.115045876611669, 51.57061176993794],
        [-0.115043074504098, 51.570574855852094],
        [-0.110672272957783, 51.56858826899732],
        [-0.110337264269256, 51.56842011082799],
        [-0.108815354764914, 51.5675062368026],
        [-0.108614450257112, 51.56737530554275],
        [-0.10620460830242, 51.56553884118491],
        [-0.104871463448891, 51.56463515497989],
        [-0.104391109230802, 51.56477127530067],
        [-0.104307165869755, 51.564812183779836],
        [-0.103095512764814, 51.56556685435748],
        [-0.101380521439117, 51.56666137814072],
        [-0.096353140596881, 51.57043410104834],
        [-0.096055345153289, 51.57065408147004],
        [-0.09669224562581, 51.57150521056454],
        [-0.096762113212496, 51.571594470081386],
        [-0.097453708498964, 51.572968045401545],
        [-0.097798952662713, 51.57361660434755],
        [-0.097558334641962, 51.5736765501452],
        [-0.097342082426379, 51.573740487518556],
        [-0.096568408681833, 51.57381336890269],
        [-0.096523739552849, 51.573811745074266],
        [-0.094893122867534, 51.5736018365578],
        [-0.094710384126027, 51.57358897789183],
        [-0.093724257692077, 51.57394525082864],
        [-0.093583052891917, 51.57397443052663],
        [-0.091488269627102, 51.57399343492359],
        [-0.091389713916041, 51.5740035221782],
        [-0.090092697158, 51.574373591938986],
        [-0.089981047858789, 51.574386162647976],
        [-0.08742110658804, 51.574381335749365],
        [-0.086872117331602, 51.57429235346821],
        [-0.087180148904827, 51.57451769093451],
        [-0.087231619192712, 51.57470107736406],
        [-0.085853251790712, 51.57487643601142],
        [-0.085689182839102, 51.57503742282154],
        [-0.081847284518439, 51.575453085487524],
        [-0.080876789273155, 51.57564044782911],
        [-0.077056141556103, 51.57507162339268],
        [-0.076246663569789, 51.5749315613656],
        [-0.075898608084201, 51.57534760291945],
        [-0.07578425805121, 51.57549230556767],
        [-0.075374868427613, 51.57534440950318],
        [-0.075323747111616, 51.57532468678412],
        [-0.075205146622021, 51.575330834701155],
        [-0.075175502714929, 51.57555426164012],
        [-0.074435544572054, 51.57561316242425],
        [-0.074448522167893, 51.575681718363924],
        [-0.07185258417635, 51.575604920598835],
        [-0.070933976754372, 51.575690538975415],
        [-0.067089358853419, 51.576301711192244],
        [-0.066737752354444, 51.57635706805309],
        [-0.066782901898917, 51.57661949381128],
        [-0.062715942301326, 51.577466960219425],
        [-0.061184138252449, 51.577784276148364],
        [-0.060004514144596, 51.57542312959537]
      ]
    ]
  }
}
