{
  "type": "Feature",
  "properties": {
    "name": "East London",
    "level": 1
  },
  "geometry": {
    "type": "Polygon",
    "coordinates": [
      [
        [0.232117051301471, 51.62721910742771],
        [0.23374768482996, 51.62608826401246],
        [0.233957444120617, 51.62591700532019],
        [0.237328304044936, 51.624214306325236],
        [0.237324118251631, 51.624070500697165],
        [0.237503679368814, 51.62407876856161],
        [0.237573466199999, 51.624117006689474],
        [0.23870191197442, 51.623501961600574],
        [0.239428398922265, 51.62311579919916],
        [0.249752807591421, 51.618912939849054],
        [0.25026540047677, 51.61870347164905],
        [0.252735439357644, 51.61744384980403],
        [0.252767787796724, 51.61742614245516],
        [0.254565017977184, 51.61620547241836],
        [0.255259849749416, 51.61562287387681],
        [0.257059684131569, 51.61457387824611],
        [0.257665603141488, 51.61418002669479],
        [0.258111752703942, 51.613186722976764],
        [0.258276374049371, 51.61298211490409],
        [0.261006595088511, 51.61066154211523],
        [0.261607797231363, 51.61014545691141],
        [0.262246712633998, 51.60966191522497],
        [0.262810395238156, 51.60929223170109],
        [0.263885825455621, 51.60899001358413],
        [0.264077963620154, 51.608874795095176],
        [0.264535555518232, 51.60831829888114],
        [0.264237506578091, 51.60810462297593],
        [0.264231153725418, 51.60809305477817],
        [0.264298945492219, 51.607830053498944],
        [0.263089135672843, 51.60731741282453],
        [0.261680960294389, 51.60746236634593],
        [0.261650436352909, 51.60745845814686],
        [0.259886780879869, 51.606872822996735],
        [0.25965610062598, 51.60679363099061],
        [0.258293639951374, 51.606550070065346],
        [0.25805311538863, 51.60650523735275],
        [0.258210242510618, 51.60603368432772],
        [0.258218792415815, 51.60574035153657],
        [0.258052645730363, 51.605011527087534],
        [0.257972492533116, 51.60490965104463],
        [0.25717284624845, 51.60494751621887],
        [0.257129756861108, 51.60492316488642],
        [0.257151900512569, 51.60475816907077],
        [0.257225879061089, 51.604619154926226],
        [0.257112321212987, 51.6045134243718],
        [0.256952740183773, 51.60423681459907],
        [0.256557429081724, 51.60406995446092],
        [0.256482589381299, 51.6039877596117],
        [0.256532305489772, 51.60370892329552],
        [0.256599320696315, 51.603604216412286],
        [0.256314983078436, 51.603345292592266],
        [0.256245658695429, 51.60331604961785],
        [0.255933603642403, 51.603342732462174],
        [0.255901061167309, 51.6033271708313],
        [0.255866317621156, 51.60315067873829],
        [0.25589107532863, 51.6030674682136],
        [0.255701450985067, 51.60305852318636],
        [0.255489455104475, 51.60306439645612],
        [0.255268376830243, 51.602741304059904],
        [0.255139073655842, 51.60266734934315],
        [0.254838527780617, 51.60275136263577],
        [0.254728790077586, 51.60275167252926],
        [0.254614404793, 51.6026873227974],
        [0.254581570056625, 51.60263669414635],
        [0.254639141226376, 51.602428751579104],
        [0.254596830668611, 51.60239089503364],
        [0.25434639936613, 51.602437073400765],
        [0.254187557668068, 51.60237897299582],
        [0.254167768579324, 51.602096077058285],
        [0.254166986221231, 51.60205112763142],
        [0.253890344368243, 51.601917950688375],
        [0.253880238545154, 51.60185969099268],
        [0.25410159495902, 51.60166389078913],
        [0.253982707205968, 51.601596029784055],
        [0.254405806765641, 51.60147908851495],
        [0.254728197767701, 51.601486384047156],
        [0.254790013972301, 51.60133501501884],
        [0.255267779874276, 51.60124309962046],
        [0.257887353555062, 51.60127276386724],
        [0.257958953437682, 51.60126059475425],
        [0.258204028640383, 51.60101936577515],
        [0.258225004051455, 51.60091824168023],
        [0.261889581279982, 51.60012463600401],
        [0.262249839272977, 51.60002236676288],
        [0.264494017416516, 51.59976415178062],
        [0.265303675238048, 51.59969726538232],
        [0.269076418689216, 51.59954254015763],
        [0.269851908276727, 51.599572507159436],
        [0.270238393282058, 51.59852005378942],
        [0.270296686150041, 51.598357053492336],
        [0.270360311058768, 51.59769304439668],
        [0.270312234833945, 51.59730817828135],
        [0.270175114762601, 51.59681711976078],
        [0.270109454673561, 51.59660076132658],
        [0.269306089558938, 51.59537347846899],
        [0.269308285602861, 51.595272715283016],
        [0.269629041006097, 51.594466141725285],
        [0.269711262037986, 51.59417497927838],
        [0.269902307318856, 51.59224410005937],
        [0.270104238790958, 51.59151626303515],
        [0.270255048382226, 51.59109517419871],
        [0.27110198023119, 51.589984345463925],
        [0.271319342762706, 51.58974002694828],
        [0.271254140227757, 51.58904073967395],
        [0.271260724249727, 51.589028022125476],
        [0.272108641618855, 51.58770673158131],
        [0.272200654542837, 51.58761232257765],
        [0.273564033244808, 51.586987882789145],
        [0.273813160989916, 51.58685985204496],
        [0.275085808910267, 51.58537382997751],
        [0.275347078213933, 51.58508458674855],
        [0.279587661092795, 51.58112181790456],
        [0.279857119633971, 51.580881866210156],
        [0.28175404129747, 51.57884136018503],
        [0.282001698547645, 51.57882934919431],
        [0.285048861319091, 51.5741440600879],
        [0.285065306774708, 51.5741266531408],
        [0.286093665245127, 51.5737684838188],
        [0.286135297001581, 51.57376407540519],
        [0.286268836615211, 51.573578016533304],
        [0.286347187075209, 51.57352882692652],
        [0.286625364665053, 51.573579161983936],
        [0.286724842787868, 51.573462113032534],
        [0.287138001019779, 51.57257904293395],
        [0.287137909220019, 51.572548468604886],
        [0.287122850716902, 51.57236350685433],
        [0.287110403664847, 51.57214432087809],
        [0.286668165759805, 51.571527929381546],
        [0.286677085396112, 51.57150437379077],
        [0.288366054662547, 51.56855501833773],
        [0.288598795029267, 51.568103527039476],
        [0.29017360784014, 51.56449538443385],
        [0.290261786411904, 51.5642976157855],
        [0.303490035926192, 51.565232890273286],
        [0.304547822303817, 51.56529215325887],
        [0.30452426262927, 51.56539693499112],
        [0.306195633507983, 51.5655196694837],
        [0.309969198363266, 51.565609998609],
        [0.313006989207346, 51.56581633671752],
        [0.313431937965985, 51.56418201879342],
        [0.313474654565976, 51.563914982863466],
        [0.313685317513202, 51.563744457262295],
        [0.3141153466334, 51.56272246105117],
        [0.314148041045758, 51.56242864339944],
        [0.31421756534662, 51.56232025485394],
        [0.314108565050123, 51.56219110688667],
        [0.31411408414164, 51.5621577238101],
        [0.314384978033351, 51.56152556557777],
        [0.314460838609885, 51.56125787522529],
        [0.314735406028808, 51.55950511179227],
        [0.314747223975472, 51.559254872288655],
        [0.315001263805781, 51.55905830758261],
        [0.31501593169599, 51.55903463622942],
        [0.315160864560233, 51.557996677669266],
        [0.315221641149723, 51.55788666243129],
        [0.315382210458122, 51.55775309419803],
        [0.315605456736724, 51.55766055577787],
        [0.316164018921009, 51.55769359430629],
        [0.316472265436879, 51.557683910430015],
        [0.318174439734712, 51.556913754543366],
        [0.318407058263545, 51.55677875819509],
        [0.318802704859897, 51.55522593317894],
        [0.31886865782179, 51.55518955655106],
        [0.321976182859874, 51.5542287800479],
        [0.32202506692929, 51.554197236011106],
        [0.322061774172905, 51.553643436782025],
        [0.322055273004192, 51.55328923927507],
        [0.322225613754394, 51.552810134695115],
        [0.322277469880471, 51.5527803303059],
        [0.32481425406202, 51.553050232995005],
        [0.325129055829427, 51.55305658368153],
        [0.325977938464705, 51.55216472951331],
        [0.326248424001451, 51.55192464679354],
        [0.3275166012434, 51.55116565591907],
        [0.327787631019508, 51.55099300667816],
        [0.327939753991448, 51.54863290560616],
        [0.327950448132248, 51.54855984953023],
        [0.328605410137738, 51.547884059718264],
        [0.328628300169158, 51.54785212955391],
        [0.329100209311393, 51.546953345397576],
        [0.329439396971098, 51.54656260558369],
        [0.329069931789942, 51.54613467794688],
        [0.328871477227401, 51.54583555198432],
        [0.330679405203249, 51.545933638106085],
        [0.331416838607219, 51.54594146523754],
        [0.333688334745901, 51.54275321170452],
        [0.333874011363093, 51.54249231504733],
        [0.333464434633497, 51.541647020778576],
        [0.333304781210689, 51.54126079650921],
        [0.333734652944255, 51.541206379230104],
        [0.333793967856098, 51.54118181698304],
        [0.334015564556285, 51.5406648016505],
        [0.333995717332016, 51.540502421774434],
        [0.332756955161253, 51.54027795791521],
        [0.331400912296981, 51.540044121366954],
        [0.331490010707936, 51.54071503274381],
        [0.331561903330825, 51.540795440651145],
        [0.322412985589057, 51.54051650912427],
        [0.321505087192633, 51.54050120846611],
        [0.316889052259896, 51.54008167755646],
        [0.316861574213209, 51.539994987660855],
        [0.311447777897274, 51.53971060667097],
        [0.310498676664148, 51.53965016831467],
        [0.310481807719782, 51.53934563614909],
        [0.310011795338177, 51.5392910434271],
        [0.301048585193852, 51.538796352263454],
        [0.300694612973583, 51.53875473383028],
        [0.300763951710095, 51.538499769961284],
        [0.30083055150022, 51.53813334606822],
        [0.297485035513499, 51.5377061090943],
        [0.297177039584493, 51.53766088158476],
        [0.297699194308902, 51.53563081725607],
        [0.297726663514865, 51.53531732134456],
        [0.290411563683143, 51.53465912416094],
        [0.290496493706409, 51.53448390007698],
        [0.288317389826039, 51.53456420716674],
        [0.288047149727815, 51.534552392708115],
        [0.282469080477626, 51.53399379764381],
        [0.281733913901098, 51.533940654759725],
        [0.27739735770278, 51.533148122162494],
        [0.276312109580927, 51.53292727826278],
        [0.276196275459399, 51.53317773351248],
        [0.274931511823199, 51.53294237467138],
        [0.274642915471753, 51.5329380798522],
        [0.272105150618573, 51.53319860627975],
        [0.270678125318284, 51.53309224706949],
        [0.265985214300482, 51.53220277322778],
        [0.265319281350746, 51.532149089344806],
        [0.265434348183268, 51.52862970436978],
        [0.265478145842154, 51.52782758176474],
        [0.265356772826633, 51.525005223269446],
        [0.265358596095979, 51.524954827209996],
        [0.265537097102185, 51.52465910633425],
        [0.265642753000779, 51.524609402290935],
        [0.266344721746231, 51.52454907532049],
        [0.266723478070466, 51.52451207837127],
        [0.266731241101452, 51.52382666094776],
        [0.26667682260132, 51.52331151392246],
        [0.26661009583224, 51.522954881735956],
        [0.265660830836232, 51.52294084983353],
        [0.264981255869055, 51.52290001868684],
        [0.264297396224984, 51.52175582410052],
        [0.264228278732, 51.52164114875882],
        [0.264007441173397, 51.52108334918315],
        [0.263966560803859, 51.52084042780385],
        [0.263753064182144, 51.51819250991455],
        [0.263654851701122, 51.51786885863569],
        [0.261758728897606, 51.51794321466075],
        [0.261639782791324, 51.51795719959663],
        [0.260357099780864, 51.51836862942242],
        [0.260275015642141, 51.518370211540756],
        [0.259754771522523, 51.518256134057594],
        [0.259525423328957, 51.51813644976568],
        [0.259484737200399, 51.51783866581342],
        [0.259460673440474, 51.51781844553633],
        [0.259019499849725, 51.517787375621566],
        [0.258900081465516, 51.51776269693857],
        [0.257672433065377, 51.51785918125117],
        [0.257479553985536, 51.517864692974534],
        [0.255782142848967, 51.51767253111578],
        [0.255698442057269, 51.51767054393219],
        [0.254047684188276, 51.517897432804276],
        [0.253806350624819, 51.517884984505415],
        [0.253391447238159, 51.52042988251058],
        [0.253355168118754, 51.52068777929794],
        [0.252737215160522, 51.52209896127357],
        [0.252629719209116, 51.52237441310937],
        [0.252375463500223, 51.52452502428267],
        [0.25230487535932, 51.52478897524004],
        [0.251639144828726, 51.52570105744054],
        [0.251508234641686, 51.52596976313679],
        [0.251425484338191, 51.52718540481543],
        [0.251398143027856, 51.52750787853621],
        [0.250889736464717, 51.52862916990034],
        [0.250824053742277, 51.528817484508906],
        [0.249290283877746, 51.52873539711989],
        [0.248936854332378, 51.52867292892513],
        [0.248935024590855, 51.52793374105608],
        [0.248854342439541, 51.5274082994943],
        [0.248263007748877, 51.527550035101896],
        [0.246395823902983, 51.52661007602742],
        [0.246296780636037, 51.52653103627434],
        [0.246217605051858, 51.52632841211217],
        [0.246230327879109, 51.52629399511489],
        [0.246798169223934, 51.52561673813065],
        [0.246976606644295, 51.52543435920501],
        [0.247041765596577, 51.52503022521741],
        [0.246665876350311, 51.52427662040009],
        [0.246318908293043, 51.52402247024268],
        [0.246201937293645, 51.5240184155556],
        [0.245982765185127, 51.52369526861303],
        [0.245809556778856, 51.52351512879624],
        [0.244741425358539, 51.52383954104984],
        [0.24282813299233, 51.52439144442755],
        [0.242709828995995, 51.52403758494908],
        [0.242319826077122, 51.52358190408662],
        [0.241071417127559, 51.522672295990624],
        [0.241010455180835, 51.52260511429922],
        [0.240697353470087, 51.5220121646729],
        [0.240667166584167, 51.521955186377006],
        [0.240645154727732, 51.521418726198654],
        [0.240696717378714, 51.521206406058184],
        [0.243846401787846, 51.52064797328953],
        [0.244271584726126, 51.52047076923437],
        [0.244495276032251, 51.52030011802233],
        [0.244637761162632, 51.52014900666937],
        [0.244411746329807, 51.520008545375696],
        [0.244200549640465, 51.51975898497325],
        [0.244504274913248, 51.519515757516224],
        [0.244925588280236, 51.51902566910211],
        [0.244938776103075, 51.5188248730452],
        [0.244912571065815, 51.51879030203668],
        [0.244194349893726, 51.518430839663246],
        [0.24390862969012, 51.51833648491413],
        [0.240323007206667, 51.51931962443773],
        [0.240167400790848, 51.51935047520105],
        [0.237882216805394, 51.51937072317292],
        [0.237148122312313, 51.519333469398234],
        [0.239364148414519, 51.51602312543158],
        [0.239510562327383, 51.51568758906319],
        [0.240958286709497, 51.51396745262827],
        [0.241114427371423, 51.51374234190564],
        [0.240894259373914, 51.51360266155416],
        [0.240799572461494, 51.51343540274018],
        [0.239965745726706, 51.51324359495362],
        [0.239946277039784, 51.513052416200786],
        [0.240140943491886, 51.51255498261431],
        [0.240219034608706, 51.51226661447225],
        [0.240344117836594, 51.5109386581325],
        [0.240278882165759, 51.51075464883135],
        [0.240443730700558, 51.51076588815534],
        [0.240540814741255, 51.51051222947726],
        [0.24054792578698, 51.510510295009695],
        [0.241183529816175, 51.51054041597935],
        [0.241474248977951, 51.5106202927563],
        [0.241413886528772, 51.510418204913485],
        [0.241897677828762, 51.50911756261024],
        [0.24201394157442, 51.50860903409229],
        [0.242002472005246, 51.508375435482016],
        [0.241989414529944, 51.50810949243518],
        [0.241847904475807, 51.50807442736535],
        [0.241891254465788, 51.50795938752044],
        [0.240502556101188, 51.507764701693944],
        [0.239970815301172, 51.50770651362508],
        [0.239868006635993, 51.50731458430004],
        [0.239818644183349, 51.50727775660877],
        [0.234832378064992, 51.50695202173978],
        [0.234602756271795, 51.50694200899803],
        [0.23373923480235, 51.5067588172995],
        [0.233413516484092, 51.506669695883815],
        [0.229458584278645, 51.506804310406686],
        [0.228928234134172, 51.506803601027485],
        [0.226617966326583, 51.506592091689576],
        [0.226604658253461, 51.506585150007126],
        [0.226514594487357, 51.50651131912703],
        [0.22636797700335, 51.50592776080476],
        [0.226034461192601, 51.50579650005778],
        [0.226003521051072, 51.50575302181888],
        [0.226572531743271, 51.504743997984036],
        [0.226586005454356, 51.50448834150276],
        [0.227439184387792, 51.50336779954159],
        [0.227521693183508, 51.50322774023369],
        [0.227782144267152, 51.502481770332615],
        [0.228044006749977, 51.50203074282563],
        [0.229546659531719, 51.49993019603514],
        [0.229936925877986, 51.499365209190984],
        [0.228252477848204, 51.49897905782451],
        [0.227879228299879, 51.49885934917829],
        [0.225878271331387, 51.49780200533596],
        [0.22569836733699, 51.49771728913234],
        [0.22433213182908, 51.49732504121335],
        [0.224269579490876, 51.497312738361074],
        [0.223595287618704, 51.497845322210864],
        [0.223578065369846, 51.49790590181187],
        [0.221756912947402, 51.497817219929814],
        [0.221625441165449, 51.49780981874984],
        [0.220087510980267, 51.49753048894968],
        [0.21963988025924, 51.49745083239658],
        [0.219569515838665, 51.49730737741901],
        [0.219507967641151, 51.497286060045276],
        [0.218816201033789, 51.497193035461976],
        [0.218351912839883, 51.49709660257692],
        [0.217097990007057, 51.496612216105646],
        [0.216997143259922, 51.49658264752822],
        [0.216266788032247, 51.49652541022511],
        [0.215926475378849, 51.496459898402115],
        [0.215578606389395, 51.49662474855936],
        [0.215539785319173, 51.4966263814053],
        [0.214993988414086, 51.49648291334566],
        [0.214932051339432, 51.496453507256746],
        [0.21424800520145, 51.49607343411838],
        [0.21412818776174, 51.496038825556404],
        [0.213672657439731, 51.495319895060064],
        [0.213515138835607, 51.49501261123388],
        [0.213175662133151, 51.495023516013084],
        [0.213045900023627, 51.49502146878144],
        [0.212831105553771, 51.494423892719894],
        [0.212821819878282, 51.49438090168615],
        [0.212817181853516, 51.493333307575035],
        [0.212809727415198, 51.49329837565323],
        [0.212250101561053, 51.49251125897895],
        [0.21212432781931, 51.492412910675725],
        [0.211961925319219, 51.49126037706233],
        [0.211903903818459, 51.491043841603926],
        [0.211475503965929, 51.490913430848764],
        [0.211411567942541, 51.490902046600944],
        [0.211352784087314, 51.490550630592125],
        [0.211304384595019, 51.49047330452078],
        [0.210947475463998, 51.49033165124176],
        [0.210525402116496, 51.49024248545801],
        [0.21034429269388, 51.487302497927466],
        [0.210307031300764, 51.4858769135084],
        [0.212560837176802, 51.48577864557453],
        [0.213580857558653, 51.48566406595313],
        [0.216095745186034, 51.485187591127996],
        [0.21630393231511, 51.48514408663277],
        [0.222103968077863, 51.48294342775054],
        [0.223675838820565, 51.48227242329414],
        [0.220837117123428, 51.48043680144211],
        [0.220127756892581, 51.480005982473536],
        [0.21871305370603, 51.48023510697534],
        [0.218349444945346, 51.480310334543084],
        [0.217300132556934, 51.48005589840817],
        [0.216891138615737, 51.47990805412755],
        [0.216362309797627, 51.47913026613697],
        [0.216353677808048, 51.47910075242707],
        [0.216426601362402, 51.47861465107104],
        [0.216418758619963, 51.47848260223687],
        [0.216515601435668, 51.47840073360285],
        [0.216609520355099, 51.47837737467535],
        [0.216823142633558, 51.47785264064352],
        [0.216872027429629, 51.47761340169758],
        [0.216539294138472, 51.47689935364463],
        [0.216442287872224, 51.47679956677403],
        [0.216226954539848, 51.47663546856616],
        [0.216026922227089, 51.476549319862215],
        [0.213072795397904, 51.47591536057758],
        [0.21285035681236, 51.4758718965737],
        [0.211541056224936, 51.47509262919258],
        [0.211507100083489, 51.47504560686611],
        [0.211433643391643, 51.474717848808666],
        [0.211479289544044, 51.47444090267169],
        [0.211869033556597, 51.47338856316494],
        [0.211849687078325, 51.473316084877574],
        [0.211074946378721, 51.47266072122239],
        [0.210525361146513, 51.47222413354543],
        [0.209629200811129, 51.471796774275106],
        [0.20928366170275, 51.47158925336958],
        [0.208785842422873, 51.47100149897944],
        [0.208776479173063, 51.470956710398475],
        [0.20881749967349, 51.47076258799078],
        [0.208857793784552, 51.470702474957356],
        [0.209798134677223, 51.46975037995598],
        [0.209950170199572, 51.46961891395352],
        [0.210124391554188, 51.469499619674544],
        [0.210976135356319, 51.46912833461064],
        [0.211356544259437, 51.46874705014599],
        [0.211444617916222, 51.468364984497775],
        [0.21148770459444, 51.46797567374474],
        [0.211371201654435, 51.4675911722102],
        [0.21042022193319, 51.46584917629574],
        [0.210354307682895, 51.465647177181914],
        [0.210560944831912, 51.463100956397035],
        [0.210585683527569, 51.46248087125284],
        [0.210078172315973, 51.46219726877352],
        [0.209865573973212, 51.462117641911284],
        [0.207845395491578, 51.46157386170827],
        [0.207604174582825, 51.46146779085452],
        [0.205937613073118, 51.460464070119784],
        [0.205545779561272, 51.46018996218022],
        [0.204759009814677, 51.459995226059114],
        [0.204630847406163, 51.45993468553558],
        [0.203707290564107, 51.45917145897233],
        [0.203415673282773, 51.4589152445131],
        [0.202939158838716, 51.45834684978233],
        [0.202829018785121, 51.45824190286881],
        [0.203220133207627, 51.457724648428204],
        [0.203208581893053, 51.45760435921344],
        [0.202580972192168, 51.45622943199647],
        [0.202546963975485, 51.45615093254166],
        [0.203777893753388, 51.45603516798418],
        [0.203808461260739, 51.455982433797026],
        [0.203867683949324, 51.45559821793262],
        [0.203856102038024, 51.45556696014812],
        [0.203257819925311, 51.45498017212612],
        [0.203235738991598, 51.45494011861696],
        [0.20337148865168, 51.45456075958822],
        [0.203373117794064, 51.45438536518043],
        [0.202963610319818, 51.454250972778425],
        [0.202930933622338, 51.45423000368399],
        [0.202776145696691, 51.453974813202834],
        [0.202693492438055, 51.45393230070673],
        [0.202473571101044, 51.453878878039106],
        [0.202427422172334, 51.45387704728425],
        [0.202012209411974, 51.45410247933504],
        [0.202000791043529, 51.45410449244787],
        [0.201825950590471, 51.45388115300414],
        [0.201359542087944, 51.45385034425809],
        [0.201049697927529, 51.4536331363014],
        [0.20099389516096, 51.45358022609509],
        [0.201142013784901, 51.45336790745404],
        [0.201161954159797, 51.45330368259664],
        [0.200692440396173, 51.45320817985912],
        [0.200671831910738, 51.453198674474514],
        [0.20064532703555, 51.453006721633656],
        [0.200699102207986, 51.45289779583988],
        [0.200389194693053, 51.452858649013066],
        [0.200300867565154, 51.45284771690865],
        [0.200255799292524, 51.45265881035747],
        [0.200206713706603, 51.452595881375956],
        [0.199742126281591, 51.45272240980707],
        [0.199694238165293, 51.452714315515166],
        [0.199487962626682, 51.452465482849654],
        [0.199431804793416, 51.4524350611048],
        [0.199087042603302, 51.45238937048109],
        [0.199039902091007, 51.452366873079725],
        [0.199080979911955, 51.45220332888707],
        [0.19910950783754, 51.452138043965725],
        [0.198592943204332, 51.45205150937477],
        [0.198391530465438, 51.452053488612556],
        [0.197988412671048, 51.45184161927587],
        [0.197937520213124, 51.45183088270851],
        [0.19767115422815, 51.45197886616434],
        [0.197611921507664, 51.45200425787262],
        [0.197512809814496, 51.45185863073151],
        [0.197430049879137, 51.45178374173115],
        [0.19607176454077, 51.45179301113008],
        [0.195959036857282, 51.4517834322396],
        [0.195877769154471, 51.45194952681523],
        [0.195897095430804, 51.45199233118484],
        [0.196146003406994, 51.45217022580226],
        [0.196151525057586, 51.45219530276682],
        [0.195896424849721, 51.452368251461145],
        [0.195863435751344, 51.452370668091824],
        [0.195549633299298, 51.45204020804997],
        [0.195482232848858, 51.452015390826645],
        [0.195063913910926, 51.452146429802575],
        [0.195027488481363, 51.452137219643994],
        [0.194949344326206, 51.45182842430788],
        [0.194921375024041, 51.451815458561185],
        [0.194634079552172, 51.45188738642033],
        [0.194605146290988, 51.451884330954364],
        [0.194225185014753, 51.45167471311643],
        [0.194154117964925, 51.45166345328466],
        [0.193865570742555, 51.45194943621507],
        [0.193819424003904, 51.451947602042566],
        [0.193456351251972, 51.45169989501193],
        [0.192992957929695, 51.451701371518205],
        [0.191720528251475, 51.45067838592571],
        [0.190985182388327, 51.44878741563113],
        [0.188824000873356, 51.449129959704436],
        [0.188797558850012, 51.449118762592384],
        [0.188407953351767, 51.44861613436958],
        [0.187646444143164, 51.44870319341483],
        [0.187617384460449, 51.44869744069735],
        [0.187374296231182, 51.44830898338398],
        [0.187350707168737, 51.44820690339416],
        [0.187280935199219, 51.447289120681916],
        [0.187440596968553, 51.446895844691625],
        [0.187438128377613, 51.446874307555554],
        [0.18508832813166, 51.44525443327478],
        [0.184250928620423, 51.444654920831155],
        [0.183662312614788, 51.444805280426436],
        [0.183629156735534, 51.44480409955338],
        [0.182750092793285, 51.4444166882719],
        [0.182636400234252, 51.44438643075946],
        [0.181418285383169, 51.44422205432355],
        [0.181058042642022, 51.44418199503871],
        [0.180976339795447, 51.443675411005145],
        [0.180861141230758, 51.44352287502765],
        [0.179856464469274, 51.44324659482264],
        [0.179549549146583, 51.44311740773488],
        [0.179520793481215, 51.443117942479404],
        [0.179199581218514, 51.44344406599972],
        [0.179170868119485, 51.443445499165065],
        [0.178888112824507, 51.443340142232316],
        [0.178724526725691, 51.443470883824354],
        [0.178698903026617, 51.44347675594233],
        [0.17626163012839, 51.44212542498719],
        [0.175991145919358, 51.442005444494654],
        [0.173907082988423, 51.4429371227376],
        [0.173779560063028, 51.44297905713273],
        [0.17276095046509, 51.443044708397295],
        [0.172828016265907, 51.443244908038814],
        [0.172753098294526, 51.44318244668863],
        [0.172498840508812, 51.44291916884257],
        [0.172559507434108, 51.442772357883214],
        [0.172550027815329, 51.44275454762522],
        [0.171744242502498, 51.44211928827525],
        [0.171355293939727, 51.44180724366399],
        [0.170770536048537, 51.44106806048868],
        [0.170524001502184, 51.44081542696855],
        [0.169732002252308, 51.43961963549217],
        [0.169808149079207, 51.43934393958575],
        [0.169778065078559, 51.43928604211281],
        [0.169402581820474, 51.439044786466845],
        [0.169146067779874, 51.43873298108606],
        [0.168679356291689, 51.4377200144532],
        [0.168688118528332, 51.437479739467285],
        [0.168260959443283, 51.437149506547605],
        [0.168177763448958, 51.43706381369754],
        [0.16691551341753, 51.435414462433954],
        [0.166663801321217, 51.435051302864366],
        [0.166552854080064, 51.434561437308986],
        [0.166504352091917, 51.43405333058512],
        [0.166747754339565, 51.43372418370654],
        [0.166664105994287, 51.43253415851895],
        [0.166837394567102, 51.43233490737841],
        [0.166819026456539, 51.43194674959381],
        [0.16620525619023, 51.43153272744239],
        [0.166069476996864, 51.431430019065424],
        [0.16664932378134, 51.4313095858405],
        [0.166667372589419, 51.4312957626612],
        [0.166352592994889, 51.43054167369721],
        [0.166183505206473, 51.43028220373004],
        [0.165595625903185, 51.43035422100035],
        [0.16556370575386, 51.4303485157509],
        [0.164352666139402, 51.428619951709905],
        [0.164302097932455, 51.42858491363784],
        [0.163876408418378, 51.42867910734622],
        [0.163897005107601, 51.42893232951903],
        [0.163521128376899, 51.42889340508742],
        [0.161047069760047, 51.42960183720687],
        [0.16066925965228, 51.42967445233913],
        [0.159972041861307, 51.42928891542458],
        [0.159811173454381, 51.429202849697326],
        [0.15971284949518, 51.42928380005184],
        [0.159706716802414, 51.42964183405159],
        [0.159154935403266, 51.43011334170909],
        [0.159059486114515, 51.430224814678304],
        [0.158826494917111, 51.43016525667388],
        [0.158606019978209, 51.430127050838344],
        [0.158195282645471, 51.43038641923844],
        [0.158109040734664, 51.43041858357066],
        [0.156379557687593, 51.43078046176665],
        [0.155848898967291, 51.4308765574232],
        [0.155609600903591, 51.4304385044835],
        [0.155467755975687, 51.43008409202794],
        [0.155339305327435, 51.42909722629541],
        [0.155274579923816, 51.428975212795194],
        [0.15403525143433, 51.42779833476909],
        [0.153737477041251, 51.42752322656606],
        [0.153305247175066, 51.425459185591365],
        [0.153292781500945, 51.42531642615929],
        [0.153507818735781, 51.423832228932156],
        [0.153491339810307, 51.42360410984016],
        [0.153108883181528, 51.42232244207877],
        [0.152977735794765, 51.42198042011368],
        [0.152825199585661, 51.421703540471384],
        [0.151342330059241, 51.420603052261995],
        [0.151132865631261, 51.42043063495914],
        [0.151626989506629, 51.420202134343775],
        [0.152270309980125, 51.41999607182678],
        [0.154604353446701, 51.41849001936773],
        [0.154610608930847, 51.41847011975464],
        [0.154091937953361, 51.41777820158793],
        [0.154068185313786, 51.41776245082488],
        [0.151274856014472, 51.41763480496932],
        [0.151029467337225, 51.417615927907],
        [0.15114983555013, 51.415155932609395],
        [0.151128247283851, 51.4150637010494],
        [0.150749259583073, 51.41437370047672],
        [0.150598233504859, 51.41418941804101],
        [0.150098292139981, 51.41404751018002],
        [0.14997093120032, 51.41390775770271],
        [0.149665828678055, 51.41298347936281],
        [0.149632707486877, 51.412890559801035],
        [0.149251901595457, 51.4125288322295],
        [0.149133923191645, 51.41243567035139],
        [0.149480092199681, 51.41196708059693],
        [0.149725911564571, 51.41165860762156],
        [0.152475666690103, 51.41135632365892],
        [0.153744077626395, 51.411265568871436],
        [0.153419760289243, 51.41072925131763],
        [0.15336208367423, 51.4105729336708],
        [0.153033081825018, 51.40923272631325],
        [0.152906379484007, 51.408708963422065],
        [0.152036063080574, 51.40867099316646],
        [0.151569041741916, 51.40867777112179],
        [0.150041600597392, 51.408946821124516],
        [0.149285725072934, 51.40914144782383],
        [0.14896379685292, 51.40862395968943],
        [0.148876683233199, 51.40848346788413],
        [0.145680841797134, 51.40939007382996],
        [0.145538175662097, 51.40941426943545],
        [0.139268446425489, 51.411568514563704],
        [0.139139708090709, 51.41161403118613],
        [0.134317296281584, 51.41376226000873],
        [0.134319849351446, 51.41381707066719],
        [0.132814738409746, 51.414262648803444],
        [0.132436322441783, 51.41435137193229],
        [0.129778121504441, 51.41480439958603],
        [0.129030566976009, 51.414903417443476],
        [0.127520818093463, 51.41497220585318],
        [0.127370582691539, 51.414957846795495],
        [0.126709089115286, 51.41468028065823],
        [0.126626243286719, 51.41463052430102],
        [0.12625014674737, 51.41476954584637],
        [0.126164035875149, 51.41480438228379],
        [0.125507621489869, 51.41479111041564],
        [0.125402474381567, 51.41478762183606],
        [0.122449179974083, 51.413932862180474],
        [0.122015650877221, 51.41382560391566],
        [0.119489824524374, 51.41334882634222],
        [0.119070462272952, 51.413298855931885],
        [0.113478152998488, 51.413059920433206],
        [0.113098950999449, 51.412913879064156],
        [0.112333738109804, 51.41322264447996],
        [0.11207478855505, 51.413283068438844],
        [0.10959290629383, 51.41366411248733],
        [0.109536938013911, 51.41363544335355],
        [0.107210507439587, 51.414207885543014],
        [0.10700569471534, 51.414257432433224],
        [0.107010281123094, 51.41435717161409],
        [0.107011355420586, 51.41438053394443],
        [0.103351452007199, 51.41566842498001],
        [0.103231493639324, 51.41571824065715],
        [0.102452869691388, 51.41626999053124],
        [0.102275357721195, 51.41638198974235],
        [0.099510986369635, 51.41769685528043],
        [0.098672406304326, 51.41813454407238],
        [0.093311271969871, 51.42117111815299],
        [0.092973082114181, 51.421387592896984],
        [0.090307071691455, 51.4231681109846],
        [0.090064125751089, 51.423328920735884],
        [0.087398455293356, 51.42550055578367],
        [0.087250190401878, 51.42562460071067],
        [0.0831441454527, 51.42991262811693],
        [0.082906193902109, 51.430058045777045],
        [0.080995399444406, 51.430684621426735],
        [0.080711740169323, 51.43077419095197],
        [0.075576772604935, 51.4319389935683],
        [0.075343176131047, 51.43199079254366],
        [0.075182198145527, 51.43161324429264],
        [0.074835988369017, 51.43083069857567],
        [0.074304792686792, 51.431490286506694],
        [0.074022226849561, 51.431572626048464],
        [0.073327823296025, 51.43177376296708],
        [0.073035153924202, 51.43137875717999],
        [0.073471425543429, 51.431259527836886],
        [0.072237708918082, 51.42993871192631],
        [0.071942833526682, 51.42965345553355],
        [0.066404183618902, 51.42633754906763],
        [0.066579522338758, 51.42601521027943],
        [0.064714558375598, 51.42561732333146],
        [0.064778973390206, 51.42551456899037],
        [0.064194198232784, 51.425370193013684],
        [0.06419699190847, 51.425368345232634],
        [0.064437224787668, 51.4250493630772],
        [0.063264054880186, 51.424232787007604],
        [0.063202312196576, 51.42420329825305],
        [0.062940584215119, 51.42410898415446],
        [0.061708273271994, 51.42373498375738],
        [0.061337517090651, 51.42406255120245],
        [0.060899947673162, 51.42507924686455],
        [0.058731067992452, 51.42467042209604],
        [0.058596597155412, 51.424590949186026],
        [0.055985201735773, 51.4265001124073],
        [0.054827026616457, 51.42752222928722],
        [0.051334903290433, 51.431262380673324],
        [0.051049086481584, 51.43152997409725],
        [0.048368624578931, 51.43332596054642],
        [0.047784917082388, 51.4337534285117],
        [0.045802212933035, 51.43565047043444],
        [0.045147078454509, 51.436219459705946],
        [0.045148158375038, 51.436404693235126],
        [0.045182907573596, 51.43660282849855],
        [0.043586651898489, 51.43765315647494],
        [0.043311620829712, 51.43774518198979],
        [0.042313396271622, 51.439268878785356],
        [0.042184708042478, 51.439480653912305],
        [0.040098614502188, 51.44081194895111],
        [0.039999451023478, 51.440879322501665],
        [0.035731360076169, 51.44242925054788],
        [0.035543595239929, 51.44244600072859],
        [0.033584834979994, 51.443541152671074],
        [0.033470518156903, 51.44359169713386],
        [0.030759240618205, 51.44423762342507],
        [0.030585760429957, 51.44431706774162],
        [0.030500721568053, 51.4443140445092],
        [0.030324892039113, 51.44430809749008],
        [0.029574301997778, 51.44195239166276],
        [0.029576442611515, 51.44174102363607],
        [0.028216001994106, 51.44153255819019],
        [0.027767509812619, 51.441510641786046],
        [0.026217901165987, 51.44164445439352],
        [0.025416227420551, 51.44173834606114],
        [0.024173812068488, 51.441953153693085],
        [0.02363852803352, 51.442083799308385],
        [0.021554006726706, 51.44271599205822],
        [0.021482904566053, 51.44273520392322],
        [0.021098223472188, 51.4434091029991],
        [0.020596858101245, 51.44421091129899],
        [0.021483411739531, 51.444441128291174],
        [0.021496512214696, 51.44444449947557],
        [0.021421116717106, 51.444659828214334],
        [0.021263122395437, 51.44499258829174],
        [0.02123399563687, 51.44570172254822],
        [0.021210059080662, 51.44669134227146],
        [0.022751115661587, 51.44714137694014],
        [0.022942439832945, 51.44720462184474],
        [0.022140610774095, 51.448665397023426],
        [0.022131448476941, 51.448718612534485],
        [0.021927612001863, 51.44895863907097],
        [0.017293980426001, 51.44952768144043],
        [0.015063793732772, 51.45003186677226],
        [0.014875990913852, 51.45060433784628],
        [0.015009173003, 51.450621832636756],
        [0.01512275490592, 51.450226895741174],
        [0.019838435633916, 51.450732063053444],
        [0.019871672181537, 51.45073508745699],
        [0.019639689725927, 51.45134879525223],
        [0.019535944776859, 51.45170489825398],
        [0.019289100484799, 51.45168846734491],
        [0.018331621451958, 51.45158265549879],
        [0.018330500320784, 51.4515898690265],
        [0.018041597861635, 51.45300221287408],
        [0.017604035518758, 51.45381819551822],
        [0.017507603736379, 51.45411212043549],
        [0.017472873748324, 51.45479347121682],
        [0.017513934426646, 51.45503916655326],
        [0.014197292768656, 51.45568702635304],
        [0.014030629863588, 51.45572676024191],
        [0.011518998929936, 51.4566143060028],
        [0.011516161713154, 51.456615253963925],
        [0.011485361820227, 51.45676596163049],
        [0.011481630389298, 51.45687753593493],
        [0.010113892161691, 51.4590340798319],
        [0.009947431283246, 51.45934088927555],
        [0.009823816344041, 51.46029534174199],
        [0.009747147163166, 51.46087668898701],
        [0.009825072402105, 51.462289913525176],
        [0.009795667717195, 51.462505344472994],
        [0.00901775832288, 51.46465715464023],
        [0.008988103884464, 51.464735899749435],
        [0.00911634784789, 51.46582002620373],
        [0.009097136377418, 51.46587431193371],
        [0.011302770658574, 51.46620069886997],
        [0.011459489928519, 51.46622858542292],
        [0.013153598083032, 51.46680651739615],
        [0.013245421612519, 51.46683191883847],
        [0.01269120863152, 51.46735761877914],
        [0.012666848542237, 51.467491129706474],
        [0.012976782095833, 51.46789228084205],
        [0.013053147754289, 51.46799168841664],
        [0.012889883165865, 51.46879664501951],
        [0.012601745173434, 51.46980698110767],
        [0.014025168078759, 51.46979332824664],
        [0.014358502440563, 51.46974443626008],
        [0.016330578461591, 51.468981223681105],
        [0.016533023415807, 51.46913151781279],
        [0.016623185483285, 51.4694456126111],
        [0.016694306568167, 51.46949115154641],
        [0.016291278308869, 51.4699513183646],
        [0.016205612652235, 51.470000453215775],
        [0.015515850622684, 51.47127309696477],
        [0.015357581282977, 51.47156988062995],
        [0.014953197249439, 51.47281693120501],
        [0.014984943542434, 51.47307987307602],
        [0.01778059652052, 51.47371524086365],
        [0.018123643340124, 51.473853220382054],
        [0.000365717726363, 51.47187878899327],
        [-0.000005678548649, 51.47184825496412],
        [-0.001324348829831, 51.471822181743285],
        [-0.0014965004449, 51.47183680692611],
        [-0.007362780845554, 51.47262909650475],
        [-0.008143439474014, 51.472756569413214],
        [-0.01167868335178, 51.472388523808384],
        [-0.012518805642305, 51.47234071876267],
        [-0.013671364508817, 51.472492444029996],
        [-0.014069480428056, 51.47267544539849],
        [-0.014540931658561, 51.47213127770927],
        [-0.014528595559608, 51.47191794153052],
        [-0.014754580114172, 51.471886696741095],
        [-0.015184466870541, 51.47176897648575],
        [-0.013473973407823, 51.469379418948485],
        [-0.013128934513713, 51.46893652597933],
        [-0.015026678748407, 51.46803972442239],
        [-0.015090178495741, 51.4680363031666],
        [-0.016467349220844, 51.46904880987994],
        [-0.016558947219775, 51.46922751601013],
        [-0.016949378656943, 51.46905606490272],
        [-0.017161594284409, 51.4693420254099],
        [-0.017273814279591, 51.46941046936654],
        [-0.018700574798474, 51.46971246438054],
        [-0.019117973014814, 51.469948831539234],
        [-0.019018145995189, 51.470059553693986],
        [-0.019166802611703, 51.47025091229402],
        [-0.01927264351113, 51.47049999995287],
        [-0.018937512550267, 51.470524912812984],
        [-0.018671673393802, 51.47064541918411],
        [-0.018792491271958, 51.470748179231336],
        [-0.018945196140176, 51.47087935535066],
        [-0.018958564851976, 51.47106932738045],
        [-0.018827550691167, 51.47110218510835],
        [-0.01902327093659, 51.47113786601499],
        [-0.019110025630991, 51.47122925891109],
        [-0.019285226860617, 51.47193814641455],
        [-0.019319174653589, 51.4719854820019],
        [-0.020145163360439, 51.47209745374094],
        [-0.020245066524924, 51.47218457144097],
        [-0.020327701877907, 51.47237121650099],
        [-0.020337228899521, 51.47241724015836],
        [-0.020041666833209, 51.47272519528968],
        [-0.020006081979787, 51.472782147647315],
        [-0.02000452087425, 51.47301773012798],
        [-0.020050642154242, 51.47308325647752],
        [-0.020620837537106, 51.47318371056396],
        [-0.020647593371851, 51.473197651323645],
        [-0.020796538326517, 51.47348253663187],
        [-0.020836633435941, 51.47352098282277],
        [-0.021577643629195, 51.47393366446406],
        [-0.021772367884804, 51.47402597788073],
        [-0.022341450075003, 51.47408593755329],
        [-0.022449409500484, 51.47408685927225],
        [-0.022506457856084, 51.47396642004419],
        [-0.022672675106424, 51.473985410273926],
        [-0.022830519399182, 51.474730869112896],
        [-0.022930560377397, 51.47508147278668],
        [-0.02288716694744, 51.47531904753103],
        [-0.022767577355211, 51.47535390089225],
        [-0.020943805707499, 51.475536257591635],
        [-0.020846498840524, 51.47558857125222],
        [-0.020707537585097, 51.4757714750601],
        [-0.020652427220522, 51.47584698264375],
        [-0.020768475743537, 51.47635972700185],
        [-0.020791576878515, 51.476458137379076],
        [-0.020670347732211, 51.47663054922758],
        [-0.020578326984877, 51.476727016132486],
        [-0.019165146995798, 51.477203143692634],
        [-0.019118395520486, 51.47725181368627],
        [-0.019165821060747, 51.47778588195995],
        [-0.019201712223582, 51.47795465177077],
        [-0.018997722308059, 51.479405324532706],
        [-0.018964037119628, 51.47945151741685],
        [-0.018517580570016, 51.47981717019018],
        [-0.018443949805265, 51.4798545944267],
        [-0.017463668181593, 51.4799432378453],
        [-0.017231421168601, 51.47998517339186],
        [-0.016860020866011, 51.48028014757587],
        [-0.016859709006432, 51.480287336459355],
        [-0.017644585785612, 51.48071966869644],
        [-0.017875265217317, 51.4808800414717],
        [-0.018161346860056, 51.480858798515754],
        [-0.018400869074515, 51.48084845849732],
        [-0.020417988521377, 51.48023056124005],
        [-0.02036739136676, 51.47993564589153],
        [-0.022523464826456, 51.47969955032361],
        [-0.023070909902965, 51.47962874701859],
        [-0.023120720289547, 51.48024198908414],
        [-0.02316123082133, 51.48073727003796],
        [-0.024719825790609, 51.48119698494042],
        [-0.026408662495057, 51.48150959263226],
        [-0.025882950130985, 51.482043900788],
        [-0.025819095326914, 51.48218850716763],
        [-0.025207165841234, 51.48498481891761],
        [-0.025201256155031, 51.48502158938043],
        [-0.024201723815783, 51.48618638946456],
        [-0.023444083277539, 51.486786022169674],
        [-0.021391274338952, 51.48589349864112],
        [-0.021080967478191, 51.48577495418835],
        [-0.018813827858443, 51.4850442328087],
        [-0.018031262870294, 51.48482237724344],
        [-0.013192669265296, 51.484503082752944],
        [-0.012887116329223, 51.48450779688727],
        [-0.010605945434719, 51.48473260157763],
        [-0.007958052599209, 51.48520832356941],
        [-0.00555537131286, 51.485905780655436],
        [-0.005381192874872, 51.48596936385238],
        [-0.002953226536017, 51.48714474981742],
        [-0.002175264545732, 51.487642283064595],
        [-0.00174555160487, 51.488015352252134],
        [-0.001476417062319, 51.48830662545416],
        [-0.000941383136914, 51.48911134500665],
        [-0.000703961016969, 51.489533551322424],
        [-0.000449130044641, 51.49091318327333],
        [-0.000415335019702, 51.49138922024734],
        [-0.001024408235641, 51.49307494511241],
        [-0.001081648373043, 51.49331422741689],
        [-0.002308864254047, 51.494899870121834],
        [-0.002469777360487, 51.49510764477097],
        [-0.004376971696162, 51.49837838530666],
        [-0.004476680463512, 51.49863547443107],
        [-0.005082692695681, 51.50072669281231],
        [-0.005179488618952, 51.50088571138398],
        [-0.005175388829643, 51.501243550459186],
        [-0.005137096579565, 51.50146052201881],
        [-0.0045623396419, 51.502809537901015],
        [-0.004510494346354, 51.50294084813825],
        [-0.003049278010926, 51.504657857567004],
        [-0.00287506082637, 51.504819456895724],
        [-0.001317546545664, 51.50586934662458],
        [-0.000918753100627, 51.5060585898357],
        [0.000954089543764, 51.50657430438817],
        [0.001364524437804, 51.50666711955773],
        [0.003156501347451, 51.506750731710774],
        [0.003609748451929, 51.506768168472156],
        [0.004146198654571, 51.50671134085387],
        [0.005174199875736, 51.5064284841021],
        [0.007320807707391, 51.505630080243385],
        [0.007597973806166, 51.50551022928846],
        [0.008768880480142, 51.50657739539565],
        [0.009050498503683, 51.506820769606264],
        [0.00981506440785, 51.50808373237863],
        [0.009863919118395, 51.50821149062284],
        [0.009734591449551, 51.508547335848974],
        [0.00966494774597, 51.50863485914255],
        [0.009205307373257, 51.50902942045255],
        [0.009050107978956, 51.50910492005652],
        [0.007249768381387, 51.509489160309805],
        [0.006775882573208, 51.50956021894796],
        [0.005995924141595, 51.509881112413524],
        [0.005931459773278, 51.509988328729804],
        [0.006176992231838, 51.51052548849979],
        [0.006211437124244, 51.51058784806847],
        [0.006634375476277, 51.51093132704388],
        [0.006913679665891, 51.511121689074756],
        [0.007690579103603, 51.512173125830316],
        [0.007855076671403, 51.51230879704569],
        [0.00802900283113, 51.51298656546142],
        [0.007990668181221, 51.51322912499873],
        [0.007362357964124, 51.51411576803451],
        [0.007292227415876, 51.514192506877905],
        [0.006275070429525, 51.514332211747494],
        [0.006106450515199, 51.514332398317485],
        [0.005558960995676, 51.51417269950784],
        [0.005252811979334, 51.513896463525285],
        [0.005076459595266, 51.513786170878895],
        [0.004754613075799, 51.51328358646459],
        [0.004681560726615, 51.51309688817281],
        [0.004624944624561, 51.51252951853064],
        [0.004664145417035, 51.51220780978163],
        [0.004380573804617, 51.51109936260801],
        [0.004319440860188, 51.510987099609],
        [0.003937965697245, 51.51063570976616],
        [0.00386898118237, 51.51060721263812],
        [0.003069233396565, 51.510543537724274],
        [0.002589411807329, 51.51061108362269],
        [0.002382983794188, 51.510701837310826],
        [0.002306398143295, 51.510795769495104],
        [0.002233285526253, 51.51119899050312],
        [0.00225427033801, 51.51128316342323],
        [0.0040241019456, 51.51430594901924],
        [0.004057816672626, 51.514384508480184],
        [0.00408967664115, 51.51448648058519],
        [0.004112145131297, 51.514637173617835],
        [0.003808035982532, 51.51512977288205],
        [0.003614234977636, 51.515278765217],
        [0.002983089152669, 51.51567623078535],
        [0.00266542305592, 51.51582733683344],
        [0.001711904348655, 51.516203321617645],
        [0.000571293608907, 51.51658608706417],
        [-0.002217253479523, 51.51794654865978],
        [-0.00229436147565, 51.51796314958372],
        [-0.003473190142157, 51.51780336920229],
        [-0.003649169906409, 51.517734423436394],
        [-0.004606845114437, 51.51666530604307],
        [-0.00468035081158, 51.5166323844737],
        [-0.005068474914813, 51.51655715362697],
        [-0.005180697686138, 51.51656176021067],
        [-0.005621095136875, 51.51670863610667],
        [-0.005686903620738, 51.516752919914424],
        [-0.005820373111606, 51.51742604189147],
        [-0.005900066903187, 51.517614444224314],
        [-0.006734656037933, 51.518669980916734],
        [-0.00681345930936, 51.51874685846628],
        [-0.008922835910121, 51.51988968234067],
        [-0.00903841930855, 51.52028012704823],
        [-0.009043770319391, 51.52075233214477],
        [-0.008897799622895, 51.52109157500782],
        [-0.007928360091745, 51.52256249841435],
        [-0.007812802992523, 51.52283211378681],
        [-0.008143265674533, 51.52341865145698],
        [-0.008153218438442, 51.52358698302503],
        [-0.008081995998412, 51.52412892951582],
        [-0.007981013710415, 51.52495633672023],
        [-0.00746842199177, 51.52599887060982],
        [-0.007524538277031, 51.52619946063756],
        [-0.008044368194284, 51.52664263466367],
        [-0.00822917091787, 51.526834618491755],
        [-0.008586165282191, 51.52747466147124],
        [-0.008726452281595, 51.527596645314375],
        [-0.010212451070343, 51.52839882730372],
        [-0.010353637400284, 51.52853341408983],
        [-0.010786564297988, 51.52931772087085],
        [-0.010928586167533, 51.52940016378553],
        [-0.013647297328494, 51.52984011237555],
        [-0.013966140208325, 51.52993453840147],
        [-0.014280502300109, 51.53026449468375],
        [-0.014578821810951, 51.53039993768116],
        [-0.017184416270149, 51.531321692287264],
        [-0.017443925592512, 51.53148794602086],
        [-0.018197389383098, 51.532364869754126],
        [-0.018232504545629, 51.5324526914887],
        [-0.017987915554845, 51.53327048486112],
        [-0.018125978195592, 51.53347784942374],
        [-0.018876282533866, 51.53403008120941],
        [-0.018963231057874, 51.53411967735632],
        [-0.01908296394183, 51.53474938436093],
        [-0.019164064857568, 51.534940498201856],
        [-0.019555552305273, 51.53545519142946],
        [-0.019704962736058, 51.53563396918288],
        [-0.019917773224272, 51.535813816942294],
        [-0.02014242446641, 51.53598667005496],
        [-0.020867806054038, 51.536217431416645],
        [-0.020975247027598, 51.5363001776409],
        [-0.021242376286195, 51.536923376010456],
        [-0.021264142547608, 51.53701996415662],
        [-0.021089933955868, 51.537346155137804],
        [-0.020825259684678, 51.537563807441934],
        [-0.0194963890483, 51.53824640032497],
        [-0.019426986351915, 51.53828389681036],
        [-0.01902858633513, 51.5391233747538],
        [-0.018916325043492, 51.539350790616716],
        [-0.017945948619979, 51.54007808816569],
        [-0.017879533658659, 51.54017948179849],
        [-0.017801842670936, 51.540805853555824],
        [-0.017751664467219, 51.540931801528565],
        [-0.016787170920808, 51.541257219167385],
        [-0.016634947841979, 51.54137514663727],
        [-0.016114253654737, 51.542438261687906],
        [-0.016092544041841, 51.54253951108322],
        [-0.016502051382115, 51.54307160443504],
        [-0.016540243834117, 51.543188254895014],
        [-0.01653344098901, 51.54364316605752],
        [-0.016527213443109, 51.543885861283705],
        [-0.017342374136292, 51.54712978597513],
        [-0.0174587914933, 51.54753731993903],
        [-0.018875442942663, 51.550286010227424],
        [-0.018941921131527, 51.550482272234085],
        [-0.018855532850145, 51.55114266874427],
        [-0.018844298254031, 51.55130164802621],
        [-0.018972402481005, 51.55154031658929],
        [-0.018995692610698, 51.55160185952865],
        [-0.018082364549392, 51.55157474345226],
        [-0.01716782641657, 51.55157547686372],
        [-0.017137154305051, 51.55138521458961],
        [-0.01697045844671, 51.551403979297184],
        [-0.01696745388676, 51.5514398989148],
        [-0.016951306853931, 51.55157901129335],
        [-0.013367700548734, 51.55202286758898],
        [-0.013148327760958, 51.552058720071884],
        [-0.010715989755647, 51.55262899933042],
        [-0.010595225205844, 51.552619757481025],
        [-0.009778536451414, 51.552328034300125],
        [-0.009471862956855, 51.55221581938526],
        [-0.009228861136051, 51.55180163316544],
        [-0.009190837780751, 51.551681386229085],
        [-0.009168813391086, 51.55109559354128],
        [-0.009137243668194, 51.55089362332327],
        [-0.008684652926838, 51.549928228817976],
        [-0.008676122728666, 51.54992538624339],
        [-0.005065408971656, 51.5507920806947],
        [-0.003822303832486, 51.55114862552314],
        [-0.003662138040147, 51.55091928619577],
        [-0.000951657521166, 51.55161412373177],
        [-0.00035128972375, 51.5517198969806],
        [0.00249259770761, 51.55200141856367],
        [0.003081012871355, 51.55209748644283],
        [0.003177587020617, 51.55196454517767],
        [0.00322795698868, 51.55189624042204],
        [0.003810922648736, 51.55193394562381],
        [0.003842790705584, 51.55180570601777],
        [0.004977485453107, 51.55189243240143],
        [0.004983250934007, 51.55189233386839],
        [0.00494580081824, 51.55212318514842],
        [0.005175572576363, 51.55213274710106],
        [0.005231283085501, 51.55182514629396],
        [0.005734855358704, 51.5518615011356],
        [0.005804309138325, 51.55166966996456],
        [0.005503125742474, 51.550659551161964],
        [0.00577954500543, 51.55064763139896],
        [0.008151896488046, 51.5510638726469],
        [0.009508222228089, 51.55123758678597],
        [0.009508840808987, 51.551448003820724],
        [0.009640258241739, 51.55158244074738],
        [0.010330327832676, 51.55195550258813],
        [0.010821210897507, 51.55226003355918],
        [0.009622310222746, 51.553433431930586],
        [0.011110246010786, 51.55439802361915],
        [0.011621324039459, 51.55391714833418],
        [0.013926276657939, 51.554729206252645],
        [0.014573840864041, 51.554954594624746],
        [0.015970521517065, 51.55355832653089],
        [0.016254270735789, 51.553222521194506],
        [0.016720426771286, 51.5533907645766],
        [0.016944911340591, 51.55318277250629],
        [0.020076146241973, 51.55441034998862],
        [0.021532208190505, 51.55487806648902],
        [0.021317287214907, 51.555171332710344],
        [0.020341634972971, 51.55626725521524],
        [0.017880531177204, 51.55828709177566],
        [0.017747550501081, 51.55841167870874],
        [0.016597129430026, 51.559082524804374],
        [0.016280334667409, 51.559226456056],
        [0.015004256398753, 51.55943812369357],
        [0.014754661008, 51.559437913820375],
        [0.01447277573306, 51.56033931920639],
        [0.014190247609318, 51.561324366181104],
        [0.014193345919423, 51.5622433593159],
        [0.014188502847806, 51.56298263618062],
        [0.014454435174669, 51.56521273731249],
        [0.014431223414742, 51.56560161705769],
        [0.017167170376045, 51.56560676923942],
        [0.017509183753796, 51.565640456324395],
        [0.018481807910121, 51.56600141816966],
        [0.018685902562512, 51.56614628519526],
        [0.018957304738923, 51.56650761523412],
        [0.018982642995476, 51.56655843719007],
        [0.019008491892863, 51.56694647378206],
        [0.019006085951474, 51.56695730633223],
        [0.017687855988018, 51.56993675635262],
        [0.017667649880272, 51.570001850670806],
        [0.018155304236023, 51.570130151838214],
        [0.018247667686959, 51.57013036167516],
        [0.019077781289403, 51.569813028822644],
        [0.019129642237852, 51.56984361056568],
        [0.018898652319708, 51.57225131230974],
        [0.018882724572049, 51.57234780736536],
        [0.018759525872281, 51.57230316543463],
        [0.018015336137595, 51.572020109660436],
        [0.017625147684225, 51.57246386079764],
        [0.017472096965838, 51.57259238903645],
        [0.016459232428869, 51.57289036920322],
        [0.016343184035822, 51.57290944941741],
        [0.017317504287614, 51.57425058714564],
        [0.017382348950079, 51.574411339326666],
        [0.017379762771858, 51.576503964365145],
        [0.017413250716104, 51.57745570590911],
        [0.017361532971143, 51.577591484183635],
        [0.01661535385295, 51.57918880742322],
        [0.01637414319513, 51.57931525193915],
        [0.015977028019879, 51.58012601383971],
        [0.015232890268536, 51.581706206090914],
        [0.015429379650934, 51.58177567159254],
        [0.015669934191114, 51.58186236506393],
        [0.015379035060282, 51.58220368473675],
        [0.015246799022411, 51.58250990560729],
        [0.015403683932961, 51.582532390528776],
        [0.015413797611032, 51.5829566674849],
        [0.015501957922933, 51.58338320099157],
        [0.014100144874521, 51.58341086644891],
        [0.013369010897085, 51.58378581457065],
        [0.012390786172388, 51.59094990352281],
        [0.01245257039148, 51.591269879274634],
        [0.012248133021809, 51.59164208075689],
        [0.012264613838035, 51.59201499033676],
        [0.012090042592874, 51.592148375952625],
        [0.01208505557041, 51.59268891559705],
        [0.012856918751937, 51.59839136212364],
        [0.012905000124303, 51.599054189433694],
        [0.017046213761918, 51.60485344274972],
        [0.017186730444259, 51.60505875619054],
        [0.018058924352755, 51.60596909833929],
        [0.018129785678936, 51.60600385020635],
        [0.017987311456969, 51.606047665739794],
        [0.019104832581862, 51.60776671028346],
        [0.019118817492776, 51.607788951127674],
        [0.01944639756077, 51.60765292309737],
        [0.019552797288237, 51.60760972654912],
        [0.019242061296822, 51.60822297053094],
        [0.01923825023622, 51.6082347264354],
        [0.019408054783014, 51.60825338719557],
        [0.019476281218676, 51.60826120589261],
        [0.019572182207037, 51.60872986716023],
        [0.019532132749399, 51.60873864957915],
        [0.019851549255744, 51.60910184851259],
        [0.020186337290755, 51.609778622654076],
        [0.020368113002431, 51.60970894884509],
        [0.020423219785998, 51.60977904155762],
        [0.020687443509248, 51.610167468239425],
        [0.020612456875951, 51.61026767742485],
        [0.02083528386864, 51.61060196175465],
        [0.021049451092238, 51.61054611733008],
        [0.02119144722688, 51.6107514005506],
        [0.021374982150735, 51.61114391291174],
        [0.021178816169379, 51.61118236205345],
        [0.021379896449812, 51.61187222622917],
        [0.021365553214292, 51.61203703721073],
        [0.020561524149211, 51.61289348429026],
        [0.016252100965438, 51.61685147430702],
        [0.009002318932641, 51.61898291595269],
        [0.008678455773022, 51.61907478680935],
        [0.00945813725786, 51.61916395713012],
        [0.009648465970724, 51.61918857565035],
        [0.010487603004353, 51.61902133300411],
        [0.010680859285389, 51.61894878023574],
        [0.011827242710851, 51.61909819774152],
        [0.012237353413648, 51.61909476513601],
        [0.014334043426874, 51.61887985207507],
        [0.01449971475648, 51.618902188098865],
        [0.01467665406879, 51.61940723034602],
        [0.014720234766075, 51.619543169080416],
        [0.014444109301985, 51.62019087520266],
        [0.014314716359848, 51.62030280473786],
        [0.015244043644138, 51.620866873017356],
        [0.015247607559099, 51.620882099161946],
        [0.015663458140885, 51.62091003005382],
        [0.015815189785724, 51.6209110215147],
        [0.016243409893886, 51.621283152515524],
        [0.016288867676586, 51.621330931463035],
        [0.016133163755985, 51.621468494059705],
        [0.016114029307423, 51.62149310257768],
        [0.016235041771737, 51.62164839367043],
        [0.016190173129465, 51.62177685850406],
        [0.016945634500536, 51.621937436536086],
        [0.016985368230467, 51.621953839653514],
        [0.017088920384884, 51.62204108653216],
        [0.017107669091564, 51.62210551070507],
        [0.017021150645736, 51.62233720658592],
        [0.017014371046033, 51.62234721488054],
        [0.017570281473467, 51.62230798604923],
        [0.017690967843397, 51.62235806846119],
        [0.018387160687367, 51.622745368983246],
        [0.018461773430852, 51.62279894057851],
        [0.01874940417458, 51.62315999111069],
        [0.018808784129222, 51.62319583935721],
        [0.018464613636845, 51.623481426124265],
        [0.018461152199213, 51.62353364241846],
        [0.019055729266694, 51.623681686014116],
        [0.019046813106659, 51.6237411901877],
        [0.018895119568811, 51.62370872827438],
        [0.018811700322022, 51.62374973015268],
        [0.018749680690996, 51.62384971476689],
        [0.01880098268915, 51.62396393709982],
        [0.01858143822067, 51.62409540674464],
        [0.018584070546075, 51.624154712287464],
        [0.018833135622291, 51.62416751495401],
        [0.01900024937282, 51.62428693944257],
        [0.01900944427275, 51.62475439372288],
        [0.019022135489895, 51.6248450001578],
        [0.019244565362754, 51.624908618346],
        [0.019263086350809, 51.624935277395885],
        [0.019268175433173, 51.624952275693566],
        [0.019121504517033, 51.62503303373684],
        [0.019419177237341, 51.62522934630918],
        [0.019448417859907, 51.625562466740895],
        [0.019408019995394, 51.625628807286716],
        [0.019928724282912, 51.62612972594205],
        [0.020065856338718, 51.626224485708335],
        [0.020138527261938, 51.62659192951281],
        [0.020138966359798, 51.62660181375628],
        [0.019921608569843, 51.62678270716669],
        [0.019922166337861, 51.62699042535067],
        [0.019922039773515, 51.627020102925236],
        [0.020521252447863, 51.62730384700154],
        [0.020563434108586, 51.62734268816039],
        [0.020463950996846, 51.62767262833155],
        [0.020466226779301, 51.62772384666417],
        [0.020672630095215, 51.62820679061482],
        [0.020637567656313, 51.628263147916385],
        [0.02109314956546, 51.628305663410984],
        [0.02111704283454, 51.62835561029194],
        [0.020945062475698, 51.62884236998802],
        [0.020961451300433, 51.62891852446454],
        [0.021182563504763, 51.62885446765078],
        [0.0212751318804, 51.62882409768544],
        [0.021332569286744, 51.62901105286483],
        [0.021347526559108, 51.629022485626066],
        [0.022963397607021, 51.62828603848592],
        [0.023937875739918, 51.62784569253879],
        [0.024885553795531, 51.62732306916692],
        [0.025864256574051, 51.62671896957792],
        [0.026661475609581, 51.625998394002224],
        [0.026807615301651, 51.62590594532843],
        [0.027908920426125, 51.625687290480776],
        [0.028020365904505, 51.62565928676715],
        [0.028548319593814, 51.62538128708384],
        [0.02905641629246, 51.62511172150589],
        [0.029064517008045, 51.62509899190183],
        [0.028937119253203, 51.6246722488703],
        [0.029292378517739, 51.624636432532206],
        [0.029561178654414, 51.62421722840173],
        [0.029638052348363, 51.62415924613428],
        [0.030701077497309, 51.62363458013796],
        [0.030497921311633, 51.6232909815093],
        [0.031444319527796, 51.6230992522164],
        [0.032594501573842, 51.62235993649881],
        [0.032755372316816, 51.6222420459448],
        [0.034243953465445, 51.62080082811686],
        [0.034276990537539, 51.62076428529667],
        [0.034681105238124, 51.620465022607775],
        [0.035459299101413, 51.619970428342725],
        [0.037360446187288, 51.618390722913176],
        [0.037451372370743, 51.618324398118105],
        [0.037505068688568, 51.61813642042641],
        [0.037518981395678, 51.61789877484142],
        [0.038407946147409, 51.61752453658648],
        [0.040188153256349, 51.616409102491275],
        [0.04008399169525, 51.616244550092446],
        [0.039987773067174, 51.616096046209506],
        [0.040677255072858, 51.6158808288098],
        [0.040688681062497, 51.61587793238658],
        [0.040761374658968, 51.615727391610825],
        [0.040875988987193, 51.61567414109685],
        [0.041084453034118, 51.615909719096294],
        [0.041255044582282, 51.61604164135394],
        [0.042489416910883, 51.616637959355],
        [0.042885749151706, 51.6167785405949],
        [0.044831728246508, 51.617136733085324],
        [0.045405720727602, 51.61724453521741],
        [0.046130026040233, 51.61722561667176],
        [0.046177231663545, 51.61737586931086],
        [0.047054216103031, 51.61734708936106],
        [0.047834165716544, 51.617409022462446],
        [0.047925462716684, 51.617511743707766],
        [0.049095219600625, 51.61776110683152],
        [0.05234644245974, 51.61829511869777],
        [0.053071556825586, 51.61842182333049],
        [0.053501226716223, 51.6182758212239],
        [0.053684785568355, 51.61827800536182],
        [0.054354348387386, 51.61762241850035],
        [0.054364840538479, 51.617598854104294],
        [0.05418768423824, 51.61719458972775],
        [0.054150347408819, 51.617103518602086],
        [0.054224580533141, 51.61676409765108],
        [0.054184983259018, 51.61671892836305],
        [0.053403710568327, 51.61633962182207],
        [0.0533210735919, 51.6163329741022],
        [0.05212145175195, 51.61679818771611],
        [0.051974550918559, 51.61680794996922],
        [0.050188449577888, 51.61640841511473],
        [0.05015003097746, 51.616389302435195],
        [0.049751420982543, 51.61594213781943],
        [0.049659651448147, 51.61586100845019],
        [0.048717234841755, 51.61533430843348],
        [0.048457166451089, 51.61498004281001],
        [0.048285536000731, 51.61460085260313],
        [0.048277929077047, 51.61452814530929],
        [0.048511034168907, 51.614059159947224],
        [0.048509402490076, 51.61399084467621],
        [0.048122347458409, 51.613671167837836],
        [0.048081032521223, 51.613619731678305],
        [0.04803579570188, 51.61338491492548],
        [0.048067602849734, 51.61332141173825],
        [0.048186870291073, 51.61321141940066],
        [0.048205187856176, 51.613201207899465],
        [0.048788957325411, 51.61359119028518],
        [0.048894870091869, 51.613569557807196],
        [0.051852492237715, 51.61230838714618],
        [0.052604721134995, 51.61201376618258],
        [0.05598922461358, 51.610295392877376],
        [0.056468510381806, 51.61006667724781],
        [0.059973055922259, 51.60858168989918],
        [0.060671205218141, 51.608275375773054],
        [0.062518907837113, 51.60707567810117],
        [0.062541223068402, 51.607058199962644],
        [0.062744369344522, 51.60704743574087],
        [0.062972116877193, 51.60691034198307],
        [0.063349712380088, 51.607115930386165],
        [0.063984268690766, 51.60722347575111],
        [0.06546230717982, 51.60660036368468],
        [0.065940582856961, 51.606319469172696],
        [0.067657609869769, 51.60606261848012],
        [0.06806688586302, 51.605979869399484],
        [0.069492446938788, 51.60550690824799],
        [0.070295307751028, 51.60525084686127],
        [0.072230337307878, 51.604835409624584],
        [0.072805516731454, 51.6046858667567],
        [0.076269756089197, 51.60613629683636],
        [0.076884127308132, 51.606402400175],
        [0.077882504031536, 51.60672824804279],
        [0.078794406725291, 51.606994469141696],
        [0.079512416698043, 51.60703120918388],
        [0.080009945273979, 51.60698372451802],
        [0.082000850505735, 51.606653465283635],
        [0.082785845061457, 51.6064183181435],
        [0.083818225377003, 51.60641348192729],
        [0.084448212197876, 51.606357331646606],
        [0.086871623933955, 51.604626344086505],
        [0.087118415537915, 51.60446548328764],
        [0.088895117777642, 51.604852033087774],
        [0.088900194874393, 51.60518287271348],
        [0.089331322347315, 51.60538832467074],
        [0.089602938315015, 51.6055165804604],
        [0.09021922671648, 51.60566567566769],
        [0.090283826683692, 51.60556290805357],
        [0.092472370534737, 51.60617317993205],
        [0.092554253334742, 51.60619510097261],
        [0.091687518658147, 51.607478516726054],
        [0.091846935409791, 51.60821307387745],
        [0.092624223676478, 51.609475276468125],
        [0.093689897256556, 51.6097530290851],
        [0.093881807573503, 51.6098746035428],
        [0.094048532547044, 51.61004518741871],
        [0.094204088105282, 51.610537907674974],
        [0.094209381855549, 51.61065291929625],
        [0.094665720715995, 51.61074549385239],
        [0.094808638942212, 51.6107753167311],
        [0.093686934518354, 51.61238793158754],
        [0.093614538123942, 51.61247825030489],
        [0.092796689595679, 51.61322483812539],
        [0.092258025501279, 51.613572565348626],
        [0.0975952939109, 51.61520389402801],
        [0.098041486279353, 51.61541983651798],
        [0.099442591912488, 51.61360344500344],
        [0.100141502763263, 51.61272314915517],
        [0.10338754578724, 51.6134518810888],
        [0.103810922525513, 51.61254952229019],
        [0.107620932554114, 51.61344698155122],
        [0.109604804454299, 51.61395989415071],
        [0.11570901490934, 51.616506459285304],
        [0.116683073071045, 51.616919647074305],
        [0.118579562565412, 51.615364767889076],
        [0.119280221258402, 51.615366507224344],
        [0.123873945750432, 51.61735179270505],
        [0.124171398851134, 51.61750378208585],
        [0.124392440633217, 51.617658952270006],
        [0.12478211568356, 51.61802239776218],
        [0.124974230222113, 51.61830039113979],
        [0.125162634512808, 51.61877718988414],
        [0.125675328842398, 51.61926879909639],
        [0.126071221814369, 51.619641120467485],
        [0.127592157335991, 51.62012974218542],
        [0.127879397265119, 51.62021716003481],
        [0.128852383330048, 51.62069591391825],
        [0.129160315251253, 51.62144121860786],
        [0.131262871106812, 51.62197679489412],
        [0.132191019140108, 51.62220633859891],
        [0.13304252329321, 51.62261892032619],
        [0.134150905011676, 51.623148227211125],
        [0.135978466680223, 51.623578109042306],
        [0.136079166916789, 51.62359965756538],
        [0.149056973145976, 51.62322338215784],
        [0.149824786006748, 51.62320662415905],
        [0.155517527352681, 51.62333783128694],
        [0.15588502215008, 51.623318492292164],
        [0.160768536269729, 51.62280693612965],
        [0.162502722565223, 51.622574461209894],
        [0.16275709385399, 51.622789197322774],
        [0.162774458230484, 51.622789776645725],
        [0.165455252928313, 51.622442690535344],
        [0.165456696385334, 51.62244266390543],
        [0.167697751978398, 51.62190309984293],
        [0.167859061622137, 51.62186235115052],
        [0.168745428184484, 51.62148446881628],
        [0.168873694643808, 51.62141735099793],
        [0.174375266477813, 51.6232642935734],
        [0.175276232503802, 51.62358482829757],
        [0.180149040011393, 51.62442067702705],
        [0.180369551054643, 51.62446963839161],
        [0.18057133292766, 51.625664624727655],
        [0.180584712271806, 51.62573272113662],
        [0.180765672882609, 51.62561964760356],
        [0.180864113889837, 51.62559353820107],
        [0.180997308255605, 51.62577991135057],
        [0.181210350463144, 51.625823614297474],
        [0.182470826818764, 51.625805580324126],
        [0.182757270713444, 51.62572291629692],
        [0.183648695286641, 51.62542126563889],
        [0.184143190672674, 51.62524839701172],
        [0.185875804903074, 51.6243825149099],
        [0.1859041134258, 51.62437029713264],
        [0.186211340627389, 51.62453993425972],
        [0.186241031422468, 51.62455646751072],
        [0.186033039995812, 51.625339114857645],
        [0.185969458704843, 51.62551925499634],
        [0.187061090492635, 51.625475539067956],
        [0.188343844583873, 51.625410264405595],
        [0.188780257965347, 51.62487155392813],
        [0.189372911097622, 51.62448730107427],
        [0.189539205857833, 51.62500038424079],
        [0.189786778558991, 51.62510098125583],
        [0.193944734227607, 51.62557549401061],
        [0.194747403817048, 51.62571156707404],
        [0.19561480488239, 51.62566207190926],
        [0.196959588375113, 51.62556496721538],
        [0.199363275089436, 51.62510628493183],
        [0.20028388638995, 51.62493255691367],
        [0.203148656171205, 51.62510543908476],
        [0.203432142322772, 51.62514148460899],
        [0.205417913327373, 51.6256302689083],
        [0.20571097543859, 51.62571469011266],
        [0.20666750987745, 51.62622189060694],
        [0.206747117820799, 51.626254566596394],
        [0.20825993746366, 51.62664248181979],
        [0.208435127024042, 51.626679653404864],
        [0.211377592184079, 51.62681310393873],
        [0.212223550458188, 51.62697612002259],
        [0.212081943001168, 51.62718382461953],
        [0.212737971869053, 51.62736300615033],
        [0.21325358461741, 51.62762576695534],
        [0.213652230225672, 51.627563393510364],
        [0.213962948713949, 51.627653756245344],
        [0.216781934047363, 51.628809184703115],
        [0.217519555235752, 51.62909021605734],
        [0.220973473123761, 51.62986933950989],
        [0.222049383895442, 51.630123257911556],
        [0.223584280753063, 51.631282142284675],
        [0.224060144777972, 51.63173445815333],
        [0.226794864828023, 51.630067501768444],
        [0.227246943672628, 51.629768456682434],
        [0.228197942715988, 51.629330443408435],
        [0.229117648668117, 51.628902908649174],
        [0.232117051301471, 51.62721910742771]
      ]
    ]
  }
}
