{
  "type": "Feature",
  "properties": {
    "name": "North London",
    "level": 1,
    "center": [-0.1399426222037265, 51.62089901201545]
  },
  "geometry": {
    "type": "Polygon",
    "coordinates": [
      [
        [-0.0968879976522, 51.69055151380215],
        [-0.095320678570066, 51.69018170335667],
        [-0.094802778245025, 51.69011125707358],
        [-0.09205683380881, 51.6899704673548],
        [-0.091483092540702, 51.68992068087543],
        [-0.085850725281424, 51.690158147297794],
        [-0.085399965874462, 51.69014270754847],
        [-0.084846851559963, 51.690084232498464],
        [-0.083936155733771, 51.689962371307594],
        [-0.081657381636011, 51.68931279805885],
        [-0.081610087985535, 51.689302134067006],
        [-0.079294478626642, 51.68894326457515],
        [-0.079020919580925, 51.688911813867534],
        [-0.072016330542048, 51.68616948172932],
        [-0.071600678882365, 51.68600978815134],
        [-0.068557725718094, 51.684628919468274],
        [-0.067987280272569, 51.68440192229751],
        [-0.067210583497377, 51.684126566599964],
        [-0.066367704094619, 51.68384292223519],
        [-0.063275920863727, 51.6832065774246],
        [-0.06204331368514, 51.683005498938236],
        [-0.06046336704073, 51.68287600641259],
        [-0.059767480188504, 51.68284383015023],
        [-0.059321818751517, 51.68284635869376],
        [-0.059070175450084, 51.683013954651145],
        [-0.057056399840561, 51.68298245684653],
        [-0.056626600094647, 51.68298613679935],
        [-0.055140998742707, 51.68325469730328],
        [-0.054823723888469, 51.68333307216634],
        [-0.052187426019535, 51.6834809183135],
        [-0.051720844219472, 51.683532529167756],
        [-0.04983027151886, 51.68410094443843],
        [-0.049206754017768, 51.684269538104374],
        [-0.049093395858856, 51.684079714466115],
        [-0.048606386395087, 51.6840005841491],
        [-0.048345706143875, 51.68407448645456],
        [-0.047287999885923, 51.6834741994229],
        [-0.047240720737009, 51.68346352172719],
        [-0.044693168991265, 51.683431029024945],
        [-0.044269263732584, 51.68343206417573],
        [-0.043684047964045, 51.68334947950474],
        [-0.043655562405384, 51.683339113397246],
        [-0.043663348377514, 51.6831584960771],
        [-0.043697940008967, 51.683094327064346],
        [-0.037126961596352, 51.68280394526678],
        [-0.037103871503026, 51.682802660126846],
        [-0.037036196153175, 51.68259470391225],
        [-0.036920746247781, 51.68258827808373],
        [-0.03069909965786, 51.68241757763157],
        [-0.030660432251613, 51.68254192370817],
        [-0.020960574484607, 51.681290794241185],
        [-0.019797944984838, 51.681148900439986],
        [-0.011239385303708, 51.68086849985154],
        [-0.011091907410297, 51.68086690166999],
        [-0.0111548682291, 51.6806845222632],
        [-0.011147188875663, 51.68006751131221],
        [-0.010354780396327, 51.6766621424448],
        [-0.010350298777901, 51.676632391469326],
        [-0.011121091815938, 51.673334431000946],
        [-0.011377022301095, 51.671916160556385],
        [-0.011411503746738, 51.67076571149544],
        [-0.011397034970432, 51.67069982163214],
        [-0.010584765279165, 51.66916993736619],
        [-0.010584855646352, 51.669134868346134],
        [-0.011213707236508, 51.66775348881583],
        [-0.011244845670037, 51.6676038422452],
        [-0.011518059098135, 51.6638415305887],
        [-0.01151440399818, 51.663792909437255],
        [-0.011065348304828, 51.66295260296485],
        [-0.010801111392943, 51.66264687979945],
        [-0.009290143174825, 51.66125981587298],
        [-0.009250329996077, 51.661211480867856],
        [-0.00894849019717, 51.660444701725524],
        [-0.008949054318137, 51.66039884973021],
        [-0.011818403004062, 51.65298372204246],
        [-0.011820122859727, 51.65297745643556],
        [-0.011625933409214, 51.650345668751264],
        [-0.011660396376524, 51.64975634610034],
        [-0.012284103577906, 51.6462382591684],
        [-0.012286019614005, 51.64622750063257],
        [-0.011663088553849, 51.64639140709128],
        [-0.011541868184522, 51.646419928602995],
        [-0.010777999004392, 51.646369220878015],
        [-0.010402601412109, 51.64629361803129],
        [-0.010202185986158, 51.64651323520322],
        [-0.009240373301941, 51.646526606298416],
        [-0.007626411079887, 51.646215966390876],
        [-0.007370114745441, 51.64616035977597],
        [-0.007748120116033, 51.6458466420632],
        [-0.008013933680175, 51.645520228764255],
        [-0.007938538599168, 51.645459599181294],
        [-0.007972454069192, 51.64527942567385],
        [-0.008346965234316, 51.644682383507856],
        [-0.008472185394829, 51.64449656466519],
        [-0.008300193605995, 51.64449634489868],
        [-0.008297860998846, 51.643659104896436],
        [-0.008217741872932, 51.64360738780664],
        [-0.007307159768389, 51.643442661265084],
        [-0.006683272026942, 51.64333225408375],
        [-0.005519273390482, 51.643376332884216],
        [-0.00458575859047, 51.643536723739324],
        [-0.004099155092123, 51.64286750441489],
        [-0.004010424346248, 51.64271582133781],
        [-0.0008811321677, 51.64370480992005],
        [-0.000521030948585, 51.64370946885244],
        [-0.000313288953337, 51.6436348900478],
        [-0.000482602200396, 51.64353166221832],
        [7.2479077042e-5, 51.64264633825822],
        [0.00017743963354, 51.642436823442594],
        [0.000908212268957, 51.64180029193375],
        [0.001040902905753, 51.64176116119772],
        [0.003470037328849, 51.64165318971135],
        [0.003506968236985, 51.641540153195024],
        [0.005838452296668, 51.6416433243264],
        [0.006116693092363, 51.64166015233465],
        [0.00976868071223, 51.641457410267456],
        [0.009872345492317, 51.64144844164693],
        [0.016777459483274, 51.64029678764277],
        [0.01739424394482, 51.64025651543294],
        [0.018096902878936, 51.64026242424573],
        [0.019325740281133, 51.64033571625574],
        [0.021807264213346, 51.640920686416734],
        [0.022693156164661, 51.64111405378556],
        [0.022838774551786, 51.640554008073245],
        [0.02298089257447, 51.640045279850916],
        [0.023030761988386, 51.63791858590843],
        [0.023056461741126, 51.63771671029213],
        [0.024979715327066, 51.63735352667102],
        [0.02513287154839, 51.63728793708384],
        [0.024853241941265, 51.636915073772755],
        [0.024809970016892, 51.63681959995015],
        [0.024686100243372, 51.63605017654955],
        [0.024705122329854, 51.63595812459644],
        [0.025643059234729, 51.63482417199923],
        [0.025712390592569, 51.63456399050023],
        [0.024446152097998, 51.632674018618424],
        [0.024303357171695, 51.63238782037054],
        [0.024047090578216, 51.63182480957756],
        [0.02384653743521, 51.63127972208461],
        [0.023900247442241, 51.630895713747854],
        [0.02386400286953, 51.6307956221135],
        [0.022134328898937, 51.62942978626282],
        [0.021792728611834, 51.62883137103006],
        [0.021563348523315, 51.628936937081406],
        [0.021347526559108, 51.629022485626066],
        [0.021382240645593, 51.628893294510846],
        [0.021349763919874, 51.62884529399058],
        [0.021025537453751, 51.62893001073062],
        [0.020961451300433, 51.62891852446454],
        [0.020889126153064, 51.62878667991824],
        [0.020895079346822, 51.62869305498311],
        [0.021119439227894, 51.628409524298235],
        [0.02111704283454, 51.62835561029194],
        [0.020669364376966, 51.62829587301128],
        [0.020637567656313, 51.628263147916385],
        [0.020548615339243, 51.62785461900651],
        [0.020466226779301, 51.62772384666417],
        [0.020594452476038, 51.62745546032156],
        [0.020591937002522, 51.627398850587355],
        [0.020234765378121, 51.62722964327707],
        [0.019922039773515, 51.627020102925236],
        [0.019921608569843, 51.62678270716669],
        [0.020138966359798, 51.62660181375628],
        [0.020062556284516, 51.626280296279795],
        [0.020065856338718, 51.626224485708335],
        [0.019604885502955, 51.625799875881654],
        [0.019459412754222, 51.625712453108115],
        [0.019474320431245, 51.62539745754173],
        [0.019476217393764, 51.62534257037621],
        [0.01900944427275, 51.62475439372288],
        [0.01900024937282, 51.62428693944257],
        [0.018619834830736, 51.6241792764122],
        [0.018584070546075, 51.624154712287464],
        [0.018742456063814, 51.6240449772842],
        [0.01880098268915, 51.62396393709982],
        [0.018771948954748, 51.623798074288814],
        [0.018811700322022, 51.62374973015268],
        [0.019005705684922, 51.62375898306657],
        [0.019046813106659, 51.6237411901877],
        [0.018547642302909, 51.62356183059738],
        [0.018461152199213, 51.62353364241846],
        [0.018829306177094, 51.62323505362955],
        [0.018808784129222, 51.62319583935721],
        [0.017906914845686, 51.622471259565515],
        [0.017690967843397, 51.62235806846119],
        [0.017026079173082, 51.62235061072024],
        [0.017014371046033, 51.62234721488054],
        [0.017029831224634, 51.621979154042364],
        [0.016985368230467, 51.621953839653514],
        [0.016265548088123, 51.62181513105596],
        [0.016190173129465, 51.62177685850406],
        [0.016117434242676, 51.62150473440829],
        [0.016114029307423, 51.62149310257768],
        [0.016286798039936, 51.621414597704536],
        [0.016288867676586, 51.621330931463035],
        [0.01582440860785, 51.62092345276793],
        [0.015815189785724, 51.6209110215147],
        [0.015491417586597, 51.620841942999306],
        [0.015247607559099, 51.620882099161946],
        [0.014351958610779, 51.620328244036585],
        [0.014314716359848, 51.62030280473786],
        [0.014557384090546, 51.62007382661437],
        [0.014647044630106, 51.61994549289236],
        [0.01467665406879, 51.61940723034602],
        [0.01449971475648, 51.618902188098865],
        [0.012637729571135, 51.619067218130596],
        [0.012237353413648, 51.61909476513601],
        [0.010871518374598, 51.61904623071709],
        [0.010680859285389, 51.61894878023574],
        [0.010227520530725, 51.61915078366015],
        [0.010211920061738, 51.619157345603384],
        [0.010122226939858, 51.619056366599516],
        [0.010113407148733, 51.61905292061667],
        [0.009025485132872, 51.61918035537349],
        [0.008678455773022, 51.61907478680935],
        [0.016132685879394, 51.61689489119665],
        [0.016252100965438, 51.61685147430702],
        [0.021317342265508, 51.61215477082385],
        [0.021365553214292, 51.61203703721073],
        [0.021178816169379, 51.61118236205345],
        [0.021374982150735, 51.61114391291174],
        [0.021049451092238, 51.61054611733008],
        [0.02083528386864, 51.61060196175465],
        [0.020368113002431, 51.60970894884509],
        [0.020186337290755, 51.609778622654076],
        [0.019640619159389, 51.60887257067463],
        [0.019532132749399, 51.60873864957915],
        [0.019572182207037, 51.60872986716023],
        [0.019656610542402, 51.608712227783485],
        [0.019408054783014, 51.60825338719557],
        [0.01923825023622, 51.6082347264354],
        [0.019428204911496, 51.607796217974276],
        [0.019552797288237, 51.60760972654912],
        [0.01944639756077, 51.60765292309737],
        [0.019118817492776, 51.607788951127674],
        [0.017987311456969, 51.606047665739794],
        [0.018129785678936, 51.60600385020635],
        [0.017401392516998, 51.60530775788934],
        [0.017186730444259, 51.60505875619054],
        [0.012991192055845, 51.59920738337935],
        [0.012905000124303, 51.599054189433694],
        [0.012597223165081, 51.596403960390624],
        [0.012611880044235, 51.595919009141745],
        [0.012134465072985, 51.592990219178],
        [0.01208505557041, 51.59268891559705],
        [0.012275660289803, 51.59144826822569],
        [0.01245257039148, 51.591269879274634],
        [0.012390786172388, 51.59094990352281],
        [0.012390903223884, 51.59075656096198],
        [0.013325298367087, 51.58410310387135],
        [0.013369010897085, 51.58378581457065],
        [0.014100144874521, 51.58341086644891],
        [0.014865957781367, 51.583395921388664],
        [0.015501957922933, 51.58338320099157],
        [0.015403683932961, 51.582532390528776],
        [0.015246799022411, 51.58250990560729],
        [0.015530633952509, 51.58197626599732],
        [0.015669934191114, 51.58186236506393],
        [0.015332597070335, 51.58174136340185],
        [0.015232890268536, 51.581706206090914],
        [0.017361532971143, 51.577591484183635],
        [0.017413250716104, 51.57745570590911],
        [0.017390465975919, 51.574594649062675],
        [0.017382348950079, 51.574411339326666],
        [0.016465047437131, 51.57311958090672],
        [0.016343184035822, 51.57290944941741],
        [0.017060635756592, 51.5727514380834],
        [0.017311128909967, 51.57267249306705],
        [0.01789248104011, 51.57217869404409],
        [0.018015336137595, 51.572020109660436],
        [0.018760967875747, 51.5723031406252],
        [0.018882724572049, 51.57234780736536],
        [0.019064308785475, 51.570323142231125],
        [0.019129642237852, 51.56984361056568],
        [0.018344764024948, 51.57010710921575],
        [0.018247667686959, 51.57013036167516],
        [0.017710093009435, 51.57004788243496],
        [0.017667649880272, 51.570001850670806],
        [0.018966683794168, 51.56707758625041],
        [0.018988567556943, 51.56701785836605],
        [0.019022174540026, 51.56670163894177],
        [0.019010816487701, 51.56664068453977],
        [0.018820026369674, 51.56630764328721],
        [0.018752805127935, 51.56622336995161],
        [0.017966840637344, 51.56574409451651],
        [0.017750510690057, 51.56568126955464],
        [0.015596829199624, 51.565595987329694],
        [0.014431223414742, 51.56560161705769],
        [0.014181704960718, 51.56178403601349],
        [0.014190247609318, 51.561324366181104],
        [0.01447277573306, 51.56033931920639],
        [0.014754661008, 51.559437913820375],
        [0.015952782116013, 51.559322910340306],
        [0.016075487572401, 51.55929202544104],
        [0.017131244061959, 51.55879636998612],
        [0.017747550501081, 51.55841167870874],
        [0.020066658911108, 51.55647522381618],
        [0.020341634972971, 51.55626725521524],
        [0.021232248412905, 51.555140424304994],
        [0.021532208190505, 51.55487806648902],
        [0.017930901686366, 51.553591169088776],
        [0.016944911340591, 51.55318277250629],
        [0.016720426771286, 51.5533907645766],
        [0.016254270735789, 51.553222521194506],
        [0.015622846176738, 51.553949185276764],
        [0.014573840864041, 51.554954594624746],
        [0.011621324039459, 51.55391714833418],
        [0.011110246010786, 51.55439802361915],
        [0.009622310222746, 51.553433431930586],
        [0.010821210897507, 51.55226003355918],
        [0.009451416212374, 51.55138873677994],
        [0.009508222228089, 51.55123758678597],
        [0.006819529729315, 51.550877143353745],
        [0.00577954500543, 51.55064763139896],
        [0.005503125742474, 51.550659551161964],
        [0.005804309138325, 51.55166966996456],
        [0.005734855358704, 51.5518615011356],
        [0.005231283085501, 51.55182514629396],
        [0.005175572576363, 51.55213274710106],
        [0.00494580081824, 51.55212318514842],
        [0.004977485453107, 51.55189243240143],
        [0.003842790705584, 51.55180570601777],
        [0.003810922648736, 51.55193394562381],
        [0.003798641357431, 51.55198271556948],
        [0.003177587020617, 51.55196454517767],
        [0.003081012871355, 51.55209748644283],
        [0.000325653411943, 51.55179558516113],
        [-0.00035128972375, 51.5517198969806],
        [-0.003662138040147, 51.55091928619577],
        [-0.003822303832486, 51.55114862552314],
        [-0.005991769316487, 51.550487692321454],
        [-0.006302741953004, 51.55040215201849],
        [-0.008551894507217, 51.549929572365855],
        [-0.008676122728666, 51.54992538624339],
        [-0.009038147867197, 51.55061946550877],
        [-0.009137243668194, 51.55089362332327],
        [-0.009228861136051, 51.55180163316544],
        [-0.009471862956855, 51.55221581938526],
        [-0.010473646650168, 51.55259611353121],
        [-0.010595225205844, 51.552619757481025],
        [-0.011820732049963, 51.55233568287447],
        [-0.01293756383264, 51.5520956172176],
        [-0.015699151430574, 51.5517143105786],
        [-0.016951306853931, 51.55157901129335],
        [-0.01697045844671, 51.551403979297184],
        [-0.017137154305051, 51.55138521458961],
        [-0.01730706729765, 51.55238716410153],
        [-0.0175042572535, 51.55339227188093],
        [-0.017799644697579, 51.553963796602105],
        [-0.017950462358196, 51.554210943262014],
        [-0.01807561154336, 51.55408626188972],
        [-0.018471118694801, 51.55517565098683],
        [-0.022557264429552, 51.55705210333745],
        [-0.023033950869035, 51.55727056318687],
        [-0.02391981321781, 51.55736821875775],
        [-0.023968670751262, 51.5573726386808],
        [-0.024204130095984, 51.55829744468003],
        [-0.024278200583657, 51.558485737739815],
        [-0.024759167844964, 51.55907205904138],
        [-0.02494962334953, 51.559238030997804],
        [-0.025534438496415, 51.55969210762074],
        [-0.025890887143413, 51.55992292012441],
        [-0.028127727366103, 51.56090835250854],
        [-0.028552028572921, 51.561071953519054],
        [-0.029170460780822, 51.561283776911736],
        [-0.029376511206714, 51.56132320815185],
        [-0.030230895049104, 51.56135014464407],
        [-0.030291757097156, 51.5613439723506],
        [-0.032874818680615, 51.56062923461805],
        [-0.033307981708579, 51.560621208858336],
        [-0.036014701775048, 51.56145429709077],
        [-0.036416522069211, 51.56150418681238],
        [-0.038726486101578, 51.5611660345114],
        [-0.03883780642035, 51.5611607012398],
        [-0.039910547161817, 51.56171278525896],
        [-0.040076523689028, 51.5617785058255],
        [-0.042192796464826, 51.56138129581813],
        [-0.042389641068998, 51.56136659516722],
        [-0.043373607124195, 51.56160152731803],
        [-0.043735021651642, 51.5617190614879],
        [-0.044474417901421, 51.56170261108109],
        [-0.044740427428933, 51.561689958479306],
        [-0.045103965969966, 51.56175806475948],
        [-0.045705469561296, 51.56223210082653],
        [-0.045726325120406, 51.5622504333035],
        [-0.047092118320262, 51.56256543202508],
        [-0.04711324410052, 51.562577473963515],
        [-0.047340308352488, 51.56296883189409],
        [-0.047338058145124, 51.562987678796524],
        [-0.0466430812999, 51.56388615662569],
        [-0.046635063569364, 51.56390490749572],
        [-0.04680044808144, 51.56445620609934],
        [-0.04683679690606, 51.56451706124301],
        [-0.047483502217278, 51.56518338129728],
        [-0.047547516910049, 51.56523840180041],
        [-0.05068855170957, 51.56746682164635],
        [-0.050787929436528, 51.567538614369326],
        [-0.053159198570054, 51.568573455968924],
        [-0.053293902012255, 51.56866291844391],
        [-0.054291893054252, 51.57019651151906],
        [-0.054439044357572, 51.57029876856419],
        [-0.056010289803643, 51.570608075002184],
        [-0.056172111174004, 51.57067100575775],
        [-0.056621585059439, 51.57099318923725],
        [-0.056770647272662, 51.57135535892958],
        [-0.057590274155562, 51.57189769003981],
        [-0.058225795670715, 51.57232456227941],
        [-0.058430836401894, 51.57252489136716],
        [-0.058748029284603, 51.5735139210745],
        [-0.058864751224103, 51.57375505302839],
        [-0.059741609981113, 51.57502221285679],
        [-0.060004514144596, 51.57542312959537],
        [-0.060994676801617, 51.57742054596953],
        [-0.061184138252449, 51.577784276148364],
        [-0.066782901898917, 51.57661949381128],
        [-0.066737752354444, 51.57635706805309],
        [-0.070933976754372, 51.575690538975415],
        [-0.07185258417635, 51.575604920598835],
        [-0.074393528997168, 51.575685312200925],
        [-0.074448522167893, 51.575681718363924],
        [-0.075175502714929, 51.57555426164012],
        [-0.075205146622021, 51.575330834701155],
        [-0.075752985401632, 51.57548100176074],
        [-0.07578425805121, 51.57549230556767],
        [-0.075973335602783, 51.57525260848523],
        [-0.076246663569789, 51.5749315613656],
        [-0.077521400165317, 51.575229421393956],
        [-0.077545727624919, 51.57523431619924],
        [-0.080861716290795, 51.57558714562358],
        [-0.080876789273155, 51.57564044782911],
        [-0.081847284518439, 51.575453085487524],
        [-0.082234916772583, 51.57536410078339],
        [-0.084904959629719, 51.57511994712415],
        [-0.085689182839102, 51.57503742282154],
        [-0.085853251790712, 51.57487643601142],
        [-0.086663684405687, 51.57475386657183],
        [-0.087231619192712, 51.57470107736406],
        [-0.087180148904827, 51.57451769093451],
        [-0.087173918996936, 51.57449420892185],
        [-0.086865874743431, 51.5743722848093],
        [-0.086872117331602, 51.57429235346821],
        [-0.08983641711261, 51.574393700135644],
        [-0.089981047858789, 51.574386162647976],
        [-0.091264521783516, 51.57402936254741],
        [-0.091389713916041, 51.5740035221782],
        [-0.0935409672374, 51.573980041516464],
        [-0.093583052891917, 51.57397443052663],
        [-0.094575903205179, 51.57362995817023],
        [-0.094710384126027, 51.57358897789183],
        [-0.096568408681833, 51.57381336890269],
        [-0.096613077814435, 51.573814992714084],
        [-0.097664699462493, 51.57365219635923],
        [-0.097798952662713, 51.57361660434755],
        [-0.096864837021005, 51.57182994056515],
        [-0.096762113212496, 51.571594470081386],
        [-0.096115551105565, 51.57069822223677],
        [-0.096055345153289, 51.57065408147004],
        [-0.099042011559874, 51.568380646477586],
        [-0.100700344563572, 51.56712517325625],
        [-0.103095512764814, 51.56556685435748],
        [-0.104307165869755, 51.564812183779836],
        [-0.104603475396631, 51.56476481423537],
        [-0.104871463448891, 51.56463515497989],
        [-0.108422497010913, 51.567237324254116],
        [-0.108614450257112, 51.56737530554275],
        [-0.111621234603165, 51.56905316781984],
        [-0.115043074504098, 51.570574855852094],
        [-0.115093457113017, 51.570647604829084],
        [-0.115166036047747, 51.57067215105075],
        [-0.115139272776925, 51.57131917801243],
        [-0.1151427288555, 51.57141005733025],
        [-0.115601493005449, 51.571622453430685],
        [-0.115405642936191, 51.57189177952928],
        [-0.116127823047593, 51.57219023512527],
        [-0.115585284469398, 51.57257269555582],
        [-0.117451157825168, 51.57404053728786],
        [-0.117585262765486, 51.574147900276145],
        [-0.119063988494942, 51.57436944587557],
        [-0.11956701517872, 51.57438470173409],
        [-0.118899011880558, 51.57473009621992],
        [-0.118890210280793, 51.574733552106125],
        [-0.119393879426531, 51.575257791414785],
        [-0.119539401741591, 51.57550831495046],
        [-0.123609061445348, 51.574669719194915],
        [-0.123775321558755, 51.57466248591211],
        [-0.123960296792564, 51.57451616876017],
        [-0.124119310625793, 51.57440450682947],
        [-0.124506558530533, 51.57435764126123],
        [-0.124554039868988, 51.57436109785495],
        [-0.124713644420279, 51.57412984510682],
        [-0.124880937965095, 51.574097447949875],
        [-0.127124237060833, 51.57411618732412],
        [-0.127496470596518, 51.57415360119334],
        [-0.131197528553027, 51.573604712183275],
        [-0.131389701255472, 51.573563709555266],
        [-0.132977147753544, 51.573070113820286],
        [-0.133112109070679, 51.57301650795443],
        [-0.140521094232143, 51.56947692572176],
        [-0.140706165745502, 51.56939712797919],
        [-0.142170851415175, 51.5691478562223],
        [-0.14241583843384, 51.569120261237174],
        [-0.142417970320478, 51.56928036018773],
        [-0.143855388160194, 51.56991279269503],
        [-0.147096623845646, 51.57061596843378],
        [-0.148067496075521, 51.57080035227514],
        [-0.14916270859022, 51.57108560585551],
        [-0.14954311680019, 51.57120580896879],
        [-0.150113654555267, 51.57151245355568],
        [-0.150350712265373, 51.571573741862196],
        [-0.156981381040843, 51.57207643354257],
        [-0.158862744708766, 51.57219319315124],
        [-0.160515343173833, 51.57279372486711],
        [-0.160545556210059, 51.57279599695097],
        [-0.164090190693043, 51.57249900474148],
        [-0.164176756782236, 51.57249945980918],
        [-0.166595440529234, 51.57292754365964],
        [-0.166853586828931, 51.572967546158324],
        [-0.169148434008087, 51.57285140128571],
        [-0.169913442448497, 51.572775208995715],
        [-0.171285248062191, 51.572429705410215],
        [-0.171358438422805, 51.57240386880238],
        [-0.172694594361144, 51.57168730688225],
        [-0.173073656945276, 51.57148278708715],
        [-0.17350667965858, 51.57104800159004],
        [-0.173548102441419, 51.57098659884572],
        [-0.173739549561058, 51.57024231095399],
        [-0.173730919520393, 51.56991755136318],
        [-0.174351380848702, 51.569305831974305],
        [-0.174406861550954, 51.56925364002925],
        [-0.174887838984381, 51.56942208566289],
        [-0.175157363283296, 51.569429874342674],
        [-0.175992980098103, 51.56989518328863],
        [-0.176514277084418, 51.57006604735792],
        [-0.177695019443513, 51.570273229650496],
        [-0.178078315803424, 51.57043115268923],
        [-0.178271395011693, 51.570041183090225],
        [-0.178284553522426, 51.57003689117653],
        [-0.180752411025599, 51.56966692305952],
        [-0.180974564410592, 51.56966856850636],
        [-0.180833771046279, 51.569436180914536],
        [-0.183567472144459, 51.568006476167405],
        [-0.183718876740643, 51.5679728502269],
        [-0.18348178994636, 51.567766851685256],
        [-0.183811365964056, 51.5674985847671],
        [-0.186114847808493, 51.566939818171406],
        [-0.186167546889479, 51.56692084954612],
        [-0.187016767787882, 51.566465470379256],
        [-0.187192855692348, 51.566210109566796],
        [-0.188384777770111, 51.565771704551025],
        [-0.188701216822691, 51.56557875722207],
        [-0.189187573955951, 51.56553950331595],
        [-0.189252091496264, 51.56551352179564],
        [-0.189847365288126, 51.56505690101174],
        [-0.189900317461084, 51.56495880169546],
        [-0.190160386047766, 51.56375064047429],
        [-0.190144565736692, 51.563495012856926],
        [-0.190663025544188, 51.56191945015938],
        [-0.19076636550781, 51.56182392587438],
        [-0.191746996842018, 51.561580061540674],
        [-0.192319961895785, 51.56153853257854],
        [-0.193615739666419, 51.56095060300629],
        [-0.193788777132687, 51.560843559718414],
        [-0.194402707354711, 51.56078736417703],
        [-0.194481775751607, 51.56075800677321],
        [-0.194612089179213, 51.560563978016425],
        [-0.194851962599216, 51.56048134170528],
        [-0.196243904352698, 51.56067000574422],
        [-0.196594625165934, 51.56073924252681],
        [-0.196813062167834, 51.56061490781925],
        [-0.196919578747511, 51.560621040860894],
        [-0.196922497969654, 51.56003658118562],
        [-0.196944542480035, 51.559880452559185],
        [-0.196766319448963, 51.559389427593956],
        [-0.196680231290031, 51.55923163715145],
        [-0.197564207915803, 51.55891250154851],
        [-0.197623228514659, 51.558879237132835],
        [-0.197984631747102, 51.559115892166396],
        [-0.198231033414171, 51.55894072777001],
        [-0.198479123530099, 51.55875929412121],
        [-0.19850760400267, 51.5582210879395],
        [-0.198533228638328, 51.55815673623655],
        [-0.199052264244423, 51.557762744639746],
        [-0.199126196502153, 51.55771711902204],
        [-0.199624079753684, 51.557054827383006],
        [-0.1996602198865, 51.55697984592986],
        [-0.199464084010106, 51.55628442306507],
        [-0.19941000141656, 51.5561927700859],
        [-0.200169210755656, 51.55618193749281],
        [-0.200551409741505, 51.556147333908534],
        [-0.205779077944148, 51.555307470328565],
        [-0.205815225390845, 51.55530532536909],
        [-0.205893824397837, 51.55620396614222],
        [-0.205966107122593, 51.55641998908533],
        [-0.20833398709769, 51.55588965079266],
        [-0.208845104699951, 51.555731095542036],
        [-0.210026931502361, 51.5567499814546],
        [-0.210031115481925, 51.55675364222975],
        [-0.211246836002014, 51.55632166455623],
        [-0.211697679850517, 51.55615498412884],
        [-0.213285276802595, 51.555288026794464],
        [-0.213501320597128, 51.555186105772584],
        [-0.218319748082375, 51.55912518643228],
        [-0.218650214107057, 51.5594179592226],
        [-0.221553196085394, 51.562551765975314],
        [-0.221954970634582, 51.56294092866078],
        [-0.226426531968402, 51.56656327164953],
        [-0.226720581099513, 51.56679342323566],
        [-0.228637918447398, 51.56783941462208],
        [-0.228819055637165, 51.567968041431634],
        [-0.232235542761289, 51.57095285558166],
        [-0.233442488672184, 51.57197996946655],
        [-0.233875322965265, 51.57179584725164],
        [-0.234047487495303, 51.57174718198821],
        [-0.234506747368567, 51.57177477464836],
        [-0.234586277137998, 51.57177057573046],
        [-0.235069111648978, 51.572158213598385],
        [-0.235103078448048, 51.57221267836082],
        [-0.235644982995487, 51.57226758716369],
        [-0.2356939642565, 51.572306990549734],
        [-0.235381284840016, 51.572555872520766],
        [-0.235401058334864, 51.57256696063721],
        [-0.23575245811546, 51.57254796484063],
        [-0.235812111168475, 51.5725353731718],
        [-0.235887221119511, 51.572309895911076],
        [-0.235921938667178, 51.57230772011449],
        [-0.237566099077974, 51.572480797728744],
        [-0.237594908764044, 51.57248212963541],
        [-0.237761720247184, 51.572422587760514],
        [-0.237778523061217, 51.572398560833136],
        [-0.237667003539809, 51.57229707142031],
        [-0.237644901288671, 51.572271561009806],
        [-0.237721547893462, 51.572118044222435],
        [-0.237754180168544, 51.572095154243236],
        [-0.238147069672963, 51.57212263514712],
        [-0.238175375108566, 51.572099680090304],
        [-0.237884205092031, 51.571904671190886],
        [-0.237840608865106, 51.571875241136034],
        [-0.238014993584188, 51.57176905258762],
        [-0.238087103589068, 51.5717701352809],
        [-0.238701869598528, 51.57214265338995],
        [-0.238866475194406, 51.57225213236092],
        [-0.239056968341666, 51.572214525609056],
        [-0.239209040183536, 51.57208821738227],
        [-0.239806462870929, 51.57208818760607],
        [-0.23990382001662, 51.572070764011585],
        [-0.239995600863851, 51.57208562903262],
        [-0.240075011048938, 51.57212189000921],
        [-0.239972100008348, 51.5722831074608],
        [-0.239905395130869, 51.57232886702939],
        [-0.240016935405157, 51.572392586882174],
        [-0.240080462564958, 51.57239174115884],
        [-0.240521615568065, 51.57221581239244],
        [-0.240561735203263, 51.57218584005004],
        [-0.240718460093245, 51.572350051344785],
        [-0.240785079805494, 51.57234385621531],
        [-0.240956203413692, 51.572135102082505],
        [-0.241108433733699, 51.57211670154437],
        [-0.241270472842451, 51.572218045562224],
        [-0.241343927460764, 51.572296480280926],
        [-0.241361276788176, 51.57263215349719],
        [-0.241374762607173, 51.57265663483666],
        [-0.2417420522709, 51.57274936388178],
        [-0.242015542686437, 51.57280471740195],
        [-0.242492104566384, 51.57279566942488],
        [-0.242559660569756, 51.57276520807183],
        [-0.242418611438138, 51.572531094052685],
        [-0.242496782612275, 51.572487303255635],
        [-0.243376337008769, 51.57239346409135],
        [-0.243645954260946, 51.57232466197192],
        [-0.243920946220086, 51.572303598902494],
        [-0.244038619656101, 51.57232064667367],
        [-0.24428897435365, 51.57256448717735],
        [-0.244338494940381, 51.572552638821605],
        [-0.245101963553653, 51.57195078302019],
        [-0.245241903961468, 51.57191420872537],
        [-0.245992909662044, 51.572197903100644],
        [-0.246042429422306, 51.572186054017074],
        [-0.246731023450772, 51.571541703999195],
        [-0.24673484144004, 51.57151748181324],
        [-0.246023709799186, 51.57098530117126],
        [-0.246008918125471, 51.57095720392944],
        [-0.246385766077397, 51.57061393439721],
        [-0.24646463205464, 51.57051439905174],
        [-0.246513688467288, 51.57017702127662],
        [-0.246574507126333, 51.57002146386638],
        [-0.246558960753732, 51.56986296692871],
        [-0.246495966071955, 51.569812567934044],
        [-0.246259689394416, 51.56995291404163],
        [-0.246182840465976, 51.56996255630485],
        [-0.246057751118841, 51.5698383913211],
        [-0.246069990616205, 51.56978282193542],
        [-0.246587634361581, 51.56934274063917],
        [-0.246615830101998, 51.56932247962242],
        [-0.246609599317536, 51.568996864891055],
        [-0.246631784323189, 51.568982808676544],
        [-0.24736781800776, 51.56897941621569],
        [-0.247382584812737, 51.56897064445255],
        [-0.247083487153073, 51.56868112074341],
        [-0.24702365424686, 51.56862357539862],
        [-0.24713476007479, 51.56851103273815],
        [-0.247309817184243, 51.56846149210509],
        [-0.24808014109326, 51.56861687201939],
        [-0.248225716173873, 51.56865861142761],
        [-0.248597019932078, 51.5685337652124],
        [-0.248706274634532, 51.568544388088974],
        [-0.249672242315954, 51.569091144806045],
        [-0.249785058212358, 51.56915937054962],
        [-0.250768663676064, 51.57011193404367],
        [-0.251149505803836, 51.57026508412333],
        [-0.251752959182625, 51.57108518149566],
        [-0.251772287890828, 51.57110795020229],
        [-0.252083054572386, 51.57128253394506],
        [-0.252510292051318, 51.57150561125702],
        [-0.25310619107134, 51.57237324797383],
        [-0.253131112889312, 51.57243836350771],
        [-0.253018865188238, 51.57265610464478],
        [-0.252970478794816, 51.57267606660705],
        [-0.252118615344328, 51.572763196240615],
        [-0.251859724119531, 51.57281599141875],
        [-0.251366226207386, 51.573078407945566],
        [-0.251355365450786, 51.57313579682908],
        [-0.252353421785606, 51.57446713681588],
        [-0.252623102915271, 51.574923465129814],
        [-0.253353329867598, 51.57684339971235],
        [-0.253427625749178, 51.57701356054954],
        [-0.254245304191948, 51.57846089643182],
        [-0.254415403130162, 51.57884290119697],
        [-0.254612988924215, 51.579486990034226],
        [-0.254631798730553, 51.579598774136585],
        [-0.254372158591879, 51.58023516327453],
        [-0.254335357660484, 51.58040457009344],
        [-0.254394088485522, 51.58139549429399],
        [-0.254395798710706, 51.581463861095045],
        [-0.25399871062002, 51.58192015761472],
        [-0.2538294387423, 51.58204353118135],
        [-0.252885140667933, 51.5824287349665],
        [-0.252535740740876, 51.58261956486836],
        [-0.252044345416407, 51.583050171448384],
        [-0.251667870530121, 51.5834573096091],
        [-0.248367589066515, 51.584300134145636],
        [-0.248284314693488, 51.58436363571924],
        [-0.251937606026194, 51.58793768517554],
        [-0.252536488203088, 51.588544589855196],
        [-0.257028489166318, 51.5917604774024],
        [-0.257421207727535, 51.59202348750945],
        [-0.259770163925117, 51.594174217789515],
        [-0.260641470722254, 51.59491100986749],
        [-0.265187703089916, 51.59855361142421],
        [-0.26573063298398, 51.59900765004735],
        [-0.268448059658227, 51.60147477515781],
        [-0.268736225406249, 51.601719118543386],
        [-0.272970145735714, 51.60502588666343],
        [-0.2738076642183, 51.605712623022264],
        [-0.275555489503315, 51.6075682305384],
        [-0.276036802465811, 51.60801501993611],
        [-0.277135963699276, 51.60873614741765],
        [-0.277315173838341, 51.608885350696184],
        [-0.281482088990544, 51.61269977679935],
        [-0.282199703229832, 51.61335592054524],
        [-0.286852274278747, 51.616608047890686],
        [-0.287565593448043, 51.61715169250157],
        [-0.288008667291993, 51.617775918650906],
        [-0.288276186087504, 51.618036996369284],
        [-0.298668867502002, 51.626971627697934],
        [-0.299254915464879, 51.627410843633776],
        [-0.3025389900102, 51.63042848272414],
        [-0.303953920044572, 51.63146414558814],
        [-0.305462270890676, 51.63336798317466],
        [-0.305597635000022, 51.634117184880346],
        [-0.305049855754815, 51.63539965291242],
        [-0.304482738231347, 51.636347330940275],
        [-0.304160330238843, 51.63642899954007],
        [-0.303994003707027, 51.63647155794895],
        [-0.302944088654902, 51.63626035892359],
        [-0.302746551029338, 51.6361325127166],
        [-0.302436372452978, 51.63635103413822],
        [-0.301781063238127, 51.63625343494771],
        [-0.300101795413207, 51.635792116358566],
        [-0.299877630841375, 51.63575829743611],
        [-0.297232727185319, 51.63573166049391],
        [-0.296151062411161, 51.63544350657326],
        [-0.294406496050809, 51.635646578646224],
        [-0.29204334978431, 51.636428716196214],
        [-0.291891320177701, 51.636475062344815],
        [-0.29057493589445, 51.63658808973087],
        [-0.289928911887169, 51.636666805932535],
        [-0.289141587176306, 51.636583399174874],
        [-0.288366936359016, 51.6364704977096],
        [-0.28601573326121, 51.63685523465134],
        [-0.28552389957764, 51.636945169532424],
        [-0.284282427784111, 51.63759964996486],
        [-0.283897996201886, 51.637791859762494],
        [-0.282935846515775, 51.638013388522396],
        [-0.281414678071708, 51.63834272771228],
        [-0.279041929447286, 51.63829988185975],
        [-0.278636527221249, 51.638320016579776],
        [-0.276760948340583, 51.63877178834709],
        [-0.276498729160262, 51.638865055225224],
        [-0.274019317330127, 51.63870004700024],
        [-0.273737180367295, 51.63867072125959],
        [-0.273985004929194, 51.63884251832865],
        [-0.274164468797034, 51.638911698431684],
        [-0.274183643536872, 51.6390918239162],
        [-0.274200145778619, 51.63930428196703],
        [-0.273378898525322, 51.64079839892075],
        [-0.273176719740333, 51.641060695093394],
        [-0.27287810657815, 51.64195911808775],
        [-0.2728902495605, 51.64209597782774],
        [-0.270647215479614, 51.64205756882172],
        [-0.270060877872637, 51.64208400135727],
        [-0.268805449321902, 51.64229839612767],
        [-0.268270361468559, 51.642383125310346],
        [-0.2683656614359, 51.64378910976419],
        [-0.268369864458509, 51.64383053578418],
        [-0.266791127475059, 51.64410758234128],
        [-0.265554995525999, 51.644041671329425],
        [-0.265235068315728, 51.644017162428575],
        [-0.26447385362508, 51.64370197805391],
        [-0.264382878063972, 51.643624199786764],
        [-0.264250620165526, 51.64383266196579],
        [-0.264057465482326, 51.64378124875067],
        [-0.263296171808815, 51.644830170278134],
        [-0.26172573715612, 51.644056984218956],
        [-0.261628609521161, 51.64398900413354],
        [-0.261361371716969, 51.64375844432611],
        [-0.261314252654637, 51.64370559193216],
        [-0.261264963321624, 51.64340722058896],
        [-0.261242985473782, 51.643339453717545],
        [-0.260736724857239, 51.642670130684394],
        [-0.2604730413839, 51.64253583784686],
        [-0.25750777901163, 51.641883099695114],
        [-0.257356666933927, 51.64182870236937],
        [-0.25649260340439, 51.64314222450163],
        [-0.256196038962716, 51.64348851626908],
        [-0.255511756466305, 51.643241857307096],
        [-0.255444439492587, 51.64333887212363],
        [-0.255380218172975, 51.6434305375784],
        [-0.254766494712929, 51.6436048581982],
        [-0.254513698731946, 51.643676635067116],
        [-0.251900511679247, 51.647210360634844],
        [-0.251765212825038, 51.64749609660846],
        [-0.251296700902934, 51.64870306669221],
        [-0.25121705941386, 51.648932080807356],
        [-0.250445099966778, 51.65208763188978],
        [-0.249880965825016, 51.65461142601069],
        [-0.250592630711825, 51.654713750314365],
        [-0.250756676748432, 51.65477104636622],
        [-0.25117042542605, 51.655064059477],
        [-0.251356918108887, 51.655214308457936],
        [-0.251281189507368, 51.65526623467506],
        [-0.251205460732495, 51.655318160841276],
        [-0.251275146637526, 51.65553591022494],
        [-0.251232079855002, 51.65567824462649],
        [-0.250835062251636, 51.65592681052326],
        [-0.250607533034923, 51.656053807926256],
        [-0.249871222127599, 51.65606531730106],
        [-0.249735721512046, 51.65616760717733],
        [-0.249372876061032, 51.65605429241182],
        [-0.249007108046415, 51.655941832154035],
        [-0.248019862325415, 51.65537498725419],
        [-0.247890446533492, 51.65524446812493],
        [-0.244715018925493, 51.65631028043438],
        [-0.244413038496091, 51.65649280387416],
        [-0.24139007218197, 51.65720111838139],
        [-0.241018338372426, 51.65683226632846],
        [-0.23849313177893, 51.65763968162705],
        [-0.237995897021858, 51.657785988613675],
        [-0.238300446560095, 51.658246462037084],
        [-0.237007646544845, 51.65866318242489],
        [-0.236702700400739, 51.658771905691346],
        [-0.234951469484173, 51.65900457301711],
        [-0.234731974505224, 51.658997676925445],
        [-0.234413229456025, 51.65856845339382],
        [-0.234252131490878, 51.65824950582431],
        [-0.229487695152285, 51.65985931287606],
        [-0.228943984502987, 51.65997250913298],
        [-0.228837747674422, 51.659916054481954],
        [-0.228513517399298, 51.65996241956021],
        [-0.228294317277209, 51.65920646529251],
        [-0.228475744168906, 51.65918852021437],
        [-0.228236124791497, 51.65884499992542],
        [-0.228082765349156, 51.6585882066363],
        [-0.226635016062802, 51.657267878343276],
        [-0.22648747623301, 51.65715864294663],
        [-0.22588817742827, 51.657474209374485],
        [-0.226068885722549, 51.65762261306504],
        [-0.220264189426127, 51.66046264937315],
        [-0.219825690227731, 51.660657428665736],
        [-0.219272255230627, 51.66079651030215],
        [-0.218919491780523, 51.66005829528774],
        [-0.217152467832775, 51.660615976456626],
        [-0.213525636278252, 51.66232243528784],
        [-0.213418026406827, 51.66237475156164],
        [-0.212449874735201, 51.66158758743157],
        [-0.212159915242422, 51.66135027498974],
        [-0.208122464370124, 51.662793138640865],
        [-0.207888559174329, 51.6628579103393],
        [-0.210446234446195, 51.66612871581461],
        [-0.211158533401828, 51.66695156449828],
        [-0.209863477041184, 51.66755948793401],
        [-0.207984178949164, 51.66659114067807],
        [-0.205760580906935, 51.6684833232633],
        [-0.205659168735707, 51.668597773491015],
        [-0.204735335108138, 51.668482043093704],
        [-0.203886599794696, 51.668332384282934],
        [-0.20269487275401, 51.66793378156266],
        [-0.202254689113119, 51.667802052396354],
        [-0.202633117952172, 51.66931134385547],
        [-0.203377581356236, 51.670123042233485],
        [-0.200145287784445, 51.67012570612119],
        [-0.199896361630627, 51.67016685212457],
        [-0.19913801793237, 51.66850335487464],
        [-0.199029896078031, 51.66820315502104],
        [-0.196960828910746, 51.668158818641096],
        [-0.196638971725171, 51.66814308618944],
        [-0.196184130476753, 51.668526363775555],
        [-0.195650001683851, 51.66843003495733],
        [-0.194877074401132, 51.66830215761823],
        [-0.196673289912386, 51.665494502288325],
        [-0.196689828781147, 51.66547857023087],
        [-0.193851996707937, 51.66498804625853],
        [-0.192555885316904, 51.66474599732738],
        [-0.191243958278093, 51.66410263653199],
        [-0.191091785369617, 51.663893471175165],
        [-0.188978371333487, 51.66648933088788],
        [-0.187815358746799, 51.66787597829497],
        [-0.185829267457643, 51.66850624465866],
        [-0.18496812705776, 51.668487543781104],
        [-0.182110401323701, 51.66860070785898],
        [-0.17673651833553, 51.672096316621705],
        [-0.177031399938898, 51.672676397755865],
        [-0.176410908424404, 51.67264158667075],
        [-0.17546571958805, 51.672589139375496],
        [-0.175682862981414, 51.67315992321216],
        [-0.175354625679358, 51.67344617290076],
        [-0.174983666908343, 51.673212006060304],
        [-0.172498179522644, 51.6730879308795],
        [-0.164692296622914, 51.681325406054924],
        [-0.163631923060737, 51.682399591571794],
        [-0.163521591160589, 51.68748567738487],
        [-0.163517965466905, 51.68811148050859],
        [-0.159253383307138, 51.68749440116286],
        [-0.15801672444211, 51.687237619221975],
        [-0.156906131436535, 51.686762492315864],
        [-0.156229555274956, 51.686536959148135],
        [-0.15399153981875, 51.68600273711076],
        [-0.153282929793055, 51.68585401669779],
        [-0.149839945393522, 51.6855318647256],
        [-0.149395060189224, 51.685514964637946],
        [-0.145044550517017, 51.686267332554856],
        [-0.144683136086474, 51.68633176397301],
        [-0.140346992714039, 51.68771814031991],
        [-0.13961109580062, 51.68791780523551],
        [-0.136177399253399, 51.688600735912125],
        [-0.135404162647847, 51.688722448592124],
        [-0.131266588507379, 51.688893190882375],
        [-0.130274748944663, 51.68891247674374],
        [-0.122208321296295, 51.688542803977846],
        [-0.122121460844141, 51.68854411300357],
        [-0.118442308459609, 51.68903286489151],
        [-0.118272759489187, 51.68893483050313],
        [-0.117995965721996, 51.68898075266625],
        [-0.118013806306812, 51.689108729043916],
        [-0.1178197431876, 51.68921802312885],
        [-0.113404860496844, 51.690592256926735],
        [-0.112922305351034, 51.69081920419544],
        [-0.110560122127715, 51.691327961912876],
        [-0.109646171253133, 51.69149040501104],
        [-0.109774597998383, 51.69167231771593],
        [-0.109282624499385, 51.69174263263132],
        [-0.107519815361639, 51.691859020186705],
        [-0.106746613193035, 51.69187263778751],
        [-0.104190269442246, 51.69179633633944],
        [-0.103841111997937, 51.69177271581991],
        [-0.0968879976522, 51.69055151380215]
      ]
    ]
  }
}
