{
  "type": "Feature",
  "properties": {
    "name": "South London",
    "level": 1
  },
  "geometry": {
    "type": "Polygon",
    "coordinates": [
      [
        [-0.029769226435636, 51.49292475445551],
        [-0.029333116023753, 51.49218092685694],
        [-0.029006996001556, 51.49162599378056],
        [-0.027516907798646, 51.48970348463324],
        [-0.027285086224083, 51.489434300983206],
        [-0.024843687844213, 51.487596465832056],
        [-0.024692974410672, 51.48748421635278],
        [-0.02351741346765, 51.48682232970313],
        [-0.023444083277539, 51.486786022169674],
        [-0.024201723815783, 51.48618638946456],
        [-0.024611869073603, 51.48586146989051],
        [-0.025029769047666, 51.48529028006033],
        [-0.025201256155031, 51.48502158938043],
        [-0.025739120793476, 51.48257294675803],
        [-0.025819095326914, 51.48218850716763],
        [-0.026368334072762, 51.481576358948494],
        [-0.026408662495057, 51.48150959263226],
        [-0.024719825790609, 51.48119698494042],
        [-0.02316123082133, 51.48073727003796],
        [-0.023120720289547, 51.48024198908414],
        [-0.023070909902965, 51.47962874701859],
        [-0.022523464826456, 51.47969955032361],
        [-0.02036739136676, 51.47993564589153],
        [-0.020417988521377, 51.48023056124005],
        [-0.018583721030287, 51.48081647713701],
        [-0.018400869074515, 51.48084845849732],
        [-0.018161346860056, 51.480858798515754],
        [-0.017875265217317, 51.4808800414717],
        [-0.017067363461999, 51.48038077546539],
        [-0.016859709006432, 51.480287336459355],
        [-0.017105551920375, 51.4800316053656],
        [-0.017231421168601, 51.47998517339186],
        [-0.018376698633801, 51.47987773812385],
        [-0.018443949805265, 51.4798545944267],
        [-0.018897834776277, 51.47951694480299],
        [-0.018964037119628, 51.47945151741685],
        [-0.019166620740967, 51.478166286599674],
        [-0.019201712223582, 51.47795465177077],
        [-0.019097622985446, 51.477332397026814],
        [-0.019118395520486, 51.47725181368627],
        [-0.020453441707048, 51.47681753248197],
        [-0.020578326984877, 51.476727016132486],
        [-0.020775125027831, 51.47650552095932],
        [-0.020791576878515, 51.476458137379076],
        [-0.020700691055916, 51.47592963098473],
        [-0.020652427220522, 51.47584698264375],
        [-0.020746080079098, 51.47567950090757],
        [-0.020846498840524, 51.47558857125222],
        [-0.022763221552609, 51.475354726705675],
        [-0.022767577355211, 51.47535390089225],
        [-0.022918469635031, 51.475194576891596],
        [-0.022930560377397, 51.47508147278668],
        [-0.022803169367539, 51.474464224021965],
        [-0.022811018554402, 51.474282703877606],
        [-0.022645928227246, 51.47427092701683],
        [-0.022617843317109, 51.47408790156506],
        [-0.022672675106424, 51.473985410273926],
        [-0.022449409500484, 51.47408685927225],
        [-0.022341450075003, 51.47408593755329],
        [-0.021870797718842, 51.47394760358156],
        [-0.021772367884804, 51.47402597788073],
        [-0.020934479876287, 51.47358918049589],
        [-0.020836633435941, 51.47352098282277],
        [-0.020665599058797, 51.47321414216627],
        [-0.020647593371851, 51.473197651323645],
        [-0.020117997732548, 51.47312396182124],
        [-0.020050642154242, 51.47308325647752],
        [-0.019978428435957, 51.472921966816884],
        [-0.01998305802414, 51.47284830482883],
        [-0.020299664462217, 51.4722871109283],
        [-0.020245066524924, 51.47218457144097],
        [-0.020051948404349, 51.47205541242599],
        [-0.019999254765464, 51.47204193275619],
        [-0.019398582654568, 51.47204707461524],
        [-0.019345423405077, 51.472011105019504],
        [-0.019152986852321, 51.47146739223509],
        [-0.019110025630991, 51.47122925891109],
        [-0.018884244862769, 51.47118947311922],
        [-0.018827550691167, 51.47110218510835],
        [-0.018958564851976, 51.47106932738045],
        [-0.018981858834157, 51.471063426083475],
        [-0.018792491271958, 51.470748179231336],
        [-0.018671673393802, 51.47064541918411],
        [-0.019199922472548, 51.470550029781556],
        [-0.01927264351113, 51.47049999995287],
        [-0.019018145995189, 51.470059553693986],
        [-0.019117973014814, 51.469948831539234],
        [-0.018700574798474, 51.46971246438054],
        [-0.018473405662006, 51.46960520894961],
        [-0.017508957700515, 51.469433330503044],
        [-0.017273814279591, 51.46941046936654],
        [-0.016949378656943, 51.46905606490272],
        [-0.016558947219775, 51.46922751601013],
        [-0.01530119362835, 51.46815048598729],
        [-0.015090178495741, 51.4680363031666],
        [-0.013476095913658, 51.468767050876636],
        [-0.013128934513713, 51.46893652597933],
        [-0.014046704017293, 51.47005008657875],
        [-0.014097013175946, 51.47011838412607],
        [-0.014860694529665, 51.47139928998599],
        [-0.015184466870541, 51.47176897648575],
        [-0.014534390039089, 51.47191714038756],
        [-0.014528595559608, 51.47191794153052],
        [-0.014540931658561, 51.47213127770927],
        [-0.014542912021501, 51.472151994482836],
        [-0.014257570470123, 51.47252215805521],
        [-0.014069480428056, 51.47267544539849],
        [-0.012873974097318, 51.47235213463393],
        [-0.012518805642305, 51.47234071876267],
        [-0.008614385959262, 51.472754677481056],
        [-0.008143439474014, 51.472756569413214],
        [-0.000983537567782, 51.47181187488659],
        [-0.000359061555578, 51.47183449871735],
        [0.018041189903217, 51.4738447476248],
        [0.018123643340124, 51.473853220382054],
        [0.016029149469877, 51.47331371899103],
        [0.014984943542434, 51.47307987307602],
        [0.015212840282213, 51.47191229453807],
        [0.015357581282977, 51.47156988062995],
        [0.016199277799662, 51.4700527201217],
        [0.016205612652235, 51.470000453215775],
        [0.016605608997106, 51.46963476276509],
        [0.016694306568167, 51.46949115154641],
        [0.016612041464222, 51.46932350285158],
        [0.016533023415807, 51.46913151781279],
        [0.016330578461591, 51.468981223681105],
        [0.014987312679457, 51.46957176100099],
        [0.01454523983271, 51.46970165953685],
        [0.012992508643602, 51.469852430268084],
        [0.012601745173434, 51.46980698110767],
        [0.013051694387419, 51.46828577632527],
        [0.0130689540005, 51.46812181189859],
        [0.012666848542237, 51.467491129706474],
        [0.01269120863152, 51.46735761877914],
        [0.013141500584114, 51.46695690410169],
        [0.013245421612519, 51.46683191883847],
        [0.011596621383198, 51.4662693977214],
        [0.011459489928519, 51.46622858542292],
        [0.009943273337748, 51.46599559885584],
        [0.009097136377418, 51.46587431193371],
        [0.00911634784789, 51.46582002620373],
        [0.009174232181828, 51.465564539387195],
        [0.008987519777202, 51.46485371478914],
        [0.008988103884464, 51.464735899749435],
        [0.009719641744383, 51.46277373262127],
        [0.009795667717195, 51.462505344472994],
        [0.009764902565552, 51.46114976439091],
        [0.009747147163166, 51.46087668898701],
        [0.009903525690212, 51.459553871158356],
        [0.009947431283246, 51.45934088927555],
        [0.011484682995071, 51.4566850383989],
        [0.011516161713154, 51.456615253963925],
        [0.013528632696956, 51.455865779061675],
        [0.014030629863588, 51.45572676024191],
        [0.017479692410639, 51.45504605082012],
        [0.017513934426646, 51.45503916655326],
        [0.017502302203416, 51.454187750991416],
        [0.017507603736379, 51.45411212043549],
        [0.018010143075261, 51.45303962476784],
        [0.018041597861635, 51.45300221287408],
        [0.018330500320784, 51.4515898690265],
        [0.018331621451958, 51.45158265549879],
        [0.019289100484799, 51.45168846734491],
        [0.019535944776859, 51.45170489825398],
        [0.019744869339474, 51.45112306275207],
        [0.019871672181537, 51.45073508745699],
        [0.019838435633916, 51.450732063053444],
        [0.01512275490592, 51.450226895741174],
        [0.015009173003, 51.450621832636756],
        [0.014875990913852, 51.45060433784628],
        [0.015063793732772, 51.45003186677226],
        [0.017293980426001, 51.44952768144043],
        [0.017985480297834, 51.44941236195304],
        [0.021927612001863, 51.44895863907097],
        [0.022131448476941, 51.448718612534485],
        [0.022820146927407, 51.44743335066909],
        [0.022942439832945, 51.44720462184474],
        [0.021531914471657, 51.44677751839072],
        [0.021210059080662, 51.44669134227146],
        [0.02126225315069, 51.44523361011084],
        [0.021263122395437, 51.44499258829174],
        [0.021483411739531, 51.444441128291174],
        [0.020596858101245, 51.44421091129899],
        [0.021098223472188, 51.4434091029991],
        [0.021482904566053, 51.44273520392322],
        [0.02500438306702, 51.441796721002426],
        [0.025416227420551, 51.44173834606114],
        [0.027281145259886, 51.441543335541674],
        [0.027767509812619, 51.441510641786046],
        [0.029359008045488, 51.441705220093475],
        [0.029576442611515, 51.44174102363607],
        [0.029978330427452, 51.44327543104466],
        [0.030324892039113, 51.44430809749008],
        [0.030500721568053, 51.4443140445092],
        [0.030585760429957, 51.44431706774162],
        [0.033377212169677, 51.44359691294767],
        [0.033470518156903, 51.44359169713386],
        [0.035488995734821, 51.44248022232505],
        [0.035543595239929, 51.44244600072859],
        [0.039748519904958, 51.44099609987935],
        [0.039814260419542, 51.440985962986296],
        [0.041953568832378, 51.43965374607373],
        [0.042184708042478, 51.439480653912305],
        [0.043225340032923, 51.43787528358858],
        [0.043311620829712, 51.43774518198979],
        [0.044884582973883, 51.43678519256948],
        [0.045182907573596, 51.43660282849855],
        [0.045148158375038, 51.436404693235126],
        [0.045147078454509, 51.436219459705946],
        [0.047104174791523, 51.43439212149965],
        [0.047784917082388, 51.4337534285117],
        [0.050148223740291, 51.43213476751196],
        [0.051049086481584, 51.43152997409725],
        [0.053458873600056, 51.428995857665775],
        [0.05389180561783, 51.42844870002058],
        [0.055985201735773, 51.4265001124073],
        [0.056391304567264, 51.42615755360273],
        [0.058199762060838, 51.42488299310242],
        [0.058596597155412, 51.424590949186026],
        [0.060644449195286, 51.42505945890231],
        [0.060899947673162, 51.42507924686455],
        [0.061337517090651, 51.42406255120245],
        [0.061708273271994, 51.42373498375738],
        [0.063264054880186, 51.424232787007604],
        [0.063342174621414, 51.42427457741108],
        [0.064004022535482, 51.42478900582818],
        [0.064437224787668, 51.4250493630772],
        [0.06419699190847, 51.425368345232634],
        [0.064194198232784, 51.425370193013684],
        [0.064778973390206, 51.42551456899037],
        [0.064714558375598, 51.42561732333146],
        [0.066579522338758, 51.42601521027943],
        [0.066404183618902, 51.42633754906763],
        [0.06693508299368, 51.426722074769756],
        [0.071636595228796, 51.42943494655093],
        [0.071942833526682, 51.42965345553355],
        [0.072237708918082, 51.42993871192631],
        [0.073471425543429, 51.431259527836886],
        [0.073035153924202, 51.43137875717999],
        [0.073327823296025, 51.43177376296708],
        [0.074304792686792, 51.431490286506694],
        [0.074835988369017, 51.43083069857567],
        [0.075182198145527, 51.43161324429264],
        [0.075343176131047, 51.43199079254366],
        [0.080516241766536, 51.43077766164289],
        [0.080711740169323, 51.43077419095197],
        [0.082606470559328, 51.430205459939295],
        [0.082906193902109, 51.430058045777045],
        [0.083464500011885, 51.42968121189505],
        [0.083663684180503, 51.429505906500296],
        [0.086934636721917, 51.425928784734225],
        [0.087250190401878, 51.42562460071067],
        [0.089810907541405, 51.423548367046244],
        [0.090064125751089, 51.423328920735884],
        [0.092873545996663, 51.421475702537236],
        [0.092973082114181, 51.421387592896984],
        [0.094858176632638, 51.420242385454365],
        [0.09566016380555, 51.419789191747626],
        [0.101089046296776, 51.41695093579575],
        [0.102275357721195, 51.41638198974235],
        [0.103116017551594, 51.41580304820813],
        [0.103231493639324, 51.41571824065715],
        [0.107010281123094, 51.41435717161409],
        [0.10700569471534, 51.414257432433224],
        [0.108870701848862, 51.41378322888302],
        [0.109536938013911, 51.41363544335355],
        [0.111764221207184, 51.41331564463295],
        [0.11207478855505, 51.413283068438844],
        [0.112333738109804, 51.41322264447996],
        [0.112493954667369, 51.41317299288361],
        [0.112559006129057, 51.41302433574374],
        [0.113098950999449, 51.412913879064156],
        [0.113478152998488, 51.413059920433206],
        [0.113560484581324, 51.41309890372619],
        [0.119070462272952, 51.413298855931885],
        [0.119489824524374, 51.41334882634222],
        [0.121785996429937, 51.41377310688239],
        [0.122015650877221, 51.41382560391566],
        [0.125339018561892, 51.4147528009197],
        [0.125402474381567, 51.41478762183606],
        [0.126318513793794, 51.41472423976263],
        [0.126626243286719, 51.41463052430102],
        [0.127370582691539, 51.414957846795495],
        [0.127520818093463, 51.41497220585318],
        [0.128229734663041, 51.414970124171596],
        [0.129030566976009, 51.414903417443476],
        [0.13153368711988, 51.414517078038614],
        [0.131864881176082, 51.41446428957197],
        [0.134136036818806, 51.41385369254678],
        [0.134319849351446, 51.41381707066719],
        [0.13885302168913, 51.41172628104544],
        [0.139139708090709, 51.41161403118613],
        [0.145544673426138, 51.40946091404351],
        [0.145538175662097, 51.40941426943545],
        [0.148803153111978, 51.40850999676854],
        [0.148876683233199, 51.40848346788413],
        [0.148742887618595, 51.40826739156448],
        [0.148666043017944, 51.40813120778869],
        [0.149666470210737, 51.40769378398564],
        [0.150107902109132, 51.407448269164846],
        [0.151027540699251, 51.40666878304146],
        [0.151073769912014, 51.40664275393033],
        [0.151972762996963, 51.406342966544855],
        [0.152029765145679, 51.40633202730827],
        [0.152683272586064, 51.40634700176324],
        [0.152796307500952, 51.406273880215174],
        [0.152734332613748, 51.40605648870355],
        [0.153187953069437, 51.40561199248316],
        [0.153970887955001, 51.40516863536561],
        [0.154273428069045, 51.40493644927991],
        [0.155122258099592, 51.404029631628944],
        [0.155223072469866, 51.40397202055576],
        [0.155115033949265, 51.4038759839096],
        [0.154940957061623, 51.40365975602135],
        [0.15527555103485, 51.403589751285146],
        [0.155487698069543, 51.40357595636976],
        [0.156189741830459, 51.40269791052751],
        [0.156408767399478, 51.402494234588744],
        [0.156908315018731, 51.401621709395684],
        [0.15707177301586, 51.40139837110966],
        [0.157637880359776, 51.399588443091524],
        [0.157760340596316, 51.39922736608181],
        [0.157691861298903, 51.39841385893254],
        [0.157702326285426, 51.39814747257131],
        [0.158878747005893, 51.395958480720914],
        [0.158954228736474, 51.39582129501717],
        [0.160256944230921, 51.39427116393792],
        [0.160459983289287, 51.39403450030998],
        [0.162159438015887, 51.3926389048821],
        [0.162357995268799, 51.39249045231657],
        [0.158984434374677, 51.392280180322146],
        [0.158247993985721, 51.39223979102947],
        [0.148036736342083, 51.392770090162685],
        [0.147714761902078, 51.3928011734393],
        [0.14767804767064, 51.39235489324183],
        [0.147507764929515, 51.392156570950306],
        [0.147960608894673, 51.39182002401739],
        [0.14859767711119, 51.3913658854069],
        [0.149705410847347, 51.39095616674364],
        [0.149809290868976, 51.39087242404294],
        [0.149458313687893, 51.389977762543865],
        [0.149403247656605, 51.38987625230856],
        [0.148636305149817, 51.388815653746086],
        [0.148627965217445, 51.38866832102567],
        [0.149390438981098, 51.38785485418554],
        [0.148875564717345, 51.38757202587001],
        [0.149317725490833, 51.38713134987762],
        [0.149679922711208, 51.38670203178406],
        [0.150250326055023, 51.38636062013049],
        [0.150270939780817, 51.38634045710025],
        [0.150430460260678, 51.38603356448247],
        [0.150432616132893, 51.38601823674975],
        [0.150328440999508, 51.38585018058246],
        [0.149965806850054, 51.38584064876297],
        [0.149863240971297, 51.38533892106086],
        [0.149773723554911, 51.38487022803277],
        [0.149785647164563, 51.38383670934519],
        [0.14976062516123, 51.38367079732908],
        [0.150037434138896, 51.38359737029861],
        [0.150439980772143, 51.38344699235893],
        [0.150435397650219, 51.38224560644566],
        [0.150424070019843, 51.381636086240526],
        [0.15026537631936, 51.38153108271963],
        [0.150263687733252, 51.381525717889595],
        [0.150346853957925, 51.3810925253481],
        [0.149582172554908, 51.38108947257143],
        [0.149629243184338, 51.38031520731059],
        [0.149587044818183, 51.380089356992904],
        [0.150218407121348, 51.379946471578805],
        [0.151107020945048, 51.379895984057896],
        [0.151090916708312, 51.379644474536654],
        [0.15094828522259, 51.3790850282485],
        [0.151630986996271, 51.37887284524535],
        [0.152326559745494, 51.37869009878658],
        [0.15216337546802, 51.37833607292774],
        [0.153003615726996, 51.37811289364173],
        [0.153209822499458, 51.3780362598559],
        [0.152722430991697, 51.376805975337646],
        [0.152611432917593, 51.37658408813902],
        [0.152571496998249, 51.37539594063634],
        [0.152510536270467, 51.37522979006],
        [0.15192620219571, 51.375362831447625],
        [0.151709786727239, 51.375436053366364],
        [0.149754022948977, 51.37380824732972],
        [0.149573883913965, 51.37358223032307],
        [0.15080729521936, 51.37292018406305],
        [0.150769942095912, 51.372797665077854],
        [0.150750248761517, 51.37259208574553],
        [0.150958871588938, 51.37226090793941],
        [0.151179538112514, 51.37218670990984],
        [0.150100214883026, 51.37015700901552],
        [0.150844638981597, 51.36997697081236],
        [0.152031035079709, 51.36969348230504],
        [0.151502414359084, 51.36828588686851],
        [0.151494984302882, 51.36828062750582],
        [0.150998393861186, 51.368322122692476],
        [0.150972976575604, 51.36833158249814],
        [0.14949221928543, 51.36910878555844],
        [0.149411401471976, 51.369162428300825],
        [0.148937714429709, 51.36849664019562],
        [0.148849832921483, 51.36812324196462],
        [0.147253489057744, 51.367013995382216],
        [0.147220017983545, 51.366974140204576],
        [0.147768488007318, 51.366690695780655],
        [0.148321010596279, 51.366371202168985],
        [0.145190467384411, 51.363018410094725],
        [0.145021735501406, 51.362850632114196],
        [0.145233869784564, 51.362656094213214],
        [0.145364603225721, 51.3625026163529],
        [0.144507613450374, 51.36122420872114],
        [0.144493571020987, 51.36116960815542],
        [0.144515221580845, 51.360710565659595],
        [0.144524806511316, 51.36070049780004],
        [0.145342427365543, 51.36033749340768],
        [0.145362520479817, 51.36033712537469],
        [0.144841842705348, 51.35850847908521],
        [0.144821178646431, 51.35843511436148],
        [0.145347948343926, 51.358334636951504],
        [0.145868513083933, 51.35822437846299],
        [0.145253431083989, 51.35618882386025],
        [0.145087070030406, 51.3557638007948],
        [0.144840132460751, 51.3555201144589],
        [0.14425998562878, 51.354907517463985],
        [0.144025157375573, 51.35486145524273],
        [0.144019417165204, 51.35486156032192],
        [0.143739609818495, 51.35329829087715],
        [0.143604421861675, 51.35301748352677],
        [0.143113266691107, 51.35304895453848],
        [0.142918778223351, 51.35278991556163],
        [0.142849475102326, 51.352658985436555],
        [0.142746070029848, 51.35130472229458],
        [0.142757532110303, 51.351088678877],
        [0.142593426165319, 51.350741850686425],
        [0.142593090795302, 51.350734662364296],
        [0.142584313560879, 51.35073122570771],
        [0.140957153710919, 51.35014585585194],
        [0.141260296717592, 51.34977879245647],
        [0.141253164472743, 51.34953341200253],
        [0.140117186169142, 51.34900919540632],
        [0.139938291261123, 51.348899151575225],
        [0.139228452984791, 51.34815040635955],
        [0.138686630858542, 51.3475244918323],
        [0.138619703397531, 51.347413300605766],
        [0.139465992046326, 51.34729981922024],
        [0.139413870451988, 51.34698241659809],
        [0.13826851842384, 51.34708786865232],
        [0.138241089612429, 51.34708477220935],
        [0.138191202325336, 51.34669178649633],
        [0.137534652890992, 51.34640789934887],
        [0.137521196136798, 51.34639645396287],
        [0.137462973706977, 51.34607106810936],
        [0.137471164271043, 51.34606192555147],
        [0.137169354141671, 51.34587138457587],
        [0.136519302055687, 51.34591202309778],
        [0.136172920979633, 51.345936327747815],
        [0.136218360534435, 51.34558566848917],
        [0.136226467687173, 51.345574728926174],
        [0.137062493708411, 51.34484003061953],
        [0.137073093783454, 51.34482095173885],
        [0.136990287940858, 51.344275683912194],
        [0.13693100296044, 51.34417424465042],
        [0.134502037915246, 51.34492989195528],
        [0.134399904880825, 51.34495693396824],
        [0.132151120201872, 51.345419671239426],
        [0.13175018502737, 51.3455061088343],
        [0.131642330139495, 51.345193314717335],
        [0.125316622613021, 51.34583977000943],
        [0.125185786139989, 51.34586732481316],
        [0.123674330833793, 51.345415412290016],
        [0.123568949853756, 51.34537235787047],
        [0.123505675995468, 51.34533933155089],
        [0.12352178153721, 51.34512860204749],
        [0.122642687588145, 51.34481179547758],
        [0.122211919691927, 51.34465682787762],
        [0.120590457860383, 51.344339966435605],
        [0.119942715259028, 51.34424377673598],
        [0.118581194202555, 51.34420726168938],
        [0.118429080134703, 51.34414706197141],
        [0.117664320477866, 51.34347472326181],
        [0.117570001640951, 51.34348452245729],
        [0.117563634224479, 51.34328409258359],
        [0.117559337903995, 51.34312859050539],
        [0.117393532689541, 51.34314507793953],
        [0.117204813367761, 51.34316287869292],
        [0.116654625520867, 51.34147493604625],
        [0.116653849993385, 51.34130228348255],
        [0.116977001770572, 51.34055631425428],
        [0.117255697234762, 51.339780571342565],
        [0.11749734721564, 51.33982116752419],
        [0.118443742409231, 51.3399812148612],
        [0.118986932478436, 51.338683581922126],
        [0.118271963145005, 51.33840424215903],
        [0.11936324354544, 51.33604090642855],
        [0.119553100600356, 51.335425942050065],
        [0.119775510853319, 51.33523665922994],
        [0.119983699981526, 51.3347391713244],
        [0.121582413553947, 51.3337623492322],
        [0.121656974146487, 51.33363599474875],
        [0.120483534041182, 51.33241080981608],
        [0.120218232774072, 51.332136828452704],
        [0.117915394900333, 51.330668564336875],
        [0.11786439193935, 51.330620924211836],
        [0.117761912762963, 51.330390756448665],
        [0.117756849653296, 51.330343184758235],
        [0.11786456474177, 51.329690138589115],
        [0.117876231162418, 51.329662948386435],
        [0.117335291970219, 51.329481178201846],
        [0.116972807737729, 51.32971435714528],
        [0.116614319836768, 51.33000321971055],
        [0.115715817255896, 51.32950685208275],
        [0.115153206263353, 51.328822751060166],
        [0.114183320056642, 51.327397778176845],
        [0.110364399698439, 51.32803862407288],
        [0.110125984717932, 51.328035726092644],
        [0.109799364718939, 51.32714320453615],
        [0.109730918773526, 51.326683992970224],
        [0.107343182380003, 51.32745182838314],
        [0.107210102430327, 51.327523469790655],
        [0.106816729748373, 51.32742802705553],
        [0.106533231938807, 51.327380967602025],
        [0.105046393506917, 51.32744907342826],
        [0.104873909189807, 51.327412604542964],
        [0.103551970383197, 51.32625377251315],
        [0.103212885577536, 51.32599546754104],
        [0.102523652387138, 51.32598985881774],
        [0.102118594357689, 51.325983641454904],
        [0.101157981010416, 51.32569331985067],
        [0.100764061152109, 51.325585276468914],
        [0.100773418212801, 51.325318914252314],
        [0.100751694080251, 51.32525185609587],
        [0.100266606938758, 51.32421646424525],
        [0.100148052781604, 51.32407200382911],
        [0.096495666687641, 51.321533065722306],
        [0.096151739744499, 51.321292813384225],
        [0.092856893970154, 51.31985170892768],
        [0.092748855067235, 51.31981137257567],
        [0.088208537099409, 51.31849671099956],
        [0.087756708928476, 51.318312316830585],
        [0.087130347619662, 51.31753928969065],
        [0.086793158612344, 51.31719277216211],
        [0.08535811801453, 51.316212916286005],
        [0.085000797783728, 51.31602323119314],
        [0.085066606160491, 51.31563895559419],
        [0.085099152847062, 51.31556553234352],
        [0.08547349060448, 51.31499140437133],
        [0.085613360998982, 51.314784770870965],
        [0.085060612137054, 51.313386303986356],
        [0.085009286687601, 51.31320375976909],
        [0.085049730127807, 51.312671550353095],
        [0.085042128805382, 51.31259884201207],
        [0.084962258904125, 51.31238802830716],
        [0.084920930770086, 51.312204406705106],
        [0.084493642471251, 51.31183160851655],
        [0.084423738778762, 51.31174562041316],
        [0.084107635435507, 51.31107137282703],
        [0.08409028479752, 51.31100513309031],
        [0.083565634229398, 51.31066823814456],
        [0.083543512767834, 51.310528340211434],
        [0.083730827983431, 51.310418888750426],
        [0.0843181306825, 51.3088454425688],
        [0.084394442381077, 51.308693000729654],
        [0.084712716928152, 51.30837077861279],
        [0.084720219224385, 51.308346363781666],
        [0.084061059268355, 51.30808021324605],
        [0.084057540543649, 51.30806588699161],
        [0.084604073715264, 51.30717663659014],
        [0.084640997849088, 51.3071049340127],
        [0.084670689393004, 51.306810332387364],
        [0.084849800695152, 51.306045431109],
        [0.082853640619324, 51.305655588103626],
        [0.082788112638885, 51.30563427118527],
        [0.083161272170559, 51.30500351412544],
        [0.083342534039293, 51.304792549206795],
        [0.08511477925252, 51.30293360982772],
        [0.085404486188284, 51.302520164793755],
        [0.085879398441534, 51.30173020724248],
        [0.085985388720045, 51.301568242260075],
        [0.086184304943236, 51.30035513044021],
        [0.086248096695232, 51.30024337897051],
        [0.089875785685474, 51.29752032538856],
        [0.091156884379293, 51.29682836425677],
        [0.08937238696217, 51.296164161562295],
        [0.089234069123875, 51.29608749096631],
        [0.08729156677998, 51.29462659198468],
        [0.087066992023488, 51.29448221005468],
        [0.086970451885277, 51.294029780709614],
        [0.086890416939988, 51.29394127667874],
        [0.085751464493524, 51.29314860015834],
        [0.085665407821457, 51.293085383203625],
        [0.084946294562322, 51.29288415734873],
        [0.083886427848771, 51.29266471192655],
        [0.083405302583304, 51.29236571211338],
        [0.0832555096625, 51.29225686368788],
        [0.08188978382149, 51.29206082890732],
        [0.081865095060321, 51.292054073502115],
        [0.081552620870218, 51.29183660173246],
        [0.081499025540367, 51.29182496438496],
        [0.079938644314891, 51.291669239416315],
        [0.079858603299034, 51.29164368226426],
        [0.077288979003168, 51.291784633354155],
        [0.077011191746423, 51.2917949580171],
        [0.073703755705223, 51.29163685881546],
        [0.073340943183775, 51.29160641344699],
        [0.07076432654704, 51.29105038274563],
        [0.070808830110262, 51.29098754340671],
        [0.070477920872852, 51.29102846934383],
        [0.070275224839867, 51.29105004021364],
        [0.067541092357182, 51.290529998706965],
        [0.067535986145494, 51.2903844013503],
        [0.065750471783218, 51.29032329346752],
        [0.065721607889032, 51.29031930626496],
        [0.064213765143621, 51.28989355276015],
        [0.064164717343991, 51.28988722315649],
        [0.062784335700999, 51.28993673497855],
        [0.062544460315134, 51.28996074619049],
        [0.05862956693879, 51.28936416973104],
        [0.058482869446681, 51.28935505837077],
        [0.057973680093192, 51.28973902086125],
        [0.05792716443044, 51.28978930033145],
        [0.057531150233741, 51.2905876492668],
        [0.057509545822356, 51.290617706024456],
        [0.05609047808254, 51.29227397597827],
        [0.056022805276478, 51.292396570554054],
        [0.054731444688138, 51.29212876765595],
        [0.054362545435136, 51.29209027658052],
        [0.051495427114561, 51.29344274586509],
        [0.051465970360842, 51.29345765090335],
        [0.050795075397177, 51.29398110885564],
        [0.050762391197614, 51.29398797651941],
        [0.048510148444968, 51.29372344344843],
        [0.048468544676724, 51.29372327212075],
        [0.045984628026523, 51.29402211039141],
        [0.045704186536163, 51.2940054278898],
        [0.045489745098612, 51.293924640390394],
        [0.045327610901534, 51.29379437632404],
        [0.045066656711156, 51.2933124123877],
        [0.044739693364672, 51.2930879020542],
        [0.043467675860162, 51.29273780076219],
        [0.043406922576338, 51.2927262709609],
        [0.042429190922593, 51.29267228780379],
        [0.042369036141993, 51.29267423656018],
        [0.043169132212821, 51.29619003705793],
        [0.043285547532101, 51.296582798908375],
        [0.04404141383417, 51.2981955423595],
        [0.043948966479568, 51.29824571867768],
        [0.044161524561346, 51.29841287491999],
        [0.044270880228922, 51.298581832853046],
        [0.043184012478752, 51.299012685860475],
        [0.043065402164105, 51.29905522432931],
        [0.042846078908862, 51.300706571811766],
        [0.042775266808257, 51.300985691482374],
        [0.042384626132822, 51.3017191421171],
        [0.04227605519808, 51.301923378796936],
        [0.04148279573121, 51.302927343765724],
        [0.041515292346966, 51.30298073518442],
        [0.040991486534086, 51.30278302837025],
        [0.040889783040434, 51.30272185020771],
        [0.04039794437491, 51.30321244792869],
        [0.04022668052853, 51.30332964366642],
        [0.040170372892236, 51.303289257028794],
        [0.040090331780467, 51.30323129790131],
        [0.039402119597235, 51.30356433808063],
        [0.038798517322089, 51.30392917492073],
        [0.03663735620079, 51.30553696639891],
        [0.036586902702935, 51.30549917412071],
        [0.036375356984932, 51.30567911643508],
        [0.036505693822287, 51.305738901161604],
        [0.036308923700553, 51.30586372904445],
        [0.033214595495248, 51.307365376734296],
        [0.032881447388713, 51.3075213444687],
        [0.032333896493006, 51.306981378202025],
        [0.03120389678022, 51.306474897124666],
        [0.03111673259273, 51.3064179547939],
        [0.030358597962158, 51.30562443277235],
        [0.030253836423562, 51.30555880197341],
        [0.029434122580325, 51.30538505965583],
        [0.02935396564125, 51.30535677214167],
        [0.028066325195066, 51.304754969724584],
        [0.027949941684411, 51.30468594100228],
        [0.025204300637504, 51.30251039845203],
        [0.02481138398073, 51.302155676091154],
        [0.023688296230499, 51.299877384632204],
        [0.023571687108536, 51.29970493611527],
        [0.021171423968799, 51.297151020425176],
        [0.020925588947605, 51.29677935712924],
        [0.020827118784882, 51.2965949019064],
        [0.020769847161815, 51.29633599295988],
        [0.020870604538537, 51.29565798067875],
        [0.020846789176002, 51.29557295831936],
        [0.020336670962156, 51.29483354536845],
        [0.020305480271816, 51.29477652845588],
        [0.019929322164905, 51.29342867404876],
        [0.019858910791675, 51.293196970285436],
        [0.019206366968909, 51.29195640179537],
        [0.019073993405544, 51.29168529774714],
        [0.015652466327132, 51.29183148941819],
        [0.014982153960674, 51.29178727192987],
        [0.014608167728295, 51.292319798230096],
        [0.014486302182979, 51.29255031723398],
        [0.01424147740903, 51.29370743099589],
        [0.01421374324258, 51.29382751490769],
        [0.013385127024363, 51.29626357920514],
        [0.013385166341732, 51.29626447782746],
        [0.013035898940308, 51.29664189399528],
        [0.012340495122006, 51.29884633766808],
        [0.012304826949508, 51.29917879166208],
        [0.01161848918299, 51.30054223069497],
        [0.011539473627766, 51.300703663260556],
        [0.011186216801368, 51.30174572272],
        [0.011098832774906, 51.30197834318105],
        [0.011053002853109, 51.302570868035396],
        [0.01107195580374, 51.30297162906732],
        [0.010913381579567, 51.30311824028629],
        [0.010873791983728, 51.303197159096904],
        [0.010838347104749, 51.30386324773263],
        [0.010833025268596, 51.303905606095455],
        [0.010466003225973, 51.304797716452256],
        [0.010502196410962, 51.30493648598681],
        [0.010268393657173, 51.305528640627635],
        [0.010260281809215, 51.30563849411088],
        [0.009544082058988, 51.3068144784118],
        [0.009453385002061, 51.30690596466727],
        [0.008985970328289, 51.30845717816225],
        [0.009083041920124, 51.308741488763644],
        [0.008401438687845, 51.310185760892985],
        [0.008363209255744, 51.31036177933435],
        [0.008353374481054, 51.310662312851015],
        [0.008398658206863, 51.31084499247488],
        [0.008920456132272, 51.31162202563615],
        [0.009065479179483, 51.31191990217254],
        [0.009151452743916, 51.31250836499609],
        [0.009209229628267, 51.31284550877401],
        [0.009586375232353, 51.3138579385533],
        [0.009535224901757, 51.31393525653123],
        [0.010094336353426, 51.315334855821405],
        [0.010320406527677, 51.31614034061828],
        [0.006557778951373, 51.315648214927954],
        [0.006552396036952, 51.31565640082597],
        [0.006126378018517, 51.31710796790107],
        [0.006002921868122, 51.31746890152101],
        [0.005626196209473, 51.31817590519774],
        [0.005517338986642, 51.31844396082472],
        [0.004887308479818, 51.321932320201746],
        [0.00484190970203, 51.3220760852054],
        [0.003851063927015, 51.32423696108293],
        [0.003725089657349, 51.32450800543173],
        [0.003253299805171, 51.326526896914565],
        [0.003155933325999, 51.32699349699483],
        [0.002342085447359, 51.32890492341238],
        [0.002266122862993, 51.32913823973559],
        [-3.74413759e-7, 51.32890898079616],
        [-0.000531453280393, 51.328777760002],
        [-0.001184308483168, 51.32984017756793],
        [-0.001705192071143, 51.3303068066072],
        [-0.003558331955563, 51.331431952067845],
        [-0.004692064077733, 51.33213383631789],
        [-0.007237498442395, 51.33338672395073],
        [-0.007146629335349, 51.33369453375666],
        [-0.008507849343506, 51.33388675601923],
        [-0.008635289390139, 51.33389431882236],
        [-0.010114618740981, 51.333845722151246],
        [-0.010277538361484, 51.33382960516259],
        [-0.010902133559424, 51.33362798280431],
        [-0.011021480785866, 51.33355716728957],
        [-0.010883940124592, 51.33341813911666],
        [-0.010691450192562, 51.3330893263801],
        [-0.010946198460922, 51.33290839954331],
        [-0.011914495183185, 51.332891567703854],
        [-0.0133483440402, 51.33153638869304],
        [-0.013631594253838, 51.331525905477946],
        [-0.013714882217091, 51.33086094393084],
        [-0.013773590254171, 51.330698268793455],
        [-0.013975316610005, 51.33051463757928],
        [-0.014231124704091, 51.33030854152657],
        [-0.014335472153659, 51.32995329253073],
        [-0.014356260860022, 51.32980436278822],
        [-0.015100335394061, 51.33065691392476],
        [-0.015180815007161, 51.33075450202537],
        [-0.015556845270694, 51.33152077480119],
        [-0.015967633053015, 51.33201425088237],
        [-0.016561967940021, 51.332512632787825],
        [-0.01705756705989, 51.33290412288734],
        [-0.017386342199731, 51.33300321542778],
        [-0.017809988719526, 51.33293304779228],
        [-0.018162005425475, 51.333824805662346],
        [-0.018312173517855, 51.334104327967836],
        [-0.01880063284391, 51.334528963289934],
        [-0.019405685878727, 51.33571276986382],
        [-0.019473271829847, 51.33581013677445],
        [-0.020441056804788, 51.33650636153864],
        [-0.02052907932005, 51.33659597963921],
        [-0.020584409571765, 51.337144581726015],
        [-0.021229968949101, 51.337689668306204],
        [-0.022083791049842, 51.33809977818276],
        [-0.022397958056124, 51.338205803872995],
        [-0.024693175490263, 51.33845137418147],
        [-0.025130045327979, 51.33860892278195],
        [-0.026894676510744, 51.33840574979634],
        [-0.027458180350173, 51.338322615326284],
        [-0.030511748159391, 51.337557452184335],
        [-0.03070735420451, 51.3375157770574],
        [-0.032324628135503, 51.337466520688956],
        [-0.032796738260643, 51.33743848018763],
        [-0.033356281964309, 51.337514424770596],
        [-0.033701253737082, 51.33760564938935],
        [-0.034304656114015, 51.33799887481829],
        [-0.034520703606332, 51.33808343660513],
        [-0.037668814223159, 51.33859756049232],
        [-0.037918344575225, 51.33870515911679],
        [-0.039495331643772, 51.33761555340177],
        [-0.039842098444385, 51.33722747018852],
        [-0.040430353658117, 51.33639468277525],
        [-0.040534291838974, 51.33621296735347],
        [-0.041331671063651, 51.33458240972363],
        [-0.04199333074348, 51.333811094331566],
        [-0.042908909906407, 51.33365013804389],
        [-0.043406854702756, 51.33365486104165],
        [-0.044520915287055, 51.33372113035198],
        [-0.045904417622956, 51.333561667819595],
        [-0.046579572464354, 51.33348390183472],
        [-0.048181203337096, 51.332886501116846],
        [-0.048499679338398, 51.33279018911811],
        [-0.049685565854901, 51.33268584257767],
        [-0.050287564808861, 51.33264011057542],
        [-0.050127135280612, 51.332158120179834],
        [-0.050098564086304, 51.33205332729849],
        [-0.050860415063442, 51.33175845373266],
        [-0.051068333853658, 51.331594646831164],
        [-0.051132569181088, 51.33106153990485],
        [-0.051107248792135, 51.33084618917233],
        [-0.050686295043951, 51.33021148140701],
        [-0.050470905425771, 51.33001005305487],
        [-0.048970480772759, 51.328936497857406],
        [-0.048775872985171, 51.32871922532878],
        [-0.049096363338242, 51.32860855680169],
        [-0.048145160336344, 51.32744791484331],
        [-0.048034595132227, 51.32721225738349],
        [-0.047983214538142, 51.32690114695132],
        [-0.047854831620612, 51.326510514919555],
        [-0.047909107947019, 51.325536592452245],
        [-0.047895616322847, 51.325245897788186],
        [-0.049552738897346, 51.325329265402694],
        [-0.049792182118386, 51.32526760523417],
        [-0.050710367136206, 51.324329648345866],
        [-0.050852961577772, 51.32414856728656],
        [-0.051038692417556, 51.3235932012767],
        [-0.051293522064188, 51.323439167592994],
        [-0.051340330824938, 51.322639580982354],
        [-0.051334063622291, 51.3224488278091],
        [-0.052251733128973, 51.32236787103664],
        [-0.052508000675946, 51.32238292463241],
        [-0.054205524575661, 51.321543331179534],
        [-0.054909350424276, 51.321258259252005],
        [-0.055954478785896, 51.32145457241971],
        [-0.056278548540251, 51.32166498929991],
        [-0.056735153207349, 51.32152418501898],
        [-0.057040186964001, 51.32137007277225],
        [-0.058137754548108, 51.3205969061876],
        [-0.058419429236329, 51.32038394939756],
        [-0.0596189792911, 51.320083686120896],
        [-0.059769382212297, 51.32005650175547],
        [-0.060489590282063, 51.32006213750915],
        [-0.060684634582797, 51.320065367793745],
        [-0.062033720897601, 51.3193152152259],
        [-0.062105972839401, 51.319201302282195],
        [-0.064075281196022, 51.31861426745765],
        [-0.064113286836255, 51.31859780932879],
        [-0.07005511359939, 51.31889373062886],
        [-0.071043326339738, 51.32123376627664],
        [-0.072773941750459, 51.320725387552386],
        [-0.072949885192443, 51.320636555954415],
        [-0.077641531235338, 51.3198449590774],
        [-0.078895871486979, 51.31977561523982],
        [-0.078829764926242, 51.3184381939878],
        [-0.078853628099399, 51.31814182157333],
        [-0.080138474370168, 51.317856237597695],
        [-0.08022020951752, 51.317823404804386],
        [-0.080826276178437, 51.31743405696695],
        [-0.081130360199208, 51.317231305542066],
        [-0.081053239463242, 51.3171536025903],
        [-0.081355390374906, 51.3167907462705],
        [-0.081364182238685, 51.31678639389982],
        [-0.081761999614868, 51.316847767669515],
        [-0.081924547323532, 51.317010502915046],
        [-0.083338125767731, 51.31666494198509],
        [-0.083670581677039, 51.316607433180884],
        [-0.08359335467184, 51.31632559263998],
        [-0.084474568111189, 51.31608191637492],
        [-0.084829305106882, 51.31586829332732],
        [-0.083898267550189, 51.31513813127967],
        [-0.083494156793051, 51.31471155216956],
        [-0.08218917948319, 51.31300492697224],
        [-0.081920089882272, 51.3126102298072],
        [-0.081853039319058, 51.31236002951498],
        [-0.081748902489701, 51.31186371679309],
        [-0.081923935934895, 51.311279350851486],
        [-0.081958847378408, 51.31064862448006],
        [-0.08546988768838, 51.30927082505769],
        [-0.08660467626545, 51.308860415010244],
        [-0.088637872289005, 51.307408002953295],
        [-0.088852289006888, 51.30721995513322],
        [-0.088768845600199, 51.305878658404666],
        [-0.088667140991267, 51.30521872148396],
        [-0.088859368980164, 51.30487383580542],
        [-0.088885220086172, 51.304804113495024],
        [-0.089196567941567, 51.304492646453724],
        [-0.089523305786112, 51.30443233030097],
        [-0.089710178099612, 51.30411253584187],
        [-0.089733054040605, 51.30397621769389],
        [-0.090743926245223, 51.30395493549038],
        [-0.09089160277177, 51.30381885351043],
        [-0.09119906360103, 51.30339310861216],
        [-0.091067490006624, 51.303279452214404],
        [-0.090903817442647, 51.303178761577314],
        [-0.090994502158655, 51.30199588133072],
        [-0.091195476993595, 51.30147397519707],
        [-0.093694402488094, 51.30078356854719],
        [-0.094414371078415, 51.300614532036434],
        [-0.094807283290814, 51.30068747319835],
        [-0.095307252537828, 51.30132780494913],
        [-0.095746703232118, 51.30148962988531],
        [-0.096058186806076, 51.30151987531796],
        [-0.096386658924016, 51.30138222984763],
        [-0.097404750329816, 51.301115503059506],
        [-0.097272198150993, 51.30029679838019],
        [-0.096950098034342, 51.3001072101275],
        [-0.095803265513435, 51.299602950379494],
        [-0.095547868979293, 51.29953494722137],
        [-0.094303780088748, 51.29944006402333],
        [-0.094351755401698, 51.2993554127589],
        [-0.100390077981764, 51.296528162043046],
        [-0.10057263460658, 51.296449288868615],
        [-0.102473194082693, 51.29606733456505],
        [-0.102664964283826, 51.296008391743506],
        [-0.110191762441945, 51.2926417993007],
        [-0.11107971780506, 51.29225414855036],
        [-0.114762368681953, 51.29244300259364],
        [-0.114850170143472, 51.292435423524246],
        [-0.114716393931271, 51.291849634056064],
        [-0.114621742801367, 51.29153425969313],
        [-0.11490079573602, 51.29154954452795],
        [-0.115143764486114, 51.29146532652077],
        [-0.11531430002262, 51.2912936107482],
        [-0.115561129967539, 51.29111502920343],
        [-0.115447169077602, 51.29102596431072],
        [-0.116618343764338, 51.289813690407904],
        [-0.116749947141395, 51.289751958225985],
        [-0.117007717488828, 51.28937570712049],
        [-0.117085372003774, 51.289195300632805],
        [-0.11708390854476, 51.28867009507069],
        [-0.117124297965768, 51.28848908920797],
        [-0.117807311384423, 51.28732290862808],
        [-0.1178022391979, 51.28709620740212],
        [-0.121233936637925, 51.2869588815796],
        [-0.124319626906401, 51.28676015665207],
        [-0.125947244610613, 51.28831230596608],
        [-0.12608333969936, 51.288386427056395],
        [-0.126274972528283, 51.2894920154572],
        [-0.126304967646532, 51.28953026539601],
        [-0.127283667730304, 51.29046768947499],
        [-0.127981590491059, 51.29108047121764],
        [-0.130215507529461, 51.29268451752028],
        [-0.130557867746875, 51.293118942190944],
        [-0.131479508618735, 51.294688513126246],
        [-0.131485690558455, 51.29471289239511],
        [-0.131110274805572, 51.295445210937686],
        [-0.131136305854087, 51.29547530274643],
        [-0.131960503544042, 51.2959839598378],
        [-0.132150978285823, 51.296132682295685],
        [-0.134435124310541, 51.29834715844042],
        [-0.134458182774369, 51.298379899954845],
        [-0.135586494059903, 51.29832413104805],
        [-0.135780885823864, 51.29837668673891],
        [-0.136204742387478, 51.29821796687712],
        [-0.136299428255417, 51.29821767551103],
        [-0.136821895771057, 51.300016458528525],
        [-0.137340291900015, 51.300782799906],
        [-0.140801099954074, 51.29955812845774],
        [-0.14088159811835, 51.29955401096314],
        [-0.142859709545059, 51.29998198535358],
        [-0.14358555658968, 51.30126237955757],
        [-0.144449468231809, 51.300543160635414],
        [-0.144878655242008, 51.3007145295475],
        [-0.145651643520219, 51.29983019236089],
        [-0.148090772522953, 51.300602608044365],
        [-0.148478243971576, 51.30070585794053],
        [-0.149522714094302, 51.3007025853773],
        [-0.149841071026214, 51.30020581857768],
        [-0.153386847072869, 51.30167995555997],
        [-0.155343983983224, 51.301276453678774],
        [-0.155405788249429, 51.30138084435075],
        [-0.156710189876961, 51.30359112824133],
        [-0.157035336501988, 51.30371135390868],
        [-0.15776118832479, 51.304429608468915],
        [-0.157670989148715, 51.3045325055163],
        [-0.157728759324176, 51.30459456533469],
        [-0.155049534573755, 51.30579338453086],
        [-0.15453537054746, 51.30645074765242],
        [-0.155789667690764, 51.306441732445954],
        [-0.156441940394043, 51.30645470163787],
        [-0.157088044586962, 51.30669328873706],
        [-0.157189197254735, 51.30671106769682],
        [-0.156422806439216, 51.30736177131917],
        [-0.156191723252021, 51.30765039799717],
        [-0.154371310026931, 51.31025390407125],
        [-0.154341397027485, 51.310319979107184],
        [-0.15582671147695, 51.31042071860369],
        [-0.156254202058037, 51.310422953990035],
        [-0.158090909397407, 51.310993223763425],
        [-0.158356585462714, 51.31098751039246],
        [-0.157298300221213, 51.31322804593542],
        [-0.1571955955071, 51.31339189658994],
        [-0.15777106069394, 51.314321810188275],
        [-0.157905364471415, 51.314515468802234],
        [-0.159193339410481, 51.315785716118754],
        [-0.159339989458025, 51.315957984441326],
        [-0.159588281899416, 51.31671008435887],
        [-0.159606839789143, 51.31710695659747],
        [-0.160276135502179, 51.31694930870538],
        [-0.160507290476113, 51.31687470298258],
        [-0.161113803137874, 51.3174615634998],
        [-0.16120310923361, 51.317525015839585],
        [-0.161199652771512, 51.31768323404064],
        [-0.161117219575865, 51.31773499688054],
        [-0.161888620257409, 51.31958252823892],
        [-0.16190546884077, 51.319627756447574],
        [-0.15852419701036, 51.320741894883035],
        [-0.156466058000111, 51.32138936548844],
        [-0.156568836043801, 51.32151058702156],
        [-0.158660110924414, 51.32397782507031],
        [-0.158957037450652, 51.32387458032299],
        [-0.159050326831442, 51.323982161273086],
        [-0.160625652191152, 51.32324343022646],
        [-0.164177659528151, 51.32601587264148],
        [-0.164212479283381, 51.32604249740386],
        [-0.163592693780259, 51.32621533300055],
        [-0.16438444866314, 51.32799032212961],
        [-0.164387564799144, 51.328127959835534],
        [-0.164222597720799, 51.328161345030836],
        [-0.164007602792143, 51.32818944935696],
        [-0.163999163462048, 51.328508559192194],
        [-0.163996112335708, 51.32858494961598],
        [-0.162315930474873, 51.328891328761266],
        [-0.16310214330479, 51.33026606221151],
        [-0.169607497369004, 51.32951180591674],
        [-0.170091218189441, 51.32947619982464],
        [-0.170016558847075, 51.329945352932185],
        [-0.169919826317729, 51.33024779560154],
        [-0.172808590767477, 51.33001502486677],
        [-0.172888961414349, 51.330015379464314],
        [-0.17390825294877, 51.33228844983525],
        [-0.174164357552023, 51.33321329710303],
        [-0.174691475160931, 51.333170254899876],
        [-0.174894046171851, 51.33370847846174],
        [-0.175044993580871, 51.33381154902813],
        [-0.178867797468436, 51.33591509613811],
        [-0.179395464734346, 51.33618498743196],
        [-0.181789828128704, 51.337715870111694],
        [-0.182021272406231, 51.33785345404399],
        [-0.187461020904743, 51.34069402309829],
        [-0.187382825412924, 51.34078363920829],
        [-0.191304540489875, 51.3421176288984],
        [-0.193254449501863, 51.34262703303826],
        [-0.194440025680976, 51.34289351279614],
        [-0.196072612303309, 51.34333143178607],
        [-0.196292222843874, 51.34304075315283],
        [-0.196715436897848, 51.34315967803033],
        [-0.196589572788144, 51.34340324038096],
        [-0.196566284068772, 51.34344784521104],
        [-0.19713324889663, 51.34356268687778],
        [-0.197344429152024, 51.34359651226287],
        [-0.19758268077821, 51.34345269880923],
        [-0.197677555981624, 51.34348653236125],
        [-0.198470300548101, 51.34245737569729],
        [-0.198582689377341, 51.34230083310193],
        [-0.199351266514923, 51.341887297350766],
        [-0.199582503791432, 51.34188545636409],
        [-0.200648473693398, 51.34055023716412],
        [-0.201224393658657, 51.33988553149676],
        [-0.201671352985217, 51.33983753943556],
        [-0.201682726518862, 51.33984041186336],
        [-0.20173353813036, 51.3398627744182],
        [-0.201903107396115, 51.34018911413768],
        [-0.20210771303957, 51.34013380256729],
        [-0.202323340222936, 51.34009035028213],
        [-0.211901436397515, 51.336063464350126],
        [-0.213055839316649, 51.33554242141686],
        [-0.212272442212894, 51.33405476867549],
        [-0.211931063700647, 51.333309460169275],
        [-0.214032204026431, 51.33047735118215],
        [-0.214120334249101, 51.33035189828185],
        [-0.215923595196458, 51.32986230222284],
        [-0.216108651659029, 51.329828251067276],
        [-0.220963308802455, 51.32986432457628],
        [-0.220967612558764, 51.32986438995011],
        [-0.222169000487711, 51.331016608510794],
        [-0.223119688280932, 51.33174865054364],
        [-0.228296521876207, 51.335237091858254],
        [-0.228726081731374, 51.33552685755228],
        [-0.22981032193891, 51.33648657889162],
        [-0.229847642164823, 51.33652401280786],
        [-0.228338440696253, 51.33712888146667],
        [-0.228274269216913, 51.33715488875094],
        [-0.228484696582055, 51.33724530036046],
        [-0.227883776769959, 51.33748980288776],
        [-0.226985449747912, 51.33781433167435],
        [-0.225679740146792, 51.338947417605986],
        [-0.224451905384887, 51.339846961360394],
        [-0.224115567595344, 51.34004239855977],
        [-0.223701425392017, 51.33998486055225],
        [-0.223286151996881, 51.339882340634404],
        [-0.222301786399027, 51.340461819358644],
        [-0.222514037259291, 51.34069075621158],
        [-0.222725426954283, 51.34083065230602],
        [-0.218392248698488, 51.34297881478172],
        [-0.21728943035332, 51.34338828732469],
        [-0.217480868289577, 51.34378328064671],
        [-0.217741962104092, 51.34441853814482],
        [-0.218015118163837, 51.345594436975425],
        [-0.217802558481142, 51.34563256926767],
        [-0.218182511949215, 51.346128449258906],
        [-0.218385437153527, 51.34644987582277],
        [-0.219459578952453, 51.348634336339515],
        [-0.219759127287806, 51.34909391720237],
        [-0.220210568816283, 51.35008097569201],
        [-0.220252386643745, 51.35018772427269],
        [-0.220367892969871, 51.35098712671014],
        [-0.220445870595724, 51.35142085749903],
        [-0.221312115425673, 51.35133959134396],
        [-0.221287013338645, 51.351171947035155],
        [-0.222116868048085, 51.35132572958653],
        [-0.221989932237462, 51.35174825561062],
        [-0.221962349490091, 51.3519043088909],
        [-0.221999881376585, 51.353531647054204],
        [-0.222032042309393, 51.35377673495343],
        [-0.22250176434789, 51.355258655794245],
        [-0.222609468755134, 51.35574139599276],
        [-0.222751334778391, 51.357011509738705],
        [-0.222761331976975, 51.357087199523704],
        [-0.223299755763826, 51.358131317995024],
        [-0.223484975980089, 51.35842998453571],
        [-0.226700071685302, 51.36231944675381],
        [-0.226897717701855, 51.36259491476381],
        [-0.229929770019374, 51.36401843530167],
        [-0.230007172064995, 51.36406007152891],
        [-0.232832659168383, 51.36581671807762],
        [-0.233215910827692, 51.36601134328847],
        [-0.233844241474574, 51.36532478948379],
        [-0.235913348474955, 51.36635863987828],
        [-0.236804372546983, 51.36679830281699],
        [-0.237433936794336, 51.366939068174915],
        [-0.237849327009694, 51.36700826510541],
        [-0.238590981220192, 51.36707337374298],
        [-0.23894200154794, 51.366835850519145],
        [-0.240551749255295, 51.36700301934816],
        [-0.240915296039393, 51.367038154152624],
        [-0.241101965376048, 51.36647802011697],
        [-0.241174837945545, 51.36626329176612],
        [-0.245153593726545, 51.36680316136685],
        [-0.245429183624689, 51.36684685647645],
        [-0.245041490796438, 51.36774390605888],
        [-0.244903607869487, 51.36815639911053],
        [-0.24462767340958, 51.36943640733437],
        [-0.244605841275041, 51.36970675723647],
        [-0.244704627919845, 51.371631752381695],
        [-0.244732967792503, 51.37231831146152],
        [-0.244624901597599, 51.37379147665215],
        [-0.244661012946843, 51.37442509570163],
        [-0.245202242772721, 51.377443020530166],
        [-0.245230753561311, 51.37835079881319],
        [-0.244992349299605, 51.38060166724015],
        [-0.244984782592705, 51.38064921455422],
        [-0.244792736522429, 51.38101143639323],
        [-0.244778683928457, 51.38100313256337],
        [-0.244340053455079, 51.38292726671736],
        [-0.24417472388618, 51.38349222069703],
        [-0.242959762891856, 51.382945244580284],
        [-0.242931485118446, 51.38293313018612],
        [-0.241826472559396, 51.384355366349475],
        [-0.241620212425064, 51.38452492862825],
        [-0.238854934274551, 51.38602832229314],
        [-0.238744585275394, 51.38609500722934],
        [-0.239323696995093, 51.38770708637873],
        [-0.239459460952837, 51.387951925743366],
        [-0.240104901631221, 51.391095531857175],
        [-0.240108256385941, 51.391195399729654],
        [-0.240471786273655, 51.39179796537324],
        [-0.240560863042812, 51.39198634825033],
        [-0.240847850784134, 51.39214892616353],
        [-0.240967934833846, 51.39216601623102],
        [-0.240885213814658, 51.39233653240519],
        [-0.240824063124782, 51.39243183481515],
        [-0.241345296143175, 51.39338297861066],
        [-0.241691686009634, 51.393871077316916],
        [-0.242285438745866, 51.39416864634171],
        [-0.242510012591607, 51.394234962662026],
        [-0.244232971132683, 51.394511683480246],
        [-0.244595174070784, 51.39466278936276],
        [-0.246940066539119, 51.39713397545249],
        [-0.247424784370401, 51.39757826372597],
        [-0.2468930754249, 51.39828791588211],
        [-0.246769407594656, 51.39851447647055],
        [-0.246609245257685, 51.399281842301015],
        [-0.246591640245197, 51.39940387753818],
        [-0.246823989141457, 51.40039563477933],
        [-0.246846449675989, 51.400484997006764],
        [-0.245238604516435, 51.401701903556855],
        [-0.245234259567526, 51.40170273775046],
        [-0.244845024440488, 51.402894715810774],
        [-0.244739592000658, 51.403170107068746],
        [-0.24470341669327, 51.40385209933592],
        [-0.244684722173349, 51.40422770764202],
        [-0.245195895808484, 51.40601049074241],
        [-0.245221634517717, 51.406126879912144],
        [-0.245477367929099, 51.406545264933456],
        [-0.245532845277014, 51.406636020878466],
        [-0.245338289353413, 51.407023384244944],
        [-0.245353675873339, 51.407072174325826],
        [-0.245801420104517, 51.407545589934514],
        [-0.245810757083524, 51.4075646140224],
        [-0.246956413101667, 51.40779847708856],
        [-0.247032363675268, 51.40784277734321],
        [-0.247460848386416, 51.408444491578116],
        [-0.247507612516379, 51.40850004534489],
        [-0.247555868346165, 51.40885507277717],
        [-0.247557068887787, 51.4090493294543],
        [-0.247151047314726, 51.4095144661716],
        [-0.247136938439694, 51.40958259840145],
        [-0.247425005946165, 51.410434902392524],
        [-0.247475046284768, 51.41055525136377],
        [-0.249533953257624, 51.41477833738639],
        [-0.249599676253432, 51.414902516551756],
        [-0.249833210972619, 51.41658221021372],
        [-0.2498584515219, 51.41701332883974],
        [-0.249594071586539, 51.41824944905913],
        [-0.249613734784141, 51.41837473872612],
        [-0.250277056070208, 51.4196094240144],
        [-0.250386897613582, 51.41978372005627],
        [-0.250825896075871, 51.42154561117618],
        [-0.250925221542098, 51.42188251415097],
        [-0.251442897644887, 51.42260154585629],
        [-0.251708136549936, 51.42281233022944],
        [-0.252783214303555, 51.42309723729769],
        [-0.25295441139779, 51.423209497790616],
        [-0.252922897554392, 51.42369642196792],
        [-0.252909256494755, 51.42405412041581],
        [-0.252279775851171, 51.42562381996269],
        [-0.252261045083529, 51.425737745483495],
        [-0.25242934653222, 51.42630318569573],
        [-0.252528016918671, 51.426506988121915],
        [-0.252987213756994, 51.426988637394864],
        [-0.253084385603256, 51.42711867845601],
        [-0.254227500675521, 51.42947106179374],
        [-0.254220583092668, 51.429577070236746],
        [-0.253445768029339, 51.430694086134444],
        [-0.253327829924825, 51.430844301953385],
        [-0.252541793747842, 51.431160812480044],
        [-0.252394380681563, 51.431253935222635],
        [-0.251586625956599, 51.43198826670909],
        [-0.251247173031974, 51.43228804856907],
        [-0.251039593212125, 51.43320308541278],
        [-0.251026252842931, 51.43343938900374],
        [-0.251299336807749, 51.43423750056586],
        [-0.251411652467474, 51.434347985241615],
        [-0.253110458489892, 51.43529864183959],
        [-0.253256809186789, 51.43545998984367],
        [-0.253399527337059, 51.435716603923034],
        [-0.253456077494675, 51.435893699312075],
        [-0.253451194110934, 51.436361235991036],
        [-0.253473541172507, 51.43656749694351],
        [-0.254034901187413, 51.4372404043542],
        [-0.254090535362028, 51.43729069166405],
        [-0.243203226958062, 51.441715101445816],
        [-0.242729209273461, 51.44191842096766],
        [-0.241659436254901, 51.44309658272104],
        [-0.241629258043997, 51.44313299927729],
        [-0.244244620890502, 51.44607767239666],
        [-0.244500011067889, 51.4463602641312],
        [-0.24728666294119, 51.44912578264681],
        [-0.247326309920811, 51.44918033025531],
        [-0.254988854191337, 51.452906011957865],
        [-0.259113038630899, 51.45493217787489],
        [-0.259018518202231, 51.45563848062107],
        [-0.258954696202619, 51.4559918356192],
        [-0.258525951842077, 51.456932373410446],
        [-0.25834083831505, 51.4573333848323],
        [-0.257702269508487, 51.458340044262336],
        [-0.25731748047118, 51.458805529975486],
        [-0.25680800755378, 51.459860864069306],
        [-0.258043409102847, 51.46026859878113],
        [-0.256600996525249, 51.46238466470508],
        [-0.256020315311008, 51.46304057077204],
        [-0.253554061460676, 51.46489407361044],
        [-0.252915500279723, 51.465216381690745],
        [-0.249046215634685, 51.46505165251622],
        [-0.248641901086197, 51.465045613885145],
        [-0.245048305033298, 51.465238273820376],
        [-0.243976055609897, 51.465230312852576],
        [-0.234563607115428, 51.464257160932746],
        [-0.233314197476582, 51.46399104835475],
        [-0.233647162272102, 51.46603106101159],
        [-0.233649623543717, 51.46604188905307],
        [-0.233277307962161, 51.46636270612381],
        [-0.232830601382636, 51.46663384149918],
        [-0.233415793099112, 51.467846751377856],
        [-0.233447471465003, 51.46814487929221],
        [-0.233100637850992, 51.469184577694016],
        [-0.233014759067467, 51.46969315626217],
        [-0.232947989892912, 51.471682182053804],
        [-0.23302503766525, 51.472035847640505],
        [-0.232615357581468, 51.47261418314842],
        [-0.232108774874809, 51.47279358948209],
        [-0.231107938472612, 51.472833349238364],
        [-0.230968800350585, 51.4728195599297],
        [-0.229687580363621, 51.47221661212578],
        [-0.229582690906532, 51.47217366311013],
        [-0.229080450016069, 51.47212920958606],
        [-0.228766702513563, 51.47212536978866],
        [-0.227802208444634, 51.47171063142019],
        [-0.227072334797208, 51.471446909292965],
        [-0.22433788802907, 51.4708569903352],
        [-0.223728187815769, 51.470762326995185],
        [-0.22335137426181, 51.4708995983034],
        [-0.223338116570925, 51.470944359781996],
        [-0.223541955069522, 51.47140516510187],
        [-0.22352795657797, 51.471431930430604],
        [-0.222485445954654, 51.47202582059173],
        [-0.221733868922281, 51.472357937033166],
        [-0.220562093725048, 51.47135098784118],
        [-0.218946915943939, 51.470010865057006],
        [-0.215788817102974, 51.46803216450128],
        [-0.215369455900893, 51.46782075354687],
        [-0.212687123257067, 51.46679072155595],
        [-0.211639502803762, 51.466446521115955],
        [-0.205331195560394, 51.46478183942317],
        [-0.204832828369795, 51.46467799012422],
        [-0.201961125958824, 51.46426439376144],
        [-0.201022506718317, 51.46415377574194],
        [-0.196683263772507, 51.46401157785964],
        [-0.195189087908002, 51.46389776226119],
        [-0.190508680791874, 51.46426535453675],
        [-0.190407469064719, 51.46427638196579],
        [-0.18628204013618, 51.46553183885913],
        [-0.185522714892669, 51.46583752608203],
        [-0.1829780911747, 51.46744914542084],
        [-0.182894337124714, 51.467527880868275],
        [-0.181701693332673, 51.468953590185585],
        [-0.18153128066307, 51.46918385359059],
        [-0.180982487003055, 51.47005840636793],
        [-0.18038279767257, 51.4710535657523],
        [-0.180240378989758, 51.47152076499175],
        [-0.179625516727513, 51.47271531890356],
        [-0.179161541701561, 51.47322968069417],
        [-0.179017353072573, 51.4734153850987],
        [-0.178107526936763, 51.47612058881002],
        [-0.178078005827303, 51.47621095451715],
        [-0.177668091817591, 51.47674053843151],
        [-0.177645364763957, 51.47680493132444],
        [-0.177728731235934, 51.47742311345174],
        [-0.177815681013733, 51.47755395690166],
        [-0.175885004661864, 51.479455530074496],
        [-0.175253067449253, 51.47998974476442],
        [-0.173940716841041, 51.480684219827566],
        [-0.173370461857466, 51.480935221599175],
        [-0.171418246048702, 51.48153067340704],
        [-0.170928097465958, 51.481686692654],
        [-0.168084989469251, 51.48219355146752],
        [-0.16798643158391, 51.4822090974755],
        [-0.152819319295416, 51.48413745380299],
        [-0.150270129905674, 51.48452621339701],
        [-0.146188519212881, 51.484628119290306],
        [-0.145170571460087, 51.48458414502141],
        [-0.14053108580165, 51.48388298635437],
        [-0.140356106808235, 51.48386492414411],
        [-0.137792899022407, 51.48385302207009],
        [-0.137376573303147, 51.483890473165395],
        [-0.133061831505189, 51.484658163654466],
        [-0.132880001835005, 51.48470202983995],
        [-0.129526460013526, 51.48587606816408],
        [-0.12949121560751, 51.48589259182366],
        [-0.128368297285602, 51.48496462715676],
        [-0.12817170406149, 51.48473577585688],
        [-0.126531845747361, 51.48450905319546],
        [-0.126363659272596, 51.4844658994249],
        [-0.126873469059685, 51.48386974410003],
        [-0.127049008311453, 51.48362795035865],
        [-0.127405689476381, 51.482409759113494],
        [-0.127496434935081, 51.48202272948854],
        [-0.129458995294876, 51.48136522307792],
        [-0.129947501750717, 51.48118237259886],
        [-0.130188952926861, 51.48066645294168],
        [-0.131412285319386, 51.47941800282222],
        [-0.131544363811054, 51.479251946612926],
        [-0.134057186524242, 51.47555195414413],
        [-0.134111617229288, 51.475276748557924],
        [-0.134527811320501, 51.474887698021355],
        [-0.134710774020628, 51.47495625455114],
        [-0.134872789694772, 51.47465578237841],
        [-0.135230530363986, 51.474287381696655],
        [-0.134533886989234, 51.47399753055043],
        [-0.134461742872977, 51.47396580797916],
        [-0.134486306953394, 51.47364606338926],
        [-0.134557725903958, 51.47344846392324],
        [-0.135596530872233, 51.47276266711743],
        [-0.135704372047329, 51.47273110936695],
        [-0.136080048916116, 51.47269931333786],
        [-0.13625855731567, 51.47270035244547],
        [-0.136660918276159, 51.47293246092131],
        [-0.136917994560653, 51.47309031899477],
        [-0.137848980058266, 51.4722930798347],
        [-0.138042816918023, 51.47212979571928],
        [-0.138349148274163, 51.4719620027073],
        [-0.138515971190197, 51.4718963078644],
        [-0.138726877961382, 51.47191494346838],
        [-0.138746573059912, 51.47199708846513],
        [-0.139448933286799, 51.47179241433405],
        [-0.139502065392203, 51.47179595521359],
        [-0.139599669505931, 51.47173275748325],
        [-0.139455929677527, 51.47165583836503],
        [-0.139316188808103, 51.471516034569675],
        [-0.139866864266194, 51.47132333880482],
        [-0.140342596099971, 51.47159256890582],
        [-0.140981294181846, 51.471288856955304],
        [-0.14178435885097, 51.470908612091016],
        [-0.14158393626972, 51.47063206155691],
        [-0.142676823234539, 51.470063963207046],
        [-0.143100362719464, 51.47051940065732],
        [-0.150345255043637, 51.46768255988805],
        [-0.15061866526857, 51.467614932403535],
        [-0.150470343120748, 51.46597774542257],
        [-0.151231398464975, 51.46588453570708],
        [-0.150967222678177, 51.46383636047838],
        [-0.150793090837392, 51.463051261050104],
        [-0.149693435408085, 51.46130194299751],
        [-0.149671268335893, 51.461244939969326],
        [-0.149390425407784, 51.45936195942042],
        [-0.14836568050313, 51.45736561449833],
        [-0.14834074894107, 51.457305869728046],
        [-0.147780632132093, 51.45386095762804],
        [-0.147651083145864, 51.45297224223095],
        [-0.147377972478021, 51.45296343025107],
        [-0.147729947537085, 51.452339511284855],
        [-0.14314738116311, 51.45109528176038],
        [-0.142322593777821, 51.450991389469564],
        [-0.142372569636533, 51.450752978492304],
        [-0.142443697499606, 51.4505607648702],
        [-0.143073571918612, 51.44979288479412],
        [-0.143360131537569, 51.4495051644185],
        [-0.144647564783172, 51.4487045240532],
        [-0.144795179005384, 51.44854229583474],
        [-0.145678561625093, 51.44588457362831],
        [-0.145696438416237, 51.44586956900256],
        [-0.145603448824163, 51.44539418830034],
        [-0.145406915870421, 51.44491716936422],
        [-0.143823577253641, 51.44230044159402],
        [-0.143620703765527, 51.44183860627207],
        [-0.139041709725037, 51.44170305256654],
        [-0.137885102703327, 51.441695475965176],
        [-0.135980020580774, 51.442011412520515],
        [-0.135903988046857, 51.4420057071316],
        [-0.136807483276987, 51.440595642035234],
        [-0.137011376378079, 51.44025266720384],
        [-0.137048544292462, 51.440258653485074],
        [-0.137371856723198, 51.44034022862564],
        [-0.137433202552901, 51.44021170980954],
        [-0.137477182614042, 51.440191725625525],
        [-0.137259758709693, 51.43977101353157],
        [-0.137259856408408, 51.43973324611438],
        [-0.137504138619645, 51.438821679880405],
        [-0.137683683793288, 51.43858173203707],
        [-0.138306806160933, 51.4380484765942],
        [-0.138508950915999, 51.437924891143936],
        [-0.139325251304607, 51.43759433401186],
        [-0.139381205892295, 51.437562848809534],
        [-0.139912562597917, 51.43702093417088],
        [-0.139972896844512, 51.43688160683802],
        [-0.139759018779163, 51.43566510912856],
        [-0.13969758298485, 51.43544201651324],
        [-0.139489586085684, 51.43517882862972],
        [-0.139110196227096, 51.43481400065304],
        [-0.138228735286555, 51.43405901147362],
        [-0.137857541307482, 51.43377614228384],
        [-0.136522532002406, 51.43391499417453],
        [-0.136455555334025, 51.433828499443514],
        [-0.135364945972868, 51.43065024744898],
        [-0.135264140022576, 51.43033480104717],
        [-0.137711822961923, 51.43049601651336],
        [-0.138398493692739, 51.43055548487348],
        [-0.138411066533105, 51.429078196395324],
        [-0.138437191086979, 51.42875397754257],
        [-0.1389263715447, 51.42528249837203],
        [-0.138932881014695, 51.42476822328127],
        [-0.138866464372444, 51.42381844602932],
        [-0.138825075644005, 51.42363343982678],
        [-0.138302019109378, 51.42202804074693],
        [-0.137851888833419, 51.42110633862674],
        [-0.141598486856127, 51.418415859110844],
        [-0.143260310674607, 51.41726326422496],
        [-0.143048747849077, 51.417125022723575],
        [-0.144916319147118, 51.41586145796716],
        [-0.14500941030041, 51.4157999830084],
        [-0.144351643627364, 51.415351628514365],
        [-0.144347477601427, 51.41534796549527],
        [-0.146865038638248, 51.41393998671888],
        [-0.147083333676624, 51.413804951705586],
        [-0.147891778586296, 51.41305155835822],
        [-0.148090361577824, 51.41287034751525],
        [-0.147530585170232, 51.41273740208913],
        [-0.14680434135368, 51.412560455564204],
        [-0.145169981349179, 51.41254359232381],
        [-0.144869951920978, 51.41238866621929],
        [-0.142675449830267, 51.41334849354111],
        [-0.142582218222892, 51.41334251961407],
        [-0.142046325334359, 51.413117302234184],
        [-0.141209543872607, 51.412758715555896],
        [-0.138273020686934, 51.41187488705407],
        [-0.138101981272041, 51.41180202710481],
        [-0.134424223943525, 51.411078981363346],
        [-0.134099941186919, 51.41099108618939],
        [-0.133739274139055, 51.41267955921925],
        [-0.133577910368114, 51.41293417931026],
        [-0.133354186950782, 51.412883854254126],
        [-0.133567753635973, 51.41258330407261],
        [-0.133572357745319, 51.41257618327584],
        [-0.133203882144428, 51.41247858920528],
        [-0.13271449994992, 51.41234849252849],
        [-0.127923969383034, 51.41200768006278],
        [-0.127888115798441, 51.412005308781296],
        [-0.12775171389957, 51.41231697356542],
        [-0.127428210141949, 51.41249165805378],
        [-0.126271512912413, 51.412926399979625],
        [-0.126259832331379, 51.41293070955463],
        [-0.126018603080379, 51.41278117126415],
        [-0.125785997992631, 51.41263177038829],
        [-0.125676903427693, 51.41276761335515],
        [-0.125589033991398, 51.41291188910128],
        [-0.124937948435205, 51.41328995663055],
        [-0.124936474546874, 51.41329083231478],
        [-0.124497901659762, 51.41336025201864],
        [-0.124467501465623, 51.41336516109967],
        [-0.124495838040372, 51.413832333773065],
        [-0.12445866993146, 51.41400259952438],
        [-0.124192274653483, 51.4143976100613],
        [-0.124074295382087, 51.414609746964445],
        [-0.123675726225527, 51.41465012820695],
        [-0.123405617607163, 51.4147141475647],
        [-0.123015866625834, 51.41503074250736],
        [-0.122993315171955, 51.41505466150798],
        [-0.122582836411453, 51.41503459746937],
        [-0.122480944573805, 51.41502936807867],
        [-0.122504168464637, 51.4152698442287],
        [-0.122481358877678, 51.41530005386037],
        [-0.120856532051378, 51.41697722231731],
        [-0.120771661382057, 51.41704780274616],
        [-0.12002190837605, 51.41856632912469],
        [-0.119846627558151, 51.41880721839233],
        [-0.117847476355081, 51.4197877034556],
        [-0.117782794609211, 51.41982173605683],
        [-0.115907831193595, 51.42047325278302],
        [-0.115715067981181, 51.42057896497564],
        [-0.115327016160355, 51.42092164068743],
        [-0.114854233030966, 51.42122608234404],
        [-0.113959951966248, 51.422300705985435],
        [-0.113822711316366, 51.422454969696005],
        [-0.112712048015843, 51.42322934348957],
        [-0.112685545060433, 51.42324420423656],
        [-0.109603321722574, 51.423169350526976],
        [-0.109373669112947, 51.42315755271205],
        [-0.106185511659282, 51.42258360538079],
        [-0.106054894578993, 51.422576998357265],
        [-0.098388726975997, 51.42257066684503],
        [-0.098108100752194, 51.42257420665285],
        [-0.094101047711955, 51.4228112667126],
        [-0.093918910365723, 51.42279841270573],
        [-0.092734391723791, 51.42253993680365],
        [-0.092307749671937, 51.42235403851557],
        [-0.091768854328766, 51.42192800475348],
        [-0.091394790374948, 51.421723175215405],
        [-0.089720393189717, 51.421037630274384],
        [-0.089584119814851, 51.420959870375654],
        [-0.088452092558674, 51.42006552353361],
        [-0.088190342221345, 51.41992726278186],
        [-0.0866194261206, 51.41934947452069],
        [-0.086425645579172, 51.419305843494975],
        [-0.085863435474915, 51.419267885753484],
        [-0.085538960123377, 51.41928866454613],
        [-0.082876986861432, 51.41972985612651],
        [-0.082345959730502, 51.41977152739286],
        [-0.07932482682784, 51.41972115506957],
        [-0.079103566352735, 51.41974990246122],
        [-0.078674663718675, 51.4198256046695],
        [-0.078548602385836, 51.41984781824732],
        [-0.078404200134032, 51.420410192632325],
        [-0.078335912830546, 51.420563747497255],
        [-0.074981150866329, 51.425679497986955],
        [-0.074965945348361, 51.425699032183864],
        [-0.073954445476657, 51.426150034529506],
        [-0.073935607101077, 51.426153322027524],
        [-0.074166141212449, 51.42706807111802],
        [-0.074327048790605, 51.42744930772123],
        [-0.075028557767374, 51.428556142397746],
        [-0.075093302076034, 51.42879551226288],
        [-0.074893542555614, 51.42974905442688],
        [-0.073586072204488, 51.431351653071054],
        [-0.072460825764831, 51.43238260087021],
        [-0.072383342988338, 51.432411901770315],
        [-0.069984161559895, 51.43257025924684],
        [-0.06962227831689, 51.432656924497664],
        [-0.067151552028119, 51.433691733434536],
        [-0.066708747471561, 51.433922737044895],
        [-0.065909028792448, 51.43453093912118],
        [-0.065834290535537, 51.43463132335611],
        [-0.064467172554952, 51.436987325015636],
        [-0.064420283090098, 51.43704140618252],
        [-0.063550734952527, 51.43749556332882],
        [-0.063456737638827, 51.43754077241151],
        [-0.06354357034842, 51.437767024504424],
        [-0.063700718773821, 51.43792969069031],
        [-0.063800959061252, 51.43954014028877],
        [-0.064053529763112, 51.44084915228651],
        [-0.06467128615865, 51.44100863234951],
        [-0.06502616928522, 51.44115747506959],
        [-0.06408274631224, 51.44209782077731],
        [-0.063870376978117, 51.44252596242192],
        [-0.063733590475628, 51.44286812310765],
        [-0.063665496201236, 51.44335530146141],
        [-0.063639978983724, 51.44480899808819],
        [-0.063484088532988, 51.445262352185935],
        [-0.06324468265955, 51.44585281363036],
        [-0.063083889534979, 51.446183785596794],
        [-0.06207971247682, 51.44753587582542],
        [-0.061826917004531, 51.44779608134286],
        [-0.061383542309745, 51.4481385652157],
        [-0.060972646834833, 51.448427628560964],
        [-0.059677639505086, 51.44899881832181],
        [-0.059061511295286, 51.44930785875463],
        [-0.0581006326081, 51.44994031786321],
        [-0.057561283652492, 51.4503387507421],
        [-0.053908341333649, 51.44871793066895],
        [-0.053787802523114, 51.44870963456525],
        [-0.049366399356892, 51.45003181070895],
        [-0.049086624269047, 51.450112585472176],
        [-0.046511446192206, 51.44991952103026],
        [-0.046150745829622, 51.449873042330076],
        [-0.045196428953122, 51.45105496026551],
        [-0.045124222873184, 51.45122911386512],
        [-0.045000608135494, 51.451292699085236],
        [-0.044874022044805, 51.451324760156616],
        [-0.043189653735416, 51.45311857714366],
        [-0.04298934003796, 51.453191671179724],
        [-0.042445650644335, 51.453889419850455],
        [-0.041648633568746, 51.454990303729105],
        [-0.044995779054543, 51.45666126027722],
        [-0.04616035149926, 51.45696304639519],
        [-0.045717367207076, 51.45789809677987],
        [-0.04561557422313, 51.4581580871811],
        [-0.045177004858268, 51.45983150910638],
        [-0.045123242645951, 51.46028114645255],
        [-0.045188525212152, 51.46181908572446],
        [-0.045236826076481, 51.462204778169344],
        [-0.045457247809127, 51.46294225655842],
        [-0.04572036085611, 51.46352307406335],
        [-0.046363603966665, 51.46440608532565],
        [-0.046586746560218, 51.464608541874156],
        [-0.048540155645669, 51.46562667124984],
        [-0.048206076819803, 51.46589808447073],
        [-0.050519987217698, 51.466601142622416],
        [-0.050888438759535, 51.46663784384685],
        [-0.050633984806846, 51.46676400704214],
        [-0.050575133169512, 51.466793603582616],
        [-0.051319603837908, 51.4673653244365],
        [-0.051326567884987, 51.467370835792345],
        [-0.05112823887298, 51.46746376075677],
        [-0.05088139597639, 51.46758015907372],
        [-0.052040909211928, 51.468954625925],
        [-0.052281831165921, 51.4692140204238],
        [-0.05168657432816, 51.46970142467322],
        [-0.051687078404247, 51.46975718760521],
        [-0.052173765686466, 51.47121039614249],
        [-0.052756998416973, 51.4729331870585],
        [-0.052699249892264, 51.47800858516332],
        [-0.054328519794642, 51.47860576727543],
        [-0.053621325925394, 51.47979185151997],
        [-0.053521759545069, 51.47996555543167],
        [-0.053573474549293, 51.480273063425344],
        [-0.05357340678008, 51.48034230573236],
        [-0.053413176971474, 51.4803171641201],
        [-0.05335883314362, 51.48030816851885],
        [-0.053506922573197, 51.48038166899419],
        [-0.053514303572875, 51.48047891218199],
        [-0.053187730970581, 51.480977978208756],
        [-0.053156651080602, 51.481031418086744],
        [-0.053168202837338, 51.4810307106239],
        [-0.053260387270994, 51.48103044265977],
        [-0.052942666604377, 51.482640247470336],
        [-0.052811428155027, 51.482644362984644],
        [-0.052857514259577, 51.48274584599803],
        [-0.052959661996469, 51.48274844149625],
        [-0.052922264996828, 51.48345734062525],
        [-0.052800907629615, 51.483466116546246],
        [-0.052982362001663, 51.48356804887686],
        [-0.052984704654402, 51.48358067748613],
        [-0.053040884858354, 51.48483158852543],
        [-0.05309732502517, 51.48516345509382],
        [-0.053551847128743, 51.485516318612895],
        [-0.053560134491847, 51.48579522821386],
        [-0.053140162531542, 51.48584850677945],
        [-0.053079687684274, 51.48598329164363],
        [-0.052949151636199, 51.48600450505912],
        [-0.052856756823567, 51.486449006071375],
        [-0.052844323165046, 51.48647038195236],
        [-0.052933899782484, 51.48673445465656],
        [-0.052994192317548, 51.486840669744794],
        [-0.05332191026489, 51.48702596374102],
        [-0.053406129434858, 51.48707772069093],
        [-0.053728778579458, 51.487517421190795],
        [-0.053977464865547, 51.48793521020366],
        [-0.052889820578206, 51.48763388647312],
        [-0.052631143898192, 51.48755225406954],
        [-0.052174921036358, 51.487813556592855],
        [-0.052119802596144, 51.48782253290256],
        [-0.050644194079772, 51.48787085163443],
        [-0.050464349746748, 51.48793350802866],
        [-0.050169544032563, 51.48836115257731],
        [-0.05195868867435, 51.48913548026726],
        [-0.051466098439691, 51.48943844133938],
        [-0.051151635190099, 51.48955011982267],
        [-0.047595726963948, 51.490445986660056],
        [-0.046567412988907, 51.4907445026666],
        [-0.046566096741964, 51.49047200351071],
        [-0.046567348136625, 51.4903416309601],
        [-0.045927228990148, 51.49021945675662],
        [-0.045831727565576, 51.49016211083124],
        [-0.045135415036227, 51.49037711943277],
        [-0.044758114671731, 51.49044187078732],
        [-0.044552657389681, 51.490126399790114],
        [-0.044498765237576, 51.49010661650458],
        [-0.042357253094201, 51.49002771932122],
        [-0.042225838788101, 51.49003541723606],
        [-0.042508026044792, 51.490240664430836],
        [-0.040343734268685, 51.49106241425661],
        [-0.041055669756823, 51.49182789416771],
        [-0.040070366798995, 51.49216304268064],
        [-0.040563331996484, 51.49279447187575],
        [-0.039934240414881, 51.492952120861595],
        [-0.039902261942404, 51.492958780457634],
        [-0.039093222431619, 51.49291198149221],
        [-0.039051938309929, 51.49290049993792],
        [-0.03802367930343, 51.49235633067346],
        [-0.037989709355799, 51.49234227331893],
        [-0.037376821718603, 51.49222320590196],
        [-0.037315037950445, 51.492219474015215],
        [-0.030435132679896, 51.49345122062749],
        [-0.029947689447916, 51.493563534184105],
        [-0.029769226435636, 51.49292475445551]
      ]
    ]
  }
}
