{
  "type": "Feature",
  "properties": {
    "name": "West London",
    "level": 1,
    "center": [-0.3440047709644355, 51.483425694671055]
  },
  "geometry": {
    "type": "Polygon",
    "coordinates": [
      [
        [-0.305462270890676, 51.63336798317466],
        [-0.304484772519683, 51.63203022585541],
        [-0.303953920044572, 51.63146414558814],
        [-0.302185879284401, 51.630133829397884],
        [-0.301838448790423, 51.62984195477688],
        [-0.300153081836355, 51.628197177535284],
        [-0.299254915464879, 51.627410843633776],
        [-0.295907979794407, 51.62469433369464],
        [-0.295188975645529, 51.62410389972812],
        [-0.289600303757528, 51.619164133631834],
        [-0.288276186087504, 51.618036996369284],
        [-0.287698774362785, 51.61729751027496],
        [-0.287565593448043, 51.61715169250157],
        [-0.286003758901882, 51.61589606925679],
        [-0.285307043435821, 51.61541110667803],
        [-0.283412315187261, 51.61429176275861],
        [-0.282199703229832, 51.61335592054524],
        [-0.278745973674661, 51.610156257542634],
        [-0.277937459119733, 51.609424122926384],
        [-0.276445559425992, 51.608318664866566],
        [-0.276036802465811, 51.60801501993611],
        [-0.27489360222305, 51.60693264641742],
        [-0.2738076642183, 51.605712623022264],
        [-0.270079712765203, 51.602767638191445],
        [-0.268736225406249, 51.601719118543386],
        [-0.265187703089916, 51.59855361142421],
        [-0.264761474590654, 51.59818222575486],
        [-0.260641470722254, 51.59491100986749],
        [-0.259770163925117, 51.594174217789515],
        [-0.257691082370564, 51.59225230062221],
        [-0.257421207727535, 51.59202348750945],
        [-0.253129458124564, 51.589042596804696],
        [-0.252536488203088, 51.588544589855196],
        [-0.248534593013576, 51.5845741936123],
        [-0.248284314693488, 51.58436363571924],
        [-0.251409284379403, 51.583575752267365],
        [-0.251667870530121, 51.5834573096091],
        [-0.252303874927319, 51.58279415949478],
        [-0.252417302212721, 51.58269693341453],
        [-0.253692181977807, 51.582122419467154],
        [-0.2538294387423, 51.58204353118135],
        [-0.25437954825289, 51.581511278494816],
        [-0.254395798710706, 51.581463861095045],
        [-0.254316378973018, 51.58059852117122],
        [-0.254335357660484, 51.58040457009344],
        [-0.254613273028129, 51.5797432744377],
        [-0.254630452225873, 51.57967159163518],
        [-0.254464706277685, 51.578987511133136],
        [-0.254415403130162, 51.57884290119697],
        [-0.253569291794513, 51.57727104991558],
        [-0.253427625749178, 51.57701356054954],
        [-0.252715965730809, 51.57513616674509],
        [-0.252623102915271, 51.574923465129814],
        [-0.251372424838314, 51.573180113294605],
        [-0.251355365450786, 51.57313579682908],
        [-0.251491720536094, 51.57296697486365],
        [-0.251697566192517, 51.57286752950634],
        [-0.252890604262307, 51.57268926515568],
        [-0.252970478794816, 51.57267606660705],
        [-0.253130005642071, 51.572504890034836],
        [-0.253131112889312, 51.57243836350771],
        [-0.25266345002139, 51.571688637097246],
        [-0.252510292051318, 51.57150561125702],
        [-0.251910864508315, 51.57118195298394],
        [-0.251772287890828, 51.57110795020229],
        [-0.251205088559298, 51.57032076550958],
        [-0.251149505803836, 51.57026508412333],
        [-0.250768663676064, 51.57011193404367],
        [-0.249495091295832, 51.56896980388576],
        [-0.24942832051994, 51.56890496244916],
        [-0.248771118277606, 51.5686217904216],
        [-0.248706274634532, 51.568544388088974],
        [-0.24855248734049, 51.568528604403674],
        [-0.248225716173873, 51.56865861142761],
        [-0.247615162853519, 51.56847594386552],
        [-0.247309817184243, 51.56846149210509],
        [-0.247041245817061, 51.568578876633076],
        [-0.24702365424686, 51.56862357539862],
        [-0.247393370868943, 51.568952820924856],
        [-0.247382584812737, 51.56897064445255],
        [-0.246861254054852, 51.56898174094935],
        [-0.246631784323189, 51.568982808676544],
        [-0.246554857803495, 51.56903201618263],
        [-0.246524701421263, 51.56906573635361],
        [-0.246631427002841, 51.56929213881183],
        [-0.246615830101998, 51.56932247962242],
        [-0.24610304264314, 51.569711377456954],
        [-0.246069990616205, 51.56978282193542],
        [-0.246071148369747, 51.56994020466271],
        [-0.246088177445342, 51.5699476530309],
        [-0.246558960753732, 51.56986296692871],
        [-0.246574507126333, 51.57002146386638],
        [-0.246502978775367, 51.57041785512286],
        [-0.24646463205464, 51.57051439905174],
        [-0.246007140677504, 51.57092840197537],
        [-0.246008918125471, 51.57095720392944],
        [-0.246728598616007, 51.57149221008324],
        [-0.24673484144004, 51.57151748181324],
        [-0.246065989213437, 51.572173816916276],
        [-0.246042429422306, 51.572186054017074],
        [-0.245453908885405, 51.57191737866969],
        [-0.245241903961468, 51.57191420872537],
        [-0.24452040310748, 51.57228828861535],
        [-0.244489389380986, 51.57230670851697],
        [-0.244388950374234, 51.57251652519913],
        [-0.244338494940381, 51.572552638821605],
        [-0.244152101022903, 51.57255884238893],
        [-0.244125287369355, 51.57254315426687],
        [-0.244103898469602, 51.57242413576149],
        [-0.244115183713976, 51.5723559630749],
        [-0.243920946220086, 51.572303598902494],
        [-0.243645954260946, 51.57232466197192],
        [-0.242616730015744, 51.572482804965254],
        [-0.242496782612275, 51.572487303255635],
        [-0.242418611438138, 51.572531094052685],
        [-0.242418597787669, 51.572568861550735],
        [-0.242604383358972, 51.57272811012658],
        [-0.242592290918197, 51.57274231673083],
        [-0.242141606600899, 51.57279131891116],
        [-0.242015542686437, 51.57280471740195],
        [-0.241394398891958, 51.57267131680236],
        [-0.241374762607173, 51.57265663483666],
        [-0.241206177420731, 51.572164027311445],
        [-0.241108433733699, 51.57211670154437],
        [-0.240869159849933, 51.57229655815027],
        [-0.240785079805494, 51.57234385621531],
        [-0.240584741247934, 51.572187983440024],
        [-0.240561735203263, 51.57218584005004],
        [-0.240016935405157, 51.572392586882174],
        [-0.239969480949611, 51.572388278243274],
        [-0.240075011048938, 51.57212189000921],
        [-0.239995600863851, 51.57208562903262],
        [-0.239437812327652, 51.57206826976607],
        [-0.239209040183536, 51.57208821738227],
        [-0.239056968341666, 51.572214525609056],
        [-0.238866475194406, 51.57225213236092],
        [-0.238132976015984, 51.57177801786056],
        [-0.238087103589068, 51.5717701352809],
        [-0.237836508209587, 51.5718320164422],
        [-0.237831312770182, 51.57185441921619],
        [-0.238184862293182, 51.57207824096757],
        [-0.238175375108566, 51.572099680090304],
        [-0.237754180168544, 51.572095154243236],
        [-0.237721547893462, 51.572118044222435],
        [-0.237736403111426, 51.57244288989948],
        [-0.237664587282763, 51.572471486055356],
        [-0.23601417088169, 51.57231090502779],
        [-0.235921938667178, 51.57230772011449],
        [-0.235915625608196, 51.5724335176577],
        [-0.235889124710984, 51.5724843754865],
        [-0.235578799797968, 51.57256064087748],
        [-0.235401058334864, 51.57256696063721],
        [-0.235354443662476, 51.57246644495599],
        [-0.235372898789158, 51.572437047821964],
        [-0.235687828207688, 51.572353658349655],
        [-0.2356939642565, 51.572306990549734],
        [-0.235169957442271, 51.572237064199996],
        [-0.235103078448048, 51.57221267836082],
        [-0.234666671979642, 51.57181854522631],
        [-0.234586277137998, 51.57177057573046],
        [-0.233755892433032, 51.57186149215691],
        [-0.233442488672184, 51.57197996946655],
        [-0.228937650492695, 51.56807234397957],
        [-0.228819055637165, 51.567968041431634],
        [-0.226893755747852, 51.56690394809522],
        [-0.226720581099513, 51.56679342323566],
        [-0.222389841096537, 51.56329552113985],
        [-0.221954970634582, 51.56294092866078],
        [-0.218650214107057, 51.5594179592226],
        [-0.218319748082375, 51.55912518643228],
        [-0.214855253435604, 51.55634334761197],
        [-0.214287841541181, 51.555877002179045],
        [-0.211941016996363, 51.55370197761799],
        [-0.211729924998282, 51.553530603185],
        [-0.207254205929112, 51.55018547978721],
        [-0.206813705172661, 51.549833440759265],
        [-0.201931795540599, 51.545285911141576],
        [-0.201228955139573, 51.544603405571195],
        [-0.192462443764881, 51.53712906543631],
        [-0.191483479647737, 51.53628937321688],
        [-0.19298309791366, 51.53406797468199],
        [-0.193035258375231, 51.53398874560625],
        [-0.192769822395793, 51.53366452663495],
        [-0.192407900769218, 51.5333010521911],
        [-0.192411058914995, 51.532893744211556],
        [-0.192558519914213, 51.53262894139818],
        [-0.19656253495678, 51.52770067077762],
        [-0.19656870384523, 51.527654005016245],
        [-0.19684620133812, 51.52785520494652],
        [-0.196931355118118, 51.52792575550508],
        [-0.197500812539045, 51.5278526760408],
        [-0.19779879153845, 51.52790041798633],
        [-0.197950423123024, 51.52836855486225],
        [-0.198074730640393, 51.52861595748031],
        [-0.197925769544417, 51.52961362629192],
        [-0.197940441319659, 51.5299357802724],
        [-0.198215902142351, 51.53037164759586],
        [-0.198298074497748, 51.530444849028],
        [-0.19941207722475, 51.53115077243654],
        [-0.199562919149064, 51.53123761633283],
        [-0.201007590766108, 51.5318586747039],
        [-0.201108017737193, 51.53190787453686],
        [-0.201550196102369, 51.53239484908884],
        [-0.20168931943752, 51.532559744505676],
        [-0.202849719876598, 51.53285898955576],
        [-0.202992186171549, 51.53290253707463],
        [-0.207336032000233, 51.53283770808495],
        [-0.207648158763493, 51.532819996367074],
        [-0.210841736141893, 51.53201177062065],
        [-0.211051413294892, 51.53195921543892],
        [-0.214694742680078, 51.53151833824643],
        [-0.215207285603984, 51.53138945292349],
        [-0.215362763113159, 51.5312479399508],
        [-0.215360443692745, 51.53119664799955],
        [-0.215104461972042, 51.53025844325167],
        [-0.215129449295226, 51.5301724964082],
        [-0.215264996958158, 51.5299506479684],
        [-0.215314091724181, 51.52991182833024],
        [-0.21584724316426, 51.5297346948621],
        [-0.215883650986633, 51.52972535694746],
        [-0.216088485085916, 51.52887419410396],
        [-0.216028870217714, 51.527928186202715],
        [-0.217331725183074, 51.52845516381049],
        [-0.217979012791213, 51.528640350352845],
        [-0.221005471053029, 51.5291853642192],
        [-0.221526610259739, 51.52927869395472],
        [-0.223633729557784, 51.5299248006877],
        [-0.223803793571227, 51.52996334534235],
        [-0.225016791239753, 51.53013547512859],
        [-0.22544656431778, 51.53016895432065],
        [-0.225463193299749, 51.530037917004144],
        [-0.225465333068632, 51.53001996459627],
        [-0.226716838558576, 51.52998043892529],
        [-0.22768522372153, 51.52991773883602],
        [-0.227680517201308, 51.52992755935383],
        [-0.227588011597722, 51.53015636680677],
        [-0.228372483829059, 51.53030040472802],
        [-0.22850309139132, 51.53035273446443],
        [-0.228727694430184, 51.52987773114076],
        [-0.227457881093796, 51.52805018200797],
        [-0.227412120132983, 51.527892123735384],
        [-0.227414153279061, 51.526280718161296],
        [-0.227416850496596, 51.52624838631018],
        [-0.227195157901401, 51.524792764758864],
        [-0.226619861978085, 51.524795759073875],
        [-0.226733484078278, 51.5223533435855],
        [-0.226729383306412, 51.521976500131224],
        [-0.226820412120736, 51.52193381344855],
        [-0.228070910956127, 51.52135741319591],
        [-0.22807712005575, 51.521197442315156],
        [-0.228301541991191, 51.521097419606285],
        [-0.225894764510299, 51.519083614048085],
        [-0.225677516840962, 51.51888789061232],
        [-0.222751193933401, 51.51571243207876],
        [-0.222604014295082, 51.515642758845864],
        [-0.220040345464279, 51.51134507427011],
        [-0.219937084742266, 51.51118434134091],
        [-0.219300756396259, 51.509615396356814],
        [-0.219286490792476, 51.50957471386857],
        [-0.218844524661144, 51.50963724465441],
        [-0.217888647731003, 51.5097594096436],
        [-0.218053287292992, 51.51023041638664],
        [-0.217246163934489, 51.51038091410942],
        [-0.217209701739335, 51.51039205004605],
        [-0.216815321445227, 51.509567744126215],
        [-0.216841767000616, 51.509444050703046],
        [-0.216462139335455, 51.50920177773145],
        [-0.216430733059083, 51.509120368306824],
        [-0.216086173222589, 51.509124120615645],
        [-0.215817065708049, 51.509114631826264],
        [-0.215392966450632, 51.50805606549675],
        [-0.215202896032838, 51.507646715445404],
        [-0.216086938157161, 51.5075180844937],
        [-0.216144544303932, 51.507518960658395],
        [-0.216189250561396, 51.50722289041648],
        [-0.216227388403705, 51.50694740284028],
        [-0.216056880846254, 51.50659050774462],
        [-0.215963408558685, 51.506401144161565],
        [-0.21718093487461, 51.50629286437317],
        [-0.217990725824651, 51.50614600490789],
        [-0.217418556514545, 51.50511487071997],
        [-0.217040523258939, 51.504500336795914],
        [-0.215375896965869, 51.50270261009127],
        [-0.214966513084998, 51.50230161196561],
        [-0.215075143986509, 51.502250209894996],
        [-0.214369628944937, 51.50113160188199],
        [-0.214133059861848, 51.50077010066166],
        [-0.213062620158475, 51.499847357565635],
        [-0.210825075534721, 51.49852372675066],
        [-0.21027006175982, 51.498127683685766],
        [-0.208209478598974, 51.49618981977194],
        [-0.208001399858427, 51.49602207854839],
        [-0.207388486815895, 51.49614849755865],
        [-0.206840014723595, 51.4956239456438],
        [-0.206719227641896, 51.49554476359461],
        [-0.205191494756988, 51.49482807410892],
        [-0.204783811671373, 51.494607813516566],
        [-0.203189537839982, 51.493423370016544],
        [-0.203027895202586, 51.493321076927074],
        [-0.201864346440444, 51.49188243239872],
        [-0.201835316098095, 51.49185141288022],
        [-0.202308196536645, 51.491694999887386],
        [-0.202387033198755, 51.49166833172984],
        [-0.199025801941587, 51.48875715387988],
        [-0.198298944073425, 51.4881219108917],
        [-0.196448165026968, 51.487205903153374],
        [-0.195987877304242, 51.4873723779157],
        [-0.194680877959093, 51.486621175156564],
        [-0.194494361774997, 51.48649330806213],
        [-0.188281046834673, 51.48096061701564],
        [-0.188194980374439, 51.48087925399127],
        [-0.186880539175013, 51.47988774697113],
        [-0.186729839669629, 51.47976581641993],
        [-0.186549937140952, 51.47987184356249],
        [-0.186364291058579, 51.479723293815255],
        [-0.185685121705984, 51.47883781665874],
        [-0.18563239261781, 51.47878754200864],
        [-0.18403331215351, 51.477532613189325],
        [-0.183880867493481, 51.477418745072306],
        [-0.182648806765418, 51.477221604225704],
        [-0.182553535578684, 51.477227321588295],
        [-0.180438608980595, 51.477829392853565],
        [-0.180210286943119, 51.477849230111445],
        [-0.177948629389097, 51.477578504152994],
        [-0.177815681013733, 51.47755395690166],
        [-0.177634473272596, 51.47686141489597],
        [-0.177645364763957, 51.47680493132444],
        [-0.178032045285551, 51.47631635204933],
        [-0.178078005827303, 51.47621095451715],
        [-0.178775610754496, 51.47402581946683],
        [-0.178877395442653, 51.47371176301358],
        [-0.17952424425807, 51.47287201489547],
        [-0.179625516727513, 51.47271531890356],
        [-0.180321464337329, 51.47136465433716],
        [-0.18038279767257, 51.4710535657523],
        [-0.182020771451131, 51.4685691618727],
        [-0.182894337124714, 51.467527880868275],
        [-0.184235793449272, 51.466558586622284],
        [-0.185047445280213, 51.46605947921115],
        [-0.189053335022237, 51.464589096396516],
        [-0.190169697142785, 51.464318573706976],
        [-0.193237543873915, 51.46399180141106],
        [-0.194854869203611, 51.4639034079687],
        [-0.199709234262446, 51.46408865527009],
        [-0.201022506718317, 51.46415377574194],
        [-0.204832828369795, 51.46467799012422],
        [-0.205331195560394, 51.46478183942317],
        [-0.212687123257067, 51.46679072155595],
        [-0.213375882906033, 51.46703412437996],
        [-0.216386438763906, 51.46836138958064],
        [-0.217074621790472, 51.46876842478071],
        [-0.218825015185015, 51.46992448400987],
        [-0.218946915943939, 51.470010865057006],
        [-0.220562093725048, 51.47135098784118],
        [-0.221733868922281, 51.472357937033166],
        [-0.223237563296841, 51.47164245047038],
        [-0.223425137903221, 51.47152119656989],
        [-0.223541955069522, 51.47140516510187],
        [-0.223541074598885, 51.47139076380687],
        [-0.223333779785287, 51.47101893159347],
        [-0.223338116570925, 51.470944359781996],
        [-0.223636091685929, 51.47076093178042],
        [-0.223728187815769, 51.470762326995185],
        [-0.226783951358168, 51.47138319813628],
        [-0.227072334797208, 51.471446909292965],
        [-0.228529351746669, 51.47197071070782],
        [-0.228766702513563, 51.47212536978866],
        [-0.229455833168016, 51.47214027398903],
        [-0.229582690906532, 51.47217366311013],
        [-0.230745230336765, 51.47275503794939],
        [-0.230803397774772, 51.47277749753384],
        [-0.2317227560024, 51.472796761156104],
        [-0.232108774874809, 51.47279358948209],
        [-0.232615357581468, 51.47261418314842],
        [-0.23269542893072, 51.47255424131128],
        [-0.233009551351566, 51.47210125923028],
        [-0.23302503766525, 51.472035847640505],
        [-0.232895306697624, 51.47125694389135],
        [-0.232890999327892, 51.47077218525052],
        [-0.233014759067467, 51.46969315626217],
        [-0.233100637850992, 51.469184577694016],
        [-0.233390163376371, 51.46839850262489],
        [-0.233447471465003, 51.46814487929221],
        [-0.233327199283013, 51.467568448546054],
        [-0.232830601382636, 51.46663384149918],
        [-0.233566807353305, 51.466135961560745],
        [-0.233649623543717, 51.46604188905307],
        [-0.233340777355605, 51.46427201397463],
        [-0.233314197476582, 51.46399104835475],
        [-0.234896733610692, 51.46431703056531],
        [-0.235233050659104, 51.46436885404659],
        [-0.241502527349994, 51.46504756281027],
        [-0.243014953848519, 51.46517724690504],
        [-0.243976055609897, 51.465230312852576],
        [-0.245048305033298, 51.465238273820376],
        [-0.248137515027017, 51.46505876132677],
        [-0.248641901086197, 51.465045613885145],
        [-0.251828104149243, 51.46522805026908],
        [-0.252915500279723, 51.465216381690745],
        [-0.255536260627126, 51.463465007267544],
        [-0.256020315311008, 51.46304057077204],
        [-0.258020494107125, 51.46030332887551],
        [-0.258043409102847, 51.46026859878113],
        [-0.25680800755378, 51.459860864069306],
        [-0.256809857138586, 51.45985010062626],
        [-0.25724654516993, 51.45896723898269],
        [-0.25731748047118, 51.458805529975486],
        [-0.258150512707957, 51.457682162285735],
        [-0.25834083831505, 51.4573333848323],
        [-0.258731644597935, 51.45648220883268],
        [-0.258954696202619, 51.4559918356192],
        [-0.259080248469468, 51.455264411863546],
        [-0.259113038630899, 51.45493217787489],
        [-0.249285098688748, 51.45011873766006],
        [-0.247326309920811, 51.44918033025531],
        [-0.245047756773483, 51.446899921020595],
        [-0.244500011067889, 51.4463602641312],
        [-0.242046863977089, 51.44361226754689],
        [-0.241629258043997, 51.44313299927729],
        [-0.242455639232061, 51.44222276219808],
        [-0.242729209273461, 51.44191842096766],
        [-0.253273440688358, 51.43762652823432],
        [-0.254090535362028, 51.43729069166405],
        [-0.253512156724026, 51.43664900468218],
        [-0.253473541172507, 51.43656749694351],
        [-0.253321886898806, 51.43556437321132],
        [-0.253256809186789, 51.43545998984367],
        [-0.252935179276138, 51.43514135873661],
        [-0.252843772794978, 51.435086041415325],
        [-0.251474572642578, 51.43439568478996],
        [-0.251411652467474, 51.434347985241615],
        [-0.251037302051527, 51.43352678107118],
        [-0.251026252842931, 51.43343938900374],
        [-0.251084056775732, 51.43256618084015],
        [-0.251247173031974, 51.43228804856907],
        [-0.25223611102778, 51.4314053471356],
        [-0.252394380681563, 51.431253935222635],
        [-0.253208628363322, 51.430914465604836],
        [-0.253327829924825, 51.430844301953385],
        [-0.254153449785802, 51.42975322254446],
        [-0.254220583092668, 51.429577070236746],
        [-0.253991528878782, 51.42879310964987],
        [-0.253875047952886, 51.428565662771405],
        [-0.252801152637704, 51.42677543949288],
        [-0.252528016918671, 51.426506988121915],
        [-0.252299372990795, 51.42586421205589],
        [-0.252261045083529, 51.425737745483495],
        [-0.252333190291286, 51.425354841248904],
        [-0.25243011364082, 51.42500108240999],
        [-0.252871394158906, 51.42417945113748],
        [-0.252909256494755, 51.42405412041581],
        [-0.252958272717972, 51.42333455120326],
        [-0.25295441139779, 51.423209497790616],
        [-0.252022156191079, 51.422951002155806],
        [-0.251804035828138, 51.42286232018842],
        [-0.251122974227661, 51.422316206327515],
        [-0.250925221542098, 51.42188251415097],
        [-0.250674834478553, 51.42109463026766],
        [-0.250583019924497, 51.4209754579586],
        [-0.250475411013003, 51.42002693998808],
        [-0.250386897613582, 51.41978372005627],
        [-0.249780927736521, 51.41885473824652],
        [-0.249642361131917, 51.41852893830282],
        [-0.249594071586539, 51.41824944905913],
        [-0.249574722076498, 51.41807830222593],
        [-0.249851251810504, 51.4171265270779],
        [-0.2498584515219, 51.41701332883974],
        [-0.249603022363536, 51.414965514187266],
        [-0.249599676253432, 51.414902516551756],
        [-0.247170894058024, 51.40970990097797],
        [-0.247136938439694, 51.40958259840145],
        [-0.247508848724867, 51.40910705986432],
        [-0.247557068887787, 51.4090493294543],
        [-0.247509971229394, 51.40851356941777],
        [-0.247507612516379, 51.40850004534489],
        [-0.247203181097581, 51.40796313449596],
        [-0.247103900153426, 51.40788970928554],
        [-0.245847948022596, 51.4075696669713],
        [-0.245810757083524, 51.4075646140224],
        [-0.245386994691771, 51.40710324781096],
        [-0.245353675873339, 51.407072174325826],
        [-0.245503944416382, 51.40675249121147],
        [-0.245532845277014, 51.406636020878466],
        [-0.245229740408369, 51.40614049009566],
        [-0.245221634517717, 51.406126879912144],
        [-0.244718288840491, 51.4043648970656],
        [-0.244684722173349, 51.40422770764202],
        [-0.244700094405874, 51.40371356439862],
        [-0.244682986935816, 51.40340936016383],
        [-0.24507069089013, 51.40222005752507],
        [-0.245234259567526, 51.40170273775046],
        [-0.246834370969499, 51.400500103633135],
        [-0.246846449675989, 51.400484997006764],
        [-0.246609245257685, 51.399281842301015],
        [-0.246621983332126, 51.399211891018155],
        [-0.246763915943625, 51.39862050638631],
        [-0.246769407594656, 51.39851447647055],
        [-0.24742300415275, 51.39758722965112],
        [-0.247424784370401, 51.39757826372597],
        [-0.244707817826841, 51.394799365089405],
        [-0.244595174070784, 51.39466278936276],
        [-0.242791476053685, 51.394279650263556],
        [-0.242510012591607, 51.394234962662026],
        [-0.241745783961696, 51.39392224739324],
        [-0.241691686009634, 51.393871077316916],
        [-0.241168593147471, 51.393155512430106],
        [-0.240935208887327, 51.39271946688537],
        [-0.240860115631, 51.39254118607785],
        [-0.240824063124782, 51.39243183481515],
        [-0.240961706068068, 51.392178512317194],
        [-0.240967934833846, 51.39216601623102],
        [-0.240693163181835, 51.39209714469851],
        [-0.240619807350089, 51.39206097231675],
        [-0.240236208377028, 51.391419437752596],
        [-0.240108256385941, 51.391195399729654],
        [-0.239892419561817, 51.389740757465425],
        [-0.239886009445521, 51.38957070162942],
        [-0.239706881078202, 51.38929463668275],
        [-0.239646012263803, 51.38915793445444],
        [-0.239470752749612, 51.388144536430154],
        [-0.239459460952837, 51.387951925743366],
        [-0.238956147548243, 51.38668630144608],
        [-0.238744585275394, 51.38609500722934],
        [-0.241403252625781, 51.38467364703927],
        [-0.241620212425064, 51.38452492862825],
        [-0.242959762891856, 51.382945244580284],
        [-0.24417472388618, 51.38349222069703],
        [-0.245036255288623, 51.38009244580313],
        [-0.245054253159237, 51.38003516288749],
        [-0.245528973212663, 51.3800593582242],
        [-0.245587698708291, 51.379989196215696],
        [-0.245979780619247, 51.380145242431226],
        [-0.24611169601761, 51.38019038151644],
        [-0.246840193822007, 51.3801167539673],
        [-0.247223092240216, 51.379986694713615],
        [-0.24784729669427, 51.380122826176276],
        [-0.247917320979476, 51.380170634697315],
        [-0.248868470763923, 51.37998611811903],
        [-0.249100762045496, 51.379923943824465],
        [-0.251476004208587, 51.37909702675042],
        [-0.251661748747258, 51.37904944013783],
        [-0.253604552096156, 51.37878435708594],
        [-0.253971417438412, 51.378772738837746],
        [-0.257491576022163, 51.37889618487786],
        [-0.258444327925037, 51.378970600510414],
        [-0.261124820753506, 51.37960032427235],
        [-0.261172214383201, 51.37960102762628],
        [-0.261440723042361, 51.379037581550676],
        [-0.261491727525927, 51.37852576237027],
        [-0.261901316303552, 51.3782206964619],
        [-0.261937076951739, 51.37818705521112],
        [-0.262411155962573, 51.377355080795404],
        [-0.262492550771334, 51.37725467191286],
        [-0.264258312485996, 51.376082135518246],
        [-0.264702393286974, 51.37562379807789],
        [-0.268875071159029, 51.373641515696114],
        [-0.268910212907352, 51.37362404980283],
        [-0.271956079461252, 51.37259710021455],
        [-0.272191058383602, 51.37249984907235],
        [-0.273394782075984, 51.371743335193734],
        [-0.273430461602488, 51.37171148778699],
        [-0.274014558973828, 51.37081184558078],
        [-0.274046251868883, 51.37065674119372],
        [-0.275650478290943, 51.37013631321722],
        [-0.275856161036476, 51.370015242955866],
        [-0.276131824015194, 51.369752220356546],
        [-0.276206198301096, 51.36964630321937],
        [-0.276284358651956, 51.3691717468196],
        [-0.276293983255197, 51.369068473990495],
        [-0.276523304548824, 51.36885332847955],
        [-0.276583861404752, 51.36880925649646],
        [-0.279504125068616, 51.367977201700356],
        [-0.279843061933234, 51.3678266073479],
        [-0.280839198166005, 51.367236029700784],
        [-0.281057013695366, 51.36709714331108],
        [-0.281990072561923, 51.36615671924833],
        [-0.282185512618969, 51.366001316055616],
        [-0.284094840361637, 51.365151622706755],
        [-0.284105125655189, 51.36514547855895],
        [-0.285726117219904, 51.36405233342605],
        [-0.285768960682572, 51.36402058712484],
        [-0.286889541321901, 51.36282388249348],
        [-0.287044752031647, 51.362667882998224],
        [-0.288178417378426, 51.362235724811406],
        [-0.28830193704716, 51.36208195836632],
        [-0.285425792944147, 51.361285424416295],
        [-0.285101023651833, 51.361212327347864],
        [-0.286857425993317, 51.359526740539785],
        [-0.286996666624014, 51.35937500382777],
        [-0.288097753271081, 51.35904398618671],
        [-0.288996346341479, 51.35871179947057],
        [-0.289794771375507, 51.35771359339617],
        [-0.289881779430545, 51.35761414686935],
        [-0.290939749626155, 51.35666468436534],
        [-0.291108775795095, 51.35656103792385],
        [-0.291224329746694, 51.355308261046595],
        [-0.291223969429726, 51.35520214354264],
        [-0.291499835649225, 51.35469718808533],
        [-0.291724976289745, 51.35443609002224],
        [-0.29252418763188, 51.35379937792184],
        [-0.292684656586535, 51.35361646994033],
        [-0.292819914562438, 51.3525276430454],
        [-0.292930407018685, 51.35237548036446],
        [-0.2943499248069, 51.35154636016555],
        [-0.294519224624579, 51.35143461953192],
        [-0.296039306942496, 51.35025443455073],
        [-0.296476584432631, 51.34996403975797],
        [-0.298993157479701, 51.34851234035805],
        [-0.299199480063176, 51.348369656647904],
        [-0.299949075835048, 51.34767102451006],
        [-0.300100616232278, 51.34749517092641],
        [-0.301175968292282, 51.34551981717722],
        [-0.301337935211598, 51.345294654088335],
        [-0.303806300043744, 51.34334846126683],
        [-0.303903162809008, 51.343252744124584],
        [-0.304396753181412, 51.34221135675196],
        [-0.30446165896344, 51.34204773228416],
        [-0.304753855832009, 51.34086044609706],
        [-0.30481092023994, 51.34071469307105],
        [-0.305341216551748, 51.339727788191965],
        [-0.305437929826866, 51.33948009316869],
        [-0.305321868328251, 51.338422686092755],
        [-0.305296356051122, 51.33821908482672],
        [-0.304980719169418, 51.337707336483035],
        [-0.304883241621581, 51.3375476565223],
        [-0.304960977339731, 51.33707487280281],
        [-0.304949953462139, 51.33675098056259],
        [-0.305279323998917, 51.336033642768776],
        [-0.305710079387602, 51.33540859564069],
        [-0.307491611005631, 51.334590848695676],
        [-0.307635929971084, 51.334609120660396],
        [-0.31041915547762, 51.33266554000266],
        [-0.310953206670715, 51.33239087574846],
        [-0.313094409068225, 51.331740996030945],
        [-0.313716395452623, 51.33141632805405],
        [-0.316142494726965, 51.32956998576631],
        [-0.316765148142127, 51.32914729227309],
        [-0.318978951863705, 51.327957895502124],
        [-0.319307257234782, 51.32781153186493],
        [-0.321599540326147, 51.32745682356557],
        [-0.321774339271527, 51.32742605584719],
        [-0.324028603634346, 51.32669576520815],
        [-0.32425996856707, 51.326648717340966],
        [-0.327231639284355, 51.32667231297084],
        [-0.327322993707169, 51.32668620728047],
        [-0.32759755531925, 51.32631963434954],
        [-0.328314267408291, 51.32646385548148],
        [-0.329590040375386, 51.32718078000284],
        [-0.330138981506162, 51.32751863484001],
        [-0.330674143856387, 51.32863144946771],
        [-0.330756431816156, 51.328855637769195],
        [-0.32921443869616, 51.33009081129484],
        [-0.329116281627202, 51.330263866717864],
        [-0.329191260385566, 51.330965456726595],
        [-0.329302868614057, 51.331528184435754],
        [-0.329362729602365, 51.33161896386254],
        [-0.329554510400937, 51.33187169228202],
        [-0.329594168706714, 51.33228141923107],
        [-0.329689958152871, 51.33248961409524],
        [-0.329643333026587, 51.33349611544232],
        [-0.329628930756484, 51.33385291448311],
        [-0.329359189030648, 51.335310357399116],
        [-0.329208181827396, 51.33563373387677],
        [-0.329041495176203, 51.33757284791906],
        [-0.328900402352735, 51.338176033657334],
        [-0.328979227840191, 51.340232854633456],
        [-0.328909130274555, 51.34077860140947],
        [-0.328346097208224, 51.342047509050076],
        [-0.328201228831476, 51.34231971414148],
        [-0.327796114023771, 51.34390381322419],
        [-0.327480770274376, 51.34400722161427],
        [-0.328177349649401, 51.344041445304505],
        [-0.330327238121341, 51.34790203072873],
        [-0.330533820950686, 51.34842114648758],
        [-0.328353064119252, 51.351721780352555],
        [-0.328046475389049, 51.352135557647244],
        [-0.324158744705, 51.354108721098484],
        [-0.323752687183795, 51.354413153911615],
        [-0.322259713125154, 51.35620377677808],
        [-0.321952973306821, 51.35661933460321],
        [-0.320744851152001, 51.3583933352567],
        [-0.320259403795019, 51.359099483340785],
        [-0.320079308796216, 51.35942872526637],
        [-0.320178297943792, 51.35954974531767],
        [-0.320165136400413, 51.359595418488006],
        [-0.319956964722192, 51.35963200046981],
        [-0.319792372434961, 51.35992999041951],
        [-0.319060203794328, 51.36231329794736],
        [-0.318285367063541, 51.36350627709292],
        [-0.318522193272103, 51.36586481796303],
        [-0.318523330368146, 51.36618676651234],
        [-0.317905671177718, 51.36990979515609],
        [-0.318029423075917, 51.37029645144758],
        [-0.317284276067225, 51.37243855967008],
        [-0.317109152243848, 51.3727085175326],
        [-0.316224418307456, 51.37356178527068],
        [-0.315991740662841, 51.373755377251655],
        [-0.314783042374367, 51.37443042195017],
        [-0.314341466059262, 51.3746389908951],
        [-0.31251045802878, 51.37477000298674],
        [-0.312155171523403, 51.374819739752155],
        [-0.309096994077198, 51.375382639879604],
        [-0.308695082477718, 51.37544967833477],
        [-0.308342124311443, 51.37605967099045],
        [-0.307993630624793, 51.37666523078588],
        [-0.307892154503008, 51.37836514916364],
        [-0.307388501591147, 51.37838485207642],
        [-0.307520635305602, 51.37900994198727],
        [-0.308517491067563, 51.38050180659027],
        [-0.309276738142329, 51.38044891780018],
        [-0.309302186214874, 51.381708236189226],
        [-0.309330927428926, 51.38186422127618],
        [-0.309498363505203, 51.38184415580556],
        [-0.30955807847911, 51.382446616025625],
        [-0.309911348313465, 51.382882453095135],
        [-0.310347175325258, 51.38365220219044],
        [-0.310288337571336, 51.38380602479929],
        [-0.310307293691095, 51.3839546744622],
        [-0.310540821552397, 51.38436450290369],
        [-0.310654512349518, 51.384516316862495],
        [-0.31058033776697, 51.38465732897851],
        [-0.310630981306376, 51.3847650699148],
        [-0.311787662058174, 51.38578620284303],
        [-0.310868909866942, 51.38618751660438],
        [-0.311845503751351, 51.387377809099],
        [-0.311740028430426, 51.387432042973764],
        [-0.313158543637799, 51.38880044682475],
        [-0.313188956774312, 51.388833257607025],
        [-0.313348145867001, 51.38876450834916],
        [-0.315981045979785, 51.387633352232],
        [-0.316617276345852, 51.388585806360375],
        [-0.316816040120007, 51.38857427362513],
        [-0.316663273048577, 51.388859838836794],
        [-0.316605798198522, 51.38889858012607],
        [-0.314980758184394, 51.38974569674292],
        [-0.314134076710601, 51.39021821389623],
        [-0.315242625649149, 51.391459833438546],
        [-0.315732495818619, 51.39197585018066],
        [-0.317113478965005, 51.393198885372996],
        [-0.317294603213009, 51.39335525784079],
        [-0.317720101113851, 51.39366801067521],
        [-0.319392850881795, 51.39277657795297],
        [-0.319855175749115, 51.392594365456304],
        [-0.323715756557291, 51.39169555200133],
        [-0.324612495040861, 51.391503347827964],
        [-0.325693120951348, 51.391431565814],
        [-0.325990134128156, 51.39144570090122],
        [-0.327687230158598, 51.3917720796455],
        [-0.32784005667344, 51.39183810709927],
        [-0.328391712661548, 51.39212204669096],
        [-0.328693903359964, 51.3923098034795],
        [-0.32999725716119, 51.3933454335348],
        [-0.330151817078767, 51.39348252312623],
        [-0.330808101171291, 51.39409167082677],
        [-0.330876012351269, 51.39416098089641],
        [-0.332121160770149, 51.3957721744418],
        [-0.332285465409808, 51.39591839224747],
        [-0.336952799317859, 51.39937128047825],
        [-0.337093683525996, 51.399490181586856],
        [-0.338632531662058, 51.4012583414596],
        [-0.338973194995338, 51.40173617320169],
        [-0.340245471591555, 51.402809912159405],
        [-0.340529821748994, 51.40301716819735],
        [-0.341232351302417, 51.40334904345623],
        [-0.341427070820141, 51.40341114948615],
        [-0.343808909417304, 51.403980783325544],
        [-0.34413115580224, 51.40413461135871],
        [-0.34639006228578, 51.405523464800154],
        [-0.346651150909219, 51.405659337202444],
        [-0.348837840125242, 51.40646261542374],
        [-0.349220348951662, 51.406620875196154],
        [-0.350618699113981, 51.40755779104159],
        [-0.350701742560278, 51.40760751883062],
        [-0.354435673924361, 51.40945399421566],
        [-0.355130443683084, 51.40980725762631],
        [-0.355305858440188, 51.41068917812592],
        [-0.355378368398699, 51.41075224333362],
        [-0.358802159126149, 51.41179479835043],
        [-0.359065090281301, 51.411881210099914],
        [-0.360375130695803, 51.41204072521992],
        [-0.360711256753829, 51.41205082243893],
        [-0.363123621243002, 51.41190558959781],
        [-0.364419204815893, 51.41166469528749],
        [-0.366195093445376, 51.41122095999431],
        [-0.366501810244264, 51.411128117200164],
        [-0.37286361218396, 51.40868884630049],
        [-0.373171608375908, 51.40859960088292],
        [-0.376147615408443, 51.408285672161036],
        [-0.376390235132015, 51.408255761589864],
        [-0.377892039247635, 51.40791146530561],
        [-0.37811859296079, 51.407888522727795],
        [-0.379617042210908, 51.40784180646037],
        [-0.380229050685244, 51.40789702680378],
        [-0.383022322501165, 51.40844007133828],
        [-0.383371131051708, 51.40853840410157],
        [-0.383445668986959, 51.40948273443762],
        [-0.383832000847233, 51.40953662134734],
        [-0.383798530561998, 51.41011886688682],
        [-0.386501860818167, 51.410403404726374],
        [-0.386656859949808, 51.41041183311738],
        [-0.38787645386025, 51.410323403944055],
        [-0.389198023262364, 51.41031999285899],
        [-0.38931685684238, 51.410702903211124],
        [-0.389670922882131, 51.41069338064404],
        [-0.390167495704511, 51.41346356184626],
        [-0.390313666493962, 51.41433783038285],
        [-0.387586676276907, 51.41435070436083],
        [-0.386143910701011, 51.414280490046494],
        [-0.386352667397983, 51.414641261182375],
        [-0.386615382984259, 51.415021658680345],
        [-0.386456023143949, 51.41530002730731],
        [-0.386440555099614, 51.41537175342815],
        [-0.386570834145544, 51.41649129992776],
        [-0.386531973963684, 51.416533029186596],
        [-0.386774668617198, 51.41756419884773],
        [-0.386783004131036, 51.417654237366484],
        [-0.387416313547023, 51.41902889434236],
        [-0.387715002966445, 51.41932795323765],
        [-0.386692798020625, 51.42005306136719],
        [-0.38666306638384, 51.420080528503576],
        [-0.391363471381933, 51.42232578118933],
        [-0.391384719893417, 51.42233506516654],
        [-0.394281679671769, 51.42319039367438],
        [-0.394533160013679, 51.42323790097208],
        [-0.398117858219366, 51.42355581611456],
        [-0.398133672349628, 51.42355603222997],
        [-0.40148192603088, 51.423355350697676],
        [-0.401781180157432, 51.42331177185548],
        [-0.405382947526872, 51.42247957515105],
        [-0.405931677119957, 51.42266508745567],
        [-0.408278572933637, 51.42375358154684],
        [-0.408462752563366, 51.42383431586686],
        [-0.408972437551156, 51.425269219936105],
        [-0.409027985171456, 51.42545072004785],
        [-0.410077132024641, 51.426222110532606],
        [-0.410179997212995, 51.42628375442079],
        [-0.410810930884126, 51.42721132736966],
        [-0.410889831870999, 51.42734188675136],
        [-0.411327687496453, 51.42757442876354],
        [-0.411586434546531, 51.42766246323527],
        [-0.413107417715085, 51.427854817279375],
        [-0.412474025362692, 51.42878144421918],
        [-0.414373749712286, 51.429295440453124],
        [-0.413827456332358, 51.430074879054466],
        [-0.416063077516838, 51.43069500539762],
        [-0.416165422347931, 51.43056420095851],
        [-0.416384960430827, 51.430622020200765],
        [-0.417921711696406, 51.43102764231379],
        [-0.417797439399494, 51.43121030781367],
        [-0.417315526926341, 51.43191779333988],
        [-0.417725923097868, 51.43203124142042],
        [-0.418377543097369, 51.43186648305564],
        [-0.419010410029999, 51.43232823339535],
        [-0.419099976353948, 51.432359115995865],
        [-0.420901634422505, 51.43221883965982],
        [-0.421175170365505, 51.43217126777674],
        [-0.422093376042164, 51.431868000217115],
        [-0.422442781363619, 51.431747709539096],
        [-0.423519546572663, 51.43118398870885],
        [-0.423600904489819, 51.431160803534944],
        [-0.423596267554822, 51.4310447401941],
        [-0.42352003025227, 51.43087735694536],
        [-0.424214255829515, 51.43097841280376],
        [-0.425662988139555, 51.43080814033838],
        [-0.42588266019194, 51.430778717987586],
        [-0.427395745323556, 51.430828700920124],
        [-0.427506833666949, 51.43081940036586],
        [-0.427854597250606, 51.429405076502874],
        [-0.427852652248857, 51.42925218092869],
        [-0.429445941642849, 51.429394934946366],
        [-0.429555611384507, 51.42879751562874],
        [-0.433457121396159, 51.42912488443901],
        [-0.433736149443492, 51.42916817916317],
        [-0.439085555234226, 51.43040403666254],
        [-0.440004394644241, 51.430626687964384],
        [-0.440125879060778, 51.43250859617808],
        [-0.440148697473594, 51.43281014207248],
        [-0.439927770466318, 51.43414345874841],
        [-0.439773431712757, 51.43461979529996],
        [-0.446989247027037, 51.43497638662258],
        [-0.44773788749209, 51.435003387283466],
        [-0.446470191385757, 51.43950522225582],
        [-0.446309629978427, 51.43999677120282],
        [-0.449619059490367, 51.43927174330076],
        [-0.450976787617078, 51.43898934859023],
        [-0.456074075612227, 51.4381483682755],
        [-0.456488399048358, 51.43810706419289],
        [-0.455420604030621, 51.441952487733445],
        [-0.455412087695888, 51.44211963191271],
        [-0.456310587387269, 51.442528025579165],
        [-0.457464559804903, 51.44299912288954],
        [-0.457319266134118, 51.444663479531854],
        [-0.457334735617288, 51.445314723615276],
        [-0.457636247927708, 51.44729968774297],
        [-0.457643227915849, 51.4475623538145],
        [-0.457481828380707, 51.448892884521044],
        [-0.457482357353671, 51.44909072134687],
        [-0.457708488125047, 51.44921329336563],
        [-0.457921173429408, 51.44922238554621],
        [-0.460821365193885, 51.44904108398228],
        [-0.461502266822963, 51.448992470423924],
        [-0.461379013864459, 51.45150329078288],
        [-0.461340529412119, 51.452391220913285],
        [-0.459858905374522, 51.452239581603074],
        [-0.459559271407517, 51.45267536675561],
        [-0.459314694878242, 51.45271531599663],
        [-0.459086899923453, 51.45341102098275],
        [-0.459017994357053, 51.453875914372176],
        [-0.458876087215363, 51.456038485423406],
        [-0.458660936760938, 51.45631531644914],
        [-0.459722866759869, 51.45679507019277],
        [-0.459855126315046, 51.456842668048715],
        [-0.461170428383389, 51.45719355029183],
        [-0.461299250824336, 51.457215023864194],
        [-0.466658662286153, 51.45784185332733],
        [-0.466780626655816, 51.457853339696385],
        [-0.468992137598016, 51.457921802946395],
        [-0.469607569149468, 51.45798379069698],
        [-0.473540290968808, 51.4586231473614],
        [-0.473580247597081, 51.45863355899038],
        [-0.475166971879235, 51.45961277674149],
        [-0.475896869595082, 51.46008536645622],
        [-0.476312723079708, 51.46060872367479],
        [-0.476318239093652, 51.46061598913897],
        [-0.476160355026893, 51.46064541021303],
        [-0.475915599810642, 51.460689887976244],
        [-0.476120230320407, 51.46094253163852],
        [-0.47613845674908, 51.460957156082884],
        [-0.477052016882454, 51.46131882298095],
        [-0.477140689487458, 51.46133616066171],
        [-0.478060326904362, 51.46142903087426],
        [-0.478934964724968, 51.46144667462153],
        [-0.485630783504173, 51.461296846914884],
        [-0.485882143727993, 51.461313581299386],
        [-0.488818178844179, 51.461810060327245],
        [-0.488828191853156, 51.4618119878159],
        [-0.489595206400019, 51.461776010023634],
        [-0.489629473231199, 51.46178454441068],
        [-0.490317220080349, 51.46231854663979],
        [-0.490329962835261, 51.46232500525286],
        [-0.491979949611222, 51.462840808716],
        [-0.492228998001312, 51.4629717008239],
        [-0.49262291514367, 51.46298755601364],
        [-0.492873351907567, 51.46298897670951],
        [-0.493717383810853, 51.46271297043968],
        [-0.493881186659018, 51.46272226828335],
        [-0.494330069052558, 51.46338626300703],
        [-0.494558044288082, 51.46363287904151],
        [-0.497052855684952, 51.46573578767982],
        [-0.497005077759849, 51.46587545370714],
        [-0.498894198929373, 51.4666999583298],
        [-0.499394212585638, 51.4668619231675],
        [-0.503174024737093, 51.467634104322684],
        [-0.50329576044479, 51.46765364256739],
        [-0.505405226063375, 51.4677767644546],
        [-0.505475683740277, 51.4677794608972],
        [-0.506485965541844, 51.467659248097064],
        [-0.50651512917837, 51.46764792967987],
        [-0.507169781998254, 51.467087059702045],
        [-0.507336591146643, 51.46691653302821],
        [-0.50849380076756, 51.46705804759581],
        [-0.508800711218007, 51.467094322778685],
        [-0.509516198487405, 51.46736059592225],
        [-0.510296146839775, 51.46750449055312],
        [-0.51036362881799, 51.46795225970023],
        [-0.510375068656275, 51.46808728787867],
        [-0.510209562991974, 51.46857166280203],
        [-0.510172959254896, 51.468767227497565],
        [-0.509720549769246, 51.469175119571744],
        [-0.509689361079217, 51.46920439742704],
        [-0.508758854756598, 51.46934993135857],
        [-0.508622844073164, 51.469414743863446],
        [-0.507584718502873, 51.47021083355081],
        [-0.50745684217829, 51.47033509668923],
        [-0.506080770909577, 51.47226348404823],
        [-0.505961462604571, 51.4724777765912],
        [-0.505209222350865, 51.47425943409635],
        [-0.505154380485517, 51.47443947797588],
        [-0.504583240292098, 51.47724225386513],
        [-0.504535265873026, 51.47743227636824],
        [-0.504292848350587, 51.47775560101812],
        [-0.504244813342542, 51.47794742105848],
        [-0.504244203446509, 51.478758508014955],
        [-0.504207506367758, 51.47895586793056],
        [-0.503739198937046, 51.48002086252671],
        [-0.503514086758734, 51.48051885457952],
        [-0.502278933225597, 51.482483164689675],
        [-0.501974331228514, 51.48285694573364],
        [-0.499299954865608, 51.4854880359527],
        [-0.499102341556957, 51.48567254440578],
        [-0.498936897633102, 51.48566683014836],
        [-0.498917857284595, 51.485676477843896],
        [-0.498984079416542, 51.48589673448353],
        [-0.49898049176113, 51.48591826978704],
        [-0.498737136802046, 51.486048239142505],
        [-0.498718857020663, 51.486078578544415],
        [-0.49908228077444, 51.486239693912154],
        [-0.499091856902332, 51.48625510316003],
        [-0.49897990991102, 51.48668169795521],
        [-0.499015984555349, 51.4867235236491],
        [-0.499660759121059, 51.48678212995926],
        [-0.499695099768728, 51.486832925430846],
        [-0.499567862786295, 51.48693560691219],
        [-0.499555253521098, 51.48696871663628],
        [-0.499648746606132, 51.487192019371015],
        [-0.499613715500842, 51.48725002034553],
        [-0.499051610522778, 51.48783181530658],
        [-0.499043585460265, 51.48785689068603],
        [-0.49923260886675, 51.488022067925904],
        [-0.499237925194079, 51.488035624211996],
        [-0.499197773088339, 51.48855665635726],
        [-0.499188367231808, 51.48857991564054],
        [-0.498882249236247, 51.4884276271814],
        [-0.498847665573078, 51.488428083753675],
        [-0.49854922465213, 51.48861219989867],
        [-0.498524748704046, 51.48861188655692],
        [-0.498347302590696, 51.4884450579886],
        [-0.49832685072164, 51.488453788299964],
        [-0.497997367414776, 51.488881193442296],
        [-0.498018720254913, 51.48893272227599],
        [-0.498357177586862, 51.4889775209833],
        [-0.498401574334052, 51.48898528314659],
        [-0.498658462599001, 51.489233158886954],
        [-0.498648938231796, 51.48926001347755],
        [-0.497489663005853, 51.489822465248096],
        [-0.497401295360246, 51.48988158069597],
        [-0.497392627006891, 51.48988236885735],
        [-0.497057098270539, 51.48970452079241],
        [-0.496748905695296, 51.489790492757194],
        [-0.496669974141653, 51.48982544973854],
        [-0.496445705106167, 51.490031193263135],
        [-0.496447845546797, 51.490053701131565],
        [-0.496790265585689, 51.49015340736692],
        [-0.496965094712368, 51.49018082605931],
        [-0.496857213873733, 51.49039525558436],
        [-0.496780768039907, 51.4904859959562],
        [-0.496041924434766, 51.490526880163486],
        [-0.496005426135413, 51.49054169882687],
        [-0.495568687539024, 51.49107562779834],
        [-0.495472287346539, 51.49115981684686],
        [-0.495023766187562, 51.491263766887435],
        [-0.494961546547736, 51.491316022294676],
        [-0.494921887119146, 51.49164552603625],
        [-0.494936482397686, 51.49168348044617],
        [-0.495367984291644, 51.49200913811405],
        [-0.495368240554348, 51.49204511007991],
        [-0.494937310855026, 51.49240196545759],
        [-0.494909213172458, 51.4924240853188],
        [-0.494849710917274, 51.492656218921965],
        [-0.494814413597426, 51.49267824636689],
        [-0.4927865248234, 51.49275561415706],
        [-0.492744768061248, 51.49275507754786],
        [-0.492368075230623, 51.492951660692974],
        [-0.492239970867787, 51.49299227714758],
        [-0.491552800829805, 51.49303739439078],
        [-0.491503518012996, 51.49304665193553],
        [-0.491100056732845, 51.493486574597334],
        [-0.490952994488798, 51.49362136356069],
        [-0.490482424836307, 51.49382482576933],
        [-0.490455585919451, 51.493852356075735],
        [-0.490491970221626, 51.494102806713634],
        [-0.490485082347306, 51.494136888316014],
        [-0.490273753588521, 51.49425466338763],
        [-0.490258701004187, 51.49427425240714],
        [-0.489995231943225, 51.49483646827235],
        [-0.489938078374198, 51.49490946824734],
        [-0.489575279987462, 51.49512060885011],
        [-0.489552106063988, 51.49516796892218],
        [-0.489698547849312, 51.49540095348032],
        [-0.48970047722367, 51.495429753268226],
        [-0.488692996316757, 51.495967995957066],
        [-0.488683821332074, 51.495984063641],
        [-0.488771558336224, 51.4963367879647],
        [-0.488781218932033, 51.49643672551715],
        [-0.488606029719164, 51.49676807765147],
        [-0.488621615377112, 51.496819533848836],
        [-0.489094085931127, 51.49738763154499],
        [-0.489133247805487, 51.497423205462546],
        [-0.489488413132139, 51.49757435225182],
        [-0.48949046128353, 51.49759955669617],
        [-0.489341497313985, 51.497660583373616],
        [-0.489306252887144, 51.49768081142095],
        [-0.489284288624387, 51.49795299117995],
        [-0.489259732284108, 51.49799853494214],
        [-0.488852238134106, 51.4985148312974],
        [-0.488855696308489, 51.49854095313331],
        [-0.489550698759507, 51.49861015270337],
        [-0.489592163703408, 51.49861967883238],
        [-0.489782559981363, 51.49891797269677],
        [-0.489763704509268, 51.498965388392705],
        [-0.488913463521171, 51.499756538903576],
        [-0.488880711048012, 51.49978848874222],
        [-0.488800213407311, 51.500175013922956],
        [-0.488764639765761, 51.50020512894839],
        [-0.488302067857415, 51.50042577071224],
        [-0.48827014715284, 51.500432553041705],
        [-0.488034018175874, 51.50029732466743],
        [-0.48800113330071, 51.50028970703174],
        [-0.487528666133802, 51.50033037490985],
        [-0.48747763697347, 51.50034860043868],
        [-0.487319776304966, 51.5005039275826],
        [-0.487309826196955, 51.50054336478614],
        [-0.487341894769128, 51.500967309303],
        [-0.487312705044627, 51.500978622675056],
        [-0.486212235474465, 51.500883495826855],
        [-0.486186889469771, 51.500909245990954],
        [-0.486268448306374, 51.50179602678408],
        [-0.486260324293391, 51.5018237976492],
        [-0.485193214852341, 51.5025905412105],
        [-0.485168224934098, 51.502605505156616],
        [-0.485140591449237, 51.50287401397157],
        [-0.485133698128992, 51.50290809516652],
        [-0.484869075696433, 51.50311059784734],
        [-0.484824378950399, 51.50315498130303],
        [-0.484944470546445, 51.5033570577607],
        [-0.484933643841113, 51.50337939832513],
        [-0.484691455865851, 51.503557012323526],
        [-0.484679248388965, 51.50357753659432],
        [-0.485138201358893, 51.503858624928235],
        [-0.485161701809912, 51.50388860256266],
        [-0.485180076147227, 51.504073179175286],
        [-0.485159982057387, 51.50411428361522],
        [-0.484862713281868, 51.504345139576635],
        [-0.484857229948975, 51.504380138178355],
        [-0.485253635019047, 51.50467930156778],
        [-0.485064778841634, 51.50507341687628],
        [-0.484802737002591, 51.50519772093151],
        [-0.484786118857174, 51.50522088588336],
        [-0.484716373639087, 51.50558596584411],
        [-0.484667681372104, 51.50562040624388],
        [-0.483969201330435, 51.50560958237139],
        [-0.483941358597206, 51.50562360997106],
        [-0.483698375066947, 51.50643246129056],
        [-0.483680226082128, 51.50645830394497],
        [-0.483210655142545, 51.506626680812516],
        [-0.483194155039651, 51.50664625020218],
        [-0.483207457575385, 51.50720033924018],
        [-0.483232189847594, 51.507236627683085],
        [-0.483978830486228, 51.50757719126151],
        [-0.483996481139995, 51.507609791149335],
        [-0.483989194004278, 51.50778594325913],
        [-0.483973776188104, 51.50781631733185],
        [-0.483609740174637, 51.5078871459988],
        [-0.483527975987751, 51.507919359959786],
        [-0.483500543676449, 51.50805119002826],
        [-0.483532120376552, 51.508098357474964],
        [-0.484029826476286, 51.508254959777446],
        [-0.484161066658953, 51.50833848444137],
        [-0.484261953916934, 51.508641924572984],
        [-0.484304667151972, 51.50870092550669],
        [-0.48551521643956, 51.50961038128599],
        [-0.485837463214236, 51.509800678910416],
        [-0.485505600168716, 51.50981347979588],
        [-0.485556183730705, 51.510026347678256],
        [-0.485570031705073, 51.51008677388551],
        [-0.485724992512763, 51.510193982572495],
        [-0.485744830793628, 51.51020413003205],
        [-0.486076288510672, 51.51011668836306],
        [-0.486298304267671, 51.51015732054262],
        [-0.486402786205415, 51.51048328542243],
        [-0.486816580494152, 51.51047693418641],
        [-0.487354327503894, 51.51086154004795],
        [-0.488676616301663, 51.511315602036476],
        [-0.488760414450261, 51.51135265023398],
        [-0.489753535945511, 51.5114769430782],
        [-0.489806698883823, 51.51152528589342],
        [-0.489990462299173, 51.51202581643709],
        [-0.489995227971965, 51.512099613378325],
        [-0.489728519803852, 51.51245136964733],
        [-0.48973332653832, 51.51265465401638],
        [-0.489937227681377, 51.5133307906086],
        [-0.489941725884257, 51.5134126770228],
        [-0.489570628584659, 51.514044543171174],
        [-0.489581112586981, 51.514076150662646],
        [-0.490467079118742, 51.51487166957505],
        [-0.490594904360378, 51.51497222792765],
        [-0.491157893310879, 51.51520607249985],
        [-0.491219675891961, 51.515255424699205],
        [-0.491750302063274, 51.51585842705307],
        [-0.491812428417501, 51.51594105426032],
        [-0.49232302000325, 51.517020379557955],
        [-0.492350022828292, 51.517075578628926],
        [-0.491635620488626, 51.51893765852101],
        [-0.4916107875253, 51.51899129202922],
        [-0.490685592428499, 51.51964121340201],
        [-0.49059421666492, 51.51970208347523],
        [-0.490418339078681, 51.520008250612705],
        [-0.490387115877617, 51.52016790881165],
        [-0.490406924223321, 51.52061507273955],
        [-0.490449537455663, 51.52067766679772],
        [-0.491186009431429, 51.521203289522056],
        [-0.491193629555332, 51.521278022217835],
        [-0.490578329016921, 51.522362651015044],
        [-0.490542708290099, 51.52248088882088],
        [-0.490604730949053, 51.5232208398911],
        [-0.490607374065488, 51.523315291253176],
        [-0.490290679192685, 51.52447929371123],
        [-0.490277144914461, 51.52458342822323],
        [-0.490783885708543, 51.52565011991758],
        [-0.490834569877228, 51.52577396403956],
        [-0.490878523335923, 51.52623222859966],
        [-0.490839869159652, 51.52644214708154],
        [-0.490659152601442, 51.526806700924354],
        [-0.490618938961789, 51.52684574890567],
        [-0.490037705916722, 51.527072064809644],
        [-0.489942169707962, 51.52712748555526],
        [-0.489573758661189, 51.52750041226558],
        [-0.489476168669369, 51.52761785184866],
        [-0.488969954607361, 51.52880009186737],
        [-0.488991319430981, 51.529069231493644],
        [-0.489845904546245, 51.53029866709559],
        [-0.489907703318577, 51.53043524354519],
        [-0.490134285521404, 51.5320405551651],
        [-0.490149186374277, 51.532069521699476],
        [-0.490426430385231, 51.53218728910852],
        [-0.490457421750586, 51.53220926893845],
        [-0.490463360206123, 51.53246562065654],
        [-0.490494411233599, 51.53248580281918],
        [-0.490837283688001, 51.53249381056959],
        [-0.490858276636352, 51.53251296404487],
        [-0.491171731203544, 51.53314914123933],
        [-0.491209513276496, 51.53327102065989],
        [-0.491110532205037, 51.5336483157361],
        [-0.491045886853427, 51.53372841336071],
        [-0.490502213768875, 51.534124266519434],
        [-0.490502614391698, 51.534155744071306],
        [-0.491185546454673, 51.534301208649524],
        [-0.491228069191796, 51.53432333655196],
        [-0.491542609959287, 51.53483993137272],
        [-0.491616528475947, 51.53491551623298],
        [-0.493266566175899, 51.53577118557215],
        [-0.493349522327289, 51.535835195628415],
        [-0.493815247265967, 51.53627189718767],
        [-0.493958238905515, 51.536439187499546],
        [-0.494444141876998, 51.53735722311787],
        [-0.494499184069535, 51.53743705992232],
        [-0.495510470966205, 51.538427473380196],
        [-0.495508089183862, 51.53854344096406],
        [-0.494789472515908, 51.53912770299674],
        [-0.49467562994535, 51.53925662797539],
        [-0.49389906351192, 51.54028525014713],
        [-0.493810015879056, 51.540405500454625],
        [-0.493631147605171, 51.540975101841916],
        [-0.493605693979206, 51.541003549778665],
        [-0.491827653029587, 51.54157148986315],
        [-0.49180643309399, 51.54160268946249],
        [-0.492124822417524, 51.54239718722377],
        [-0.492118864142783, 51.54244656720439],
        [-0.491526977892433, 51.543948732836064],
        [-0.49150642536359, 51.54400332041178],
        [-0.490812898969729, 51.544958355215776],
        [-0.490801351158228, 51.54500226796626],
        [-0.490921472118402, 51.5451638722455],
        [-0.490976919148958, 51.54518796479192],
        [-0.491558707689765, 51.545300653009534],
        [-0.491585235140924, 51.545327071112574],
        [-0.491413377340353, 51.546075701718294],
        [-0.491375792341116, 51.54612197738836],
        [-0.491225511614123, 51.54621805896506],
        [-0.491195000718769, 51.54622486031815],
        [-0.490124152079121, 51.546116668801446],
        [-0.489998437941923, 51.54612404317396],
        [-0.489497656667258, 51.54626506803852],
        [-0.489394543823399, 51.54633028213347],
        [-0.489261123422869, 51.546483228481804],
        [-0.489256632775367, 51.546531727988],
        [-0.489543051377063, 51.54711540551322],
        [-0.489535171767946, 51.54717914796215],
        [-0.488236167599511, 51.54738362472087],
        [-0.488169775873719, 51.547428629023734],
        [-0.487748756122414, 51.54807782836902],
        [-0.487692476706252, 51.54820928685076],
        [-0.487499864353847, 51.549016092859205],
        [-0.487407790766341, 51.549183058188],
        [-0.486742642040753, 51.54992981812473],
        [-0.486618080637643, 51.55003251998891],
        [-0.485689274358437, 51.550596031358026],
        [-0.48553088366646, 51.55067491605653],
        [-0.484896991367538, 51.55086995440383],
        [-0.484792987117043, 51.550918067996136],
        [-0.484295510143076, 51.55143498309742],
        [-0.484248747325322, 51.55145326245696],
        [-0.482798399100455, 51.55147678178645],
        [-0.482685890375271, 51.55152028751462],
        [-0.479759261487663, 51.55403256661142],
        [-0.478903116603182, 51.554834357300265],
        [-0.478513660873387, 51.55466115615195],
        [-0.478058835396507, 51.55493401303816],
        [-0.477768932063189, 51.554846626232944],
        [-0.477739465217709, 51.55486512738142],
        [-0.477350901835163, 51.55527012570134],
        [-0.477339848478754, 51.55529875698168],
        [-0.477279463317296, 51.55611355643961],
        [-0.477209632831358, 51.556519992151365],
        [-0.476857520558798, 51.557042359046584],
        [-0.476816097026185, 51.55711645574979],
        [-0.476892978794854, 51.55766507211571],
        [-0.47688429798523, 51.557709020697736],
        [-0.476629440829157, 51.55799705632411],
        [-0.476616824267374, 51.558029264073305],
        [-0.476998410453821, 51.55869783342329],
        [-0.477003908951376, 51.55874915970287],
        [-0.476641621651117, 51.5591868681523],
        [-0.476654269613742, 51.55924008567331],
        [-0.477357851837666, 51.55990024418108],
        [-0.477519997802145, 51.56027192277269],
        [-0.479187452933256, 51.56045180472626],
        [-0.479318046848132, 51.560472380463516],
        [-0.480401992967553, 51.56080294301042],
        [-0.480442070181057, 51.560812454051444],
        [-0.481112634059045, 51.56073391187563],
        [-0.481149228447171, 51.56076136176464],
        [-0.4812179608084, 51.560993347883844],
        [-0.481208410330056, 51.561020200531296],
        [-0.480737079805707, 51.56165703352106],
        [-0.48073495318467, 51.561720849780095],
        [-0.481584946244993, 51.562406256971094],
        [-0.482814798162178, 51.5628196132913],
        [-0.482730578170561, 51.56318270365664],
        [-0.482577829360663, 51.56356738806989],
        [-0.482284186611034, 51.56385043814685],
        [-0.482266228508518, 51.56391315044871],
        [-0.483178433344138, 51.5648987862496],
        [-0.483219730901313, 51.5650018296803],
        [-0.483241047663043, 51.565098320402285],
        [-0.483242616102024, 51.56513790580741],
        [-0.483038037768943, 51.56512896712364],
        [-0.482827926598094, 51.56550301899266],
        [-0.482599823301388, 51.56572397256229],
        [-0.483469085433762, 51.56639702541133],
        [-0.483535792685656, 51.56643025887127],
        [-0.484733069485304, 51.566785624019175],
        [-0.484771658952565, 51.56684007469346],
        [-0.484386188620718, 51.56814883881653],
        [-0.484303471983301, 51.56833660403638],
        [-0.484581998049172, 51.568769122598205],
        [-0.484584621502878, 51.56882041126909],
        [-0.484138587481965, 51.570170654949344],
        [-0.484117445645553, 51.570242318416916],
        [-0.484024310883639, 51.571046804638414],
        [-0.484033861146989, 51.57119349868431],
        [-0.485035504124534, 51.57222883039639],
        [-0.485082304624233, 51.57229687498388],
        [-0.485550063748921, 51.5738099815093],
        [-0.485554877669136, 51.57383881822299],
        [-0.48463521464767, 51.57424238076405],
        [-0.484562800657457, 51.57429359972138],
        [-0.484015125187498, 51.57505354960849],
        [-0.484047382526527, 51.575125003544734],
        [-0.484204224106694, 51.57531226572589],
        [-0.484269592021396, 51.575342783740695],
        [-0.485014634603483, 51.57533082232369],
        [-0.485189692237287, 51.575360957256606],
        [-0.486053020787022, 51.57578483228104],
        [-0.486191331426482, 51.575835173422135],
        [-0.487376408818163, 51.57608784299111],
        [-0.487620006428866, 51.57618360039725],
        [-0.488127552547633, 51.57650126459668],
        [-0.488157856754614, 51.57654481682111],
        [-0.488141879683145, 51.576939362212194],
        [-0.488202179420674, 51.57699229285443],
        [-0.488881736910026, 51.57721505503401],
        [-0.488956433613812, 51.57726906984614],
        [-0.489499522630519, 51.57821303233544],
        [-0.489501645390262, 51.57827960083329],
        [-0.488585964371499, 51.579518607087],
        [-0.488574058571509, 51.57961646711828],
        [-0.488721845396561, 51.58020824858291],
        [-0.488934919980667, 51.58070285700849],
        [-0.489452102502482, 51.58151520160344],
        [-0.489624065362535, 51.58177009108738],
        [-0.490854673302063, 51.58270131045843],
        [-0.491058526112717, 51.58282172711113],
        [-0.492928095259334, 51.58359388495721],
        [-0.493218404354274, 51.583719004663934],
        [-0.494638033591337, 51.58452492289612],
        [-0.494723162688213, 51.58461323742202],
        [-0.495119854166736, 51.58531970292666],
        [-0.495133812544727, 51.58542149188897],
        [-0.494953923485512, 51.586497330413046],
        [-0.494962479129923, 51.58654419869323],
        [-0.495285557532386, 51.586988950466015],
        [-0.495356934604978, 51.58710046746188],
        [-0.495634229460294, 51.58788273169868],
        [-0.495762292194754, 51.58811366972118],
        [-0.496485018002393, 51.58856533726315],
        [-0.496527504448116, 51.588590159944914],
        [-0.497113481320073, 51.589205525191],
        [-0.497230417603776, 51.58933650754033],
        [-0.497590145124087, 51.58989681970983],
        [-0.497688869698299, 51.59009860548152],
        [-0.497872832118853, 51.590779857743854],
        [-0.497933340029701, 51.590958674142115],
        [-0.498385225253332, 51.591001323078956],
        [-0.498551169795444, 51.59100344581526],
        [-0.498813878688911, 51.59117945272644],
        [-0.498842996659806, 51.59121579320422],
        [-0.498597925396883, 51.59177466030014],
        [-0.49864145595192, 51.59189930699487],
        [-0.499287597007479, 51.59196152166749],
        [-0.499370700230619, 51.59198056813684],
        [-0.499563212686754, 51.592140389449895],
        [-0.499576310418178, 51.59218102096732],
        [-0.499441184174601, 51.59255785777747],
        [-0.499408015547095, 51.5926005954678],
        [-0.49884941851206, 51.59299179977583],
        [-0.498803400826685, 51.59307393787028],
        [-0.498590462065452, 51.594146660115406],
        [-0.498589400387352, 51.59444158477901],
        [-0.499384491751522, 51.595242150043504],
        [-0.499422589091399, 51.595312774793555],
        [-0.499515982539521, 51.59593981299878],
        [-0.4995259735276, 51.596381448694814],
        [-0.500521812476386, 51.598409283721644],
        [-0.500565827889247, 51.59851954848997],
        [-0.500562205394498, 51.59941870332316],
        [-0.500579710190528, 51.59954481505634],
        [-0.500902587192269, 51.60013162091322],
        [-0.500902580297287, 51.60017568166935],
        [-0.500306344865193, 51.60126868802996],
        [-0.500252408957755, 51.6012841845962],
        [-0.499336140474908, 51.60139656491185],
        [-0.499215138137224, 51.60138782442828],
        [-0.498346548415002, 51.600973874791876],
        [-0.498216215115177, 51.60094163468397],
        [-0.497733309225376, 51.60087341103095],
        [-0.497658108890676, 51.60087694466925],
        [-0.497301016882762, 51.601021641556315],
        [-0.497053506674177, 51.60112727632112],
        [-0.496707401172518, 51.601376419402584],
        [-0.496687569482607, 51.60140853668152],
        [-0.49675219728112, 51.6016377613596],
        [-0.496750980437755, 51.60167461302153],
        [-0.496366201228197, 51.60235127956256],
        [-0.496334406383502, 51.60239583236276],
        [-0.49638040005093, 51.602577160877395],
        [-0.49642083257656, 51.60262084039333],
        [-0.497160795003866, 51.603169836057276],
        [-0.497185173561409, 51.60321870498551],
        [-0.497454345996165, 51.60411955280041],
        [-0.497474404195439, 51.604255588822554],
        [-0.49727371152055, 51.60486717401972],
        [-0.497284161133686, 51.604900578200805],
        [-0.497866991499099, 51.60605541698559],
        [-0.497964920386429, 51.60628236925929],
        [-0.498544887629822, 51.60818170524273],
        [-0.498591705336814, 51.60829470399663],
        [-0.499256097465795, 51.60886160209876],
        [-0.499252549648559, 51.608925399931984],
        [-0.498359491687853, 51.609423826657675],
        [-0.498337591174503, 51.6094748009192],
        [-0.49898224302819, 51.61011518227189],
        [-0.498997114765177, 51.61014594520049],
        [-0.498841707596308, 51.6105665819956],
        [-0.498827786857636, 51.61063833996367],
        [-0.498956187968862, 51.61103652871987],
        [-0.498966957251614, 51.6111041063742],
        [-0.498535631904489, 51.61152660986122],
        [-0.498500974932749, 51.61157022740005],
        [-0.498577672230324, 51.61209094556293],
        [-0.498571443363382, 51.61214841466549],
        [-0.497962787383883, 51.613129748479714],
        [-0.497914531906186, 51.61323523661742],
        [-0.497936421571855, 51.61414730469977],
        [-0.497907200458095, 51.6142449435526],
        [-0.497701890184509, 51.614645157819986],
        [-0.497670740644602, 51.61466993680597],
        [-0.497087650508266, 51.61487558426331],
        [-0.497064717688408, 51.61491395625956],
        [-0.496881762365467, 51.61542415755659],
        [-0.496711284928354, 51.61586258239335],
        [-0.496135531422471, 51.616763399949356],
        [-0.496106286825572, 51.61681787648871],
        [-0.496081741783446, 51.61725457276208],
        [-0.496057945304615, 51.61731901026163],
        [-0.495410452801574, 51.61868469020984],
        [-0.495409833144606, 51.61879078772105],
        [-0.495953107231044, 51.619572857716605],
        [-0.496031499521417, 51.61964849539534],
        [-0.496687267215015, 51.61999948827893],
        [-0.496722385000324, 51.62002961146816],
        [-0.496826512938296, 51.620419398347096],
        [-0.49682970496474, 51.62049766947148],
        [-0.499117050746463, 51.62104756701378],
        [-0.499281236978876, 51.62110631518812],
        [-0.500088251713261, 51.62195378069422],
        [-0.50017557750144, 51.62206549755949],
        [-0.500065648102811, 51.62259551916684],
        [-0.500046296668347, 51.62270047808991],
        [-0.500116165724637, 51.623516942940846],
        [-0.500045938656058, 51.62367520379277],
        [-0.499819424852306, 51.6240167025579],
        [-0.49976554209944, 51.62407356274025],
        [-0.498447308959614, 51.62470773101127],
        [-0.498362534502375, 51.624781280249096],
        [-0.498396154204307, 51.62520703066119],
        [-0.498392108845241, 51.62524204762955],
        [-0.497891155770926, 51.62575627532298],
        [-0.497840888419714, 51.62583476161909],
        [-0.497692948640498, 51.62642094400629],
        [-0.497654398668226, 51.626669528449014],
        [-0.500251673806516, 51.62865219091174],
        [-0.500289066526281, 51.628701225140006],
        [-0.500328108491979, 51.62891932942458],
        [-0.500289602802171, 51.628991672567565],
        [-0.499765297440234, 51.62929339933769],
        [-0.499732220207994, 51.629332541374744],
        [-0.499651192799378, 51.62994925424919],
        [-0.499617038741814, 51.63006481421516],
        [-0.499394385755337, 51.630375788622956],
        [-0.499282686147466, 51.63047686949953],
        [-0.497645049657242, 51.631457633138034],
        [-0.497424458098585, 51.63157440372389],
        [-0.496714972211213, 51.63175055723198],
        [-0.496603435231827, 51.631759020396835],
        [-0.496154571228927, 51.63170021994137],
        [-0.49608050873941, 51.63166779949376],
        [-0.495629228320078, 51.63120162987269],
        [-0.495555434623956, 51.63116111975671],
        [-0.49416917456367, 51.63104893456294],
        [-0.494124878594356, 51.631033979339726],
        [-0.493629969616868, 51.63057713349889],
        [-0.493568581496572, 51.63055476520962],
        [-0.493193508779985, 51.630667747495686],
        [-0.493137123441984, 51.630668822307605],
        [-0.492421299213508, 51.630513064748],
        [-0.492361995769863, 51.630515000917946],
        [-0.491874729719175, 51.63065621193764],
        [-0.491557630865384, 51.63076363922692],
        [-0.489107254023039, 51.62767216461426],
        [-0.489047812901284, 51.627591371099385],
        [-0.488147109868151, 51.62691437050924],
        [-0.487879189725248, 51.626759855154816],
        [-0.48391827337129, 51.624835747346964],
        [-0.483737514404578, 51.62475428369347],
        [-0.482690149367439, 51.62445031225025],
        [-0.482474467244399, 51.62437648811204],
        [-0.480817852604541, 51.62358535067096],
        [-0.480734222774272, 51.623623833346514],
        [-0.478821109749133, 51.62259915294543],
        [-0.478349825226462, 51.622393423710975],
        [-0.476927240999866, 51.6219946168439],
        [-0.47671233242946, 51.62189831201894],
        [-0.475781395538378, 51.62114079340268],
        [-0.475633819557782, 51.62097522302783],
        [-0.472941386722051, 51.619247040678076],
        [-0.472969458029312, 51.61918536092584],
        [-0.471107320308569, 51.618244840997136],
        [-0.470751894701851, 51.618032496586395],
        [-0.469190510084185, 51.61682790058742],
        [-0.468926077481562, 51.61670216104081],
        [-0.463901939342664, 51.614575562766014],
        [-0.463261570847554, 51.61433428904313],
        [-0.45739943592181, 51.61236009190826],
        [-0.457151909754547, 51.612291197407295],
        [-0.455577595737726, 51.61263287661888],
        [-0.455368834759941, 51.612698469619865],
        [-0.449191414714649, 51.615160879065854],
        [-0.448899918924193, 51.61532248173694],
        [-0.448200361010148, 51.61584466667035],
        [-0.44813137353553, 51.61591928790702],
        [-0.446967094594641, 51.61795317752213],
        [-0.446498770062931, 51.61868163087471],
        [-0.445628455783567, 51.619590896130234],
        [-0.445569626281502, 51.61962158938165],
        [-0.443369699250614, 51.619492630899806],
        [-0.443277015275766, 51.619499494853734],
        [-0.442515972289762, 51.619577523527376],
        [-0.442143206454252, 51.619622034148996],
        [-0.440707194814784, 51.620048077035236],
        [-0.440596659074585, 51.620069988252524],
        [-0.438462040139685, 51.619931913973396],
        [-0.438303584369788, 51.61991901592609],
        [-0.436211074026183, 51.61927071268093],
        [-0.436122706679148, 51.61919400247689],
        [-0.432923438267268, 51.61838791910038],
        [-0.432751573120332, 51.61834516077621],
        [-0.428573475742458, 51.61777856420262],
        [-0.428417064227233, 51.61774859521041],
        [-0.426612018722795, 51.61702303856194],
        [-0.426502913685677, 51.61700359222623],
        [-0.421176507772558, 51.616941975707824],
        [-0.420924160668536, 51.61692958984853],
        [-0.417408394685788, 51.61655583811889],
        [-0.41697306456194, 51.61648882300532],
        [-0.416321195693745, 51.61633525929005],
        [-0.416058550631916, 51.61624539224867],
        [-0.411305976031665, 51.61385852363056],
        [-0.411156149025401, 51.613806140401415],
        [-0.405046614172252, 51.61335192422019],
        [-0.40407193024196, 51.61318041769482],
        [-0.401684688712174, 51.61317401813422],
        [-0.40144087264666, 51.61316620242448],
        [-0.399676408330359, 51.613398437848566],
        [-0.399487007175995, 51.613403948751696],
        [-0.397305952035009, 51.614104351582824],
        [-0.396996350088661, 51.61420083600565],
        [-0.393351990923235, 51.61502594897436],
        [-0.392700948830036, 51.6151788951725],
        [-0.386908549318081, 51.61559761201611],
        [-0.386686261153127, 51.61563412277722],
        [-0.383959730033901, 51.616351959567275],
        [-0.383525356959298, 51.616503341306974],
        [-0.382048361026361, 51.61741907319424],
        [-0.382013359353998, 51.617428482130315],
        [-0.380974473679131, 51.61747800393659],
        [-0.380469479541698, 51.61746204664999],
        [-0.378284780612244, 51.6178050612056],
        [-0.377587154718639, 51.617803515479835],
        [-0.376043197082939, 51.6181625349776],
        [-0.375861859190362, 51.618184305181956],
        [-0.372491862540954, 51.61911328012306],
        [-0.371635473168681, 51.619349587422214],
        [-0.368901663970086, 51.62041856679606],
        [-0.368197125829191, 51.62064886584704],
        [-0.366786641650312, 51.62082618027836],
        [-0.366631979967793, 51.62086898923196],
        [-0.364740963788914, 51.62183539475275],
        [-0.363454685681347, 51.6225341433506],
        [-0.36261840077617, 51.62353319659679],
        [-0.362578282201487, 51.623564109476746],
        [-0.362399687304586, 51.62354902960204],
        [-0.361815445912437, 51.62372611660725],
        [-0.361092524726454, 51.62446417114531],
        [-0.360926674370026, 51.62461652022122],
        [-0.3601043687199, 51.62510499895342],
        [-0.359790527529318, 51.625234597434314],
        [-0.357830018303313, 51.62543559218848],
        [-0.357550289577573, 51.625460454107454],
        [-0.355290074903362, 51.625958449376725],
        [-0.355225986142602, 51.62597283817467],
        [-0.354419158063658, 51.625991206579165],
        [-0.354143788775396, 51.62601522229244],
        [-0.349560066826754, 51.6268392989119],
        [-0.349245579525364, 51.62690591545131],
        [-0.34566063790779, 51.62818988815128],
        [-0.345129731541988, 51.62832717954171],
        [-0.339876565176314, 51.63073664528267],
        [-0.339834948353033, 51.630807993841714],
        [-0.338857037537592, 51.63008828066356],
        [-0.338794677965871, 51.630055026730304],
        [-0.338836951901198, 51.630005268927356],
        [-0.338848308664218, 51.62993169416616],
        [-0.33855686301405, 51.62968298455545],
        [-0.338307495732517, 51.62946903981169],
        [-0.336451202794795, 51.63096062484608],
        [-0.336155132727413, 51.63123338717696],
        [-0.333286400055312, 51.63325999017579],
        [-0.333112912461021, 51.633380719529214],
        [-0.333071441871803, 51.63372363005464],
        [-0.332995210215459, 51.63383225173326],
        [-0.332874915647084, 51.63380266819598],
        [-0.332607051288317, 51.63373861735775],
        [-0.330850514219194, 51.63486465244863],
        [-0.330006797374923, 51.63533193588723],
        [-0.326798252790414, 51.63660360473201],
        [-0.326570148541329, 51.636715453293604],
        [-0.320572762769398, 51.637975049253534],
        [-0.319816694545608, 51.63821691186553],
        [-0.319452544276793, 51.63837265978904],
        [-0.31911988428066, 51.63857561648809],
        [-0.31825638877221, 51.63972863293608],
        [-0.318087132636192, 51.63992853168368],
        [-0.316937098137655, 51.64046596868074],
        [-0.316696203328094, 51.640531754992566],
        [-0.3127109726202, 51.63907358117439],
        [-0.31234242367884, 51.63895768129975],
        [-0.305401050596841, 51.63710423894681],
        [-0.305150803305669, 51.636994519646635],
        [-0.304702267528768, 51.63669939632739],
        [-0.304609892371919, 51.63661893160437],
        [-0.304584344989387, 51.63637397614817],
        [-0.304482738231347, 51.636347330940275],
        [-0.305049855754815, 51.63539965291242],
        [-0.305574220880617, 51.63439650302588],
        [-0.305462270890676, 51.63336798317466]
      ]
    ]
  }
}
